<?xml version="1.0" encoding="UTF-8"?>
<gpx xmlns="http://www.topografix.com/GPX/1/1" xmlns:xsi="http://www.w3.org/2001/XMLSchema-instance" xsi:schemaLocation="http://www.topografix.com/GPX/1/1 http://www.topografix.com/GPX/1/1/gpx.xsd" version="1.1" creator="gpx.py -- https://github.com/tkrajina/gpxpy">
  <trk>
    <trkseg>
      <trkpt lat="41.942782" lon="-87.739603">
      </trkpt>
      <trkpt lat="41.938939" lon="-87.739491">
      </trkpt>
      <trkpt lat="41.938879" lon="-87.743881">
      </trkpt>
      <trkpt lat="41.939556" lon="-87.743909">
      </trkpt>
      <trkpt lat="41.939556" lon="-87.743909">
      </trkpt>
      <trkpt lat="41.942524" lon="-87.744004">
      </trkpt>
      <trkpt lat="41.942483" lon="-87.746971">
      </trkpt>
      <trkpt lat="41.918769" lon="-87.746152">
      </trkpt>
      <trkpt lat="41.918751" lon="-87.747471">
      </trkpt>
      <trkpt lat="41.918134" lon="-87.747456">
      </trkpt>
      <trkpt lat="41.918134" lon="-87.747456">
      </trkpt>
      <trkpt lat="41.916914" lon="-87.747376">
      </trkpt>
      <trkpt lat="41.916928" lon="-87.746096">
      </trkpt>
      <trkpt lat="41.913935" lon="-87.746005">
      </trkpt>
      <trkpt lat="41.900976" lon="-87.713328">
      </trkpt>
      <trkpt lat="41.900057" lon="-87.711889">
      </trkpt>
      <trkpt lat="41.900143" lon="-87.711243">
      </trkpt>
      <trkpt lat="41.895625" lon="-87.699899">
      </trkpt>
      <trkpt lat="41.896146" lon="-87.662395">
      </trkpt>
      <trkpt lat="41.897978" lon="-87.662444">
      </trkpt>
      <trkpt lat="41.898021" lon="-87.660058">
      </trkpt>
      <trkpt lat="41.898021" lon="-87.660058">
      </trkpt>
      <trkpt lat="41.896189" lon="-87.659962">
      </trkpt>
      <trkpt lat="41.896405" lon="-87.647675">
      </trkpt>
      <trkpt lat="41.897766" lon="-87.647822">
      </trkpt>
      <trkpt lat="41.903643" lon="-87.648086">
      </trkpt>
      <trkpt lat="41.903768" lon="-87.639563">
      </trkpt>
      <trkpt lat="41.904375" lon="-87.6404">
      </trkpt>
      <trkpt lat="41.904515" lon="-87.64022">
      </trkpt>
      <trkpt lat="41.904149" lon="-87.639718">
      </trkpt>
      <trkpt lat="41.904149" lon="-87.639718">
      </trkpt>
      <trkpt lat="41.904515" lon="-87.64022">
      </trkpt>
      <trkpt lat="41.904375" lon="-87.6404">
      </trkpt>
      <trkpt lat="41.910013" lon="-87.648257">
      </trkpt>
      <trkpt lat="41.925453" lon="-87.648766">
      </trkpt>
      <trkpt lat="41.936111" lon="-87.663682">
      </trkpt>
      <trkpt lat="41.938211" lon="-87.663758">
      </trkpt>
      <trkpt lat="41.938211" lon="-87.663758">
      </trkpt>
      <trkpt lat="41.937029" lon="-87.663716">
      </trkpt>
      <trkpt lat="41.93707" lon="-87.661261">
      </trkpt>
      <trkpt lat="41.936154" lon="-87.661245">
      </trkpt>
      <trkpt lat="41.936197" lon="-87.658837">
      </trkpt>
      <trkpt lat="41.935883" lon="-87.658824">
      </trkpt>
      <trkpt lat="41.935883" lon="-87.658824">
      </trkpt>
      <trkpt lat="41.939838" lon="-87.658974">
      </trkpt>
      <trkpt lat="41.940268" lon="-87.638796">
      </trkpt>
      <trkpt lat="41.939931" lon="-87.638606">
      </trkpt>
      <trkpt lat="41.936955" lon="-87.634194">
      </trkpt>
      <trkpt lat="41.934639" lon="-87.632453">
      </trkpt>
      <trkpt lat="41.928427" lon="-87.632048">
      </trkpt>
      <trkpt lat="41.918735" lon="-87.629189">
      </trkpt>
      <trkpt lat="41.911998" lon="-87.62605">
      </trkpt>
      <trkpt lat="41.904908" lon="-87.624861">
      </trkpt>
      <trkpt lat="41.901978" lon="-87.624179">
      </trkpt>
      <trkpt lat="41.894143" lon="-87.624336">
      </trkpt>
      <trkpt lat="41.894176" lon="-87.62188">
      </trkpt>
      <trkpt lat="41.894176" lon="-87.62188">
      </trkpt>
      <trkpt lat="41.894176" lon="-87.62188">
      </trkpt>
      <trkpt lat="41.894176" lon="-87.62188">
      </trkpt>
      <trkpt lat="41.894214" lon="-87.620307">
      </trkpt>
      <trkpt lat="41.896781" lon="-87.620387">
      </trkpt>
      <trkpt lat="41.89691" lon="-87.616735">
      </trkpt>
      <trkpt lat="41.902893" lon="-87.624048">
      </trkpt>
      <trkpt lat="41.934381" lon="-87.632152">
      </trkpt>
      <trkpt lat="41.950931" lon="-87.644376">
      </trkpt>
      <trkpt lat="41.973046" lon="-87.648738">
      </trkpt>
      <trkpt lat="41.985556" lon="-87.655253">
      </trkpt>
      <trkpt lat="41.997803" lon="-87.655634">
      </trkpt>
      <trkpt lat="41.998196" lon="-87.659646">
      </trkpt>
      <trkpt lat="42.023203" lon="-87.665312">
      </trkpt>
      <trkpt lat="42.027188" lon="-87.670647">
      </trkpt>
      <trkpt lat="42.033884" lon="-87.671915">
      </trkpt>
      <trkpt lat="42.04031" lon="-87.672063">
      </trkpt>
      <trkpt lat="42.040336" lon="-87.674958">
      </trkpt>
      <trkpt lat="42.044876" lon="-87.674669">
      </trkpt>
      <trkpt lat="42.046067" lon="-87.673955">
      </trkpt>
      <trkpt lat="42.050166" lon="-87.674388">
      </trkpt>
      <trkpt lat="42.051106" lon="-87.677291">
      </trkpt>
      <trkpt lat="42.06163" lon="-87.677075">
      </trkpt>
      <trkpt lat="42.061551" lon="-87.674164">
      </trkpt>
      <trkpt lat="42.059078" lon="-87.672861">
      </trkpt>
      <trkpt lat="42.057403" lon="-87.673012">
      </trkpt>
      <trkpt lat="42.056446" lon="-87.673466">
      </trkpt>
      <trkpt lat="42.056446" lon="-87.673466">
      </trkpt>
      <trkpt lat="42.0568" lon="-87.673416">
      </trkpt>
      <trkpt lat="42.057349" lon="-87.673067">
      </trkpt>
      <trkpt lat="42.057403" lon="-87.673012">
      </trkpt>
      <trkpt lat="42.05728" lon="-87.672766">
      </trkpt>
      <trkpt lat="42.057366" lon="-87.672592">
      </trkpt>
      <trkpt lat="42.057705" lon="-87.672638">
      </trkpt>
      <trkpt lat="42.057853" lon="-87.672893">
      </trkpt>
      <trkpt lat="42.059078" lon="-87.672861">
      </trkpt>
      <trkpt lat="42.059127" lon="-87.674721">
      </trkpt>
      <trkpt lat="42.059231" lon="-87.674801">
      </trkpt>
      <trkpt lat="42.060216" lon="-87.674782">
      </trkpt>
      <trkpt lat="42.060385" lon="-87.674675">
      </trkpt>
      <trkpt lat="42.060575" lon="-87.674289">
      </trkpt>
      <trkpt lat="42.060747" lon="-87.674176">
      </trkpt>
      <trkpt lat="42.061551" lon="-87.674164">
      </trkpt>
      <trkpt lat="42.061616" lon="-87.674376">
      </trkpt>
      <trkpt lat="42.061657" lon="-87.679614">
      </trkpt>
      <trkpt lat="42.057045" lon="-87.679677">
      </trkpt>
      <trkpt lat="42.057045" lon="-87.679677">
      </trkpt>
      <trkpt lat="42.05387" lon="-87.679721">
      </trkpt>
      <trkpt lat="42.053841" lon="-87.677209">
      </trkpt>
      <trkpt lat="42.051106" lon="-87.677291">
      </trkpt>
      <trkpt lat="42.050166" lon="-87.674388">
      </trkpt>
      <trkpt lat="42.044876" lon="-87.674669">
      </trkpt>
      <trkpt lat="42.033906" lon="-87.674774">
      </trkpt>
      <trkpt lat="42.033783" lon="-87.670571">
      </trkpt>
      <trkpt lat="42.027188" lon="-87.670647">
      </trkpt>
      <trkpt lat="42.023166" lon="-87.665427">
      </trkpt>
      <trkpt lat="41.998191" lon="-87.66054">
      </trkpt>
      <trkpt lat="41.997897" lon="-87.65567">
      </trkpt>
      <trkpt lat="41.985556" lon="-87.655253">
      </trkpt>
      <trkpt lat="41.973006" lon="-87.649079">
      </trkpt>
      <trkpt lat="41.950978" lon="-87.644611">
      </trkpt>
      <trkpt lat="41.934639" lon="-87.632453">
      </trkpt>
      <trkpt lat="41.904908" lon="-87.624861">
      </trkpt>
      <trkpt lat="41.901978" lon="-87.624179">
      </trkpt>
      <trkpt lat="41.890945" lon="-87.624246">
      </trkpt>
      <trkpt lat="41.890981" lon="-87.621986">
      </trkpt>
      <trkpt lat="41.890948" lon="-87.624074">
      </trkpt>
      <trkpt lat="41.891505" lon="-87.624094">
      </trkpt>
      <trkpt lat="41.891505" lon="-87.624094">
      </trkpt>
      <trkpt lat="41.893338" lon="-87.62414">
      </trkpt>
      <trkpt lat="41.893148" lon="-87.637063">
      </trkpt>
      <trkpt lat="41.89263" lon="-87.638252">
      </trkpt>
      <trkpt lat="41.892522" lon="-87.64596">
      </trkpt>
      <trkpt lat="41.892674" lon="-87.65028">
      </trkpt>
      <trkpt lat="41.89374" lon="-87.653885">
      </trkpt>
      <trkpt lat="41.896345" lon="-87.658063">
      </trkpt>
      <trkpt lat="41.901461" lon="-87.660726">
      </trkpt>
      <trkpt lat="41.906443" lon="-87.661061">
      </trkpt>
      <trkpt lat="41.910145" lon="-87.664439">
      </trkpt>
      <trkpt lat="41.91562" lon="-87.667879">
      </trkpt>
      <trkpt lat="41.91815" lon="-87.670574">
      </trkpt>
      <trkpt lat="41.922676" lon="-87.678438">
      </trkpt>
      <trkpt lat="41.924733" lon="-87.681513">
      </trkpt>
      <trkpt lat="41.924417" lon="-87.733273">
      </trkpt>
      <trkpt lat="41.924417" lon="-87.733273">
      </trkpt>
      <trkpt lat="41.925491" lon="-87.646336">
      </trkpt>
      <trkpt lat="41.926694" lon="-87.64637">
      </trkpt>
      <trkpt lat="41.926753" lon="-87.642974">
      </trkpt>
      <trkpt lat="41.926753" lon="-87.642974">
      </trkpt>
      <trkpt lat="41.926753" lon="-87.642974">
      </trkpt>
      <trkpt lat="41.926753" lon="-87.642974">
      </trkpt>
      <trkpt lat="41.927017" lon="-87.641326">
      </trkpt>
      <trkpt lat="41.92558" lon="-87.640463">
      </trkpt>
      <trkpt lat="41.925527" lon="-87.643933">
      </trkpt>
      <trkpt lat="41.903716" lon="-87.643216">
      </trkpt>
      <trkpt lat="41.903643" lon="-87.648086">
      </trkpt>
      <trkpt lat="41.891194" lon="-87.647627">
      </trkpt>
      <trkpt lat="41.891135" lon="-87.652288">
      </trkpt>
      <trkpt lat="41.888087" lon="-87.652212">
      </trkpt>
      <trkpt lat="41.888087" lon="-87.652212">
      </trkpt>
      <trkpt lat="41.891135" lon="-87.652288">
      </trkpt>
      <trkpt lat="41.890657" lon="-87.687437">
      </trkpt>
      <trkpt lat="41.899176" lon="-87.708783">
      </trkpt>
      <trkpt lat="41.899117" lon="-87.715822">
      </trkpt>
      <trkpt lat="41.899117" lon="-87.715822">
      </trkpt>
      <trkpt lat="41.899176" lon="-87.708783">
      </trkpt>
      <trkpt lat="41.890657" lon="-87.687437">
      </trkpt>
      <trkpt lat="41.891179" lon="-87.648776">
      </trkpt>
      <trkpt lat="41.889662" lon="-87.648752">
      </trkpt>
      <trkpt lat="41.889662" lon="-87.648752">
      </trkpt>
      <trkpt lat="41.889017" lon="-87.648718">
      </trkpt>
      <trkpt lat="41.889054" lon="-87.641668">
      </trkpt>
      <trkpt lat="41.888886" lon="-87.641418">
      </trkpt>
      <trkpt lat="41.888757" lon="-87.641385">
      </trkpt>
      <trkpt lat="41.880567" lon="-87.64118">
      </trkpt>
      <trkpt lat="41.880598" lon="-87.639693">
      </trkpt>
      <trkpt lat="41.881889" lon="-87.639706">
      </trkpt>
      <trkpt lat="41.881877" lon="-87.640505">
      </trkpt>
      <trkpt lat="41.881877" lon="-87.640505">
      </trkpt>
      <trkpt lat="41.881801" lon="-87.64573">
      </trkpt>
      <trkpt lat="41.885306" lon="-87.645735">
      </trkpt>
      <trkpt lat="41.888483" lon="-87.647404">
      </trkpt>
      <trkpt lat="41.897251" lon="-87.658783">
      </trkpt>
      <trkpt lat="41.901753" lon="-87.660805">
      </trkpt>
      <trkpt lat="41.906443" lon="-87.661061">
      </trkpt>
      <trkpt lat="41.910145" lon="-87.664439">
      </trkpt>
      <trkpt lat="41.915739" lon="-87.667973">
      </trkpt>
      <trkpt lat="41.91815" lon="-87.670574">
      </trkpt>
      <trkpt lat="41.922676" lon="-87.678438">
      </trkpt>
      <trkpt lat="41.924733" lon="-87.681513">
      </trkpt>
      <trkpt lat="41.923948" lon="-87.76841">
      </trkpt>
      <trkpt lat="41.925772" lon="-87.768474">
      </trkpt>
      <trkpt lat="41.925753" lon="-87.769688">
      </trkpt>
      <trkpt lat="41.924217" lon="-87.769634">
      </trkpt>
      <trkpt lat="41.924217" lon="-87.769634">
      </trkpt>
      <trkpt lat="41.919428" lon="-87.769467">
      </trkpt>
      <trkpt lat="41.91981" lon="-87.771525">
      </trkpt>
      <trkpt lat="41.91981" lon="-87.771525">
      </trkpt>
      <trkpt lat="41.916843" lon="-87.753381">
      </trkpt>
      <trkpt lat="41.913935" lon="-87.746005">
      </trkpt>
      <trkpt lat="41.871183" lon="-87.745009">
      </trkpt>
      <trkpt lat="41.871527" lon="-87.736491">
      </trkpt>
      <trkpt lat="41.871345" lon="-87.736483">
      </trkpt>
      <trkpt lat="41.871345" lon="-87.736483">
      </trkpt>
      <trkpt lat="41.871527" lon="-87.736491">
      </trkpt>
      <trkpt lat="41.87155" lon="-87.735152">
      </trkpt>
      <trkpt lat="41.872889" lon="-87.735214">
      </trkpt>
      <trkpt lat="41.873657" lon="-87.731862">
      </trkpt>
      <trkpt lat="41.873948" lon="-87.708909">
      </trkpt>
      <trkpt lat="41.875189" lon="-87.697594">
      </trkpt>
      <trkpt lat="41.875329" lon="-87.650308">
      </trkpt>
      <trkpt lat="41.875302" lon="-87.647601">
      </trkpt>
      <trkpt lat="41.874563" lon="-87.645452">
      </trkpt>
      <trkpt lat="41.875077" lon="-87.644482">
      </trkpt>
      <trkpt lat="41.876036" lon="-87.64458">
      </trkpt>
      <trkpt lat="41.880374" lon="-87.645275">
      </trkpt>
      <trkpt lat="41.881847" lon="-87.645355">
      </trkpt>
      <trkpt lat="41.882198" lon="-87.645393">
      </trkpt>
      <trkpt lat="41.885931" lon="-87.64591">
      </trkpt>
      <trkpt lat="41.888483" lon="-87.647404">
      </trkpt>
      <trkpt lat="41.897251" lon="-87.658783">
      </trkpt>
      <trkpt lat="41.901753" lon="-87.660805">
      </trkpt>
      <trkpt lat="41.906443" lon="-87.661061">
      </trkpt>
      <trkpt lat="41.910145" lon="-87.664439">
      </trkpt>
      <trkpt lat="41.915886" lon="-87.668091">
      </trkpt>
      <trkpt lat="41.91815" lon="-87.670574">
      </trkpt>
      <trkpt lat="41.922676" lon="-87.678438">
      </trkpt>
      <trkpt lat="41.924733" lon="-87.681513">
      </trkpt>
      <trkpt lat="41.924878" lon="-87.690086">
      </trkpt>
      <trkpt lat="41.925214" lon="-87.690094">
      </trkpt>
      <trkpt lat="41.925214" lon="-87.690094">
      </trkpt>
      <trkpt lat="41.926696" lon="-87.690149">
      </trkpt>
      <trkpt lat="41.926718" lon="-87.687704">
      </trkpt>
      <trkpt lat="41.926885" lon="-87.687672">
      </trkpt>
      <trkpt lat="41.924962" lon="-87.683686">
      </trkpt>
      <trkpt lat="41.924978" lon="-87.682301">
      </trkpt>
      <trkpt lat="41.926707" lon="-87.685177">
      </trkpt>
      <trkpt lat="41.940439" lon="-87.709664">
      </trkpt>
      <trkpt lat="41.942387" lon="-87.715161">
      </trkpt>
      <trkpt lat="41.947985" lon="-87.719618">
      </trkpt>
      <trkpt lat="41.960998" lon="-87.742619">
      </trkpt>
      <trkpt lat="41.965012" lon="-87.746732">
      </trkpt>
      <trkpt lat="41.980044" lon="-87.746614">
      </trkpt>
      <trkpt lat="41.987222" lon="-87.751348">
      </trkpt>
      <trkpt lat="42.006167" lon="-87.748589">
      </trkpt>
      <trkpt lat="42.010101" lon="-87.748003">
      </trkpt>
      <trkpt lat="42.019034" lon="-87.747705">
      </trkpt>
      <trkpt lat="42.01902" lon="-87.746188">
      </trkpt>
      <trkpt lat="42.01902" lon="-87.746188">
      </trkpt>
      <trkpt lat="42.019034" lon="-87.747705">
      </trkpt>
      <trkpt lat="42.011817" lon="-87.747939">
      </trkpt>
      <trkpt lat="42.011856" lon="-87.75189">
      </trkpt>
      <trkpt lat="42.012826" lon="-87.752369">
      </trkpt>
      <trkpt lat="42.007194" lon="-87.748838">
      </trkpt>
      <trkpt lat="41.987219" lon="-87.751521">
      </trkpt>
      <trkpt lat="41.980228" lon="-87.746835">
      </trkpt>
      <trkpt lat="41.966563" lon="-87.747223">
      </trkpt>
      <trkpt lat="41.963113" lon="-87.745961">
      </trkpt>
      <trkpt lat="41.960129" lon="-87.742125">
      </trkpt>
      <trkpt lat="41.947613" lon="-87.719592">
      </trkpt>
      <trkpt lat="41.94215" lon="-87.715306">
      </trkpt>
      <trkpt lat="41.933659" lon="-87.698173">
      </trkpt>
      <trkpt lat="41.927358" lon="-87.687291">
      </trkpt>
      <trkpt lat="41.924962" lon="-87.683686">
      </trkpt>
      <trkpt lat="41.925026" lon="-87.677893">
      </trkpt>
      <trkpt lat="41.935932" lon="-87.678243">
      </trkpt>
      <trkpt lat="41.935976" lon="-87.674697">
      </trkpt>
      <trkpt lat="41.935976" lon="-87.674697">
      </trkpt>
      <trkpt lat="41.935993" lon="-87.673353">
      </trkpt>
      <trkpt lat="41.939643" lon="-87.673458">
      </trkpt>
      <trkpt lat="41.939468" lon="-87.688003">
      </trkpt>
      <trkpt lat="41.975899" lon="-87.689151">
      </trkpt>
      <trkpt lat="41.975877" lon="-87.692352">
      </trkpt>
      <trkpt lat="41.979508" lon="-87.692693">
      </trkpt>
      <trkpt lat="41.979449" lon="-87.702665">
      </trkpt>
      <trkpt lat="41.979449" lon="-87.702665">
      </trkpt>
      <trkpt lat="41.97944" lon="-87.703963">
      </trkpt>
      <trkpt lat="41.983097" lon="-87.705071">
      </trkpt>
      <trkpt lat="41.98284" lon="-87.728412">
      </trkpt>
      <trkpt lat="41.975527" lon="-87.728239">
      </trkpt>
      <trkpt lat="41.975314" lon="-87.74954">
      </trkpt>
      <trkpt lat="41.975314" lon="-87.74954">
      </trkpt>
      <trkpt lat="41.975339" lon="-87.747984">
      </trkpt>
      <trkpt lat="41.96438" lon="-87.747627">
      </trkpt>
      <trkpt lat="41.962872" lon="-87.747013">
      </trkpt>
      <trkpt lat="41.962173" lon="-87.747605">
      </trkpt>
      <trkpt lat="41.960724" lon="-87.747538">
      </trkpt>
      <trkpt lat="41.960061" lon="-87.794287">
      </trkpt>
      <trkpt lat="41.946631" lon="-87.822074">
      </trkpt>
      <trkpt lat="41.946138" lon="-87.821706">
      </trkpt>
      <trkpt lat="41.937842" lon="-87.821404">
      </trkpt>
      <trkpt lat="41.937866" lon="-87.820185">
      </trkpt>
      <trkpt lat="41.936076" lon="-87.820102">
      </trkpt>
      <trkpt lat="41.936062" lon="-87.820727">
      </trkpt>
      <trkpt lat="41.934634" lon="-87.82067">
      </trkpt>
      <trkpt lat="41.934634" lon="-87.82067">
      </trkpt>
      <trkpt lat="41.934634" lon="-87.82067">
      </trkpt>
      <trkpt lat="41.934634" lon="-87.82067">
      </trkpt>
      <trkpt lat="41.93424" lon="-87.820654">
      </trkpt>
      <trkpt lat="41.934229" lon="-87.821275">
      </trkpt>
      <trkpt lat="41.937842" lon="-87.821404">
      </trkpt>
      <trkpt lat="41.937819" lon="-87.822616">
      </trkpt>
      <trkpt lat="41.945136" lon="-87.82292">
      </trkpt>
      <trkpt lat="41.945095" lon="-87.824627">
      </trkpt>
      <trkpt lat="41.958438" lon="-87.797713">
      </trkpt>
      <trkpt lat="41.968342" lon="-87.797737">
      </trkpt>
      <trkpt lat="41.96853" lon="-87.778289">
      </trkpt>
      <trkpt lat="41.967665" lon="-87.77728">
      </trkpt>
      <trkpt lat="41.968033" lon="-87.747723">
      </trkpt>
      <trkpt lat="41.972896" lon="-87.747918">
      </trkpt>
      <trkpt lat="41.972794" lon="-87.747761">
      </trkpt>
      <trkpt lat="41.966563" lon="-87.747223">
      </trkpt>
      <trkpt lat="41.962358" lon="-87.745232">
      </trkpt>
      <trkpt lat="41.947613" lon="-87.719592">
      </trkpt>
      <trkpt lat="41.94215" lon="-87.715306">
      </trkpt>
      <trkpt lat="41.940372" lon="-87.709927">
      </trkpt>
      <trkpt lat="41.917654" lon="-87.670146">
      </trkpt>
      <trkpt lat="41.906646" lon="-87.66137">
      </trkpt>
      <trkpt lat="41.897394" lon="-87.659066">
      </trkpt>
      <trkpt lat="41.892534" lon="-87.653065">
      </trkpt>
      <trkpt lat="41.892423" lon="-87.632511">
      </trkpt>
      <trkpt lat="41.900548" lon="-87.632751">
      </trkpt>
      <trkpt lat="41.899913" lon="-87.632884">
      </trkpt>
      <trkpt lat="41.899913" lon="-87.632884">
      </trkpt>
      <trkpt lat="41.899245" lon="-87.632866">
      </trkpt>
      <trkpt lat="41.900548" lon="-87.632751">
      </trkpt>
      <trkpt lat="41.9006" lon="-87.628335">
      </trkpt>
      <trkpt lat="41.900747" lon="-87.62834">
      </trkpt>
      <trkpt lat="41.900824" lon="-87.624042">
      </trkpt>
      <trkpt lat="41.902709" lon="-87.623664">
      </trkpt>
      <trkpt lat="41.912141" lon="-87.62589">
      </trkpt>
      <trkpt lat="41.918036" lon="-87.628743">
      </trkpt>
      <trkpt lat="41.928415" lon="-87.631851">
      </trkpt>
      <trkpt lat="41.934381" lon="-87.632152">
      </trkpt>
      <trkpt lat="41.936704" lon="-87.633661">
      </trkpt>
      <trkpt lat="41.939073" lon="-87.63676">
      </trkpt>
      <trkpt lat="41.940568" lon="-87.638088">
      </trkpt>
      <trkpt lat="41.940035" lon="-87.64439">
      </trkpt>
      <trkpt lat="41.942773" lon="-87.644494">
      </trkpt>
      <trkpt lat="41.942723" lon="-87.648486">
      </trkpt>
      <trkpt lat="41.942723" lon="-87.648486">
      </trkpt>
      <trkpt lat="41.942712" lon="-87.649356">
      </trkpt>
      <trkpt lat="41.925453" lon="-87.648766">
      </trkpt>
      <trkpt lat="41.925291" lon="-87.658464">
      </trkpt>
      <trkpt lat="41.917264" lon="-87.658201">
      </trkpt>
      <trkpt lat="41.917067" lon="-87.663815">
      </trkpt>
      <trkpt lat="41.916129" lon="-87.66782">
      </trkpt>
      <trkpt lat="41.890972" lon="-87.667205">
      </trkpt>
      <trkpt lat="41.890646" lon="-87.686683">
      </trkpt>
      <trkpt lat="41.886623" lon="-87.686589">
      </trkpt>
      <trkpt lat="41.886614" lon="-87.687809">
      </trkpt>
      <trkpt lat="41.888183" lon="-87.687848">
      </trkpt>
      <trkpt lat="41.888183" lon="-87.687848">
      </trkpt>
      <trkpt lat="41.886614" lon="-87.687809">
      </trkpt>
      <trkpt lat="41.886623" lon="-87.686589">
      </trkpt>
      <trkpt lat="41.949742" lon="-87.688345">
      </trkpt>
      <trkpt lat="41.949742" lon="-87.688345">
      </trkpt>
      <trkpt lat="42.034032" lon="-87.68996">
      </trkpt>
      <trkpt lat="42.03391" lon="-87.67525">
      </trkpt>
      <trkpt lat="42.03253" lon="-87.674973">
      </trkpt>
      <trkpt lat="42.03253" lon="-87.674973">
      </trkpt>
      <trkpt lat="42.0321" lon="-87.674881">
      </trkpt>
      <trkpt lat="42.032094" lon="-87.67402">
      </trkpt>
      <trkpt lat="42.027218" lon="-87.673509">
      </trkpt>
      <trkpt lat="42.027015" lon="-87.668216">
      </trkpt>
      <trkpt lat="42.023166" lon="-87.665427">
      </trkpt>
      <trkpt lat="41.998191" lon="-87.66054">
      </trkpt>
      <trkpt lat="41.985467" lon="-87.660132">
      </trkpt>
      <trkpt lat="41.984999" lon="-87.653157">
      </trkpt>
      <trkpt lat="41.950978" lon="-87.644611">
      </trkpt>
      <trkpt lat="41.93482" lon="-87.632527">
      </trkpt>
      <trkpt lat="41.902733" lon="-87.62421">
      </trkpt>
      <trkpt lat="41.900898" lon="-87.619617">
      </trkpt>
      <trkpt lat="41.892985" lon="-87.614304">
      </trkpt>
      <trkpt lat="41.866208" lon="-87.619588">
      </trkpt>
      <trkpt lat="41.853242" lon="-87.614728">
      </trkpt>
      <trkpt lat="41.848506" lon="-87.614444">
      </trkpt>
      <trkpt lat="41.84732" lon="-87.626818">
      </trkpt>
      <trkpt lat="41.847855" lon="-87.631727">
      </trkpt>
      <trkpt lat="41.843118" lon="-87.631351">
      </trkpt>
      <trkpt lat="41.834246" lon="-87.631163">
      </trkpt>
      <trkpt lat="41.830937" lon="-87.631513">
      </trkpt>
      <trkpt lat="41.830684" lon="-87.650963">
      </trkpt>
      <trkpt lat="41.835279" lon="-87.651081">
      </trkpt>
      <trkpt lat="41.835257" lon="-87.652291">
      </trkpt>
      <trkpt lat="41.833573" lon="-87.652247">
      </trkpt>
      <trkpt lat="41.833573" lon="-87.652247">
      </trkpt>
      <trkpt lat="41.835257" lon="-87.652291">
      </trkpt>
      <trkpt lat="41.835279" lon="-87.651081">
      </trkpt>
      <trkpt lat="41.837977" lon="-87.651151">
      </trkpt>
      <trkpt lat="41.838" lon="-87.64943">
      </trkpt>
      <trkpt lat="41.843501" lon="-87.65413">
      </trkpt>
      <trkpt lat="41.848044" lon="-87.644778">
      </trkpt>
      <trkpt lat="41.849104" lon="-87.641877">
      </trkpt>
      <trkpt lat="41.851096" lon="-87.638494">
      </trkpt>
      <trkpt lat="41.86722" lon="-87.639228">
      </trkpt>
      <trkpt lat="41.867375" lon="-87.627384">
      </trkpt>
      <trkpt lat="41.870533" lon="-87.627449">
      </trkpt>
      <trkpt lat="41.870542" lon="-87.628609">
      </trkpt>
      <trkpt lat="41.869756" lon="-87.62857">
      </trkpt>
      <trkpt lat="41.869756" lon="-87.62857">
      </trkpt>
      <trkpt lat="41.870542" lon="-87.628609">
      </trkpt>
      <trkpt lat="41.870514" lon="-87.627588">
      </trkpt>
      <trkpt lat="41.860173" lon="-87.627357">
      </trkpt>
      <trkpt lat="41.860127" lon="-87.630281">
      </trkpt>
      <trkpt lat="41.867992" lon="-87.630401">
      </trkpt>
      <trkpt lat="41.867992" lon="-87.630401">
      </trkpt>
      <trkpt lat="41.872252" lon="-87.63061">
      </trkpt>
      <trkpt lat="41.872301" lon="-87.627486">
      </trkpt>
      <trkpt lat="41.873099" lon="-87.627503">
      </trkpt>
      <trkpt lat="41.873249" lon="-87.617066">
      </trkpt>
      <trkpt lat="41.881825" lon="-87.617167">
      </trkpt>
      <trkpt lat="41.884932" lon="-87.613613">
      </trkpt>
      <trkpt lat="41.892878" lon="-87.614041">
      </trkpt>
      <trkpt lat="41.900921" lon="-87.619441">
      </trkpt>
      <trkpt lat="41.902893" lon="-87.624048">
      </trkpt>
      <trkpt lat="41.928415" lon="-87.631851">
      </trkpt>
      <trkpt lat="41.934381" lon="-87.632152">
      </trkpt>
      <trkpt lat="41.941219" lon="-87.638833">
      </trkpt>
      <trkpt lat="41.950931" lon="-87.644376">
      </trkpt>
      <trkpt lat="41.964019" lon="-87.64669">
      </trkpt>
      <trkpt lat="41.965774" lon="-87.646428">
      </trkpt>
      <trkpt lat="41.965499" lon="-87.648611">
      </trkpt>
      <trkpt lat="41.965847" lon="-87.648701">
      </trkpt>
      <trkpt lat="41.965847" lon="-87.648701">
      </trkpt>
      <trkpt lat="41.965499" lon="-87.648611">
      </trkpt>
      <trkpt lat="41.965571" lon="-87.647973">
      </trkpt>
      <trkpt lat="41.964213" lon="-87.646988">
      </trkpt>
      <trkpt lat="41.961874" lon="-87.64645">
      </trkpt>
      <trkpt lat="41.959329" lon="-87.646245">
      </trkpt>
      <trkpt lat="41.957427" lon="-87.645733">
      </trkpt>
      <trkpt lat="41.955777" lon="-87.645546">
      </trkpt>
      <trkpt lat="41.953768" lon="-87.645062">
      </trkpt>
      <trkpt lat="41.95271" lon="-87.645016">
      </trkpt>
      <trkpt lat="41.95271" lon="-87.645016">
      </trkpt>
      <trkpt lat="41.954634" lon="-87.645235">
      </trkpt>
      <trkpt lat="41.954003" lon="-87.704352">
      </trkpt>
      <trkpt lat="41.950433" lon="-87.70425">
      </trkpt>
      <trkpt lat="41.950433" lon="-87.70425">
      </trkpt>
      <trkpt lat="41.950308" lon="-87.704247">
      </trkpt>
      <trkpt lat="41.950315" lon="-87.703021">
      </trkpt>
      <trkpt lat="41.946815" lon="-87.702922">
      </trkpt>
      <trkpt lat="41.946815" lon="-87.702922">
      </trkpt>
      <trkpt lat="41.946663" lon="-87.702918">
      </trkpt>
      <trkpt lat="41.946744" lon="-87.688245">
      </trkpt>
      <trkpt lat="41.999547" lon="-87.689937">
      </trkpt>
      <trkpt lat="41.999642" lon="-87.68384">
      </trkpt>
      <trkpt lat="41.998046" lon="-87.6838">
      </trkpt>
      <trkpt lat="41.998046" lon="-87.6838">
      </trkpt>
      <trkpt lat="41.997839" lon="-87.683795">
      </trkpt>
      <trkpt lat="41.99796" lon="-87.67684">
      </trkpt>
      <trkpt lat="41.994982" lon="-87.675425">
      </trkpt>
      <trkpt lat="41.992132" lon="-87.67531">
      </trkpt>
      <trkpt lat="41.989576" lon="-87.669778">
      </trkpt>
      <trkpt lat="41.985105" lon="-87.662456">
      </trkpt>
      <trkpt lat="41.985586" lon="-87.654178">
      </trkpt>
      <trkpt lat="41.984999" lon="-87.653157">
      </trkpt>
      <trkpt lat="41.981232" lon="-87.652706">
      </trkpt>
      <trkpt lat="41.972134" lon="-87.648822">
      </trkpt>
      <trkpt lat="41.955203" lon="-87.644905">
      </trkpt>
      <trkpt lat="41.950978" lon="-87.644611">
      </trkpt>
      <trkpt lat="41.941067" lon="-87.638957">
      </trkpt>
      <trkpt lat="41.935041" lon="-87.632637">
      </trkpt>
      <trkpt lat="41.927741" lon="-87.631858">
      </trkpt>
      <trkpt lat="41.926001" lon="-87.631853">
      </trkpt>
      <trkpt lat="41.92558" lon="-87.640463">
      </trkpt>
      <trkpt lat="41.927956" lon="-87.641881">
      </trkpt>
      <trkpt lat="41.927956" lon="-87.641881">
      </trkpt>
      <trkpt lat="41.92558" lon="-87.640463">
      </trkpt>
      <trkpt lat="41.926001" lon="-87.631853">
      </trkpt>
      <trkpt lat="41.912297" lon="-87.626142">
      </trkpt>
      <trkpt lat="41.902733" lon="-87.62421">
      </trkpt>
      <trkpt lat="41.901491" lon="-87.62264">
      </trkpt>
      <trkpt lat="41.900898" lon="-87.619617">
      </trkpt>
      <trkpt lat="41.893292" lon="-87.614447">
      </trkpt>
      <trkpt lat="41.886779" lon="-87.614132">
      </trkpt>
      <trkpt lat="41.884515" lon="-87.614444">
      </trkpt>
      <trkpt lat="41.884468" lon="-87.633916">
      </trkpt>
      <trkpt lat="41.883242" lon="-87.633882">
      </trkpt>
      <trkpt lat="41.883243" lon="-87.633501">
      </trkpt>
      <trkpt lat="41.883243" lon="-87.633501">
      </trkpt>
      <trkpt lat="41.883235" lon="-87.629431">
      </trkpt>
      <trkpt lat="41.885752" lon="-87.629504">
      </trkpt>
      <trkpt lat="41.88576" lon="-87.626286">
      </trkpt>
      <trkpt lat="41.887032" lon="-87.626374">
      </trkpt>
      <trkpt lat="41.887382" lon="-87.626488">
      </trkpt>
      <trkpt lat="41.888453" lon="-87.627125">
      </trkpt>
      <trkpt lat="41.888758" lon="-87.627082">
      </trkpt>
      <trkpt lat="41.889309" lon="-87.626679">
      </trkpt>
      <trkpt lat="41.889909" lon="-87.626665">
      </trkpt>
      <trkpt lat="41.889909" lon="-87.626665">
      </trkpt>
      <trkpt lat="41.887226" lon="-87.626463">
      </trkpt>
      <trkpt lat="41.886949" lon="-87.631015">
      </trkpt>
      <trkpt lat="41.875701" lon="-87.630715">
      </trkpt>
      <trkpt lat="41.875658" lon="-87.697235">
      </trkpt>
      <trkpt lat="41.874284" lon="-87.70915">
      </trkpt>
      <trkpt lat="41.873967" lon="-87.732948">
      </trkpt>
      <trkpt lat="41.87187" lon="-87.740374">
      </trkpt>
      <trkpt lat="41.871015" lon="-87.767488">
      </trkpt>
      <trkpt lat="41.873251" lon="-87.799298">
      </trkpt>
      <trkpt lat="41.87368" lon="-87.804441">
      </trkpt>
      <trkpt lat="41.892182" lon="-87.805167">
      </trkpt>
      <trkpt lat="41.892113" lon="-87.808344">
      </trkpt>
      <trkpt lat="41.892536" lon="-87.808359">
      </trkpt>
      <trkpt lat="41.892536" lon="-87.808359">
      </trkpt>
      <trkpt lat="41.892113" lon="-87.808344">
      </trkpt>
      <trkpt lat="41.892182" lon="-87.805167">
      </trkpt>
      <trkpt lat="41.873618" lon="-87.804598">
      </trkpt>
      <trkpt lat="41.87064" lon="-87.769061">
      </trkpt>
      <trkpt lat="41.871594" lon="-87.739969">
      </trkpt>
      <trkpt lat="41.87362" lon="-87.733001">
      </trkpt>
      <trkpt lat="41.873948" lon="-87.708909">
      </trkpt>
      <trkpt lat="41.874481" lon="-87.704448">
      </trkpt>
      <trkpt lat="41.874345" lon="-87.701026">
      </trkpt>
      <trkpt lat="41.891959" lon="-87.701987">
      </trkpt>
      <trkpt lat="41.891924" lon="-87.705203">
      </trkpt>
      <trkpt lat="41.893071" lon="-87.705241">
      </trkpt>
    </trkseg>
  </trk>
</gpx>