<?xml version="1.0" encoding="UTF-8"?>
<gpx xmlns="http://www.topografix.com/GPX/1/1" xmlns:xsi="http://www.w3.org/2001/XMLSchema-instance" xsi:schemaLocation="http://www.topografix.com/GPX/1/1 http://www.topografix.com/GPX/1/1/gpx.xsd" version="1.1" creator="gpx.py -- https://github.com/tkrajina/gpxpy">
  <trk>
    <trkseg>
      <trkpt lat="41.909456" lon="-87.673955">
      </trkpt>
      <trkpt lat="41.90961" lon="-87.673782">
      </trkpt>
      <trkpt lat="41.917824" lon="-87.673991">
      </trkpt>
      <trkpt lat="41.917673" lon="-87.682516">
      </trkpt>
      <trkpt lat="41.918425" lon="-87.682542">
      </trkpt>
      <trkpt lat="41.918404" lon="-87.683685">
      </trkpt>
      <trkpt lat="41.918404" lon="-87.683685">
      </trkpt>
      <trkpt lat="41.918337" lon="-87.687437">
      </trkpt>
      <trkpt lat="41.924902" lon="-87.687645">
      </trkpt>
      <trkpt lat="41.924878" lon="-87.690086">
      </trkpt>
      <trkpt lat="41.925214" lon="-87.690094">
      </trkpt>
      <trkpt lat="41.925214" lon="-87.690094">
      </trkpt>
      <trkpt lat="41.926696" lon="-87.690149">
      </trkpt>
      <trkpt lat="41.926718" lon="-87.687704">
      </trkpt>
      <trkpt lat="41.926885" lon="-87.687672">
      </trkpt>
      <trkpt lat="41.927019" lon="-87.687339">
      </trkpt>
      <trkpt lat="41.926403" lon="-87.686023">
      </trkpt>
      <trkpt lat="41.924962" lon="-87.683686">
      </trkpt>
      <trkpt lat="41.924978" lon="-87.682301">
      </trkpt>
      <trkpt lat="41.926707" lon="-87.685177">
      </trkpt>
      <trkpt lat="41.940439" lon="-87.709664">
      </trkpt>
      <trkpt lat="41.942208" lon="-87.714861">
      </trkpt>
      <trkpt lat="41.943331" lon="-87.716273">
      </trkpt>
      <trkpt lat="41.946973" lon="-87.718472">
      </trkpt>
      <trkpt lat="41.947985" lon="-87.719618">
      </trkpt>
      <trkpt lat="41.958569" lon="-87.738838">
      </trkpt>
      <trkpt lat="41.960451" lon="-87.741371">
      </trkpt>
      <trkpt lat="41.960845" lon="-87.74187">
      </trkpt>
      <trkpt lat="41.960636" lon="-87.75449">
      </trkpt>
      <trkpt lat="41.964478" lon="-87.757803">
      </trkpt>
      <trkpt lat="41.964478" lon="-87.757803">
      </trkpt>
      <trkpt lat="41.964478" lon="-87.757803">
      </trkpt>
      <trkpt lat="41.964478" lon="-87.757803">
      </trkpt>
      <trkpt lat="41.967869" lon="-87.760755">
      </trkpt>
      <trkpt lat="41.967665" lon="-87.77728">
      </trkpt>
      <trkpt lat="41.96853" lon="-87.778289">
      </trkpt>
      <trkpt lat="41.968273" lon="-87.807176">
      </trkpt>
      <trkpt lat="41.967283" lon="-87.807182">
      </trkpt>
      <trkpt lat="41.965985" lon="-87.861655">
      </trkpt>
      <trkpt lat="41.958206" lon="-87.860873">
      </trkpt>
      <trkpt lat="41.958206" lon="-87.860873">
      </trkpt>
      <trkpt lat="41.956566" lon="-87.860159">
      </trkpt>
      <trkpt lat="41.954442" lon="-87.857289">
      </trkpt>
      <trkpt lat="41.953474" lon="-87.85666">
      </trkpt>
      <trkpt lat="41.953093" lon="-87.854665">
      </trkpt>
      <trkpt lat="41.952054" lon="-87.836865">
      </trkpt>
      <trkpt lat="41.952719" lon="-87.809667">
      </trkpt>
      <trkpt lat="41.957277" lon="-87.800157">
      </trkpt>
      <trkpt lat="41.963167" lon="-87.800123">
      </trkpt>
      <trkpt lat="41.963167" lon="-87.800123">
      </trkpt>
      <trkpt lat="41.9665" lon="-87.800131">
      </trkpt>
      <trkpt lat="41.966499" lon="-87.800314">
      </trkpt>
      <trkpt lat="41.966499" lon="-87.800314">
      </trkpt>
      <trkpt lat="41.9665" lon="-87.800131">
      </trkpt>
      <trkpt lat="41.968324" lon="-87.800136">
      </trkpt>
      <trkpt lat="41.96853" lon="-87.778289">
      </trkpt>
      <trkpt lat="41.967665" lon="-87.77728">
      </trkpt>
      <trkpt lat="41.968033" lon="-87.747723">
      </trkpt>
      <trkpt lat="41.972896" lon="-87.747918">
      </trkpt>
      <trkpt lat="41.972794" lon="-87.747761">
      </trkpt>
      <trkpt lat="41.966563" lon="-87.747223">
      </trkpt>
      <trkpt lat="41.963113" lon="-87.745961">
      </trkpt>
      <trkpt lat="41.960129" lon="-87.742125">
      </trkpt>
      <trkpt lat="41.947613" lon="-87.719592">
      </trkpt>
      <trkpt lat="41.94215" lon="-87.715306">
      </trkpt>
      <trkpt lat="41.940524" lon="-87.710219">
      </trkpt>
      <trkpt lat="41.933659" lon="-87.698173">
      </trkpt>
      <trkpt lat="41.927358" lon="-87.687291">
      </trkpt>
      <trkpt lat="41.925223" lon="-87.684125">
      </trkpt>
      <trkpt lat="41.924799" lon="-87.700436">
      </trkpt>
      <trkpt lat="41.925445" lon="-87.701488">
      </trkpt>
      <trkpt lat="41.925798" lon="-87.70114">
      </trkpt>
    </trkseg>
  </trk>
</gpx>