<?xml version="1.0" encoding="UTF-8"?>
<gpx xmlns="http://www.topografix.com/GPX/1/1" xmlns:xsi="http://www.w3.org/2001/XMLSchema-instance" xsi:schemaLocation="http://www.topografix.com/GPX/1/1 http://www.topografix.com/GPX/1/1/gpx.xsd" version="1.1" creator="gpx.py -- https://github.com/tkrajina/gpxpy">
  <trk>
    <trkseg>
      <trkpt lat="41.932963" lon="-87.668473">
      </trkpt>
      <trkpt lat="41.9324" lon="-87.668452">
      </trkpt>
      <trkpt lat="41.968877" lon="-87.669348">
      </trkpt>
      <trkpt lat="41.968823" lon="-87.674163">
      </trkpt>
      <trkpt lat="41.968823" lon="-87.674163">
      </trkpt>
      <trkpt lat="41.968817" lon="-87.674731">
      </trkpt>
      <trkpt lat="41.957874" lon="-87.674338">
      </trkpt>
      <trkpt lat="41.957882" lon="-87.673876">
      </trkpt>
      <trkpt lat="41.946929" lon="-87.67359">
      </trkpt>
      <trkpt lat="41.946925" lon="-87.67399">
      </trkpt>
      <trkpt lat="41.943273" lon="-87.673913">
      </trkpt>
      <trkpt lat="41.943251" lon="-87.676025">
      </trkpt>
      <trkpt lat="41.932309" lon="-87.675673">
      </trkpt>
      <trkpt lat="41.932278" lon="-87.678134">
      </trkpt>
      <trkpt lat="41.92139" lon="-87.677765">
      </trkpt>
      <trkpt lat="41.921395" lon="-87.677255">
      </trkpt>
      <trkpt lat="41.916815" lon="-87.669405">
      </trkpt>
      <trkpt lat="41.905802" lon="-87.661229">
      </trkpt>
      <trkpt lat="41.903435" lon="-87.661667">
      </trkpt>
      <trkpt lat="41.903374" lon="-87.665045">
      </trkpt>
      <trkpt lat="41.903929" lon="-87.665061">
      </trkpt>
      <trkpt lat="41.903929" lon="-87.665061">
      </trkpt>
      <trkpt lat="41.90517" lon="-87.665099">
      </trkpt>
      <trkpt lat="41.905187" lon="-87.663885">
      </trkpt>
      <trkpt lat="41.903391" lon="-87.663823">
      </trkpt>
      <trkpt lat="41.903435" lon="-87.661667">
      </trkpt>
      <trkpt lat="41.901131" lon="-87.661131">
      </trkpt>
      <trkpt lat="41.897272" lon="-87.659243">
      </trkpt>
      <trkpt lat="41.896" lon="-87.658255">
      </trkpt>
      <trkpt lat="41.889703" lon="-87.649082">
      </trkpt>
      <trkpt lat="41.888098" lon="-87.647342">
      </trkpt>
      <trkpt lat="41.885929" lon="-87.646219">
      </trkpt>
      <trkpt lat="41.882928" lon="-87.646015">
      </trkpt>
      <trkpt lat="41.880505" lon="-87.646395">
      </trkpt>
      <trkpt lat="41.880685" lon="-87.632331">
      </trkpt>
      <trkpt lat="41.880812" lon="-87.632334">
      </trkpt>
      <trkpt lat="41.880812" lon="-87.632334">
      </trkpt>
      <trkpt lat="41.878144" lon="-87.632262">
      </trkpt>
      <trkpt lat="41.878331" lon="-87.620697">
      </trkpt>
      <trkpt lat="41.875872" lon="-87.62062">
      </trkpt>
      <trkpt lat="41.875872" lon="-87.62062">
      </trkpt>
      <trkpt lat="41.880871" lon="-87.620794">
      </trkpt>
      <trkpt lat="41.882623" lon="-87.620558">
      </trkpt>
      <trkpt lat="41.884517" lon="-87.620609">
      </trkpt>
      <trkpt lat="41.884484" lon="-87.624371">
      </trkpt>
      <trkpt lat="41.887965" lon="-87.624484">
      </trkpt>
      <trkpt lat="41.889922" lon="-87.624038">
      </trkpt>
      <trkpt lat="41.891505" lon="-87.624094">
      </trkpt>
      <trkpt lat="41.891505" lon="-87.624094">
      </trkpt>
      <trkpt lat="41.892541" lon="-87.624121">
      </trkpt>
      <trkpt lat="41.892685" lon="-87.614597">
      </trkpt>
      <trkpt lat="41.893135" lon="-87.61463">
      </trkpt>
      <trkpt lat="41.89823" lon="-87.618028">
      </trkpt>
      <trkpt lat="41.89823" lon="-87.618028">
      </trkpt>
      <trkpt lat="41.89684" lon="-87.617065">
      </trkpt>
      <trkpt lat="41.896781" lon="-87.620387">
      </trkpt>
      <trkpt lat="41.891803" lon="-87.620235">
      </trkpt>
      <trkpt lat="41.891729" lon="-87.624238">
      </trkpt>
      <trkpt lat="41.889788" lon="-87.624184">
      </trkpt>
      <trkpt lat="41.889275" lon="-87.62693">
      </trkpt>
      <trkpt lat="41.889251" lon="-87.628704">
      </trkpt>
      <trkpt lat="41.889251" lon="-87.628704">
      </trkpt>
      <trkpt lat="41.889242" lon="-87.629579">
      </trkpt>
      <trkpt lat="41.893255" lon="-87.629681">
      </trkpt>
      <trkpt lat="41.893212" lon="-87.632534">
      </trkpt>
      <trkpt lat="41.895614" lon="-87.632605">
      </trkpt>
      <trkpt lat="41.895653" lon="-87.630373">
      </trkpt>
      <trkpt lat="41.895653" lon="-87.630373">
      </trkpt>
      <trkpt lat="41.895665" lon="-87.629762">
      </trkpt>
      <trkpt lat="41.896655" lon="-87.62978">
      </trkpt>
      <trkpt lat="41.896633" lon="-87.631243">
      </trkpt>
      <trkpt lat="41.875701" lon="-87.630715">
      </trkpt>
      <trkpt lat="41.875719" lon="-87.651339">
      </trkpt>
      <trkpt lat="41.876197" lon="-87.657603">
      </trkpt>
      <trkpt lat="41.875763" lon="-87.688313">
      </trkpt>
      <trkpt lat="41.875862" lon="-87.692409">
      </trkpt>
      <trkpt lat="41.875983" lon="-87.696151">
      </trkpt>
      <trkpt lat="41.880169" lon="-87.696261">
      </trkpt>
      <trkpt lat="41.880173" lon="-87.695733">
      </trkpt>
      <trkpt lat="41.880173" lon="-87.695733">
      </trkpt>
      <trkpt lat="41.880169" lon="-87.696261">
      </trkpt>
      <trkpt lat="41.874902" lon="-87.696127">
      </trkpt>
      <trkpt lat="41.874908" lon="-87.695509">
      </trkpt>
      <trkpt lat="41.875125" lon="-87.690201">
      </trkpt>
      <trkpt lat="41.875329" lon="-87.650308">
      </trkpt>
      <trkpt lat="41.875215" lon="-87.648052">
      </trkpt>
      <trkpt lat="41.874037" lon="-87.646014">
      </trkpt>
      <trkpt lat="41.869485" lon="-87.644983">
      </trkpt>
      <trkpt lat="41.857055" lon="-87.644357">
      </trkpt>
      <trkpt lat="41.852823" lon="-87.645374">
      </trkpt>
      <trkpt lat="41.850609" lon="-87.644998">
      </trkpt>
      <trkpt lat="41.847255" lon="-87.642186">
      </trkpt>
      <trkpt lat="41.845323" lon="-87.634652">
      </trkpt>
      <trkpt lat="41.844384" lon="-87.632773">
      </trkpt>
      <trkpt lat="41.842703" lon="-87.631597">
      </trkpt>
      <trkpt lat="41.830548" lon="-87.631069">
      </trkpt>
      <trkpt lat="41.823664" lon="-87.631351">
      </trkpt>
      <trkpt lat="41.823783" lon="-87.621597">
      </trkpt>
      <trkpt lat="41.824244" lon="-87.621608">
      </trkpt>
      <trkpt lat="41.824244" lon="-87.621608">
      </trkpt>
      <trkpt lat="41.831064" lon="-87.621754">
      </trkpt>
      <trkpt lat="41.830961" lon="-87.629817">
      </trkpt>
      <trkpt lat="41.831311" lon="-87.629831">
      </trkpt>
      <trkpt lat="41.837743" lon="-87.630393">
      </trkpt>
      <trkpt lat="41.844144" lon="-87.631347">
      </trkpt>
      <trkpt lat="41.847354" lon="-87.642036">
      </trkpt>
      <trkpt lat="41.850908" lon="-87.644903">
      </trkpt>
      <trkpt lat="41.885013" lon="-87.645685">
      </trkpt>
      <trkpt lat="41.888483" lon="-87.647404">
      </trkpt>
      <trkpt lat="41.891702" lon="-87.651689">
      </trkpt>
      <trkpt lat="41.896836" lon="-87.65868">
      </trkpt>
      <trkpt lat="41.906646" lon="-87.66137">
      </trkpt>
      <trkpt lat="41.917654" lon="-87.670146">
      </trkpt>
      <trkpt lat="41.940372" lon="-87.709927">
      </trkpt>
      <trkpt lat="41.94215" lon="-87.715306">
      </trkpt>
      <trkpt lat="41.947613" lon="-87.719592">
      </trkpt>
      <trkpt lat="41.95982" lon="-87.741635">
      </trkpt>
      <trkpt lat="41.963594" lon="-87.746287">
      </trkpt>
      <trkpt lat="41.975724" lon="-87.747426">
      </trkpt>
      <trkpt lat="41.976396" lon="-87.74607">
      </trkpt>
      <trkpt lat="41.975364" lon="-87.745776">
      </trkpt>
      <trkpt lat="41.975122" lon="-87.765782">
      </trkpt>
      <trkpt lat="41.975691" lon="-87.766315">
      </trkpt>
      <trkpt lat="41.975715" lon="-87.771273">
      </trkpt>
      <trkpt lat="41.982513" lon="-87.784738">
      </trkpt>
      <trkpt lat="41.982443" lon="-87.812691">
      </trkpt>
      <trkpt lat="41.984517" lon="-87.826001">
      </trkpt>
      <trkpt lat="41.984836" lon="-87.831845">
      </trkpt>
      <trkpt lat="41.984644" lon="-87.836934">
      </trkpt>
      <trkpt lat="41.984101" lon="-87.847951">
      </trkpt>
      <trkpt lat="41.984234" lon="-87.870702">
      </trkpt>
      <trkpt lat="41.977158" lon="-87.88909">
      </trkpt>
      <trkpt lat="41.98194" lon="-87.89633">
      </trkpt>
      <trkpt lat="41.982141" lon="-87.898668">
      </trkpt>
      <trkpt lat="41.98214" lon="-87.901973">
      </trkpt>
      <trkpt lat="41.980223" lon="-87.905437">
      </trkpt>
      <trkpt lat="41.980223" lon="-87.905437">
      </trkpt>
      <trkpt lat="41.977612" lon="-87.905773">
      </trkpt>
      <trkpt lat="41.976386" lon="-87.903208">
      </trkpt>
      <trkpt lat="41.977631" lon="-87.900684">
      </trkpt>
      <trkpt lat="41.979952" lon="-87.89916">
      </trkpt>
      <trkpt lat="41.980575" lon="-87.899058">
      </trkpt>
      <trkpt lat="41.981395" lon="-87.896297">
      </trkpt>
      <trkpt lat="41.976911" lon="-87.889312">
      </trkpt>
      <trkpt lat="41.983143" lon="-87.871386">
      </trkpt>
      <trkpt lat="41.984449" lon="-87.829807">
      </trkpt>
      <trkpt lat="41.982178" lon="-87.812646">
      </trkpt>
      <trkpt lat="41.982345" lon="-87.792871">
      </trkpt>
      <trkpt lat="41.982061" lon="-87.788361">
      </trkpt>
      <trkpt lat="41.982061" lon="-87.787747">
      </trkpt>
      <trkpt lat="41.997353" lon="-87.787472">
      </trkpt>
      <trkpt lat="41.997354" lon="-87.711691">
      </trkpt>
      <trkpt lat="42.011826" lon="-87.711447">
      </trkpt>
      <trkpt lat="42.012217" lon="-87.6836">
      </trkpt>
      <trkpt lat="42.012168" lon="-87.683023">
      </trkpt>
      <trkpt lat="42.007344" lon="-87.681159">
      </trkpt>
      <trkpt lat="42.007313" lon="-87.682735">
      </trkpt>
    </trkseg>
  </trk>
</gpx>