<?xml version="1.0" encoding="UTF-8"?>
<gpx xmlns="http://www.topografix.com/GPX/1/1" xmlns:xsi="http://www.w3.org/2001/XMLSchema-instance" xsi:schemaLocation="http://www.topografix.com/GPX/1/1 http://www.topografix.com/GPX/1/1/gpx.xsd" version="1.1" creator="gpx.py -- https://github.com/tkrajina/gpxpy">
  <trk>
    <trkseg>
      <trkpt lat="41.933115" lon="-87.764637">
      </trkpt>
      <trkpt lat="41.933126" lon="-87.763841">
      </trkpt>
      <trkpt lat="41.938605" lon="-87.764033">
      </trkpt>
      <trkpt lat="41.93884" lon="-87.746879">
      </trkpt>
      <trkpt lat="41.96438" lon="-87.747627">
      </trkpt>
      <trkpt lat="41.964394" lon="-87.745977">
      </trkpt>
      <trkpt lat="41.980044" lon="-87.746614">
      </trkpt>
      <trkpt lat="41.987222" lon="-87.751348">
      </trkpt>
      <trkpt lat="42.00867" lon="-87.748898">
      </trkpt>
      <trkpt lat="42.014015" lon="-87.752849">
      </trkpt>
      <trkpt lat="42.020691" lon="-87.764685">
      </trkpt>
      <trkpt lat="42.024765" lon="-87.768078">
      </trkpt>
      <trkpt lat="42.033299" lon="-87.768407">
      </trkpt>
      <trkpt lat="42.038593" lon="-87.764702">
      </trkpt>
      <trkpt lat="42.040844" lon="-87.759717">
      </trkpt>
      <trkpt lat="42.041201" lon="-87.680569">
      </trkpt>
      <trkpt lat="42.043378" lon="-87.680541">
      </trkpt>
      <trkpt lat="42.043378" lon="-87.680541">
      </trkpt>
      <trkpt lat="42.039944" lon="-87.68054">
      </trkpt>
      <trkpt lat="42.026691" lon="-87.678089">
      </trkpt>
      <trkpt lat="42.01941" lon="-87.676332">
      </trkpt>
      <trkpt lat="42.017327" lon="-87.675457">
      </trkpt>
      <trkpt lat="42.012644" lon="-87.674631">
      </trkpt>
      <trkpt lat="42.012585" lon="-87.678178">
      </trkpt>
      <trkpt lat="42.011796" lon="-87.67815">
      </trkpt>
      <trkpt lat="42.011796" lon="-87.67815">
      </trkpt>
      <trkpt lat="42.012585" lon="-87.678178">
      </trkpt>
      <trkpt lat="42.012511" lon="-87.682294">
      </trkpt>
      <trkpt lat="42.012621" lon="-87.682444">
      </trkpt>
      <trkpt lat="42.011856" lon="-87.75189">
      </trkpt>
      <trkpt lat="42.012826" lon="-87.752369">
      </trkpt>
      <trkpt lat="42.007194" lon="-87.748838">
      </trkpt>
      <trkpt lat="41.987219" lon="-87.751521">
      </trkpt>
      <trkpt lat="41.980228" lon="-87.746835">
      </trkpt>
      <trkpt lat="41.966563" lon="-87.747223">
      </trkpt>
      <trkpt lat="41.962358" lon="-87.745232">
      </trkpt>
      <trkpt lat="41.947613" lon="-87.719592">
      </trkpt>
      <trkpt lat="41.94215" lon="-87.715306">
      </trkpt>
      <trkpt lat="41.940372" lon="-87.709927">
      </trkpt>
      <trkpt lat="41.917654" lon="-87.670146">
      </trkpt>
      <trkpt lat="41.906646" lon="-87.66137">
      </trkpt>
      <trkpt lat="41.897685" lon="-87.659246">
      </trkpt>
      <trkpt lat="41.888343" lon="-87.647531">
      </trkpt>
      <trkpt lat="41.881827" lon="-87.645999">
      </trkpt>
      <trkpt lat="41.880956" lon="-87.646134">
      </trkpt>
      <trkpt lat="41.879569" lon="-87.646145">
      </trkpt>
      <trkpt lat="41.878121" lon="-87.646166">
      </trkpt>
      <trkpt lat="41.876334" lon="-87.646815">
      </trkpt>
      <trkpt lat="41.875728" lon="-87.649135">
      </trkpt>
      <trkpt lat="41.875763" lon="-87.688313">
      </trkpt>
      <trkpt lat="41.875862" lon="-87.692409">
      </trkpt>
      <trkpt lat="41.875893" lon="-87.705721">
      </trkpt>
      <trkpt lat="41.876665" lon="-87.705737">
      </trkpt>
      <trkpt lat="41.876665" lon="-87.705737">
      </trkpt>
      <trkpt lat="41.875893" lon="-87.705721">
      </trkpt>
      <trkpt lat="41.875891" lon="-87.70598">
      </trkpt>
      <trkpt lat="41.87369" lon="-87.705922">
      </trkpt>
      <trkpt lat="41.873745" lon="-87.701006">
      </trkpt>
      <trkpt lat="41.874345" lon="-87.701026">
      </trkpt>
      <trkpt lat="41.874908" lon="-87.695509">
      </trkpt>
      <trkpt lat="41.875125" lon="-87.690201">
      </trkpt>
      <trkpt lat="41.875329" lon="-87.650308">
      </trkpt>
      <trkpt lat="41.874563" lon="-87.645452">
      </trkpt>
      <trkpt lat="41.876036" lon="-87.64458">
      </trkpt>
      <trkpt lat="41.880374" lon="-87.645275">
      </trkpt>
      <trkpt lat="41.881847" lon="-87.645355">
      </trkpt>
      <trkpt lat="41.882198" lon="-87.645393">
      </trkpt>
      <trkpt lat="41.888483" lon="-87.647404">
      </trkpt>
      <trkpt lat="41.897251" lon="-87.658783">
      </trkpt>
      <trkpt lat="41.906443" lon="-87.661061">
      </trkpt>
      <trkpt lat="41.91737" lon="-87.669547">
      </trkpt>
      <trkpt lat="41.937344" lon="-87.704001">
      </trkpt>
      <trkpt lat="41.942387" lon="-87.715161">
      </trkpt>
      <trkpt lat="41.947985" lon="-87.719618">
      </trkpt>
      <trkpt lat="41.960998" lon="-87.742619">
      </trkpt>
      <trkpt lat="41.966033" lon="-87.752403">
      </trkpt>
      <trkpt lat="41.967937" lon="-87.75503">
      </trkpt>
      <trkpt lat="41.967938" lon="-87.757623">
      </trkpt>
      <trkpt lat="41.968431" lon="-87.758399">
      </trkpt>
      <trkpt lat="41.968431" lon="-87.758399">
      </trkpt>
      <trkpt lat="41.967875" lon="-87.757622">
      </trkpt>
      <trkpt lat="41.968033" lon="-87.747723">
      </trkpt>
      <trkpt lat="41.972896" lon="-87.747918">
      </trkpt>
      <trkpt lat="41.972794" lon="-87.747761">
      </trkpt>
      <trkpt lat="41.966563" lon="-87.747223">
      </trkpt>
      <trkpt lat="41.962358" lon="-87.745232">
      </trkpt>
      <trkpt lat="41.947613" lon="-87.719592">
      </trkpt>
      <trkpt lat="41.94215" lon="-87.715306">
      </trkpt>
      <trkpt lat="41.940372" lon="-87.709927">
      </trkpt>
      <trkpt lat="41.917654" lon="-87.670146">
      </trkpt>
      <trkpt lat="41.906646" lon="-87.66137">
      </trkpt>
      <trkpt lat="41.897685" lon="-87.659246">
      </trkpt>
      <trkpt lat="41.888343" lon="-87.647531">
      </trkpt>
      <trkpt lat="41.881827" lon="-87.645999">
      </trkpt>
      <trkpt lat="41.880956" lon="-87.646134">
      </trkpt>
      <trkpt lat="41.879569" lon="-87.646145">
      </trkpt>
      <trkpt lat="41.878121" lon="-87.646166">
      </trkpt>
      <trkpt lat="41.876334" lon="-87.646815">
      </trkpt>
      <trkpt lat="41.875728" lon="-87.649135">
      </trkpt>
      <trkpt lat="41.875763" lon="-87.688313">
      </trkpt>
      <trkpt lat="41.875862" lon="-87.692409">
      </trkpt>
      <trkpt lat="41.875983" lon="-87.696151">
      </trkpt>
      <trkpt lat="41.873794" lon="-87.696098">
      </trkpt>
      <trkpt lat="41.873784" lon="-87.697016">
      </trkpt>
      <trkpt lat="41.873784" lon="-87.697016">
      </trkpt>
      <trkpt lat="41.873745" lon="-87.701006">
      </trkpt>
      <trkpt lat="41.875937" lon="-87.701067">
      </trkpt>
      <trkpt lat="41.875935" lon="-87.701496">
      </trkpt>
      <trkpt lat="41.874433" lon="-87.707254">
      </trkpt>
      <trkpt lat="41.874195" lon="-87.716326">
      </trkpt>
      <trkpt lat="41.874461" lon="-87.719801">
      </trkpt>
      <trkpt lat="41.881908" lon="-87.720824">
      </trkpt>
      <trkpt lat="41.881929" lon="-87.725697">
      </trkpt>
      <trkpt lat="41.906161" lon="-87.726413">
      </trkpt>
      <trkpt lat="41.915262" lon="-87.749387">
      </trkpt>
      <trkpt lat="41.916889" lon="-87.749444">
      </trkpt>
      <trkpt lat="41.916878" lon="-87.750356">
      </trkpt>
      <trkpt lat="41.916878" lon="-87.750356">
      </trkpt>
      <trkpt lat="41.916928" lon="-87.746096">
      </trkpt>
      <trkpt lat="41.960724" lon="-87.747538">
      </trkpt>
      <trkpt lat="41.960677" lon="-87.751208">
      </trkpt>
      <trkpt lat="41.964335" lon="-87.751338">
      </trkpt>
      <trkpt lat="41.96432" lon="-87.752565">
      </trkpt>
      <trkpt lat="41.965129" lon="-87.752585">
      </trkpt>
      <trkpt lat="41.967942" lon="-87.757312">
      </trkpt>
      <trkpt lat="41.967938" lon="-87.757623">
      </trkpt>
      <trkpt lat="41.968431" lon="-87.758399">
      </trkpt>
      <trkpt lat="41.968431" lon="-87.758399">
      </trkpt>
      <trkpt lat="41.967875" lon="-87.757622">
      </trkpt>
      <trkpt lat="41.967916" lon="-87.756709">
      </trkpt>
      <trkpt lat="41.962708" lon="-87.746242">
      </trkpt>
      <trkpt lat="41.94853" lon="-87.721846">
      </trkpt>
      <trkpt lat="41.946493" lon="-87.718984">
      </trkpt>
      <trkpt lat="41.946484" lon="-87.71959">
      </trkpt>
      <trkpt lat="41.944989" lon="-87.718156">
      </trkpt>
      <trkpt lat="41.943897" lon="-87.71756">
      </trkpt>
      <trkpt lat="41.909085" lon="-87.71676">
      </trkpt>
      <trkpt lat="41.909112" lon="-87.714329">
      </trkpt>
      <trkpt lat="41.909624" lon="-87.714347">
      </trkpt>
      <trkpt lat="41.909624" lon="-87.714347">
      </trkpt>
      <trkpt lat="41.910015" lon="-87.71436">
      </trkpt>
      <trkpt lat="41.910104" lon="-87.706907">
      </trkpt>
      <trkpt lat="41.910645" lon="-87.706743">
      </trkpt>
      <trkpt lat="41.911251" lon="-87.706741">
      </trkpt>
      <trkpt lat="41.917401" lon="-87.706934">
      </trkpt>
      <trkpt lat="41.917413" lon="-87.705789">
      </trkpt>
      <trkpt lat="41.917413" lon="-87.705789">
      </trkpt>
      <trkpt lat="41.917401" lon="-87.706934">
      </trkpt>
      <trkpt lat="41.924722" lon="-87.707229">
      </trkpt>
      <trkpt lat="41.924799" lon="-87.700436">
      </trkpt>
      <trkpt lat="41.925445" lon="-87.701488">
      </trkpt>
      <trkpt lat="41.925798" lon="-87.70114">
      </trkpt>
      <trkpt lat="41.925798" lon="-87.70114">
      </trkpt>
      <trkpt lat="41.925445" lon="-87.701488">
      </trkpt>
      <trkpt lat="41.924799" lon="-87.700436">
      </trkpt>
      <trkpt lat="41.924962" lon="-87.683686">
      </trkpt>
      <trkpt lat="41.924765" lon="-87.683325">
      </trkpt>
      <trkpt lat="41.918587" lon="-87.671848">
      </trkpt>
      <trkpt lat="41.916326" lon="-87.668918">
      </trkpt>
      <trkpt lat="41.909975" lon="-87.664752">
      </trkpt>
      <trkpt lat="41.906635" lon="-87.661559">
      </trkpt>
      <trkpt lat="41.901587" lon="-87.661131">
      </trkpt>
      <trkpt lat="41.896968" lon="-87.659049">
      </trkpt>
      <trkpt lat="41.888636" lon="-87.647794">
      </trkpt>
      <trkpt lat="41.886261" lon="-87.646315">
      </trkpt>
      <trkpt lat="41.882928" lon="-87.646015">
      </trkpt>
      <trkpt lat="41.880505" lon="-87.646395">
      </trkpt>
      <trkpt lat="41.880685" lon="-87.632331">
      </trkpt>
      <trkpt lat="41.881953" lon="-87.632362">
      </trkpt>
      <trkpt lat="41.881953" lon="-87.632362">
      </trkpt>
      <trkpt lat="41.881801" lon="-87.64573">
      </trkpt>
      <trkpt lat="41.887382" lon="-87.646594">
      </trkpt>
      <trkpt lat="41.891702" lon="-87.651689">
      </trkpt>
      <trkpt lat="41.896836" lon="-87.65868">
      </trkpt>
      <trkpt lat="41.906646" lon="-87.66137">
      </trkpt>
      <trkpt lat="41.917654" lon="-87.670146">
      </trkpt>
      <trkpt lat="41.940372" lon="-87.709927">
      </trkpt>
      <trkpt lat="41.94215" lon="-87.715306">
      </trkpt>
      <trkpt lat="41.947613" lon="-87.719592">
      </trkpt>
      <trkpt lat="41.95982" lon="-87.741635">
      </trkpt>
      <trkpt lat="41.963594" lon="-87.746287">
      </trkpt>
      <trkpt lat="41.975724" lon="-87.747426">
      </trkpt>
      <trkpt lat="41.976396" lon="-87.74607">
      </trkpt>
      <trkpt lat="41.975364" lon="-87.745776">
      </trkpt>
      <trkpt lat="41.975122" lon="-87.765782">
      </trkpt>
      <trkpt lat="41.975691" lon="-87.766315">
      </trkpt>
      <trkpt lat="41.975715" lon="-87.771273">
      </trkpt>
      <trkpt lat="41.982513" lon="-87.784738">
      </trkpt>
      <trkpt lat="41.982443" lon="-87.812691">
      </trkpt>
      <trkpt lat="41.984517" lon="-87.826001">
      </trkpt>
      <trkpt lat="41.984836" lon="-87.831845">
      </trkpt>
      <trkpt lat="41.98621" lon="-87.834971">
      </trkpt>
      <trkpt lat="41.988748" lon="-87.854715">
      </trkpt>
      <trkpt lat="41.991658" lon="-87.861116">
      </trkpt>
      <trkpt lat="41.991658" lon="-87.861116">
      </trkpt>
      <trkpt lat="41.991074" lon="-87.859825">
      </trkpt>
      <trkpt lat="41.989551" lon="-87.857312">
      </trkpt>
      <trkpt lat="41.988912" lon="-87.855524">
      </trkpt>
      <trkpt lat="41.988625" lon="-87.853859">
      </trkpt>
      <trkpt lat="41.988293" lon="-87.849554">
      </trkpt>
      <trkpt lat="41.986389" lon="-87.836628">
      </trkpt>
      <trkpt lat="41.977224" lon="-87.836613">
      </trkpt>
      <trkpt lat="41.977251" lon="-87.834969">
      </trkpt>
      <trkpt lat="41.977251" lon="-87.834969">
      </trkpt>
      <trkpt lat="41.977224" lon="-87.836613">
      </trkpt>
      <trkpt lat="41.952054" lon="-87.836865">
      </trkpt>
      <trkpt lat="41.952771" lon="-87.807255">
      </trkpt>
      <trkpt lat="41.952116" lon="-87.807233">
      </trkpt>
      <trkpt lat="41.952116" lon="-87.807233">
      </trkpt>
      <trkpt lat="41.953879" lon="-87.807297">
      </trkpt>
      <trkpt lat="41.960061" lon="-87.794287">
      </trkpt>
      <trkpt lat="41.960724" lon="-87.747538">
      </trkpt>
      <trkpt lat="41.96438" lon="-87.747627">
      </trkpt>
      <trkpt lat="41.964394" lon="-87.745977">
      </trkpt>
      <trkpt lat="41.980044" lon="-87.746614">
      </trkpt>
      <trkpt lat="41.987222" lon="-87.751348">
      </trkpt>
      <trkpt lat="42.00867" lon="-87.748898">
      </trkpt>
      <trkpt lat="42.014015" lon="-87.752849">
      </trkpt>
      <trkpt lat="42.020691" lon="-87.764685">
      </trkpt>
      <trkpt lat="42.024765" lon="-87.768078">
      </trkpt>
      <trkpt lat="42.033299" lon="-87.768407">
      </trkpt>
      <trkpt lat="42.038593" lon="-87.764702">
      </trkpt>
      <trkpt lat="42.040844" lon="-87.759717">
      </trkpt>
      <trkpt lat="42.040976" lon="-87.707413">
      </trkpt>
      <trkpt lat="42.040976" lon="-87.707413">
      </trkpt>
      <trkpt lat="42.040919" lon="-87.710761">
      </trkpt>
      <trkpt lat="42.048194" lon="-87.710533">
      </trkpt>
      <trkpt lat="42.048046" lon="-87.724487">
      </trkpt>
      <trkpt lat="42.048046" lon="-87.724487">
      </trkpt>
      <trkpt lat="42.048379" lon="-87.699097">
      </trkpt>
      <trkpt lat="42.048591" lon="-87.693603">
      </trkpt>
      <trkpt lat="42.048527" lon="-87.688792">
      </trkpt>
      <trkpt lat="42.041263" lon="-87.688374">
      </trkpt>
      <trkpt lat="42.039458" lon="-87.687984">
      </trkpt>
      <trkpt lat="42.039436" lon="-87.685947">
      </trkpt>
      <trkpt lat="42.040173" lon="-87.685958">
      </trkpt>
      <trkpt lat="42.040173" lon="-87.685958">
      </trkpt>
      <trkpt lat="42.04124" lon="-87.685973">
      </trkpt>
      <trkpt lat="42.041268" lon="-87.690263">
      </trkpt>
      <trkpt lat="42.041009" lon="-87.705371">
      </trkpt>
      <trkpt lat="42.038576" lon="-87.705416">
      </trkpt>
      <trkpt lat="42.038576" lon="-87.705416">
      </trkpt>
      <trkpt lat="42.035603" lon="-87.705508">
      </trkpt>
      <trkpt lat="42.035552" lon="-87.70706">
      </trkpt>
      <trkpt lat="42.033715" lon="-87.70711">
      </trkpt>
      <trkpt lat="42.034007" lon="-87.686761">
      </trkpt>
      <trkpt lat="42.029894" lon="-87.685845">
      </trkpt>
      <trkpt lat="42.020734" lon="-87.684812">
      </trkpt>
      <trkpt lat="42.020734" lon="-87.684812">
      </trkpt>
      <trkpt lat="42.029894" lon="-87.685845">
      </trkpt>
      <trkpt lat="42.041263" lon="-87.688374">
      </trkpt>
      <trkpt lat="42.041201" lon="-87.680569">
      </trkpt>
      <trkpt lat="42.043378" lon="-87.680541">
      </trkpt>
      <trkpt lat="42.043378" lon="-87.680541">
      </trkpt>
      <trkpt lat="42.039944" lon="-87.68054">
      </trkpt>
      <trkpt lat="42.028177" lon="-87.678285">
      </trkpt>
      <trkpt lat="42.028177" lon="-87.678285">
      </trkpt>
      <trkpt lat="42.01941" lon="-87.676332">
      </trkpt>
      <trkpt lat="42.017327" lon="-87.675457">
      </trkpt>
      <trkpt lat="42.005339" lon="-87.673112">
      </trkpt>
      <trkpt lat="41.997191" lon="-87.670438">
      </trkpt>
      <trkpt lat="41.991712" lon="-87.670157">
      </trkpt>
      <trkpt lat="41.99177" lon="-87.665197">
      </trkpt>
      <trkpt lat="41.991183" lon="-87.66518">
      </trkpt>
      <trkpt lat="41.991183" lon="-87.66518">
      </trkpt>
      <trkpt lat="41.99177" lon="-87.665197">
      </trkpt>
      <trkpt lat="41.991712" lon="-87.670157">
      </trkpt>
      <trkpt lat="41.987608" lon="-87.669796">
      </trkpt>
      <trkpt lat="41.954302" lon="-87.66911">
      </trkpt>
      <trkpt lat="41.954086" lon="-87.688469">
      </trkpt>
      <trkpt lat="41.917587" lon="-87.687413">
      </trkpt>
      <trkpt lat="41.917413" lon="-87.705789">
      </trkpt>
      <trkpt lat="41.917413" lon="-87.705789">
      </trkpt>
      <trkpt lat="41.9174" lon="-87.70705">
      </trkpt>
      <trkpt lat="41.902833" lon="-87.706787">
      </trkpt>
      <trkpt lat="41.902687" lon="-87.725083">
      </trkpt>
      <trkpt lat="41.900672" lon="-87.72502">
      </trkpt>
    </trkseg>
  </trk>
</gpx>