<?xml version="1.0" encoding="UTF-8"?>
<gpx xmlns="http://www.topografix.com/GPX/1/1" xmlns:xsi="http://www.w3.org/2001/XMLSchema-instance" xsi:schemaLocation="http://www.topografix.com/GPX/1/1 http://www.topografix.com/GPX/1/1/gpx.xsd" version="1.1" creator="gpx.py -- https://github.com/tkrajina/gpxpy">
  <trk>
    <trkseg>
      <trkpt lat="41.918404" lon="-87.683685">
      </trkpt>
      <trkpt lat="41.918337" lon="-87.687437">
      </trkpt>
      <trkpt lat="41.924902" lon="-87.687645">
      </trkpt>
      <trkpt lat="41.924978" lon="-87.682301">
      </trkpt>
      <trkpt lat="41.926707" lon="-87.685177">
      </trkpt>
      <trkpt lat="41.940439" lon="-87.709664">
      </trkpt>
      <trkpt lat="41.942387" lon="-87.715161">
      </trkpt>
      <trkpt lat="41.947985" lon="-87.719618">
      </trkpt>
      <trkpt lat="41.960998" lon="-87.742619">
      </trkpt>
      <trkpt lat="41.965012" lon="-87.746732">
      </trkpt>
      <trkpt lat="41.980044" lon="-87.746614">
      </trkpt>
      <trkpt lat="41.987222" lon="-87.751348">
      </trkpt>
      <trkpt lat="42.001173" lon="-87.748745">
      </trkpt>
      <trkpt lat="42.009518" lon="-87.749189">
      </trkpt>
      <trkpt lat="42.014015" lon="-87.752849">
      </trkpt>
      <trkpt lat="42.021217" lon="-87.765343">
      </trkpt>
      <trkpt lat="42.026582" lon="-87.768599">
      </trkpt>
      <trkpt lat="42.034093" lon="-87.768152">
      </trkpt>
      <trkpt lat="42.042872" lon="-87.762218">
      </trkpt>
      <trkpt lat="42.052877" lon="-87.761543">
      </trkpt>
      <trkpt lat="42.062763" lon="-87.754799">
      </trkpt>
      <trkpt lat="42.0723" lon="-87.758325">
      </trkpt>
      <trkpt lat="42.07799" lon="-87.758527">
      </trkpt>
      <trkpt lat="42.079438" lon="-87.756627">
      </trkpt>
      <trkpt lat="42.078937" lon="-87.711058">
      </trkpt>
      <trkpt lat="42.076461" lon="-87.709012">
      </trkpt>
      <trkpt lat="42.076668" lon="-87.706858">
      </trkpt>
      <trkpt lat="42.076668" lon="-87.706858">
      </trkpt>
      <trkpt lat="42.07668" lon="-87.707701">
      </trkpt>
      <trkpt lat="42.077817" lon="-87.707693">
      </trkpt>
      <trkpt lat="42.077817" lon="-87.708516">
      </trkpt>
      <trkpt lat="42.077817" lon="-87.708516">
      </trkpt>
      <trkpt lat="42.077817" lon="-87.707693">
      </trkpt>
      <trkpt lat="42.07668" lon="-87.707701">
      </trkpt>
      <trkpt lat="42.076461" lon="-87.709012">
      </trkpt>
      <trkpt lat="42.052194" lon="-87.688763">
      </trkpt>
      <trkpt lat="42.05211" lon="-87.68425">
      </trkpt>
      <trkpt lat="42.050512" lon="-87.681861">
      </trkpt>
      <trkpt lat="42.047061" lon="-87.681897">
      </trkpt>
      <trkpt lat="42.046792" lon="-87.681841">
      </trkpt>
      <trkpt lat="42.046792" lon="-87.681841">
      </trkpt>
      <trkpt lat="42.047037" lon="-87.683456">
      </trkpt>
      <trkpt lat="42.047097" lon="-87.68872">
      </trkpt>
      <trkpt lat="42.048527" lon="-87.688792">
      </trkpt>
      <trkpt lat="42.051264" lon="-87.687935">
      </trkpt>
      <trkpt lat="42.051825" lon="-87.688175">
      </trkpt>
      <trkpt lat="42.053534" lon="-87.689961">
      </trkpt>
      <trkpt lat="42.055254" lon="-87.691181">
      </trkpt>
      <trkpt lat="42.059727" lon="-87.694945">
      </trkpt>
      <trkpt lat="42.057894" lon="-87.698812">
      </trkpt>
      <trkpt lat="42.058195" lon="-87.698808">
      </trkpt>
      <trkpt lat="42.058195" lon="-87.698808">
      </trkpt>
      <trkpt lat="42.057894" lon="-87.698812">
      </trkpt>
      <trkpt lat="42.052495" lon="-87.709225">
      </trkpt>
      <trkpt lat="42.055369" lon="-87.716109">
      </trkpt>
      <trkpt lat="42.055271" lon="-87.740001">
      </trkpt>
      <trkpt lat="42.041109" lon="-87.756258">
      </trkpt>
      <trkpt lat="42.040938" lon="-87.763691">
      </trkpt>
      <trkpt lat="42.03371" lon="-87.768504">
      </trkpt>
      <trkpt lat="42.026512" lon="-87.768822">
      </trkpt>
      <trkpt lat="42.021309" lon="-87.765749">
      </trkpt>
      <trkpt lat="42.009007" lon="-87.749252">
      </trkpt>
      <trkpt lat="41.987219" lon="-87.751521">
      </trkpt>
      <trkpt lat="41.980228" lon="-87.746835">
      </trkpt>
      <trkpt lat="41.966563" lon="-87.747223">
      </trkpt>
      <trkpt lat="41.962358" lon="-87.745232">
      </trkpt>
      <trkpt lat="41.947613" lon="-87.719592">
      </trkpt>
      <trkpt lat="41.94215" lon="-87.715306">
      </trkpt>
      <trkpt lat="41.917654" lon="-87.670146">
      </trkpt>
      <trkpt lat="41.906646" lon="-87.66137">
      </trkpt>
      <trkpt lat="41.897394" lon="-87.659066">
      </trkpt>
      <trkpt lat="41.892534" lon="-87.653065">
      </trkpt>
      <trkpt lat="41.89242" lon="-87.632701">
      </trkpt>
      <trkpt lat="41.890793" lon="-87.632683">
      </trkpt>
      <trkpt lat="41.891141" lon="-87.61158">
      </trkpt>
      <trkpt lat="41.891531" lon="-87.611588">
      </trkpt>
      <trkpt lat="41.891531" lon="-87.611588">
      </trkpt>
      <trkpt lat="41.891968" lon="-87.611597">
      </trkpt>
      <trkpt lat="41.891945" lon="-87.612627">
      </trkpt>
      <trkpt lat="41.891945" lon="-87.612627">
      </trkpt>
      <trkpt lat="41.8919" lon="-87.614335">
      </trkpt>
      <trkpt lat="41.891429" lon="-87.614189">
      </trkpt>
      <trkpt lat="41.889771" lon="-87.61419">
      </trkpt>
      <trkpt lat="41.887811" lon="-87.6142">
      </trkpt>
      <trkpt lat="41.887691" lon="-87.614407">
      </trkpt>
      <trkpt lat="41.887652" lon="-87.615105">
      </trkpt>
      <trkpt lat="41.887738" lon="-87.615368">
      </trkpt>
      <trkpt lat="41.887779" lon="-87.616012">
      </trkpt>
      <trkpt lat="41.887906" lon="-87.618658">
      </trkpt>
      <trkpt lat="41.887866" lon="-87.61954">
      </trkpt>
      <trkpt lat="41.887992" lon="-87.620783">
      </trkpt>
      <trkpt lat="41.886861" lon="-87.620789">
      </trkpt>
      <trkpt lat="41.886812" lon="-87.624639">
      </trkpt>
      <trkpt lat="41.884489" lon="-87.624571">
      </trkpt>
      <trkpt lat="41.884366" lon="-87.624344">
      </trkpt>
      <trkpt lat="41.884372" lon="-87.623414">
      </trkpt>
      <trkpt lat="41.884293" lon="-87.622907">
      </trkpt>
      <trkpt lat="41.884319" lon="-87.621085">
      </trkpt>
      <trkpt lat="41.884319" lon="-87.621085">
      </trkpt>
      <trkpt lat="41.884316" lon="-87.620576">
      </trkpt>
      <trkpt lat="41.884503" lon="-87.620586">
      </trkpt>
      <trkpt lat="41.884484" lon="-87.624371">
      </trkpt>
      <trkpt lat="41.88577" lon="-87.624431">
      </trkpt>
      <trkpt lat="41.885767" lon="-87.625004">
      </trkpt>
      <trkpt lat="41.885767" lon="-87.625004">
      </trkpt>
      <trkpt lat="41.88576" lon="-87.626286">
      </trkpt>
      <trkpt lat="41.882079" lon="-87.626192">
      </trkpt>
      <trkpt lat="41.881984" lon="-87.630875">
      </trkpt>
      <trkpt lat="41.875701" lon="-87.630715">
      </trkpt>
      <trkpt lat="41.875615" lon="-87.643841">
      </trkpt>
      <trkpt lat="41.875736" lon="-87.651991">
      </trkpt>
      <trkpt lat="41.876192" lon="-87.657268">
      </trkpt>
      <trkpt lat="41.876121" lon="-87.662425">
      </trkpt>
      <trkpt lat="41.876354" lon="-87.666742">
      </trkpt>
      <trkpt lat="41.869262" lon="-87.666531">
      </trkpt>
      <trkpt lat="41.8692" lon="-87.670488">
      </trkpt>
      <trkpt lat="41.8692" lon="-87.670488">
      </trkpt>
      <trkpt lat="41.869386" lon="-87.658278">
      </trkpt>
      <trkpt lat="41.870204" lon="-87.658311">
      </trkpt>
      <trkpt lat="41.870204" lon="-87.658311">
      </trkpt>
      <trkpt lat="41.869386" lon="-87.658278">
      </trkpt>
      <trkpt lat="41.869336" lon="-87.661642">
      </trkpt>
      <trkpt lat="41.857881" lon="-87.66131">
      </trkpt>
      <trkpt lat="41.857876" lon="-87.66163">
      </trkpt>
      <trkpt lat="41.857876" lon="-87.66163">
      </trkpt>
      <trkpt lat="41.857881" lon="-87.66131">
      </trkpt>
      <trkpt lat="41.857734" lon="-87.661305">
      </trkpt>
      <trkpt lat="41.854193" lon="-87.664137">
      </trkpt>
      <trkpt lat="41.854154" lon="-87.666112">
      </trkpt>
      <trkpt lat="41.837665" lon="-87.665804">
      </trkpt>
      <trkpt lat="41.839215" lon="-87.663035">
      </trkpt>
      <trkpt lat="41.837825" lon="-87.661734">
      </trkpt>
      <trkpt lat="41.837911" lon="-87.656018">
      </trkpt>
      <trkpt lat="41.837009" lon="-87.655991">
      </trkpt>
      <trkpt lat="41.837017" lon="-87.655484">
      </trkpt>
      <trkpt lat="41.837017" lon="-87.655484">
      </trkpt>
      <trkpt lat="41.837009" lon="-87.655991">
      </trkpt>
      <trkpt lat="41.830619" lon="-87.655749">
      </trkpt>
      <trkpt lat="41.830494" lon="-87.665633">
      </trkpt>
      <trkpt lat="41.77946" lon="-87.664285">
      </trkpt>
      <trkpt lat="41.779549" lon="-87.659366">
      </trkpt>
      <trkpt lat="41.772854" lon="-87.659179">
      </trkpt>
      <trkpt lat="41.772854" lon="-87.659179">
      </trkpt>
      <trkpt lat="41.779549" lon="-87.659366">
      </trkpt>
      <trkpt lat="41.779403" lon="-87.667862">
      </trkpt>
      <trkpt lat="41.780769" lon="-87.667894">
      </trkpt>
      <trkpt lat="41.780769" lon="-87.667894">
      </trkpt>
      <trkpt lat="41.781244" lon="-87.667905">
      </trkpt>
      <trkpt lat="41.781165" lon="-87.673951">
      </trkpt>
      <trkpt lat="41.793922" lon="-87.674307">
      </trkpt>
      <trkpt lat="41.793086" lon="-87.741856">
      </trkpt>
      <trkpt lat="41.794795" lon="-87.742732">
      </trkpt>
      <trkpt lat="41.798691" lon="-87.742845">
      </trkpt>
      <trkpt lat="41.797609" lon="-87.742983">
      </trkpt>
      <trkpt lat="41.797604" lon="-87.743235">
      </trkpt>
      <trkpt lat="41.795686" lon="-87.743185">
      </trkpt>
      <trkpt lat="41.795505" lon="-87.747745">
      </trkpt>
      <trkpt lat="41.795505" lon="-87.747745">
      </trkpt>
      <trkpt lat="41.795686" lon="-87.743185">
      </trkpt>
      <trkpt lat="41.797604" lon="-87.743235">
      </trkpt>
      <trkpt lat="41.797609" lon="-87.742983">
      </trkpt>
      <trkpt lat="41.79668" lon="-87.742962">
      </trkpt>
      <trkpt lat="41.816777" lon="-87.743306">
      </trkpt>
      <trkpt lat="41.835377" lon="-87.684658">
      </trkpt>
      <trkpt lat="41.836225" lon="-87.681522">
      </trkpt>
      <trkpt lat="41.836759" lon="-87.67351">
      </trkpt>
      <trkpt lat="41.836832" lon="-87.670534">
      </trkpt>
      <trkpt lat="41.830441" lon="-87.670393">
      </trkpt>
      <trkpt lat="41.830518" lon="-87.663497">
      </trkpt>
      <trkpt lat="41.830518" lon="-87.663497">
      </trkpt>
      <trkpt lat="41.830496" lon="-87.665501">
      </trkpt>
      <trkpt lat="41.83774" lon="-87.66568">
      </trkpt>
      <trkpt lat="41.847216" lon="-87.646483">
      </trkpt>
      <trkpt lat="41.852666" lon="-87.646499">
      </trkpt>
      <trkpt lat="41.852672" lon="-87.64473">
      </trkpt>
      <trkpt lat="41.855471" lon="-87.643738">
      </trkpt>
      <trkpt lat="41.857758" lon="-87.643778">
      </trkpt>
      <trkpt lat="41.885306" lon="-87.645735">
      </trkpt>
      <trkpt lat="41.888483" lon="-87.647404">
      </trkpt>
      <trkpt lat="41.890597" lon="-87.650048">
      </trkpt>
      <trkpt lat="41.891699" lon="-87.651108">
      </trkpt>
      <trkpt lat="41.89242" lon="-87.65026">
      </trkpt>
      <trkpt lat="41.892439" lon="-87.631145">
      </trkpt>
      <trkpt lat="41.889473" lon="-87.631072">
      </trkpt>
      <trkpt lat="41.889473" lon="-87.631072">
      </trkpt>
      <trkpt lat="41.889218" lon="-87.631063">
      </trkpt>
      <trkpt lat="41.889186" lon="-87.632434">
      </trkpt>
      <trkpt lat="41.8916" lon="-87.6325">
      </trkpt>
      <trkpt lat="41.891576" lon="-87.634054">
      </trkpt>
      <trkpt lat="41.890774" lon="-87.634037">
      </trkpt>
      <trkpt lat="41.890784" lon="-87.633354">
      </trkpt>
      <trkpt lat="41.890784" lon="-87.633354">
      </trkpt>
      <trkpt lat="41.890793" lon="-87.632683">
      </trkpt>
      <trkpt lat="41.886947" lon="-87.632499">
      </trkpt>
      <trkpt lat="41.886906" lon="-87.63544">
      </trkpt>
      <trkpt lat="41.885732" lon="-87.636973">
      </trkpt>
      <trkpt lat="41.885686" lon="-87.645903">
      </trkpt>
      <trkpt lat="41.877697" lon="-87.645988">
      </trkpt>
      <trkpt lat="41.861936" lon="-87.644538">
      </trkpt>
      <trkpt lat="41.855528" lon="-87.645083">
      </trkpt>
      <trkpt lat="41.854689" lon="-87.64655">
      </trkpt>
      <trkpt lat="41.838041" lon="-87.646268">
      </trkpt>
      <trkpt lat="41.837986" lon="-87.650455">
      </trkpt>
      <trkpt lat="41.837986" lon="-87.650455">
      </trkpt>
      <trkpt lat="41.838" lon="-87.64943">
      </trkpt>
      <trkpt lat="41.843501" lon="-87.65413">
      </trkpt>
      <trkpt lat="41.848044" lon="-87.644778">
      </trkpt>
      <trkpt lat="41.849104" lon="-87.641877">
      </trkpt>
      <trkpt lat="41.849822" lon="-87.640556">
      </trkpt>
      <trkpt lat="41.850538" lon="-87.639659">
      </trkpt>
      <trkpt lat="41.852866" lon="-87.634827">
      </trkpt>
      <trkpt lat="41.852788" lon="-87.632031">
      </trkpt>
      <trkpt lat="41.851747" lon="-87.632001">
      </trkpt>
      <trkpt lat="41.851747" lon="-87.632001">
      </trkpt>
      <trkpt lat="41.852788" lon="-87.632031">
      </trkpt>
      <trkpt lat="41.85282" lon="-87.627091">
      </trkpt>
      <trkpt lat="41.846782" lon="-87.626975">
      </trkpt>
      <trkpt lat="41.84692" lon="-87.626258">
      </trkpt>
      <trkpt lat="41.847885" lon="-87.622663">
      </trkpt>
      <trkpt lat="41.847976" lon="-87.616851">
      </trkpt>
      <trkpt lat="41.848153" lon="-87.613392">
      </trkpt>
      <trkpt lat="41.84938" lon="-87.612168">
      </trkpt>
      <trkpt lat="41.860334" lon="-87.617619">
      </trkpt>
      <trkpt lat="41.8661" lon="-87.619244">
      </trkpt>
      <trkpt lat="41.869799" lon="-87.617003">
      </trkpt>
      <trkpt lat="41.881825" lon="-87.617167">
      </trkpt>
      <trkpt lat="41.884762" lon="-87.613645">
      </trkpt>
      <trkpt lat="41.892577" lon="-87.613978">
      </trkpt>
      <trkpt lat="41.900921" lon="-87.619441">
      </trkpt>
      <trkpt lat="41.901629" lon="-87.622526">
      </trkpt>
      <trkpt lat="41.902638" lon="-87.623907">
      </trkpt>
      <trkpt lat="41.909833" lon="-87.625717">
      </trkpt>
      <trkpt lat="41.913347" lon="-87.626017">
      </trkpt>
      <trkpt lat="41.912344" lon="-87.627835">
      </trkpt>
      <trkpt lat="41.913404" lon="-87.631075">
      </trkpt>
      <trkpt lat="41.913169" lon="-87.632856">
      </trkpt>
      <trkpt lat="41.915623" lon="-87.634358">
      </trkpt>
      <trkpt lat="41.915479" lon="-87.634849">
      </trkpt>
      <trkpt lat="41.918106" lon="-87.638503">
      </trkpt>
      <trkpt lat="41.918106" lon="-87.638503">
      </trkpt>
      <trkpt lat="41.918106" lon="-87.638503">
      </trkpt>
      <trkpt lat="41.918106" lon="-87.638503">
      </trkpt>
      <trkpt lat="41.918322" lon="-87.638808">
      </trkpt>
      <trkpt lat="41.911164" lon="-87.638583">
      </trkpt>
      <trkpt lat="41.910536" lon="-87.673806">
      </trkpt>
      <trkpt lat="41.90961" lon="-87.673782">
      </trkpt>
      <trkpt lat="41.909456" lon="-87.673955">
      </trkpt>
      <trkpt lat="41.909456" lon="-87.673955">
      </trkpt>
      <trkpt lat="41.910536" lon="-87.673806">
      </trkpt>
      <trkpt lat="41.910674" lon="-87.664445">
      </trkpt>
      <trkpt lat="41.915886" lon="-87.668091">
      </trkpt>
      <trkpt lat="41.91815" lon="-87.670574">
      </trkpt>
      <trkpt lat="41.929581" lon="-87.690595">
      </trkpt>
      <trkpt lat="41.932133" lon="-87.694122">
      </trkpt>
      <trkpt lat="41.932179" lon="-87.687832">
      </trkpt>
      <trkpt lat="41.949742" lon="-87.688345">
      </trkpt>
      <trkpt lat="41.949742" lon="-87.688345">
      </trkpt>
      <trkpt lat="41.953985" lon="-87.688469">
      </trkpt>
      <trkpt lat="41.954306" lon="-87.668983">
      </trkpt>
      <trkpt lat="41.968877" lon="-87.669348">
      </trkpt>
      <trkpt lat="41.96907" lon="-87.656225">
      </trkpt>
      <trkpt lat="41.974712" lon="-87.656365">
      </trkpt>
      <trkpt lat="41.974712" lon="-87.656365">
      </trkpt>
      <trkpt lat="41.976381" lon="-87.656408">
      </trkpt>
      <trkpt lat="41.976453" lon="-87.651813">
      </trkpt>
      <trkpt lat="41.974283" lon="-87.649568">
      </trkpt>
      <trkpt lat="41.972134" lon="-87.648822">
      </trkpt>
      <trkpt lat="41.955203" lon="-87.644905">
      </trkpt>
      <trkpt lat="41.951193" lon="-87.64469">
      </trkpt>
      <trkpt lat="41.942042" lon="-87.639566">
      </trkpt>
      <trkpt lat="41.940268" lon="-87.638796">
      </trkpt>
      <trkpt lat="41.940119" lon="-87.639537">
      </trkpt>
      <trkpt lat="41.932914" lon="-87.63931">
      </trkpt>
      <trkpt lat="41.932636" lon="-87.653863">
      </trkpt>
      <trkpt lat="41.931569" lon="-87.653827">
      </trkpt>
    </trkseg>
  </trk>
</gpx>