<?xml version="1.0" encoding="UTF-8"?>
<gpx xmlns="http://www.topografix.com/GPX/1/1" xmlns:xsi="http://www.w3.org/2001/XMLSchema-instance" xsi:schemaLocation="http://www.topografix.com/GPX/1/1 http://www.topografix.com/GPX/1/1/gpx.xsd" version="1.1" creator="gpx.py -- https://github.com/tkrajina/gpxpy">
  <trk>
    <trkseg>
      <trkpt lat="41.986522" lon="-87.850966">
      </trkpt>
      <trkpt lat="41.988175" lon="-87.852095">
      </trkpt>
      <trkpt lat="41.988287" lon="-87.852779">
      </trkpt>
      <trkpt lat="41.98856" lon="-87.852741">
      </trkpt>
      <trkpt lat="41.984459" lon="-87.823337">
      </trkpt>
      <trkpt lat="41.983191" lon="-87.8235">
      </trkpt>
      <trkpt lat="41.983238" lon="-87.821798">
      </trkpt>
      <trkpt lat="41.982178" lon="-87.812646">
      </trkpt>
      <trkpt lat="41.982345" lon="-87.792871">
      </trkpt>
      <trkpt lat="41.982061" lon="-87.788361">
      </trkpt>
      <trkpt lat="41.982061" lon="-87.787747">
      </trkpt>
      <trkpt lat="41.982911" lon="-87.787729">
      </trkpt>
      <trkpt lat="41.983038" lon="-87.764532">
      </trkpt>
      <trkpt lat="41.972794" lon="-87.747761">
      </trkpt>
      <trkpt lat="41.966563" lon="-87.747223">
      </trkpt>
      <trkpt lat="41.962358" lon="-87.745232">
      </trkpt>
      <trkpt lat="41.947613" lon="-87.719592">
      </trkpt>
      <trkpt lat="41.94215" lon="-87.715306">
      </trkpt>
      <trkpt lat="41.940372" lon="-87.709927">
      </trkpt>
      <trkpt lat="41.917654" lon="-87.670146">
      </trkpt>
      <trkpt lat="41.906646" lon="-87.66137">
      </trkpt>
      <trkpt lat="41.897394" lon="-87.659066">
      </trkpt>
      <trkpt lat="41.892534" lon="-87.653065">
      </trkpt>
      <trkpt lat="41.892632" lon="-87.617714">
      </trkpt>
      <trkpt lat="41.891456" lon="-87.617676">
      </trkpt>
      <trkpt lat="41.891456" lon="-87.617676">
      </trkpt>
      <trkpt lat="41.892632" lon="-87.617714">
      </trkpt>
      <trkpt lat="41.892685" lon="-87.614597">
      </trkpt>
      <trkpt lat="41.893135" lon="-87.61463">
      </trkpt>
      <trkpt lat="41.89823" lon="-87.618028">
      </trkpt>
      <trkpt lat="41.89823" lon="-87.618028">
      </trkpt>
      <trkpt lat="41.897681" lon="-87.617653">
      </trkpt>
      <trkpt lat="41.897618" lon="-87.621852">
      </trkpt>
      <trkpt lat="41.896766" lon="-87.621834">
      </trkpt>
      <trkpt lat="41.896844" lon="-87.616893">
      </trkpt>
      <trkpt lat="41.885247" lon="-87.614081">
      </trkpt>
      <trkpt lat="41.881821" lon="-87.617453">
      </trkpt>
      <trkpt lat="41.866068" lon="-87.619589">
      </trkpt>
      <trkpt lat="41.853242" lon="-87.614728">
      </trkpt>
      <trkpt lat="41.848506" lon="-87.614444">
      </trkpt>
      <trkpt lat="41.84732" lon="-87.626818">
      </trkpt>
      <trkpt lat="41.847855" lon="-87.631727">
      </trkpt>
      <trkpt lat="41.843118" lon="-87.631351">
      </trkpt>
      <trkpt lat="41.779686" lon="-87.631207">
      </trkpt>
      <trkpt lat="41.772231" lon="-87.626113">
      </trkpt>
      <trkpt lat="41.72052" lon="-87.624621">
      </trkpt>
      <trkpt lat="41.71536" lon="-87.62925">
      </trkpt>
      <trkpt lat="41.712978" lon="-87.652269">
      </trkpt>
      <trkpt lat="41.700924" lon="-87.653382">
      </trkpt>
      <trkpt lat="41.695638" lon="-87.65921">
      </trkpt>
      <trkpt lat="41.684066" lon="-87.662318">
      </trkpt>
      <trkpt lat="41.677524" lon="-87.662461">
      </trkpt>
      <trkpt lat="41.676676" lon="-87.719742">
      </trkpt>
      <trkpt lat="41.674707" lon="-87.71966">
      </trkpt>
      <trkpt lat="41.674661" lon="-87.7227">
      </trkpt>
      <trkpt lat="41.671707" lon="-87.72258">
      </trkpt>
      <trkpt lat="41.672535" lon="-87.725242">
      </trkpt>
      <trkpt lat="41.672535" lon="-87.725242">
      </trkpt>
      <trkpt lat="41.672671" lon="-87.72634">
      </trkpt>
      <trkpt lat="41.675499" lon="-87.726445">
      </trkpt>
      <trkpt lat="41.675469" lon="-87.729402">
      </trkpt>
      <trkpt lat="41.677091" lon="-87.729479">
      </trkpt>
      <trkpt lat="41.677015" lon="-87.732897">
      </trkpt>
      <trkpt lat="41.677094" lon="-87.733274">
      </trkpt>
      <trkpt lat="41.679756" lon="-87.734977">
      </trkpt>
      <trkpt lat="41.680495" lon="-87.735038">
      </trkpt>
      <trkpt lat="41.680558" lon="-87.731587">
      </trkpt>
      <trkpt lat="41.680558" lon="-87.731587">
      </trkpt>
      <trkpt lat="41.68059" lon="-87.73544">
      </trkpt>
      <trkpt lat="41.683666" lon="-87.737345">
      </trkpt>
      <trkpt lat="41.683685" lon="-87.73946">
      </trkpt>
      <trkpt lat="41.666204" lon="-87.73886">
      </trkpt>
      <trkpt lat="41.665917" lon="-87.750768">
      </trkpt>
      <trkpt lat="41.676645" lon="-87.772531">
      </trkpt>
      <trkpt lat="41.683674" lon="-87.779635">
      </trkpt>
      <trkpt lat="41.702461" lon="-87.787611">
      </trkpt>
      <trkpt lat="41.716955" lon="-87.805185">
      </trkpt>
      <trkpt lat="41.728985" lon="-87.812282">
      </trkpt>
      <trkpt lat="41.740705" lon="-87.828696">
      </trkpt>
      <trkpt lat="41.74646" lon="-87.84289">
      </trkpt>
      <trkpt lat="41.747271" lon="-87.856988">
      </trkpt>
      <trkpt lat="41.76636" lon="-87.903115">
      </trkpt>
      <trkpt lat="41.772785" lon="-87.907051">
      </trkpt>
      <trkpt lat="41.797088" lon="-87.908162">
      </trkpt>
      <trkpt lat="41.83858" lon="-87.919237">
      </trkpt>
      <trkpt lat="41.85016" lon="-87.923783">
      </trkpt>
      <trkpt lat="41.853412" lon="-87.930023">
      </trkpt>
      <trkpt lat="41.852381" lon="-87.93502">
      </trkpt>
      <trkpt lat="41.845202" lon="-87.947079">
      </trkpt>
      <trkpt lat="41.84403" lon="-87.978457">
      </trkpt>
      <trkpt lat="41.835098" lon="-88.005619">
      </trkpt>
      <trkpt lat="41.834573" lon="-88.010418">
      </trkpt>
      <trkpt lat="41.835184" lon="-88.010849">
      </trkpt>
      <trkpt lat="41.841639" lon="-87.99419">
      </trkpt>
      <trkpt lat="41.843559" lon="-87.994645">
      </trkpt>
      <trkpt lat="41.843559" lon="-87.994645">
      </trkpt>
      <trkpt lat="41.84231" lon="-87.994641">
      </trkpt>
      <trkpt lat="41.841639" lon="-87.99419">
      </trkpt>
      <trkpt lat="41.837227" lon="-88.00518">
      </trkpt>
      <trkpt lat="41.835967" lon="-88.009089">
      </trkpt>
      <trkpt lat="41.834952" lon="-88.01421">
      </trkpt>
      <trkpt lat="41.833659" lon="-88.025059">
      </trkpt>
      <trkpt lat="41.833659" lon="-88.025059">
      </trkpt>
      <trkpt lat="41.833089" lon="-88.029956">
      </trkpt>
      <trkpt lat="41.827499" lon="-88.02893">
      </trkpt>
      <trkpt lat="41.824493" lon="-88.029008">
      </trkpt>
      <trkpt lat="41.822486" lon="-88.027611">
      </trkpt>
      <trkpt lat="41.822475" lon="-88.02472">
      </trkpt>
      <trkpt lat="41.831291" lon="-88.017113">
      </trkpt>
      <trkpt lat="41.836259" lon="-88.000391">
      </trkpt>
      <trkpt lat="41.843825" lon="-87.978408">
      </trkpt>
      <trkpt lat="41.844922" lon="-87.947329">
      </trkpt>
      <trkpt lat="41.85191" lon="-87.934852">
      </trkpt>
      <trkpt lat="41.852971" lon="-87.929177">
      </trkpt>
      <trkpt lat="41.849337" lon="-87.923272">
      </trkpt>
      <trkpt lat="41.844405" lon="-87.92016">
      </trkpt>
      <trkpt lat="41.825922" lon="-87.918148">
      </trkpt>
      <trkpt lat="41.819609" lon="-87.914719">
      </trkpt>
      <trkpt lat="41.811745" lon="-87.913728">
      </trkpt>
      <trkpt lat="41.797318" lon="-87.908492">
      </trkpt>
      <trkpt lat="41.777082" lon="-87.907702">
      </trkpt>
      <trkpt lat="41.770138" lon="-87.907057">
      </trkpt>
      <trkpt lat="41.766463" lon="-87.908565">
      </trkpt>
      <trkpt lat="41.76355" lon="-87.905448">
      </trkpt>
      <trkpt lat="41.761967" lon="-87.903511">
      </trkpt>
      <trkpt lat="41.759834" lon="-87.901985">
      </trkpt>
      <trkpt lat="41.759037" lon="-87.903019">
      </trkpt>
      <trkpt lat="41.760505" lon="-87.902515">
      </trkpt>
      <trkpt lat="41.760882" lon="-87.873751">
      </trkpt>
      <trkpt lat="41.763899" lon="-87.851994">
      </trkpt>
      <trkpt lat="41.795245" lon="-87.818688">
      </trkpt>
      <trkpt lat="41.796609" lon="-87.807905">
      </trkpt>
      <trkpt lat="41.814944" lon="-87.749519">
      </trkpt>
      <trkpt lat="41.816718" lon="-87.7435">
      </trkpt>
      <trkpt lat="41.784351" lon="-87.741532">
      </trkpt>
      <trkpt lat="41.78485" lon="-87.742426">
      </trkpt>
      <trkpt lat="41.78386" lon="-87.743755">
      </trkpt>
      <trkpt lat="41.786276" lon="-87.746931">
      </trkpt>
      <trkpt lat="41.786276" lon="-87.746931">
      </trkpt>
      <trkpt lat="41.786047" lon="-87.746841">
      </trkpt>
      <trkpt lat="41.78386" lon="-87.743755">
      </trkpt>
      <trkpt lat="41.78485" lon="-87.742426">
      </trkpt>
      <trkpt lat="41.784351" lon="-87.741532">
      </trkpt>
      <trkpt lat="41.782744" lon="-87.742472">
      </trkpt>
      <trkpt lat="41.778439" lon="-87.742387">
      </trkpt>
      <trkpt lat="41.777694" lon="-87.780041">
      </trkpt>
      <trkpt lat="41.777694" lon="-87.780041">
      </trkpt>
      <trkpt lat="41.778048" lon="-87.761708">
      </trkpt>
      <trkpt lat="41.810298" lon="-87.762738">
      </trkpt>
      <trkpt lat="41.836574" lon="-87.680867">
      </trkpt>
      <trkpt lat="41.837594" lon="-87.667241">
      </trkpt>
      <trkpt lat="41.841885" lon="-87.658964">
      </trkpt>
      <trkpt lat="41.846659" lon="-87.642563">
      </trkpt>
      <trkpt lat="41.850742" lon="-87.644555">
      </trkpt>
      <trkpt lat="41.873493" lon="-87.644854">
      </trkpt>
      <trkpt lat="41.880374" lon="-87.645275">
      </trkpt>
      <trkpt lat="41.881847" lon="-87.645355">
      </trkpt>
      <trkpt lat="41.882198" lon="-87.645393">
      </trkpt>
      <trkpt lat="41.883308" lon="-87.645396">
      </trkpt>
      <trkpt lat="41.885689" lon="-87.645365">
      </trkpt>
      <trkpt lat="41.885665" lon="-87.647482">
      </trkpt>
      <trkpt lat="41.896405" lon="-87.647675">
      </trkpt>
      <trkpt lat="41.896481" lon="-87.642947">
      </trkpt>
      <trkpt lat="41.900414" lon="-87.643088">
      </trkpt>
      <trkpt lat="41.900434" lon="-87.641906">
      </trkpt>
      <trkpt lat="41.899352" lon="-87.641864">
      </trkpt>
      <trkpt lat="41.899348" lon="-87.642068">
      </trkpt>
      <trkpt lat="41.899348" lon="-87.642068">
      </trkpt>
      <trkpt lat="41.899352" lon="-87.641864">
      </trkpt>
      <trkpt lat="41.896963" lon="-87.641772">
      </trkpt>
      <trkpt lat="41.896492" lon="-87.641559">
      </trkpt>
      <trkpt lat="41.896556" lon="-87.637178">
      </trkpt>
      <trkpt lat="41.898165" lon="-87.63724">
      </trkpt>
      <trkpt lat="41.898197" lon="-87.634817">
      </trkpt>
      <trkpt lat="41.898197" lon="-87.634817">
      </trkpt>
      <trkpt lat="41.898205" lon="-87.634269">
      </trkpt>
      <trkpt lat="41.891576" lon="-87.634054">
      </trkpt>
      <trkpt lat="41.891225" lon="-87.644384">
      </trkpt>
      <trkpt lat="41.885699" lon="-87.644242">
      </trkpt>
      <trkpt lat="41.885686" lon="-87.645903">
      </trkpt>
      <trkpt lat="41.881827" lon="-87.645999">
      </trkpt>
      <trkpt lat="41.880956" lon="-87.646134">
      </trkpt>
      <trkpt lat="41.879569" lon="-87.646145">
      </trkpt>
      <trkpt lat="41.878121" lon="-87.646166">
      </trkpt>
      <trkpt lat="41.875728" lon="-87.649135">
      </trkpt>
      <trkpt lat="41.875633" lon="-87.697949">
      </trkpt>
      <trkpt lat="41.871015" lon="-87.767488">
      </trkpt>
      <trkpt lat="41.874235" lon="-87.810299">
      </trkpt>
      <trkpt lat="41.869778" lon="-87.887193">
      </trkpt>
      <trkpt lat="41.873868" lon="-87.903102">
      </trkpt>
      <trkpt lat="41.868556" lon="-87.918965">
      </trkpt>
      <trkpt lat="41.857187" lon="-87.929548">
      </trkpt>
      <trkpt lat="41.845298" lon="-87.946695">
      </trkpt>
      <trkpt lat="41.84403" lon="-87.978457">
      </trkpt>
      <trkpt lat="41.832098" lon="-88.015984">
      </trkpt>
      <trkpt lat="41.827558" lon="-88.021676">
      </trkpt>
      <trkpt lat="41.813668" lon="-88.028569">
      </trkpt>
      <trkpt lat="41.810006" lon="-88.034292">
      </trkpt>
      <trkpt lat="41.810084" lon="-88.073498">
      </trkpt>
      <trkpt lat="41.805662" lon="-88.087614">
      </trkpt>
      <trkpt lat="41.806483" lon="-88.159381">
      </trkpt>
      <trkpt lat="41.807737" lon="-88.164816">
      </trkpt>
      <trkpt lat="41.808158" lon="-88.166633">
      </trkpt>
      <trkpt lat="41.842049" lon="-88.17093">
      </trkpt>
      <trkpt lat="41.856978" lon="-88.160935">
      </trkpt>
      <trkpt lat="41.857012" lon="-88.176889">
      </trkpt>
      <trkpt lat="41.861458" lon="-88.192877">
      </trkpt>
      <trkpt lat="41.863763" lon="-88.19473">
      </trkpt>
      <trkpt lat="41.885083" lon="-88.194407">
      </trkpt>
      <trkpt lat="41.884636" lon="-88.204904">
      </trkpt>
      <trkpt lat="41.884636" lon="-88.204904">
      </trkpt>
      <trkpt lat="41.888137" lon="-88.151092">
      </trkpt>
      <trkpt lat="41.907621" lon="-88.150531">
      </trkpt>
      <trkpt lat="41.902084" lon="-88.102946">
      </trkpt>
      <trkpt lat="41.904083" lon="-88.037137">
      </trkpt>
      <trkpt lat="41.947209" lon="-88.037235">
      </trkpt>
      <trkpt lat="41.958023" lon="-88.026829">
      </trkpt>
      <trkpt lat="41.979277" lon="-88.023332">
      </trkpt>
      <trkpt lat="41.993285" lon="-88.023633">
      </trkpt>
      <trkpt lat="42.017964" lon="-88.030784">
      </trkpt>
      <trkpt lat="42.045111" lon="-88.029844">
      </trkpt>
      <trkpt lat="42.052731" lon="-88.028387">
      </trkpt>
      <trkpt lat="42.056683" lon="-88.024448">
      </trkpt>
      <trkpt lat="42.05373" lon="-88.012455">
      </trkpt>
      <trkpt lat="42.03647" lon="-87.97554">
      </trkpt>
      <trkpt lat="42.021115" lon="-87.954188">
      </trkpt>
      <trkpt lat="42.007134" lon="-87.898161">
      </trkpt>
      <trkpt lat="41.997457" lon="-87.87696">
      </trkpt>
      <trkpt lat="41.988327" lon="-87.864082">
      </trkpt>
      <trkpt lat="41.983769" lon="-87.850425">
      </trkpt>
      <trkpt lat="41.982055" lon="-87.78387">
      </trkpt>
      <trkpt lat="41.947686" lon="-87.720007">
      </trkpt>
      <trkpt lat="41.942115" lon="-87.715518">
      </trkpt>
      <trkpt lat="41.940478" lon="-87.712526">
      </trkpt>
      <trkpt lat="41.942239" lon="-87.712582">
      </trkpt>
      <trkpt lat="41.942862" lon="-87.715459">
      </trkpt>
    </trkseg>
  </trk>
</gpx>