<?xml version="1.0" encoding="UTF-8"?>
<gpx xmlns="http://www.topografix.com/GPX/1/1" xmlns:xsi="http://www.w3.org/2001/XMLSchema-instance" xsi:schemaLocation="http://www.topografix.com/GPX/1/1 http://www.topografix.com/GPX/1/1/gpx.xsd" version="1.1" creator="gpx.py -- https://github.com/tkrajina/gpxpy">
  <trk>
    <trkseg>
      <trkpt lat="42.044647" lon="-87.690207">
      </trkpt>
      <trkpt lat="42.041268" lon="-87.690263">
      </trkpt>
      <trkpt lat="42.040894" lon="-87.75648">
      </trkpt>
      <trkpt lat="42.022521" lon="-87.769885">
      </trkpt>
      <trkpt lat="42.020662" lon="-87.772571">
      </trkpt>
      <trkpt lat="42.019497" lon="-87.772675">
      </trkpt>
      <trkpt lat="42.019194" lon="-87.777105">
      </trkpt>
      <trkpt lat="42.018802" lon="-87.776921">
      </trkpt>
      <trkpt lat="42.012912" lon="-87.789498">
      </trkpt>
      <trkpt lat="42.005145" lon="-87.782831">
      </trkpt>
      <trkpt lat="42.003394" lon="-87.779748">
      </trkpt>
      <trkpt lat="42.003394" lon="-87.779748">
      </trkpt>
      <trkpt lat="41.99731" lon="-87.766713">
      </trkpt>
      <trkpt lat="41.997218" lon="-87.74227">
      </trkpt>
      <trkpt lat="41.995388" lon="-87.742295">
      </trkpt>
      <trkpt lat="41.995111" lon="-87.74253">
      </trkpt>
      <trkpt lat="41.995111" lon="-87.74253">
      </trkpt>
      <trkpt lat="41.989982" lon="-87.745902">
      </trkpt>
      <trkpt lat="41.990525" lon="-87.751817">
      </trkpt>
      <trkpt lat="41.991757" lon="-87.751942">
      </trkpt>
      <trkpt lat="41.986057" lon="-87.751225">
      </trkpt>
      <trkpt lat="41.980228" lon="-87.746835">
      </trkpt>
      <trkpt lat="41.966563" lon="-87.747223">
      </trkpt>
      <trkpt lat="41.962358" lon="-87.745232">
      </trkpt>
      <trkpt lat="41.947613" lon="-87.719592">
      </trkpt>
      <trkpt lat="41.94215" lon="-87.715306">
      </trkpt>
      <trkpt lat="41.940372" lon="-87.709927">
      </trkpt>
      <trkpt lat="41.917654" lon="-87.670146">
      </trkpt>
      <trkpt lat="41.906646" lon="-87.66137">
      </trkpt>
      <trkpt lat="41.897685" lon="-87.659246">
      </trkpt>
      <trkpt lat="41.886261" lon="-87.646315">
      </trkpt>
      <trkpt lat="41.884406" lon="-87.646574">
      </trkpt>
      <trkpt lat="41.884373" lon="-87.64978">
      </trkpt>
      <trkpt lat="41.886778" lon="-87.649838">
      </trkpt>
      <trkpt lat="41.886776" lon="-87.649954">
      </trkpt>
      <trkpt lat="41.886776" lon="-87.649954">
      </trkpt>
      <trkpt lat="41.88676" lon="-87.651006">
      </trkpt>
      <trkpt lat="41.887346" lon="-87.65103">
      </trkpt>
      <trkpt lat="41.887378" lon="-87.648695">
      </trkpt>
      <trkpt lat="41.889017" lon="-87.648718">
      </trkpt>
      <trkpt lat="41.889251" lon="-87.628704">
      </trkpt>
      <trkpt lat="41.889251" lon="-87.628704">
      </trkpt>
      <trkpt lat="41.889788" lon="-87.624184">
      </trkpt>
      <trkpt lat="41.888229" lon="-87.624567">
      </trkpt>
      <trkpt lat="41.887462" lon="-87.615811">
      </trkpt>
      <trkpt lat="41.887175" lon="-87.614014">
      </trkpt>
      <trkpt lat="41.885118" lon="-87.61394">
      </trkpt>
      <trkpt lat="41.881821" lon="-87.617453">
      </trkpt>
      <trkpt lat="41.869765" lon="-87.617261">
      </trkpt>
      <trkpt lat="41.866068" lon="-87.619589">
      </trkpt>
      <trkpt lat="41.853242" lon="-87.614728">
      </trkpt>
      <trkpt lat="41.849799" lon="-87.613506">
      </trkpt>
      <trkpt lat="41.848506" lon="-87.614444">
      </trkpt>
      <trkpt lat="41.848101" lon="-87.623443">
      </trkpt>
      <trkpt lat="41.84732" lon="-87.626818">
      </trkpt>
      <trkpt lat="41.848155" lon="-87.630758">
      </trkpt>
      <trkpt lat="41.847855" lon="-87.631727">
      </trkpt>
      <trkpt lat="41.843118" lon="-87.631351">
      </trkpt>
      <trkpt lat="41.819121" lon="-87.630789">
      </trkpt>
      <trkpt lat="41.816682" lon="-87.631192">
      </trkpt>
      <trkpt lat="41.816426" lon="-87.631192">
      </trkpt>
      <trkpt lat="41.816544" lon="-87.623022">
      </trkpt>
      <trkpt lat="41.815421" lon="-87.623001">
      </trkpt>
      <trkpt lat="41.815421" lon="-87.623001">
      </trkpt>
      <trkpt lat="41.814738" lon="-87.622988">
      </trkpt>
      <trkpt lat="41.814689" lon="-87.626222">
      </trkpt>
      <trkpt lat="41.816493" lon="-87.626265">
      </trkpt>
      <trkpt lat="41.816448" lon="-87.629441">
      </trkpt>
      <trkpt lat="41.816639" lon="-87.629444">
      </trkpt>
      <trkpt lat="41.837743" lon="-87.630393">
      </trkpt>
      <trkpt lat="41.842376" lon="-87.630317">
      </trkpt>
      <trkpt lat="41.844144" lon="-87.631347">
      </trkpt>
      <trkpt lat="41.84523" lon="-87.633465">
      </trkpt>
      <trkpt lat="41.847286" lon="-87.641891">
      </trkpt>
      <trkpt lat="41.850184" lon="-87.644549">
      </trkpt>
      <trkpt lat="41.852489" lon="-87.645182">
      </trkpt>
      <trkpt lat="41.856638" lon="-87.644172">
      </trkpt>
      <trkpt lat="41.8636" lon="-87.644363">
      </trkpt>
      <trkpt lat="41.86715" lon="-87.644093">
      </trkpt>
      <trkpt lat="41.867183" lon="-87.642187">
      </trkpt>
      <trkpt lat="41.871991" lon="-87.642356">
      </trkpt>
      <trkpt lat="41.871994" lon="-87.642146">
      </trkpt>
      <trkpt lat="41.871994" lon="-87.642146">
      </trkpt>
      <trkpt lat="41.871991" lon="-87.642356">
      </trkpt>
      <trkpt lat="41.879291" lon="-87.642566">
      </trkpt>
      <trkpt lat="41.879249" lon="-87.645368">
      </trkpt>
      <trkpt lat="41.881847" lon="-87.645355">
      </trkpt>
      <trkpt lat="41.882198" lon="-87.645393">
      </trkpt>
      <trkpt lat="41.885306" lon="-87.645735">
      </trkpt>
      <trkpt lat="41.887151" lon="-87.646457">
      </trkpt>
      <trkpt lat="41.8891" lon="-87.648003">
      </trkpt>
      <trkpt lat="41.890597" lon="-87.650048">
      </trkpt>
      <trkpt lat="41.891699" lon="-87.651108">
      </trkpt>
      <trkpt lat="41.892164" lon="-87.650896">
      </trkpt>
      <trkpt lat="41.89242" lon="-87.65026">
      </trkpt>
      <trkpt lat="41.892476" lon="-87.628093">
      </trkpt>
      <trkpt lat="41.891667" lon="-87.628071">
      </trkpt>
      <trkpt lat="41.891657" lon="-87.628847">
      </trkpt>
      <trkpt lat="41.891657" lon="-87.628847">
      </trkpt>
      <trkpt lat="41.891644" lon="-87.629638">
      </trkpt>
      <trkpt lat="41.892457" lon="-87.62966">
      </trkpt>
      <trkpt lat="41.892541" lon="-87.624121">
      </trkpt>
      <trkpt lat="41.900824" lon="-87.624042">
      </trkpt>
      <trkpt lat="41.912141" lon="-87.62589">
      </trkpt>
      <trkpt lat="41.928415" lon="-87.631851">
      </trkpt>
      <trkpt lat="41.934381" lon="-87.632152">
      </trkpt>
      <trkpt lat="41.941219" lon="-87.638833">
      </trkpt>
      <trkpt lat="41.950931" lon="-87.644376">
      </trkpt>
      <trkpt lat="41.973046" lon="-87.648738">
      </trkpt>
      <trkpt lat="41.984866" lon="-87.652765">
      </trkpt>
      <trkpt lat="41.985467" lon="-87.660132">
      </trkpt>
      <trkpt lat="41.990006" lon="-87.660278">
      </trkpt>
      <trkpt lat="41.989936" lon="-87.665002">
      </trkpt>
    </trkseg>
  </trk>
</gpx>