<?xml version="1.0" encoding="UTF-8"?>
<gpx xmlns="http://www.topografix.com/GPX/1/1" xmlns:xsi="http://www.w3.org/2001/XMLSchema-instance" xsi:schemaLocation="http://www.topografix.com/GPX/1/1 http://www.topografix.com/GPX/1/1/gpx.xsd" version="1.1" creator="gpx.py -- https://github.com/tkrajina/gpxpy">
  <trk>
    <trkseg>
      <trkpt lat="41.924417" lon="-87.733273">
      </trkpt>
      <trkpt lat="41.925687" lon="-87.63436">
      </trkpt>
      <trkpt lat="41.926223" lon="-87.63067">
      </trkpt>
      <trkpt lat="41.928415" lon="-87.631851">
      </trkpt>
      <trkpt lat="41.935386" lon="-87.632612">
      </trkpt>
      <trkpt lat="41.941219" lon="-87.638833">
      </trkpt>
      <trkpt lat="41.950931" lon="-87.644376">
      </trkpt>
      <trkpt lat="41.960253" lon="-87.646094">
      </trkpt>
      <trkpt lat="41.962086" lon="-87.645534">
      </trkpt>
      <trkpt lat="41.962798" lon="-87.639779">
      </trkpt>
      <trkpt lat="41.963606" lon="-87.638571">
      </trkpt>
      <trkpt lat="41.963606" lon="-87.638571">
      </trkpt>
      <trkpt lat="41.962786" lon="-87.639836">
      </trkpt>
      <trkpt lat="41.961908" lon="-87.646878">
      </trkpt>
      <trkpt lat="41.955203" lon="-87.644905">
      </trkpt>
      <trkpt lat="41.950978" lon="-87.644611">
      </trkpt>
      <trkpt lat="41.942042" lon="-87.639566">
      </trkpt>
      <trkpt lat="41.940268" lon="-87.638796">
      </trkpt>
      <trkpt lat="41.940119" lon="-87.639537">
      </trkpt>
      <trkpt lat="41.932914" lon="-87.63931">
      </trkpt>
      <trkpt lat="41.932615" lon="-87.655177">
      </trkpt>
      <trkpt lat="41.93032" lon="-87.655116">
      </trkpt>
      <trkpt lat="41.93032" lon="-87.655116">
      </trkpt>
      <trkpt lat="41.932615" lon="-87.655177">
      </trkpt>
      <trkpt lat="41.932728" lon="-87.649013">
      </trkpt>
      <trkpt lat="41.945447" lon="-87.649434">
      </trkpt>
      <trkpt lat="41.945444" lon="-87.647954">
      </trkpt>
      <trkpt lat="41.944563" lon="-87.647654">
      </trkpt>
      <trkpt lat="41.944563" lon="-87.647654">
      </trkpt>
      <trkpt lat="41.943663" lon="-87.647348">
      </trkpt>
      <trkpt lat="41.94357" lon="-87.653588">
      </trkpt>
      <trkpt lat="41.947205" lon="-87.656521">
      </trkpt>
      <trkpt lat="41.947045" lon="-87.66644">
      </trkpt>
      <trkpt lat="41.948859" lon="-87.666475">
      </trkpt>
      <trkpt lat="41.948845" lon="-87.667351">
      </trkpt>
      <trkpt lat="41.948845" lon="-87.667351">
      </trkpt>
      <trkpt lat="41.94882" lon="-87.66897">
      </trkpt>
      <trkpt lat="41.924216" lon="-87.668122">
      </trkpt>
      <trkpt lat="41.921563" lon="-87.668616">
      </trkpt>
      <trkpt lat="41.921395" lon="-87.677255">
      </trkpt>
      <trkpt lat="41.918139" lon="-87.671115">
      </trkpt>
      <trkpt lat="41.915543" lon="-87.668247">
      </trkpt>
      <trkpt lat="41.909975" lon="-87.664752">
      </trkpt>
      <trkpt lat="41.906635" lon="-87.661559">
      </trkpt>
      <trkpt lat="41.901587" lon="-87.661131">
      </trkpt>
      <trkpt lat="41.896968" lon="-87.659049">
      </trkpt>
      <trkpt lat="41.888343" lon="-87.647531">
      </trkpt>
      <trkpt lat="41.885929" lon="-87.646219">
      </trkpt>
      <trkpt lat="41.881827" lon="-87.645999">
      </trkpt>
      <trkpt lat="41.880956" lon="-87.646134">
      </trkpt>
      <trkpt lat="41.879569" lon="-87.646145">
      </trkpt>
      <trkpt lat="41.878121" lon="-87.646166">
      </trkpt>
      <trkpt lat="41.876334" lon="-87.646815">
      </trkpt>
      <trkpt lat="41.875728" lon="-87.649135">
      </trkpt>
      <trkpt lat="41.876197" lon="-87.657603">
      </trkpt>
      <trkpt lat="41.875763" lon="-87.688313">
      </trkpt>
      <trkpt lat="41.875862" lon="-87.692409">
      </trkpt>
      <trkpt lat="41.875983" lon="-87.696151">
      </trkpt>
      <trkpt lat="41.877434" lon="-87.696189">
      </trkpt>
      <trkpt lat="41.877461" lon="-87.693785">
      </trkpt>
      <trkpt lat="41.878371" lon="-87.693796">
      </trkpt>
      <trkpt lat="41.878346" lon="-87.696046">
      </trkpt>
      <trkpt lat="41.878346" lon="-87.696046">
      </trkpt>
      <trkpt lat="41.878344" lon="-87.696214">
      </trkpt>
      <trkpt lat="41.877434" lon="-87.696189">
      </trkpt>
      <trkpt lat="41.877408" lon="-87.69832">
      </trkpt>
      <trkpt lat="41.877408" lon="-87.69832">
      </trkpt>
      <trkpt lat="41.877434" lon="-87.696189">
      </trkpt>
      <trkpt lat="41.881077" lon="-87.696286">
      </trkpt>
      <trkpt lat="41.881166" lon="-87.686432">
      </trkpt>
      <trkpt lat="41.903025" lon="-87.687018">
      </trkpt>
      <trkpt lat="41.90306" lon="-87.684574">
      </trkpt>
      <trkpt lat="41.90489" lon="-87.684636">
      </trkpt>
      <trkpt lat="41.904903" lon="-87.684023">
      </trkpt>
      <trkpt lat="41.904903" lon="-87.684023">
      </trkpt>
      <trkpt lat="41.90489" lon="-87.684636">
      </trkpt>
      <trkpt lat="41.90306" lon="-87.684574">
      </trkpt>
      <trkpt lat="41.903025" lon="-87.687018">
      </trkpt>
      <trkpt lat="41.89575" lon="-87.686835">
      </trkpt>
      <trkpt lat="41.895606" lon="-87.701213">
      </trkpt>
      <trkpt lat="41.895606" lon="-87.701213">
      </trkpt>
      <trkpt lat="41.895594" lon="-87.702191">
      </trkpt>
      <trkpt lat="41.875937" lon="-87.701067">
      </trkpt>
      <trkpt lat="41.875935" lon="-87.701496">
      </trkpt>
      <trkpt lat="41.874316" lon="-87.708542">
      </trkpt>
      <trkpt lat="41.873929" lon="-87.733365">
      </trkpt>
      <trkpt lat="41.87185" lon="-87.740938">
      </trkpt>
      <trkpt lat="41.871077" lon="-87.771005">
      </trkpt>
      <trkpt lat="41.874235" lon="-87.810299">
      </trkpt>
      <trkpt lat="41.871501" lon="-87.832523">
      </trkpt>
      <trkpt lat="41.869778" lon="-87.887193">
      </trkpt>
      <trkpt lat="41.873868" lon="-87.903102">
      </trkpt>
      <trkpt lat="41.871836" lon="-87.9125">
      </trkpt>
      <trkpt lat="41.870454" lon="-87.916191">
      </trkpt>
      <trkpt lat="41.868063" lon="-87.917496">
      </trkpt>
      <trkpt lat="41.864298" lon="-87.919005">
      </trkpt>
      <trkpt lat="41.862205" lon="-87.923112">
      </trkpt>
      <trkpt lat="41.861139" lon="-87.955691">
      </trkpt>
      <trkpt lat="41.863209" lon="-87.959249">
      </trkpt>
      <trkpt lat="41.867701" lon="-87.960919">
      </trkpt>
      <trkpt lat="41.889385" lon="-87.961825">
      </trkpt>
      <trkpt lat="41.890223" lon="-87.961551">
      </trkpt>
      <trkpt lat="41.890661" lon="-88.00339">
      </trkpt>
      <trkpt lat="41.885897" lon="-88.019726">
      </trkpt>
      <trkpt lat="41.885897" lon="-88.019726">
      </trkpt>
      <trkpt lat="41.886324" lon="-88.018373">
      </trkpt>
      <trkpt lat="41.860083" lon="-88.017396">
      </trkpt>
      <trkpt lat="41.861767" lon="-87.923499">
      </trkpt>
      <trkpt lat="41.872171" lon="-87.911351">
      </trkpt>
      <trkpt lat="41.873316" lon="-87.901684">
      </trkpt>
      <trkpt lat="41.869444" lon="-87.888177">
      </trkpt>
      <trkpt lat="41.869576" lon="-87.882376">
      </trkpt>
      <trkpt lat="41.874042" lon="-87.810791">
      </trkpt>
      <trkpt lat="41.87064" lon="-87.769061">
      </trkpt>
      <trkpt lat="41.875168" lon="-87.69832">
      </trkpt>
      <trkpt lat="41.875329" lon="-87.650308">
      </trkpt>
      <trkpt lat="41.876036" lon="-87.64458">
      </trkpt>
      <trkpt lat="41.880374" lon="-87.645275">
      </trkpt>
      <trkpt lat="41.881847" lon="-87.645355">
      </trkpt>
      <trkpt lat="41.882198" lon="-87.645393">
      </trkpt>
      <trkpt lat="41.883308" lon="-87.645396">
      </trkpt>
      <trkpt lat="41.885689" lon="-87.645365">
      </trkpt>
      <trkpt lat="41.885665" lon="-87.647482">
      </trkpt>
      <trkpt lat="41.91731" lon="-87.648495">
      </trkpt>
    </trkseg>
  </trk>
</gpx>