<?xml version="1.0" encoding="UTF-8"?>
<gpx xmlns="http://www.topografix.com/GPX/1/1" xmlns:xsi="http://www.w3.org/2001/XMLSchema-instance" xsi:schemaLocation="http://www.topografix.com/GPX/1/1 http://www.topografix.com/GPX/1/1/gpx.xsd" version="1.1" creator="gpx.py -- https://github.com/tkrajina/gpxpy">
  <trk>
    <trkseg>
      <trkpt lat="41.909964" lon="-87.718643">
      </trkpt>
      <trkpt lat="41.909987" lon="-87.71669">
      </trkpt>
      <trkpt lat="41.939221" lon="-87.717392">
      </trkpt>
      <trkpt lat="41.939288" lon="-87.712487">
      </trkpt>
      <trkpt lat="41.941642" lon="-87.712571">
      </trkpt>
      <trkpt lat="41.943044" lon="-87.715981">
      </trkpt>
      <trkpt lat="41.947985" lon="-87.719618">
      </trkpt>
      <trkpt lat="41.960998" lon="-87.742619">
      </trkpt>
      <trkpt lat="41.966033" lon="-87.752403">
      </trkpt>
      <trkpt lat="41.967937" lon="-87.75503">
      </trkpt>
      <trkpt lat="41.967938" lon="-87.757623">
      </trkpt>
      <trkpt lat="41.968431" lon="-87.758399">
      </trkpt>
      <trkpt lat="41.968431" lon="-87.758399">
      </trkpt>
      <trkpt lat="41.967875" lon="-87.757622">
      </trkpt>
      <trkpt lat="41.968033" lon="-87.747723">
      </trkpt>
      <trkpt lat="41.972896" lon="-87.747918">
      </trkpt>
      <trkpt lat="41.972794" lon="-87.747761">
      </trkpt>
      <trkpt lat="41.966563" lon="-87.747223">
      </trkpt>
      <trkpt lat="41.963113" lon="-87.745961">
      </trkpt>
      <trkpt lat="41.960129" lon="-87.742125">
      </trkpt>
      <trkpt lat="41.947613" lon="-87.719592">
      </trkpt>
      <trkpt lat="41.94215" lon="-87.715306">
      </trkpt>
      <trkpt lat="41.940524" lon="-87.710219">
      </trkpt>
      <trkpt lat="41.933659" lon="-87.698173">
      </trkpt>
      <trkpt lat="41.927358" lon="-87.687291">
      </trkpt>
      <trkpt lat="41.925223" lon="-87.684125">
      </trkpt>
      <trkpt lat="41.924902" lon="-87.687645">
      </trkpt>
      <trkpt lat="41.917587" lon="-87.687413">
      </trkpt>
      <trkpt lat="41.917536" lon="-87.692301">
      </trkpt>
      <trkpt lat="41.917031" lon="-87.692287">
      </trkpt>
      <trkpt lat="41.917031" lon="-87.692287">
      </trkpt>
      <trkpt lat="41.917536" lon="-87.692301">
      </trkpt>
      <trkpt lat="41.917871" lon="-87.671089">
      </trkpt>
      <trkpt lat="41.917216" lon="-87.670404">
      </trkpt>
      <trkpt lat="41.915355" lon="-87.66811">
      </trkpt>
      <trkpt lat="41.909975" lon="-87.664752">
      </trkpt>
      <trkpt lat="41.90696" lon="-87.661748">
      </trkpt>
      <trkpt lat="41.905495" lon="-87.661171">
      </trkpt>
      <trkpt lat="41.902553" lon="-87.661288">
      </trkpt>
      <trkpt lat="41.900902" lon="-87.660921">
      </trkpt>
      <trkpt lat="41.896968" lon="-87.659049">
      </trkpt>
      <trkpt lat="41.895018" lon="-87.657114">
      </trkpt>
      <trkpt lat="41.89377" lon="-87.655657">
      </trkpt>
      <trkpt lat="41.89226" lon="-87.654831">
      </trkpt>
      <trkpt lat="41.891931" lon="-87.653963">
      </trkpt>
      <trkpt lat="41.892554" lon="-87.651034">
      </trkpt>
      <trkpt lat="41.892368" lon="-87.63704">
      </trkpt>
      <trkpt lat="41.892588" lon="-87.620263">
      </trkpt>
      <trkpt lat="41.893412" lon="-87.620283">
      </trkpt>
      <trkpt lat="41.893376" lon="-87.621935">
      </trkpt>
      <trkpt lat="41.893376" lon="-87.621935">
      </trkpt>
      <trkpt lat="41.893338" lon="-87.62414">
      </trkpt>
      <trkpt lat="41.896271" lon="-87.624208">
      </trkpt>
      <trkpt lat="41.896741" lon="-87.624176">
      </trkpt>
      <trkpt lat="41.896757" lon="-87.622557">
      </trkpt>
      <trkpt lat="41.896757" lon="-87.622557">
      </trkpt>
      <trkpt lat="41.896737" lon="-87.624345">
      </trkpt>
      <trkpt lat="41.896318" lon="-87.624387">
      </trkpt>
      <trkpt lat="41.893335" lon="-87.624316">
      </trkpt>
      <trkpt lat="41.893295" lon="-87.626758">
      </trkpt>
      <trkpt lat="41.891688" lon="-87.626725">
      </trkpt>
      <trkpt lat="41.891657" lon="-87.628847">
      </trkpt>
      <trkpt lat="41.891657" lon="-87.628847">
      </trkpt>
      <trkpt lat="41.891506" lon="-87.639878">
      </trkpt>
      <trkpt lat="41.891239" lon="-87.643004">
      </trkpt>
      <trkpt lat="41.891194" lon="-87.647627">
      </trkpt>
      <trkpt lat="41.8937" lon="-87.651495">
      </trkpt>
      <trkpt lat="41.894" lon="-87.651133">
      </trkpt>
      <trkpt lat="41.895044" lon="-87.65115">
      </trkpt>
      <trkpt lat="41.89505" lon="-87.650724">
      </trkpt>
      <trkpt lat="41.89505" lon="-87.650724">
      </trkpt>
      <trkpt lat="41.895044" lon="-87.65115">
      </trkpt>
      <trkpt lat="41.8937" lon="-87.651495">
      </trkpt>
      <trkpt lat="41.891194" lon="-87.647627">
      </trkpt>
      <trkpt lat="41.885665" lon="-87.647482">
      </trkpt>
      <trkpt lat="41.885682" lon="-87.646258">
      </trkpt>
      <trkpt lat="41.857367" lon="-87.644363">
      </trkpt>
      <trkpt lat="41.852447" lon="-87.645793">
      </trkpt>
      <trkpt lat="41.849097" lon="-87.644333">
      </trkpt>
      <trkpt lat="41.847022" lon="-87.643039">
      </trkpt>
      <trkpt lat="41.846546" lon="-87.641933">
      </trkpt>
      <trkpt lat="41.847063" lon="-87.638623">
      </trkpt>
      <trkpt lat="41.84669" lon="-87.634629">
      </trkpt>
      <trkpt lat="41.847362" lon="-87.632091">
      </trkpt>
      <trkpt lat="41.846918" lon="-87.628234">
      </trkpt>
      <trkpt lat="41.847827" lon="-87.623841">
      </trkpt>
      <trkpt lat="41.847976" lon="-87.616851">
      </trkpt>
      <trkpt lat="41.848153" lon="-87.613392">
      </trkpt>
      <trkpt lat="41.84938" lon="-87.612168">
      </trkpt>
      <trkpt lat="41.855833" lon="-87.615427">
      </trkpt>
      <trkpt lat="41.858122" lon="-87.616068">
      </trkpt>
      <trkpt lat="41.858193" lon="-87.615513">
      </trkpt>
      <trkpt lat="41.858193" lon="-87.615513">
      </trkpt>
      <trkpt lat="41.858122" lon="-87.616068">
      </trkpt>
      <trkpt lat="41.866344" lon="-87.619249">
      </trkpt>
      <trkpt lat="41.869799" lon="-87.617003">
      </trkpt>
      <trkpt lat="41.881825" lon="-87.617167">
      </trkpt>
      <trkpt lat="41.884762" lon="-87.613645">
      </trkpt>
      <trkpt lat="41.892878" lon="-87.614041">
      </trkpt>
      <trkpt lat="41.900921" lon="-87.619441">
      </trkpt>
      <trkpt lat="41.902893" lon="-87.624048">
      </trkpt>
      <trkpt lat="41.928415" lon="-87.631851">
      </trkpt>
      <trkpt lat="41.934381" lon="-87.632152">
      </trkpt>
      <trkpt lat="41.941219" lon="-87.638833">
      </trkpt>
      <trkpt lat="41.950931" lon="-87.644376">
      </trkpt>
      <trkpt lat="41.964019" lon="-87.64669">
      </trkpt>
      <trkpt lat="41.965774" lon="-87.646428">
      </trkpt>
      <trkpt lat="41.965401" lon="-87.657469">
      </trkpt>
      <trkpt lat="41.967222" lon="-87.658639">
      </trkpt>
      <trkpt lat="41.967222" lon="-87.658639">
      </trkpt>
      <trkpt lat="41.965401" lon="-87.657469">
      </trkpt>
      <trkpt lat="41.965571" lon="-87.647973">
      </trkpt>
      <trkpt lat="41.963721" lon="-87.646868">
      </trkpt>
      <trkpt lat="41.950757" lon="-87.644507">
      </trkpt>
      <trkpt lat="41.941067" lon="-87.638957">
      </trkpt>
      <trkpt lat="41.936608" lon="-87.633807">
      </trkpt>
      <trkpt lat="41.934639" lon="-87.632453">
      </trkpt>
      <trkpt lat="41.928427" lon="-87.632048">
      </trkpt>
      <trkpt lat="41.915117" lon="-87.627538">
      </trkpt>
      <trkpt lat="41.913042" lon="-87.627206">
      </trkpt>
      <trkpt lat="41.912346" lon="-87.628067">
      </trkpt>
      <trkpt lat="41.913334" lon="-87.632438">
      </trkpt>
      <trkpt lat="41.912907" lon="-87.633196">
      </trkpt>
      <trkpt lat="41.911171" lon="-87.633223">
      </trkpt>
      <trkpt lat="41.910633" lon="-87.66776">
      </trkpt>
      <trkpt lat="41.901054" lon="-87.667495">
      </trkpt>
      <trkpt lat="41.901009" lon="-87.669888">
      </trkpt>
      <trkpt lat="41.900367" lon="-87.669869">
      </trkpt>
      <trkpt lat="41.900367" lon="-87.669869">
      </trkpt>
      <trkpt lat="41.90331" lon="-87.669955">
      </trkpt>
      <trkpt lat="41.903202" lon="-87.676231">
      </trkpt>
      <trkpt lat="41.903202" lon="-87.676231">
      </trkpt>
      <trkpt lat="41.903351" lon="-87.667439">
      </trkpt>
      <trkpt lat="41.910635" lon="-87.667641">
      </trkpt>
      <trkpt lat="41.910674" lon="-87.664445">
      </trkpt>
      <trkpt lat="41.915886" lon="-87.668091">
      </trkpt>
      <trkpt lat="41.91815" lon="-87.670574">
      </trkpt>
      <trkpt lat="41.940439" lon="-87.709664">
      </trkpt>
      <trkpt lat="41.942208" lon="-87.714861">
      </trkpt>
      <trkpt lat="41.947985" lon="-87.719618">
      </trkpt>
      <trkpt lat="41.958569" lon="-87.738838">
      </trkpt>
      <trkpt lat="41.960451" lon="-87.741371">
      </trkpt>
      <trkpt lat="41.960724" lon="-87.747538">
      </trkpt>
      <trkpt lat="41.953418" lon="-87.747303">
      </trkpt>
      <trkpt lat="41.95292" lon="-87.786554">
      </trkpt>
      <trkpt lat="41.945676" lon="-87.786299">
      </trkpt>
      <trkpt lat="41.945578" lon="-87.791262">
      </trkpt>
      <trkpt lat="41.946512" lon="-87.7913">
      </trkpt>
      <trkpt lat="41.946512" lon="-87.7913">
      </trkpt>
      <trkpt lat="41.945578" lon="-87.791262">
      </trkpt>
      <trkpt lat="41.946271" lon="-87.735605">
      </trkpt>
      <trkpt lat="41.947388" lon="-87.737418">
      </trkpt>
      <trkpt lat="41.948077" lon="-87.736646">
      </trkpt>
      <trkpt lat="41.948162" lon="-87.736648">
      </trkpt>
      <trkpt lat="41.948162" lon="-87.736648">
      </trkpt>
      <trkpt lat="41.953551" lon="-87.736807">
      </trkpt>
      <trkpt lat="41.953617" lon="-87.731304">
      </trkpt>
      <trkpt lat="41.947499" lon="-87.719717">
      </trkpt>
      <trkpt lat="41.942115" lon="-87.715518">
      </trkpt>
      <trkpt lat="41.939977" lon="-87.709442">
      </trkpt>
      <trkpt lat="41.917456" lon="-87.670155">
      </trkpt>
      <trkpt lat="41.906635" lon="-87.661559">
      </trkpt>
      <trkpt lat="41.901306" lon="-87.661057">
      </trkpt>
      <trkpt lat="41.896667" lon="-87.658834">
      </trkpt>
      <trkpt lat="41.889096" lon="-87.6483">
      </trkpt>
      <trkpt lat="41.885119" lon="-87.646108">
      </trkpt>
      <trkpt lat="41.883144" lon="-87.646413">
      </trkpt>
      <trkpt lat="41.883172" lon="-87.642677">
      </trkpt>
      <trkpt lat="41.884435" lon="-87.642712">
      </trkpt>
      <trkpt lat="41.884406" lon="-87.646033">
      </trkpt>
      <trkpt lat="41.884406" lon="-87.646033">
      </trkpt>
      <trkpt lat="41.884415" lon="-87.647438">
      </trkpt>
      <trkpt lat="41.881782" lon="-87.64736">
      </trkpt>
      <trkpt lat="41.881801" lon="-87.64573">
      </trkpt>
      <trkpt lat="41.885306" lon="-87.645735">
      </trkpt>
      <trkpt lat="41.888483" lon="-87.647404">
      </trkpt>
      <trkpt lat="41.897251" lon="-87.658783">
      </trkpt>
      <trkpt lat="41.901753" lon="-87.660805">
      </trkpt>
      <trkpt lat="41.906186" lon="-87.660967">
      </trkpt>
      <trkpt lat="41.907951" lon="-87.662226">
      </trkpt>
      <trkpt lat="41.910674" lon="-87.664445">
      </trkpt>
      <trkpt lat="41.910715" lon="-87.66216">
      </trkpt>
      <trkpt lat="41.916455" lon="-87.666413">
      </trkpt>
      <trkpt lat="41.917264" lon="-87.658201">
      </trkpt>
      <trkpt lat="41.928939" lon="-87.658589">
      </trkpt>
      <trkpt lat="41.928972" lon="-87.65652">
      </trkpt>
      <trkpt lat="41.928972" lon="-87.65652">
      </trkpt>
      <trkpt lat="41.928939" lon="-87.658589">
      </trkpt>
      <trkpt lat="41.917264" lon="-87.658201">
      </trkpt>
      <trkpt lat="41.916455" lon="-87.666413">
      </trkpt>
      <trkpt lat="41.910715" lon="-87.66216">
      </trkpt>
      <trkpt lat="41.910672" lon="-87.665662">
      </trkpt>
      <trkpt lat="41.910236" lon="-87.665325">
      </trkpt>
      <trkpt lat="41.906635" lon="-87.661559">
      </trkpt>
      <trkpt lat="41.901306" lon="-87.661057">
      </trkpt>
      <trkpt lat="41.896333" lon="-87.658563">
      </trkpt>
      <trkpt lat="41.887778" lon="-87.647099">
      </trkpt>
      <trkpt lat="41.885929" lon="-87.646219">
      </trkpt>
      <trkpt lat="41.881827" lon="-87.645999">
      </trkpt>
      <trkpt lat="41.880956" lon="-87.646134">
      </trkpt>
      <trkpt lat="41.879569" lon="-87.646145">
      </trkpt>
      <trkpt lat="41.878121" lon="-87.646166">
      </trkpt>
      <trkpt lat="41.876334" lon="-87.646815">
      </trkpt>
      <trkpt lat="41.875728" lon="-87.649135">
      </trkpt>
      <trkpt lat="41.876197" lon="-87.657603">
      </trkpt>
      <trkpt lat="41.875763" lon="-87.688313">
      </trkpt>
      <trkpt lat="41.875862" lon="-87.692409">
      </trkpt>
      <trkpt lat="41.875985" lon="-87.695752">
      </trkpt>
      <trkpt lat="41.875985" lon="-87.695752">
      </trkpt>
      <trkpt lat="41.875983" lon="-87.696151">
      </trkpt>
      <trkpt lat="41.874902" lon="-87.696127">
      </trkpt>
      <trkpt lat="41.874908" lon="-87.695509">
      </trkpt>
      <trkpt lat="41.875125" lon="-87.690201">
      </trkpt>
      <trkpt lat="41.87561" lon="-87.659837">
      </trkpt>
      <trkpt lat="41.875329" lon="-87.650308">
      </trkpt>
      <trkpt lat="41.875215" lon="-87.648052">
      </trkpt>
      <trkpt lat="41.874508" lon="-87.646345">
      </trkpt>
      <trkpt lat="41.872825" lon="-87.645538">
      </trkpt>
      <trkpt lat="41.867365" lon="-87.644752">
      </trkpt>
      <trkpt lat="41.861936" lon="-87.644538">
      </trkpt>
      <trkpt lat="41.857575" lon="-87.644794">
      </trkpt>
      <trkpt lat="41.857668" lon="-87.638934">
      </trkpt>
      <trkpt lat="41.858209" lon="-87.638953">
      </trkpt>
      <trkpt lat="41.858209" lon="-87.638953">
      </trkpt>
      <trkpt lat="41.867316" lon="-87.63923">
      </trkpt>
      <trkpt lat="41.867254" lon="-87.644095">
      </trkpt>
      <trkpt lat="41.867888" lon="-87.644123">
      </trkpt>
      <trkpt lat="41.873521" lon="-87.644628">
      </trkpt>
      <trkpt lat="41.874907" lon="-87.644827">
      </trkpt>
      <trkpt lat="41.875725" lon="-87.645646">
      </trkpt>
      <trkpt lat="41.875961" lon="-87.646533">
      </trkpt>
      <trkpt lat="41.875863" lon="-87.649223">
      </trkpt>
      <trkpt lat="41.875763" lon="-87.652598">
      </trkpt>
      <trkpt lat="41.876197" lon="-87.657603">
      </trkpt>
      <trkpt lat="41.8759" lon="-87.673066">
      </trkpt>
      <trkpt lat="41.876215" lon="-87.676512">
      </trkpt>
      <trkpt lat="41.886776" lon="-87.676791">
      </trkpt>
      <trkpt lat="41.886827" lon="-87.673532">
      </trkpt>
      <trkpt lat="41.886827" lon="-87.673532">
      </trkpt>
      <trkpt lat="41.886776" lon="-87.676791">
      </trkpt>
      <trkpt lat="41.88498" lon="-87.676739">
      </trkpt>
      <trkpt lat="41.884089" lon="-87.701291">
      </trkpt>
      <trkpt lat="41.885478" lon="-87.725794">
      </trkpt>
      <trkpt lat="41.885957" lon="-87.733178">
      </trkpt>
      <trkpt lat="41.886911" lon="-87.733205">
      </trkpt>
      <trkpt lat="41.886914" lon="-87.732951">
      </trkpt>
      <trkpt lat="41.886914" lon="-87.732951">
      </trkpt>
      <trkpt lat="41.886942" lon="-87.730753">
      </trkpt>
      <trkpt lat="41.885745" lon="-87.730716">
      </trkpt>
      <trkpt lat="41.885208" lon="-87.720917">
      </trkpt>
      <trkpt lat="41.873515" lon="-87.72037">
      </trkpt>
      <trkpt lat="41.873525" lon="-87.719121">
      </trkpt>
      <trkpt lat="41.875189" lon="-87.697594">
      </trkpt>
      <trkpt lat="41.875815" lon="-87.620619">
      </trkpt>
      <trkpt lat="41.878331" lon="-87.620697">
      </trkpt>
      <trkpt lat="41.878364" lon="-87.617182">
      </trkpt>
      <trkpt lat="41.882205" lon="-87.616996">
      </trkpt>
      <trkpt lat="41.884762" lon="-87.613645">
      </trkpt>
      <trkpt lat="41.892878" lon="-87.614041">
      </trkpt>
      <trkpt lat="41.900921" lon="-87.619441">
      </trkpt>
      <trkpt lat="41.902767" lon="-87.623983">
      </trkpt>
      <trkpt lat="41.928213" lon="-87.631799">
      </trkpt>
      <trkpt lat="41.934701" lon="-87.632273">
      </trkpt>
      <trkpt lat="41.941219" lon="-87.638833">
      </trkpt>
      <trkpt lat="41.950931" lon="-87.644376">
      </trkpt>
      <trkpt lat="41.973046" lon="-87.648738">
      </trkpt>
      <trkpt lat="41.984866" lon="-87.652765">
      </trkpt>
      <trkpt lat="41.985105" lon="-87.662456">
      </trkpt>
      <trkpt lat="41.986679" lon="-87.665051">
      </trkpt>
      <trkpt lat="41.991183" lon="-87.66518">
      </trkpt>
      <trkpt lat="41.991183" lon="-87.66518">
      </trkpt>
      <trkpt lat="41.989946" lon="-87.665145">
      </trkpt>
      <trkpt lat="41.989919" lon="-87.669914">
      </trkpt>
      <trkpt lat="41.9908" lon="-87.669967">
      </trkpt>
      <trkpt lat="41.990446" lon="-87.699412">
      </trkpt>
      <trkpt lat="41.982211" lon="-87.69914">
      </trkpt>
      <trkpt lat="41.982183" lon="-87.70479">
      </trkpt>
      <trkpt lat="41.982816" lon="-87.704987">
      </trkpt>
      <trkpt lat="41.982816" lon="-87.704987">
      </trkpt>
      <trkpt lat="41.983097" lon="-87.705071">
      </trkpt>
      <trkpt lat="41.983137" lon="-87.695129">
      </trkpt>
      <trkpt lat="41.981582" lon="-87.692911">
      </trkpt>
      <trkpt lat="41.975877" lon="-87.692352">
      </trkpt>
      <trkpt lat="41.976173" lon="-87.66966">
      </trkpt>
      <trkpt lat="41.968876" lon="-87.669477">
      </trkpt>
      <trkpt lat="41.969021" lon="-87.659673">
      </trkpt>
      <trkpt lat="41.964503" lon="-87.656894">
      </trkpt>
      <trkpt lat="41.964503" lon="-87.656894">
      </trkpt>
      <trkpt lat="41.969021" lon="-87.659673">
      </trkpt>
      <trkpt lat="41.968877" lon="-87.669348">
      </trkpt>
      <trkpt lat="41.976174" lon="-87.669543">
      </trkpt>
      <trkpt lat="41.975964" lon="-87.684288">
      </trkpt>
      <trkpt lat="41.977792" lon="-87.684347">
      </trkpt>
      <trkpt lat="41.977786" lon="-87.684838">
      </trkpt>
      <trkpt lat="41.977786" lon="-87.684838">
      </trkpt>
      <trkpt lat="41.977758" lon="-87.686799">
      </trkpt>
      <trkpt lat="41.97593" lon="-87.686732">
      </trkpt>
      <trkpt lat="41.976173" lon="-87.66966">
      </trkpt>
      <trkpt lat="41.965239" lon="-87.669385">
      </trkpt>
      <trkpt lat="41.965274" lon="-87.66673">
      </trkpt>
      <trkpt lat="41.961638" lon="-87.665949">
      </trkpt>
      <trkpt lat="41.959336" lon="-87.665071">
      </trkpt>
      <trkpt lat="41.959319" lon="-87.664488">
      </trkpt>
      <trkpt lat="41.960581" lon="-87.664187">
      </trkpt>
      <trkpt lat="41.960581" lon="-87.664187">
      </trkpt>
      <trkpt lat="41.959319" lon="-87.664488">
      </trkpt>
      <trkpt lat="41.959336" lon="-87.665071">
      </trkpt>
      <trkpt lat="41.957682" lon="-87.664292">
      </trkpt>
      <trkpt lat="41.954357" lon="-87.664217">
      </trkpt>
      <trkpt lat="41.95365" lon="-87.727612">
      </trkpt>
      <trkpt lat="41.946377" lon="-87.727395">
      </trkpt>
      <trkpt lat="41.946215" lon="-87.739921">
      </trkpt>
      <trkpt lat="41.946215" lon="-87.739921">
      </trkpt>
      <trkpt lat="41.946271" lon="-87.735605">
      </trkpt>
      <trkpt lat="41.929168" lon="-87.707541">
      </trkpt>
      <trkpt lat="41.928361" lon="-87.707825">
      </trkpt>
      <trkpt lat="41.927605" lon="-87.707315">
      </trkpt>
      <trkpt lat="41.9174" lon="-87.70705">
      </trkpt>
      <trkpt lat="41.917431" lon="-87.703944">
      </trkpt>
      <trkpt lat="41.915416" lon="-87.703892">
      </trkpt>
      <trkpt lat="41.915416" lon="-87.703892">
      </trkpt>
      <trkpt lat="41.913751" lon="-87.703857">
      </trkpt>
      <trkpt lat="41.913772" lon="-87.70233">
      </trkpt>
      <trkpt lat="41.912" lon="-87.702283">
      </trkpt>
      <trkpt lat="41.912147" lon="-87.701932">
      </trkpt>
      <trkpt lat="41.91745" lon="-87.702101">
      </trkpt>
      <trkpt lat="41.917514" lon="-87.69476">
      </trkpt>
      <trkpt lat="41.917202" lon="-87.694751">
      </trkpt>
      <trkpt lat="41.917202" lon="-87.694751">
      </trkpt>
      <trkpt lat="41.915698" lon="-87.694708">
      </trkpt>
      <trkpt lat="41.915681" lon="-87.697141">
      </trkpt>
      <trkpt lat="41.910223" lon="-87.697029">
      </trkpt>
      <trkpt lat="41.910045" lon="-87.711884">
      </trkpt>
      <trkpt lat="41.908233" lon="-87.711856">
      </trkpt>
      <trkpt lat="41.90821" lon="-87.714298">
      </trkpt>
      <trkpt lat="41.909624" lon="-87.714347">
      </trkpt>
      <trkpt lat="41.909624" lon="-87.714347">
      </trkpt>
      <trkpt lat="41.910015" lon="-87.71436">
      </trkpt>
      <trkpt lat="41.910045" lon="-87.711884">
      </trkpt>
      <trkpt lat="41.941642" lon="-87.712571">
      </trkpt>
      <trkpt lat="41.943044" lon="-87.715981">
      </trkpt>
      <trkpt lat="41.947985" lon="-87.719618">
      </trkpt>
      <trkpt lat="41.960998" lon="-87.742619">
      </trkpt>
      <trkpt lat="41.965012" lon="-87.746732">
      </trkpt>
      <trkpt lat="41.980044" lon="-87.746614">
      </trkpt>
      <trkpt lat="41.987222" lon="-87.751348">
      </trkpt>
      <trkpt lat="42.001173" lon="-87.748745">
      </trkpt>
      <trkpt lat="42.009518" lon="-87.749189">
      </trkpt>
      <trkpt lat="42.014015" lon="-87.752849">
      </trkpt>
      <trkpt lat="42.021217" lon="-87.765343">
      </trkpt>
      <trkpt lat="42.025543" lon="-87.768358">
      </trkpt>
      <trkpt lat="42.033299" lon="-87.768407">
      </trkpt>
      <trkpt lat="42.038593" lon="-87.764702">
      </trkpt>
      <trkpt lat="42.040729" lon="-87.760652">
      </trkpt>
      <trkpt lat="42.040788" lon="-87.756567">
      </trkpt>
      <trkpt lat="42.05153" lon="-87.744606">
      </trkpt>
      <trkpt lat="42.051674" lon="-87.746974">
      </trkpt>
      <trkpt lat="42.049895" lon="-87.746992">
      </trkpt>
    </trkseg>
  </trk>
</gpx>