<?xml version="1.0" encoding="UTF-8"?>
<gpx xmlns="http://www.topografix.com/GPX/1/1" xmlns:xsi="http://www.w3.org/2001/XMLSchema-instance" xsi:schemaLocation="http://www.topografix.com/GPX/1/1 http://www.topografix.com/GPX/1/1/gpx.xsd" version="1.1" creator="gpx.py -- https://github.com/tkrajina/gpxpy">
  <trk>
    <trkseg>
      <trkpt lat="41.900086" lon="-87.722562">
      </trkpt>
      <trkpt lat="41.899059" lon="-87.722532">
      </trkpt>
      <trkpt lat="41.89907" lon="-87.721326">
      </trkpt>
      <trkpt lat="41.880797" lon="-87.720753">
      </trkpt>
      <trkpt lat="41.880872" lon="-87.714889">
      </trkpt>
      <trkpt lat="41.880872" lon="-87.714889">
      </trkpt>
      <trkpt lat="41.880981" lon="-87.70612">
      </trkpt>
      <trkpt lat="41.877324" lon="-87.706028">
      </trkpt>
      <trkpt lat="41.877461" lon="-87.693785">
      </trkpt>
      <trkpt lat="41.876006" lon="-87.693713">
      </trkpt>
      <trkpt lat="41.875985" lon="-87.695752">
      </trkpt>
      <trkpt lat="41.875985" lon="-87.695752">
      </trkpt>
      <trkpt lat="41.875983" lon="-87.696151">
      </trkpt>
      <trkpt lat="41.874902" lon="-87.696127">
      </trkpt>
      <trkpt lat="41.874908" lon="-87.695509">
      </trkpt>
      <trkpt lat="41.875125" lon="-87.690201">
      </trkpt>
      <trkpt lat="41.87561" lon="-87.659837">
      </trkpt>
      <trkpt lat="41.875329" lon="-87.650308">
      </trkpt>
      <trkpt lat="41.875302" lon="-87.647601">
      </trkpt>
      <trkpt lat="41.874563" lon="-87.645452">
      </trkpt>
      <trkpt lat="41.875077" lon="-87.644482">
      </trkpt>
      <trkpt lat="41.876036" lon="-87.64458">
      </trkpt>
      <trkpt lat="41.877863" lon="-87.645364">
      </trkpt>
      <trkpt lat="41.880374" lon="-87.645275">
      </trkpt>
      <trkpt lat="41.881847" lon="-87.645355">
      </trkpt>
      <trkpt lat="41.882198" lon="-87.645393">
      </trkpt>
      <trkpt lat="41.883308" lon="-87.645396">
      </trkpt>
      <trkpt lat="41.885689" lon="-87.645365">
      </trkpt>
      <trkpt lat="41.885733" lon="-87.63676">
      </trkpt>
      <trkpt lat="41.886768" lon="-87.635439">
      </trkpt>
      <trkpt lat="41.886821" lon="-87.634232">
      </trkpt>
      <trkpt lat="41.886821" lon="-87.634232">
      </trkpt>
      <trkpt lat="41.886819" lon="-87.632428">
      </trkpt>
      <trkpt lat="41.893212" lon="-87.632534">
      </trkpt>
      <trkpt lat="41.893148" lon="-87.637063">
      </trkpt>
      <trkpt lat="41.897377" lon="-87.637209">
      </trkpt>
      <trkpt lat="41.897392" lon="-87.636364">
      </trkpt>
      <trkpt lat="41.897392" lon="-87.636364">
      </trkpt>
      <trkpt lat="41.897377" lon="-87.637209">
      </trkpt>
      <trkpt lat="41.896556" lon="-87.637178">
      </trkpt>
      <trkpt lat="41.896403" lon="-87.64782">
      </trkpt>
      <trkpt lat="41.891194" lon="-87.647627">
      </trkpt>
      <trkpt lat="41.891135" lon="-87.652288">
      </trkpt>
      <trkpt lat="41.888087" lon="-87.652212">
      </trkpt>
      <trkpt lat="41.888087" lon="-87.652212">
      </trkpt>
      <trkpt lat="41.888087" lon="-87.652212">
      </trkpt>
      <trkpt lat="41.888087" lon="-87.652212">
      </trkpt>
      <trkpt lat="41.890047" lon="-87.652264">
      </trkpt>
      <trkpt lat="41.890082" lon="-87.64876">
      </trkpt>
      <trkpt lat="41.889017" lon="-87.648718">
      </trkpt>
      <trkpt lat="41.888979" lon="-87.648612">
      </trkpt>
      <trkpt lat="41.889039" lon="-87.645907">
      </trkpt>
      <trkpt lat="41.889078" lon="-87.641768">
      </trkpt>
      <trkpt lat="41.889054" lon="-87.641668">
      </trkpt>
      <trkpt lat="41.888886" lon="-87.641418">
      </trkpt>
      <trkpt lat="41.888757" lon="-87.641385">
      </trkpt>
      <trkpt lat="41.887052" lon="-87.641357">
      </trkpt>
      <trkpt lat="41.887052" lon="-87.641357">
      </trkpt>
      <trkpt lat="41.880567" lon="-87.64118">
      </trkpt>
      <trkpt lat="41.880598" lon="-87.639693">
      </trkpt>
      <trkpt lat="41.881889" lon="-87.639706">
      </trkpt>
      <trkpt lat="41.881877" lon="-87.640505">
      </trkpt>
      <trkpt lat="41.881877" lon="-87.640505">
      </trkpt>
      <trkpt lat="41.881801" lon="-87.64573">
      </trkpt>
      <trkpt lat="41.885306" lon="-87.645735">
      </trkpt>
      <trkpt lat="41.888483" lon="-87.647404">
      </trkpt>
      <trkpt lat="41.897251" lon="-87.658783">
      </trkpt>
      <trkpt lat="41.901753" lon="-87.660805">
      </trkpt>
      <trkpt lat="41.906443" lon="-87.661061">
      </trkpt>
      <trkpt lat="41.910145" lon="-87.664439">
      </trkpt>
      <trkpt lat="41.915739" lon="-87.667973">
      </trkpt>
      <trkpt lat="41.917898" lon="-87.66968">
      </trkpt>
      <trkpt lat="41.917936" lon="-87.667964">
      </trkpt>
      <trkpt lat="41.92163" lon="-87.66862">
      </trkpt>
      <trkpt lat="41.936057" lon="-87.668463">
      </trkpt>
      <trkpt lat="41.936111" lon="-87.663682">
      </trkpt>
      <trkpt lat="41.938211" lon="-87.663758">
      </trkpt>
      <trkpt lat="41.938211" lon="-87.663758">
      </trkpt>
      <trkpt lat="41.939759" lon="-87.663815">
      </trkpt>
      <trkpt lat="41.939644" lon="-87.673369">
      </trkpt>
      <trkpt lat="41.939644" lon="-87.673369">
      </trkpt>
      <trkpt lat="41.939586" lon="-87.678349">
      </trkpt>
      <trkpt lat="41.92139" lon="-87.677765">
      </trkpt>
      <trkpt lat="41.921395" lon="-87.677255">
      </trkpt>
      <trkpt lat="41.916815" lon="-87.669405">
      </trkpt>
      <trkpt lat="41.909975" lon="-87.664752">
      </trkpt>
      <trkpt lat="41.90696" lon="-87.661748">
      </trkpt>
      <trkpt lat="41.901587" lon="-87.661131">
      </trkpt>
      <trkpt lat="41.897534" lon="-87.659383">
      </trkpt>
      <trkpt lat="41.894931" lon="-87.657479">
      </trkpt>
      <trkpt lat="41.891076" lon="-87.657374">
      </trkpt>
      <trkpt lat="41.891135" lon="-87.652288">
      </trkpt>
      <trkpt lat="41.888087" lon="-87.652212">
      </trkpt>
      <trkpt lat="41.888087" lon="-87.652212">
      </trkpt>
      <trkpt lat="41.888087" lon="-87.652212">
      </trkpt>
      <trkpt lat="41.888087" lon="-87.652212">
      </trkpt>
      <trkpt lat="41.890047" lon="-87.652264">
      </trkpt>
      <trkpt lat="41.890082" lon="-87.64876">
      </trkpt>
      <trkpt lat="41.889017" lon="-87.648718">
      </trkpt>
      <trkpt lat="41.889037" lon="-87.639723">
      </trkpt>
      <trkpt lat="41.889117" lon="-87.638968">
      </trkpt>
      <trkpt lat="41.889183" lon="-87.632656">
      </trkpt>
      <trkpt lat="41.888008" lon="-87.632518">
      </trkpt>
      <trkpt lat="41.885741" lon="-87.632564">
      </trkpt>
      <trkpt lat="41.882849" lon="-87.6324">
      </trkpt>
      <trkpt lat="41.882849" lon="-87.6324">
      </trkpt>
      <trkpt lat="41.881953" lon="-87.632362">
      </trkpt>
      <trkpt lat="41.881801" lon="-87.64573">
      </trkpt>
      <trkpt lat="41.885306" lon="-87.645735">
      </trkpt>
      <trkpt lat="41.887752" lon="-87.646837">
      </trkpt>
      <trkpt lat="41.896733" lon="-87.658396">
      </trkpt>
      <trkpt lat="41.901461" lon="-87.660726">
      </trkpt>
      <trkpt lat="41.906799" lon="-87.661253">
      </trkpt>
      <trkpt lat="41.91737" lon="-87.669547">
      </trkpt>
      <trkpt lat="41.937344" lon="-87.704001">
      </trkpt>
      <trkpt lat="41.940632" lon="-87.710036">
      </trkpt>
      <trkpt lat="41.942208" lon="-87.714861">
      </trkpt>
      <trkpt lat="41.94785" lon="-87.719423">
      </trkpt>
      <trkpt lat="41.956778" lon="-87.735617">
      </trkpt>
      <trkpt lat="41.958584" lon="-87.738341">
      </trkpt>
      <trkpt lat="41.957068" lon="-87.738204">
      </trkpt>
      <trkpt lat="41.957146" lon="-87.738806">
      </trkpt>
      <trkpt lat="41.957989" lon="-87.740053">
      </trkpt>
      <trkpt lat="41.957989" lon="-87.740053">
      </trkpt>
      <trkpt lat="41.957146" lon="-87.738806">
      </trkpt>
      <trkpt lat="41.957068" lon="-87.738204">
      </trkpt>
      <trkpt lat="41.953535" lon="-87.738067">
      </trkpt>
      <trkpt lat="41.953617" lon="-87.731304">
      </trkpt>
      <trkpt lat="41.947499" lon="-87.719717">
      </trkpt>
      <trkpt lat="41.942115" lon="-87.715518">
      </trkpt>
      <trkpt lat="41.939977" lon="-87.709442">
      </trkpt>
      <trkpt lat="41.919706" lon="-87.673831">
      </trkpt>
      <trkpt lat="41.918264" lon="-87.671882">
      </trkpt>
      <trkpt lat="41.918151" lon="-87.671723">
      </trkpt>
      <trkpt lat="41.91793" lon="-87.667505">
      </trkpt>
      <trkpt lat="41.916455" lon="-87.666413">
      </trkpt>
      <trkpt lat="41.917067" lon="-87.663815">
      </trkpt>
      <trkpt lat="41.917139" lon="-87.658378">
      </trkpt>
      <trkpt lat="41.918041" lon="-87.658214">
      </trkpt>
      <trkpt lat="41.918322" lon="-87.638808">
      </trkpt>
      <trkpt lat="41.918106" lon="-87.638503">
      </trkpt>
      <trkpt lat="41.918106" lon="-87.638503">
      </trkpt>
      <trkpt lat="41.939512" lon="-87.668425">
      </trkpt>
      <trkpt lat="41.945127" lon="-87.672471">
      </trkpt>
      <trkpt lat="41.945017" lon="-87.68093">
      </trkpt>
      <trkpt lat="41.944938" lon="-87.680928">
      </trkpt>
      <trkpt lat="41.944938" lon="-87.680928">
      </trkpt>
      <trkpt lat="41.943192" lon="-87.680878">
      </trkpt>
      <trkpt lat="41.94311" lon="-87.688089">
      </trkpt>
      <trkpt lat="41.946744" lon="-87.688245">
      </trkpt>
      <trkpt lat="41.946623" lon="-87.708842">
      </trkpt>
      <trkpt lat="41.949329" lon="-87.712782">
      </trkpt>
      <trkpt lat="41.968411" lon="-87.713373">
      </trkpt>
      <trkpt lat="41.968394" lon="-87.714891">
      </trkpt>
      <trkpt lat="41.968394" lon="-87.714891">
      </trkpt>
      <trkpt lat="41.969172" lon="-87.649644">
      </trkpt>
      <trkpt lat="41.965847" lon="-87.648701">
      </trkpt>
      <trkpt lat="41.965847" lon="-87.648701">
      </trkpt>
      <trkpt lat="41.965499" lon="-87.648611">
      </trkpt>
      <trkpt lat="41.965314" lon="-87.663838">
      </trkpt>
      <trkpt lat="41.965153" lon="-87.663815">
      </trkpt>
      <trkpt lat="41.965153" lon="-87.663815">
      </trkpt>
      <trkpt lat="41.964478" lon="-87.663753">
      </trkpt>
      <trkpt lat="41.963488" lon="-87.663753">
      </trkpt>
      <trkpt lat="41.96345" lon="-87.666348">
      </trkpt>
      <trkpt lat="41.961832" lon="-87.665992">
      </trkpt>
      <trkpt lat="41.961832" lon="-87.665992">
      </trkpt>
      <trkpt lat="41.961638" lon="-87.665949">
      </trkpt>
      <trkpt lat="41.961591" lon="-87.669293">
      </trkpt>
      <trkpt lat="41.954302" lon="-87.66911">
      </trkpt>
      <trkpt lat="41.953982" lon="-87.698254">
      </trkpt>
      <trkpt lat="41.946686" lon="-87.698037">
      </trkpt>
      <trkpt lat="41.94651" lon="-87.717815">
      </trkpt>
      <trkpt lat="41.960998" lon="-87.742619">
      </trkpt>
      <trkpt lat="41.965012" lon="-87.746732">
      </trkpt>
      <trkpt lat="41.980044" lon="-87.746614">
      </trkpt>
      <trkpt lat="41.987222" lon="-87.751348">
      </trkpt>
      <trkpt lat="42.001173" lon="-87.748745">
      </trkpt>
      <trkpt lat="42.009518" lon="-87.749189">
      </trkpt>
      <trkpt lat="42.014015" lon="-87.752849">
      </trkpt>
      <trkpt lat="42.021217" lon="-87.765343">
      </trkpt>
      <trkpt lat="42.025543" lon="-87.768358">
      </trkpt>
      <trkpt lat="42.033299" lon="-87.768407">
      </trkpt>
      <trkpt lat="42.038593" lon="-87.764702">
      </trkpt>
      <trkpt lat="42.040729" lon="-87.760652">
      </trkpt>
      <trkpt lat="42.040788" lon="-87.756567">
      </trkpt>
      <trkpt lat="42.048918" lon="-87.747955">
      </trkpt>
      <trkpt lat="42.048918" lon="-87.747955">
      </trkpt>
      <trkpt lat="42.041109" lon="-87.756258">
      </trkpt>
      <trkpt lat="42.040938" lon="-87.763691">
      </trkpt>
      <trkpt lat="42.041577" lon="-87.764624">
      </trkpt>
      <trkpt lat="42.042189" lon="-87.763223">
      </trkpt>
      <trkpt lat="42.03371" lon="-87.768504">
      </trkpt>
      <trkpt lat="42.02546" lon="-87.768573">
      </trkpt>
      <trkpt lat="42.020736" lon="-87.765062">
      </trkpt>
      <trkpt lat="42.013632" lon="-87.752686">
      </trkpt>
      <trkpt lat="42.010212" lon="-87.749733">
      </trkpt>
      <trkpt lat="42.001528" lon="-87.748936">
      </trkpt>
      <trkpt lat="41.987219" lon="-87.751521">
      </trkpt>
      <trkpt lat="41.980228" lon="-87.746835">
      </trkpt>
      <trkpt lat="41.964041" lon="-87.747042">
      </trkpt>
      <trkpt lat="41.957103" lon="-87.73715">
      </trkpt>
      <trkpt lat="41.954216" lon="-87.732489">
      </trkpt>
      <trkpt lat="41.953606" lon="-87.732464">
      </trkpt>
      <trkpt lat="41.953587" lon="-87.733959">
      </trkpt>
      <trkpt lat="41.948121" lon="-87.733804">
      </trkpt>
      <trkpt lat="41.948077" lon="-87.736646">
      </trkpt>
      <trkpt lat="41.948162" lon="-87.736648">
      </trkpt>
    </trkseg>
  </trk>
</gpx>