<?xml version="1.0" encoding="UTF-8"?>
<gpx xmlns="http://www.topografix.com/GPX/1/1" xmlns:xsi="http://www.w3.org/2001/XMLSchema-instance" xsi:schemaLocation="http://www.topografix.com/GPX/1/1 http://www.topografix.com/GPX/1/1/gpx.xsd" version="1.1" creator="gpx.py -- https://github.com/tkrajina/gpxpy">
  <trk>
    <trkseg>
      <trkpt lat="41.98969" lon="-87.674682">
      </trkpt>
      <trkpt lat="41.98969" lon="-87.674682">
      </trkpt>
      <trkpt lat="41.98969" lon="-87.674682">
      </trkpt>
      <trkpt lat="41.976102" lon="-87.674411">
      </trkpt>
      <trkpt lat="41.976173" lon="-87.66966">
      </trkpt>
      <trkpt lat="41.932963" lon="-87.668473">
      </trkpt>
      <trkpt lat="41.932963" lon="-87.668473">
      </trkpt>
      <trkpt lat="41.921563" lon="-87.668616">
      </trkpt>
      <trkpt lat="41.921395" lon="-87.677255">
      </trkpt>
      <trkpt lat="41.918139" lon="-87.671115">
      </trkpt>
      <trkpt lat="41.915851" lon="-87.668499">
      </trkpt>
      <trkpt lat="41.909975" lon="-87.664752">
      </trkpt>
      <trkpt lat="41.906635" lon="-87.661559">
      </trkpt>
      <trkpt lat="41.901306" lon="-87.661057">
      </trkpt>
      <trkpt lat="41.896667" lon="-87.658834">
      </trkpt>
      <trkpt lat="41.889096" lon="-87.6483">
      </trkpt>
      <trkpt lat="41.885119" lon="-87.646108">
      </trkpt>
      <trkpt lat="41.883144" lon="-87.646413">
      </trkpt>
      <trkpt lat="41.883178" lon="-87.641266">
      </trkpt>
      <trkpt lat="41.883185" lon="-87.639745">
      </trkpt>
      <trkpt lat="41.883257" lon="-87.624233">
      </trkpt>
      <trkpt lat="41.884366" lon="-87.624344">
      </trkpt>
      <trkpt lat="41.884372" lon="-87.623414">
      </trkpt>
      <trkpt lat="41.884406" lon="-87.617529">
      </trkpt>
      <trkpt lat="41.885524" lon="-87.617418">
      </trkpt>
      <trkpt lat="41.885561" lon="-87.616288">
      </trkpt>
      <trkpt lat="41.886523" lon="-87.616289">
      </trkpt>
      <trkpt lat="41.88653" lon="-87.618715">
      </trkpt>
      <trkpt lat="41.88653" lon="-87.618715">
      </trkpt>
      <trkpt lat="41.88653" lon="-87.618715">
      </trkpt>
      <trkpt lat="41.88653" lon="-87.618715">
      </trkpt>
      <trkpt lat="41.886506" lon="-87.619106">
      </trkpt>
      <trkpt lat="41.885527" lon="-87.6191">
      </trkpt>
      <trkpt lat="41.885524" lon="-87.617418">
      </trkpt>
      <trkpt lat="41.884538" lon="-87.617389">
      </trkpt>
      <trkpt lat="41.884489" lon="-87.624571">
      </trkpt>
      <trkpt lat="41.875724" lon="-87.62435">
      </trkpt>
      <trkpt lat="41.875719" lon="-87.651339">
      </trkpt>
      <trkpt lat="41.876197" lon="-87.657603">
      </trkpt>
      <trkpt lat="41.875763" lon="-87.688313">
      </trkpt>
      <trkpt lat="41.875862" lon="-87.692409">
      </trkpt>
      <trkpt lat="41.875937" lon="-87.701067">
      </trkpt>
      <trkpt lat="41.889426" lon="-87.701479">
      </trkpt>
      <trkpt lat="41.891131" lon="-87.701974">
      </trkpt>
      <trkpt lat="41.897899" lon="-87.702431">
      </trkpt>
      <trkpt lat="41.902886" lon="-87.702278">
      </trkpt>
      <trkpt lat="41.902888" lon="-87.701605">
      </trkpt>
      <trkpt lat="41.902888" lon="-87.701605">
      </trkpt>
      <trkpt lat="41.903364" lon="-87.666488">
      </trkpt>
      <trkpt lat="41.899711" lon="-87.660843">
      </trkpt>
      <trkpt lat="41.896667" lon="-87.658834">
      </trkpt>
      <trkpt lat="41.895018" lon="-87.657114">
      </trkpt>
      <trkpt lat="41.89377" lon="-87.655657">
      </trkpt>
      <trkpt lat="41.89226" lon="-87.654831">
      </trkpt>
      <trkpt lat="41.891931" lon="-87.653963">
      </trkpt>
      <trkpt lat="41.892554" lon="-87.651034">
      </trkpt>
      <trkpt lat="41.892368" lon="-87.63704">
      </trkpt>
      <trkpt lat="41.892588" lon="-87.620263">
      </trkpt>
      <trkpt lat="41.893412" lon="-87.620283">
      </trkpt>
      <trkpt lat="41.893376" lon="-87.621935">
      </trkpt>
    </trkseg>
  </trk>
</gpx>