<?xml version="1.0" encoding="UTF-8"?>
<gpx xmlns="http://www.topografix.com/GPX/1/1" xmlns:xsi="http://www.w3.org/2001/XMLSchema-instance" xsi:schemaLocation="http://www.topografix.com/GPX/1/1 http://www.topografix.com/GPX/1/1/gpx.xsd" version="1.1" creator="gpx.py -- https://github.com/tkrajina/gpxpy">
  <trk>
    <trkseg>
      <trkpt lat="41.931569" lon="-87.653827">
      </trkpt>
      <trkpt lat="41.925374" lon="-87.653601">
      </trkpt>
      <trkpt lat="41.925291" lon="-87.658464">
      </trkpt>
      <trkpt lat="41.917264" lon="-87.658201">
      </trkpt>
      <trkpt lat="41.917067" lon="-87.663815">
      </trkpt>
      <trkpt lat="41.916129" lon="-87.66782">
      </trkpt>
      <trkpt lat="41.890972" lon="-87.667205">
      </trkpt>
      <trkpt lat="41.890782" lon="-87.679339">
      </trkpt>
      <trkpt lat="41.891505" lon="-87.67936">
      </trkpt>
      <trkpt lat="41.891528" lon="-87.67804">
      </trkpt>
      <trkpt lat="41.891528" lon="-87.67804">
      </trkpt>
      <trkpt lat="41.891547" lon="-87.676926">
      </trkpt>
      <trkpt lat="41.894261" lon="-87.677009">
      </trkpt>
      <trkpt lat="41.894261" lon="-87.677009">
      </trkpt>
      <trkpt lat="41.890825" lon="-87.676904">
      </trkpt>
      <trkpt lat="41.891194" lon="-87.647627">
      </trkpt>
      <trkpt lat="41.889054" lon="-87.644337">
      </trkpt>
      <trkpt lat="41.884425" lon="-87.644184">
      </trkpt>
      <trkpt lat="41.884406" lon="-87.646033">
      </trkpt>
      <trkpt lat="41.884406" lon="-87.646033">
      </trkpt>
      <trkpt lat="41.884415" lon="-87.647438">
      </trkpt>
      <trkpt lat="41.884333" lon="-87.652104">
      </trkpt>
      <trkpt lat="41.888087" lon="-87.652212">
      </trkpt>
      <trkpt lat="41.888087" lon="-87.652212">
      </trkpt>
      <trkpt lat="41.891135" lon="-87.652288">
      </trkpt>
      <trkpt lat="41.890825" lon="-87.676904">
      </trkpt>
      <trkpt lat="41.902253" lon="-87.677244">
      </trkpt>
      <trkpt lat="41.902193" lon="-87.681164">
      </trkpt>
      <trkpt lat="41.902193" lon="-87.681164">
      </trkpt>
      <trkpt lat="41.902178" lon="-87.682123">
      </trkpt>
      <trkpt lat="41.899461" lon="-87.682046">
      </trkpt>
      <trkpt lat="41.899379" lon="-87.686926">
      </trkpt>
      <trkpt lat="41.89575" lon="-87.686835">
      </trkpt>
      <trkpt lat="41.895606" lon="-87.701213">
      </trkpt>
      <trkpt lat="41.895606" lon="-87.701213">
      </trkpt>
      <trkpt lat="41.895625" lon="-87.699899">
      </trkpt>
      <trkpt lat="41.890646" lon="-87.686683">
      </trkpt>
      <trkpt lat="41.866615" lon="-87.686045">
      </trkpt>
      <trkpt lat="41.866694" lon="-87.676349">
      </trkpt>
      <trkpt lat="41.849401" lon="-87.675765">
      </trkpt>
      <trkpt lat="41.849401" lon="-87.675765">
      </trkpt>
      <trkpt lat="41.849449" lon="-87.675766">
      </trkpt>
      <trkpt lat="41.848455" lon="-87.678356">
      </trkpt>
      <trkpt lat="41.848508" lon="-87.678723">
      </trkpt>
      <trkpt lat="41.848443" lon="-87.683089">
      </trkpt>
      <trkpt lat="41.848053" lon="-87.683078">
      </trkpt>
      <trkpt lat="41.848058" lon="-87.682791">
      </trkpt>
      <trkpt lat="41.848058" lon="-87.682791">
      </trkpt>
      <trkpt lat="41.848053" lon="-87.683078">
      </trkpt>
      <trkpt lat="41.848443" lon="-87.683089">
      </trkpt>
      <trkpt lat="41.848405" lon="-87.685521">
      </trkpt>
      <trkpt lat="41.876094" lon="-87.686165">
      </trkpt>
      <trkpt lat="41.875937" lon="-87.701067">
      </trkpt>
      <trkpt lat="41.896575" lon="-87.702222">
      </trkpt>
      <trkpt lat="41.900181" lon="-87.711412">
      </trkpt>
      <trkpt lat="41.908233" lon="-87.711856">
      </trkpt>
      <trkpt lat="41.90821" lon="-87.714298">
      </trkpt>
      <trkpt lat="41.909112" lon="-87.714329">
      </trkpt>
      <trkpt lat="41.909136" lon="-87.712229">
      </trkpt>
      <trkpt lat="41.909136" lon="-87.712229">
      </trkpt>
      <trkpt lat="41.90914" lon="-87.711885">
      </trkpt>
      <trkpt lat="41.910045" lon="-87.711884">
      </trkpt>
      <trkpt lat="41.909821" lon="-87.735652">
      </trkpt>
      <trkpt lat="41.916843" lon="-87.753381">
      </trkpt>
      <trkpt lat="41.921914" lon="-87.782959">
      </trkpt>
      <trkpt lat="41.923648" lon="-87.788528">
      </trkpt>
      <trkpt lat="41.923552" lon="-87.803157">
      </trkpt>
      <trkpt lat="41.924003" lon="-87.806251">
      </trkpt>
      <trkpt lat="41.934519" lon="-87.806613">
      </trkpt>
      <trkpt lat="41.93424" lon="-87.820654">
      </trkpt>
      <trkpt lat="41.934634" lon="-87.82067">
      </trkpt>
    </trkseg>
  </trk>
</gpx>