<?xml version="1.0" encoding="UTF-8"?>
<gpx xmlns="http://www.topografix.com/GPX/1/1" xmlns:xsi="http://www.w3.org/2001/XMLSchema-instance" xsi:schemaLocation="http://www.topografix.com/GPX/1/1 http://www.topografix.com/GPX/1/1/gpx.xsd" version="1.1" creator="gpx.py -- https://github.com/tkrajina/gpxpy">
  <trk>
    <trkseg>
      <trkpt lat="41.885979" lon="-87.615797">
      </trkpt>
      <trkpt lat="41.884562" lon="-87.615832">
      </trkpt>
      <trkpt lat="41.884489" lon="-87.627902">
      </trkpt>
      <trkpt lat="41.882046" lon="-87.627799">
      </trkpt>
      <trkpt lat="41.881984" lon="-87.630875">
      </trkpt>
      <trkpt lat="41.875701" lon="-87.630715">
      </trkpt>
      <trkpt lat="41.875684" lon="-87.631738">
      </trkpt>
      <trkpt lat="41.875522" lon="-87.631731">
      </trkpt>
      <trkpt lat="41.875518" lon="-87.631448">
      </trkpt>
      <trkpt lat="41.875518" lon="-87.631448">
      </trkpt>
      <trkpt lat="41.875518" lon="-87.631448">
      </trkpt>
      <trkpt lat="41.875518" lon="-87.631448">
      </trkpt>
      <trkpt lat="41.875521" lon="-87.630714">
      </trkpt>
      <trkpt lat="41.874518" lon="-87.630686">
      </trkpt>
      <trkpt lat="41.874483" lon="-87.633036">
      </trkpt>
      <trkpt lat="41.875667" lon="-87.633082">
      </trkpt>
      <trkpt lat="41.875632" lon="-87.64257">
      </trkpt>
      <trkpt lat="41.875942" lon="-87.644772">
      </trkpt>
      <trkpt lat="41.877134" lon="-87.645648">
      </trkpt>
      <trkpt lat="41.885013" lon="-87.645685">
      </trkpt>
      <trkpt lat="41.888098" lon="-87.647091">
      </trkpt>
      <trkpt lat="41.889615" lon="-87.64861">
      </trkpt>
      <trkpt lat="41.895403" lon="-87.657024">
      </trkpt>
      <trkpt lat="41.897251" lon="-87.658783">
      </trkpt>
      <trkpt lat="41.899676" lon="-87.659247">
      </trkpt>
      <trkpt lat="41.899956" lon="-87.659821">
      </trkpt>
      <trkpt lat="41.899842" lon="-87.660982">
      </trkpt>
      <trkpt lat="41.903364" lon="-87.666488">
      </trkpt>
      <trkpt lat="41.903226" lon="-87.674833">
      </trkpt>
      <trkpt lat="41.902204" lon="-87.674795">
      </trkpt>
      <trkpt lat="41.902204" lon="-87.674795">
      </trkpt>
      <trkpt lat="41.899586" lon="-87.674717">
      </trkpt>
      <trkpt lat="41.899648" lon="-87.67107">
      </trkpt>
      <trkpt lat="41.900741" lon="-87.671103">
      </trkpt>
      <trkpt lat="41.900741" lon="-87.671103">
      </trkpt>
      <trkpt lat="41.903289" lon="-87.67118">
      </trkpt>
      <trkpt lat="41.903364" lon="-87.666488">
      </trkpt>
      <trkpt lat="41.899711" lon="-87.660843">
      </trkpt>
      <trkpt lat="41.896667" lon="-87.658834">
      </trkpt>
      <trkpt lat="41.895018" lon="-87.657114">
      </trkpt>
      <trkpt lat="41.89377" lon="-87.655657">
      </trkpt>
      <trkpt lat="41.89226" lon="-87.654831">
      </trkpt>
      <trkpt lat="41.891931" lon="-87.653963">
      </trkpt>
      <trkpt lat="41.892554" lon="-87.651034">
      </trkpt>
      <trkpt lat="41.892372" lon="-87.648079">
      </trkpt>
      <trkpt lat="41.892439" lon="-87.631145">
      </trkpt>
      <trkpt lat="41.889218" lon="-87.631063">
      </trkpt>
      <trkpt lat="41.889251" lon="-87.628704">
      </trkpt>
      <trkpt lat="41.889251" lon="-87.628704">
      </trkpt>
      <trkpt lat="41.889242" lon="-87.629579">
      </trkpt>
      <trkpt lat="41.890042" lon="-87.629598">
      </trkpt>
      <trkpt lat="41.890022" lon="-87.631091">
      </trkpt>
      <trkpt lat="41.889473" lon="-87.631072">
      </trkpt>
      <trkpt lat="41.889473" lon="-87.631072">
      </trkpt>
      <trkpt lat="41.875701" lon="-87.630715">
      </trkpt>
      <trkpt lat="41.875719" lon="-87.651339">
      </trkpt>
      <trkpt lat="41.876197" lon="-87.657603">
      </trkpt>
      <trkpt lat="41.8759" lon="-87.673066">
      </trkpt>
      <trkpt lat="41.876215" lon="-87.676512">
      </trkpt>
      <trkpt lat="41.881323" lon="-87.676638">
      </trkpt>
      <trkpt lat="41.881324" lon="-87.679085">
      </trkpt>
      <trkpt lat="41.88126" lon="-87.678236">
      </trkpt>
      <trkpt lat="41.88126" lon="-87.678236">
      </trkpt>
      <trkpt lat="41.881323" lon="-87.676638">
      </trkpt>
      <trkpt lat="41.875016" lon="-87.676555">
      </trkpt>
      <trkpt lat="41.875021" lon="-87.676128">
      </trkpt>
      <trkpt lat="41.875431" lon="-87.673504">
      </trkpt>
      <trkpt lat="41.875604" lon="-87.6605">
      </trkpt>
      <trkpt lat="41.875329" lon="-87.650308">
      </trkpt>
      <trkpt lat="41.875302" lon="-87.647601">
      </trkpt>
      <trkpt lat="41.87464" lon="-87.646122">
      </trkpt>
      <trkpt lat="41.874563" lon="-87.645452">
      </trkpt>
      <trkpt lat="41.874703" lon="-87.644912">
      </trkpt>
      <trkpt lat="41.875077" lon="-87.644482">
      </trkpt>
      <trkpt lat="41.875544" lon="-87.644364">
      </trkpt>
      <trkpt lat="41.876036" lon="-87.64458">
      </trkpt>
      <trkpt lat="41.877116" lon="-87.645181">
      </trkpt>
      <trkpt lat="41.877863" lon="-87.645364">
      </trkpt>
      <trkpt lat="41.880374" lon="-87.645275">
      </trkpt>
      <trkpt lat="41.881847" lon="-87.645355">
      </trkpt>
      <trkpt lat="41.882198" lon="-87.645393">
      </trkpt>
      <trkpt lat="41.883308" lon="-87.645396">
      </trkpt>
      <trkpt lat="41.884407" lon="-87.645241">
      </trkpt>
      <trkpt lat="41.884408" lon="-87.645482">
      </trkpt>
      <trkpt lat="41.884186" lon="-87.645901">
      </trkpt>
      <trkpt lat="41.881827" lon="-87.645999">
      </trkpt>
      <trkpt lat="41.880956" lon="-87.646134">
      </trkpt>
      <trkpt lat="41.879569" lon="-87.646145">
      </trkpt>
      <trkpt lat="41.878121" lon="-87.646166">
      </trkpt>
      <trkpt lat="41.877218" lon="-87.646107">
      </trkpt>
      <trkpt lat="41.876611" lon="-87.646229">
      </trkpt>
      <trkpt lat="41.876066" lon="-87.646836">
      </trkpt>
      <trkpt lat="41.876066" lon="-87.646836">
      </trkpt>
      <trkpt lat="41.872433" lon="-87.645662">
      </trkpt>
      <trkpt lat="41.869682" lon="-87.645367">
      </trkpt>
      <trkpt lat="41.869691" lon="-87.644443">
      </trkpt>
      <trkpt lat="41.886906" lon="-87.646327">
      </trkpt>
      <trkpt lat="41.889375" lon="-87.648317">
      </trkpt>
      <trkpt lat="41.897003" lon="-87.6586">
      </trkpt>
      <trkpt lat="41.901753" lon="-87.660805">
      </trkpt>
      <trkpt lat="41.906186" lon="-87.660967">
      </trkpt>
      <trkpt lat="41.907951" lon="-87.662226">
      </trkpt>
      <trkpt lat="41.910674" lon="-87.664445">
      </trkpt>
      <trkpt lat="41.910848" lon="-87.653121">
      </trkpt>
      <trkpt lat="41.931569" lon="-87.653827">
      </trkpt>
      <trkpt lat="41.931569" lon="-87.653827">
      </trkpt>
      <trkpt lat="41.925374" lon="-87.653601">
      </trkpt>
      <trkpt lat="41.925374" lon="-87.653601">
      </trkpt>
      <trkpt lat="41.923585" lon="-87.79707">
      </trkpt>
      <trkpt lat="41.923215" lon="-87.797058">
      </trkpt>
      <trkpt lat="41.923215" lon="-87.797058">
      </trkpt>
      <trkpt lat="41.923585" lon="-87.79707">
      </trkpt>
      <trkpt lat="41.923574" lon="-87.803388">
      </trkpt>
      <trkpt lat="41.925599" lon="-87.81628">
      </trkpt>
      <trkpt lat="41.925887" lon="-87.816345">
      </trkpt>
      <trkpt lat="41.926577" lon="-87.817004">
      </trkpt>
      <trkpt lat="41.927054" lon="-87.816668">
      </trkpt>
      <trkpt lat="41.927522" lon="-87.816853">
      </trkpt>
      <trkpt lat="41.927784" lon="-87.817442">
      </trkpt>
      <trkpt lat="41.927669" lon="-87.818109">
      </trkpt>
      <trkpt lat="41.930758" lon="-87.821027">
      </trkpt>
      <trkpt lat="41.931596" lon="-87.822027">
      </trkpt>
      <trkpt lat="41.932331" lon="-87.821208">
      </trkpt>
      <trkpt lat="41.934229" lon="-87.821275">
      </trkpt>
      <trkpt lat="41.93424" lon="-87.820654">
      </trkpt>
      <trkpt lat="41.934634" lon="-87.82067">
      </trkpt>
      <trkpt lat="41.934634" lon="-87.82067">
      </trkpt>
      <trkpt lat="41.93424" lon="-87.820654">
      </trkpt>
      <trkpt lat="41.934519" lon="-87.806613">
      </trkpt>
      <trkpt lat="41.873618" lon="-87.804598">
      </trkpt>
      <trkpt lat="41.87064" lon="-87.769061">
      </trkpt>
      <trkpt lat="41.871594" lon="-87.739969">
      </trkpt>
      <trkpt lat="41.87362" lon="-87.733001">
      </trkpt>
      <trkpt lat="41.875168" lon="-87.69832">
      </trkpt>
      <trkpt lat="41.875815" lon="-87.620619">
      </trkpt>
      <trkpt lat="41.886864" lon="-87.620668">
      </trkpt>
      <trkpt lat="41.886864" lon="-87.620668">
      </trkpt>
      <trkpt lat="41.886919" lon="-87.620667">
      </trkpt>
      <trkpt lat="41.881244" lon="-87.620897">
      </trkpt>
      <trkpt lat="41.867601" lon="-87.620423">
      </trkpt>
      <trkpt lat="41.867506" lon="-87.624157">
      </trkpt>
      <trkpt lat="41.868888" lon="-87.624039">
      </trkpt>
    </trkseg>
  </trk>
</gpx>