<?xml version="1.0" encoding="UTF-8"?>
<gpx xmlns="http://www.topografix.com/GPX/1/1" xmlns:xsi="http://www.w3.org/2001/XMLSchema-instance" xsi:schemaLocation="http://www.topografix.com/GPX/1/1 http://www.topografix.com/GPX/1/1/gpx.xsd" version="1.1" creator="gpx.py -- https://github.com/tkrajina/gpxpy">
  <trk>
    <trkseg>
      <trkpt lat="41.941072" lon="-87.816641">
      </trkpt>
      <trkpt lat="41.93794" lon="-87.816524">
      </trkpt>
      <trkpt lat="41.938002" lon="-87.806735">
      </trkpt>
      <trkpt lat="41.873618" lon="-87.804598">
      </trkpt>
      <trkpt lat="41.87064" lon="-87.769061">
      </trkpt>
      <trkpt lat="41.871594" lon="-87.739969">
      </trkpt>
      <trkpt lat="41.87362" lon="-87.733001">
      </trkpt>
      <trkpt lat="41.873948" lon="-87.708909">
      </trkpt>
      <trkpt lat="41.874481" lon="-87.704448">
      </trkpt>
      <trkpt lat="41.874345" lon="-87.701026">
      </trkpt>
      <trkpt lat="41.877385" lon="-87.70111">
      </trkpt>
      <trkpt lat="41.877408" lon="-87.69832">
      </trkpt>
      <trkpt lat="41.877408" lon="-87.69832">
      </trkpt>
      <trkpt lat="41.877434" lon="-87.696189">
      </trkpt>
      <trkpt lat="41.874902" lon="-87.696127">
      </trkpt>
      <trkpt lat="41.874908" lon="-87.695509">
      </trkpt>
      <trkpt lat="41.875125" lon="-87.690201">
      </trkpt>
      <trkpt lat="41.875329" lon="-87.650308">
      </trkpt>
      <trkpt lat="41.875215" lon="-87.648052">
      </trkpt>
      <trkpt lat="41.874037" lon="-87.646014">
      </trkpt>
      <trkpt lat="41.869485" lon="-87.644983">
      </trkpt>
      <trkpt lat="41.857055" lon="-87.644357">
      </trkpt>
      <trkpt lat="41.852823" lon="-87.645374">
      </trkpt>
      <trkpt lat="41.850609" lon="-87.644998">
      </trkpt>
      <trkpt lat="41.847255" lon="-87.642186">
      </trkpt>
      <trkpt lat="41.845323" lon="-87.634652">
      </trkpt>
      <trkpt lat="41.844384" lon="-87.632773">
      </trkpt>
      <trkpt lat="41.842703" lon="-87.631597">
      </trkpt>
      <trkpt lat="41.830548" lon="-87.631069">
      </trkpt>
      <trkpt lat="41.823664" lon="-87.631351">
      </trkpt>
      <trkpt lat="41.823783" lon="-87.621597">
      </trkpt>
      <trkpt lat="41.824244" lon="-87.621608">
      </trkpt>
      <trkpt lat="41.824244" lon="-87.621608">
      </trkpt>
      <trkpt lat="41.831064" lon="-87.621754">
      </trkpt>
      <trkpt lat="41.830961" lon="-87.629817">
      </trkpt>
      <trkpt lat="41.831311" lon="-87.629831">
      </trkpt>
      <trkpt lat="41.837743" lon="-87.630393">
      </trkpt>
      <trkpt lat="41.842376" lon="-87.630317">
      </trkpt>
      <trkpt lat="41.844144" lon="-87.631347">
      </trkpt>
      <trkpt lat="41.84523" lon="-87.633465">
      </trkpt>
      <trkpt lat="41.847354" lon="-87.642036">
      </trkpt>
      <trkpt lat="41.850908" lon="-87.644903">
      </trkpt>
      <trkpt lat="41.857362" lon="-87.644156">
      </trkpt>
      <trkpt lat="41.873493" lon="-87.644854">
      </trkpt>
      <trkpt lat="41.87559" lon="-87.644167">
      </trkpt>
      <trkpt lat="41.877863" lon="-87.645364">
      </trkpt>
      <trkpt lat="41.880374" lon="-87.645275">
      </trkpt>
      <trkpt lat="41.881847" lon="-87.645355">
      </trkpt>
      <trkpt lat="41.882198" lon="-87.645393">
      </trkpt>
      <trkpt lat="41.883308" lon="-87.645396">
      </trkpt>
      <trkpt lat="41.885689" lon="-87.645365">
      </trkpt>
      <trkpt lat="41.885733" lon="-87.63676">
      </trkpt>
      <trkpt lat="41.886768" lon="-87.635439">
      </trkpt>
      <trkpt lat="41.886821" lon="-87.634232">
      </trkpt>
      <trkpt lat="41.886821" lon="-87.634232">
      </trkpt>
      <trkpt lat="41.886819" lon="-87.632428">
      </trkpt>
      <trkpt lat="41.886947" lon="-87.632499">
      </trkpt>
      <trkpt lat="41.886949" lon="-87.635198">
      </trkpt>
      <trkpt lat="41.886906" lon="-87.63544">
      </trkpt>
      <trkpt lat="41.887014" lon="-87.635491">
      </trkpt>
      <trkpt lat="41.887983" lon="-87.63637">
      </trkpt>
      <trkpt lat="41.888006" lon="-87.638308">
      </trkpt>
      <trkpt lat="41.887933" lon="-87.638306">
      </trkpt>
      <trkpt lat="41.887943" lon="-87.637518">
      </trkpt>
      <trkpt lat="41.887943" lon="-87.637518">
      </trkpt>
      <trkpt lat="41.887983" lon="-87.63637">
      </trkpt>
      <trkpt lat="41.888455" lon="-87.636789">
      </trkpt>
      <trkpt lat="41.888771" lon="-87.636943">
      </trkpt>
      <trkpt lat="41.889941" lon="-87.636984">
      </trkpt>
      <trkpt lat="41.889943" lon="-87.636764">
      </trkpt>
      <trkpt lat="41.889126" lon="-87.636747">
      </trkpt>
      <trkpt lat="41.889017" lon="-87.648718">
      </trkpt>
      <trkpt lat="41.889662" lon="-87.648752">
      </trkpt>
      <trkpt lat="41.889662" lon="-87.648752">
      </trkpt>
      <trkpt lat="41.890082" lon="-87.64876">
      </trkpt>
      <trkpt lat="41.889969" lon="-87.660056">
      </trkpt>
      <trkpt lat="41.887465" lon="-87.661689">
      </trkpt>
      <trkpt lat="41.884343" lon="-87.663381">
      </trkpt>
      <trkpt lat="41.884056" lon="-87.663439">
      </trkpt>
      <trkpt lat="41.882852" lon="-87.664612">
      </trkpt>
      <trkpt lat="41.88287" lon="-87.663613">
      </trkpt>
      <trkpt lat="41.88287" lon="-87.663613">
      </trkpt>
      <trkpt lat="41.882892" lon="-87.662315">
      </trkpt>
      <trkpt lat="41.881537" lon="-87.662276">
      </trkpt>
      <trkpt lat="41.881166" lon="-87.686432">
      </trkpt>
      <trkpt lat="41.877547" lon="-87.686341">
      </trkpt>
      <trkpt lat="41.877461" lon="-87.693785">
      </trkpt>
      <trkpt lat="41.878371" lon="-87.693796">
      </trkpt>
      <trkpt lat="41.878346" lon="-87.696046">
      </trkpt>
      <trkpt lat="41.878346" lon="-87.696046">
      </trkpt>
      <trkpt lat="41.878346" lon="-87.696046">
      </trkpt>
      <trkpt lat="41.878346" lon="-87.696046">
      </trkpt>
      <trkpt lat="41.878344" lon="-87.696214">
      </trkpt>
      <trkpt lat="41.881077" lon="-87.696286">
      </trkpt>
      <trkpt lat="41.88103" lon="-87.701206">
      </trkpt>
      <trkpt lat="41.889426" lon="-87.701479">
      </trkpt>
      <trkpt lat="41.891131" lon="-87.701974">
      </trkpt>
      <trkpt lat="41.896575" lon="-87.702222">
      </trkpt>
      <trkpt lat="41.898325" lon="-87.706651">
      </trkpt>
      <trkpt lat="41.901143" lon="-87.706735">
      </trkpt>
      <trkpt lat="41.901143" lon="-87.706735">
      </trkpt>
      <trkpt lat="41.90984" lon="-87.706997">
      </trkpt>
      <trkpt lat="41.910645" lon="-87.706743">
      </trkpt>
      <trkpt lat="41.915578" lon="-87.706867">
      </trkpt>
      <trkpt lat="41.91554" lon="-87.71024">
      </trkpt>
      <trkpt lat="41.914054" lon="-87.710199">
      </trkpt>
      <trkpt lat="41.914054" lon="-87.710199">
      </trkpt>
      <trkpt lat="41.913804" lon="-87.710192">
      </trkpt>
      <trkpt lat="41.911905" lon="-87.71013">
      </trkpt>
      <trkpt lat="41.911946" lon="-87.706862">
      </trkpt>
      <trkpt lat="41.898325" lon="-87.706651">
      </trkpt>
      <trkpt lat="41.896575" lon="-87.702222">
      </trkpt>
      <trkpt lat="41.881942" lon="-87.701237">
      </trkpt>
      <trkpt lat="41.881992" lon="-87.696313">
      </trkpt>
      <trkpt lat="41.874902" lon="-87.696127">
      </trkpt>
      <trkpt lat="41.874908" lon="-87.695509">
      </trkpt>
      <trkpt lat="41.875125" lon="-87.690201">
      </trkpt>
      <trkpt lat="41.875815" lon="-87.620619">
      </trkpt>
      <trkpt lat="41.875872" lon="-87.62062">
      </trkpt>
      <trkpt lat="41.875872" lon="-87.62062">
      </trkpt>
      <trkpt lat="41.875815" lon="-87.620619">
      </trkpt>
      <trkpt lat="41.875615" lon="-87.643841">
      </trkpt>
      <trkpt lat="41.875736" lon="-87.651991">
      </trkpt>
      <trkpt lat="41.876197" lon="-87.657603">
      </trkpt>
      <trkpt lat="41.875819" lon="-87.680757">
      </trkpt>
      <trkpt lat="41.876094" lon="-87.686165">
      </trkpt>
      <trkpt lat="41.903025" lon="-87.687018">
      </trkpt>
      <trkpt lat="41.90306" lon="-87.684574">
      </trkpt>
      <trkpt lat="41.90489" lon="-87.684636">
      </trkpt>
      <trkpt lat="41.904903" lon="-87.684023">
      </trkpt>
      <trkpt lat="41.904903" lon="-87.684023">
      </trkpt>
      <trkpt lat="41.90489" lon="-87.684636">
      </trkpt>
      <trkpt lat="41.90671" lon="-87.684681">
      </trkpt>
      <trkpt lat="41.906675" lon="-87.687108">
      </trkpt>
      <trkpt lat="41.949742" lon="-87.688345">
      </trkpt>
      <trkpt lat="41.949742" lon="-87.688345">
      </trkpt>
      <trkpt lat="41.954086" lon="-87.688469">
      </trkpt>
      <trkpt lat="41.954002" lon="-87.694163">
      </trkpt>
      <trkpt lat="41.953965" lon="-87.709947">
      </trkpt>
      <trkpt lat="41.953965" lon="-87.709947">
      </trkpt>
      <trkpt lat="41.953958" lon="-87.710466">
      </trkpt>
      <trkpt lat="41.947636" lon="-87.710301">
      </trkpt>
      <trkpt lat="41.945936" lon="-87.707815">
      </trkpt>
      <trkpt lat="41.938646" lon="-87.707705">
      </trkpt>
      <trkpt lat="41.916815" lon="-87.669405">
      </trkpt>
      <trkpt lat="41.909975" lon="-87.664752">
      </trkpt>
      <trkpt lat="41.906635" lon="-87.661559">
      </trkpt>
      <trkpt lat="41.901587" lon="-87.661131">
      </trkpt>
      <trkpt lat="41.896968" lon="-87.659049">
      </trkpt>
      <trkpt lat="41.888343" lon="-87.647531">
      </trkpt>
      <trkpt lat="41.885929" lon="-87.646219">
      </trkpt>
      <trkpt lat="41.881827" lon="-87.645999">
      </trkpt>
      <trkpt lat="41.880956" lon="-87.646134">
      </trkpt>
      <trkpt lat="41.879569" lon="-87.646145">
      </trkpt>
      <trkpt lat="41.878121" lon="-87.646166">
      </trkpt>
      <trkpt lat="41.876334" lon="-87.646815">
      </trkpt>
      <trkpt lat="41.875728" lon="-87.649135">
      </trkpt>
      <trkpt lat="41.876197" lon="-87.657603">
      </trkpt>
      <trkpt lat="41.875763" lon="-87.688313">
      </trkpt>
      <trkpt lat="41.875862" lon="-87.692409">
      </trkpt>
      <trkpt lat="41.875983" lon="-87.696151">
      </trkpt>
      <trkpt lat="41.877434" lon="-87.696189">
      </trkpt>
      <trkpt lat="41.877461" lon="-87.693785">
      </trkpt>
      <trkpt lat="41.878371" lon="-87.693796">
      </trkpt>
      <trkpt lat="41.878346" lon="-87.696046">
      </trkpt>
      <trkpt lat="41.878346" lon="-87.696046">
      </trkpt>
      <trkpt lat="41.878344" lon="-87.696214">
      </trkpt>
      <trkpt lat="41.874902" lon="-87.696127">
      </trkpt>
      <trkpt lat="41.874908" lon="-87.695509">
      </trkpt>
      <trkpt lat="41.875125" lon="-87.690201">
      </trkpt>
      <trkpt lat="41.87561" lon="-87.659837">
      </trkpt>
      <trkpt lat="41.875329" lon="-87.650308">
      </trkpt>
      <trkpt lat="41.875302" lon="-87.647601">
      </trkpt>
      <trkpt lat="41.874563" lon="-87.645452">
      </trkpt>
      <trkpt lat="41.875077" lon="-87.644482">
      </trkpt>
      <trkpt lat="41.876036" lon="-87.64458">
      </trkpt>
      <trkpt lat="41.877863" lon="-87.645364">
      </trkpt>
      <trkpt lat="41.880374" lon="-87.645275">
      </trkpt>
      <trkpt lat="41.881847" lon="-87.645355">
      </trkpt>
      <trkpt lat="41.882198" lon="-87.645393">
      </trkpt>
      <trkpt lat="41.883308" lon="-87.645396">
      </trkpt>
      <trkpt lat="41.885689" lon="-87.645365">
      </trkpt>
      <trkpt lat="41.885665" lon="-87.647482">
      </trkpt>
      <trkpt lat="41.891194" lon="-87.647627">
      </trkpt>
      <trkpt lat="41.893035" lon="-87.650448">
      </trkpt>
      <trkpt lat="41.893035" lon="-87.650448">
      </trkpt>
      <trkpt lat="41.896254" lon="-87.65541">
      </trkpt>
      <trkpt lat="41.895606" lon="-87.701213">
      </trkpt>
      <trkpt lat="41.895606" lon="-87.701213">
      </trkpt>
      <trkpt lat="41.895606" lon="-87.701213">
      </trkpt>
      <trkpt lat="41.895606" lon="-87.701213">
      </trkpt>
      <trkpt lat="41.896405" lon="-87.647675">
      </trkpt>
      <trkpt lat="41.903643" lon="-87.648086">
      </trkpt>
      <trkpt lat="41.903908" lon="-87.631438">
      </trkpt>
      <trkpt lat="41.910389" lon="-87.631638">
      </trkpt>
      <trkpt lat="41.910376" lon="-87.632468">
      </trkpt>
      <trkpt lat="41.910376" lon="-87.632468">
      </trkpt>
      <trkpt lat="41.910389" lon="-87.631638">
      </trkpt>
      <trkpt lat="41.911184" lon="-87.63166">
      </trkpt>
      <trkpt lat="41.918564" lon="-87.636142">
      </trkpt>
      <trkpt lat="41.927956" lon="-87.641881">
      </trkpt>
      <trkpt lat="41.927956" lon="-87.641881">
      </trkpt>
      <trkpt lat="41.92558" lon="-87.640463">
      </trkpt>
      <trkpt lat="41.924902" lon="-87.687645">
      </trkpt>
      <trkpt lat="41.917587" lon="-87.687413">
      </trkpt>
      <trkpt lat="41.917536" lon="-87.692301">
      </trkpt>
      <trkpt lat="41.917031" lon="-87.692287">
      </trkpt>
      <trkpt lat="41.917031" lon="-87.692287">
      </trkpt>
      <trkpt lat="41.917536" lon="-87.692301">
      </trkpt>
      <trkpt lat="41.917587" lon="-87.687413">
      </trkpt>
      <trkpt lat="41.953985" lon="-87.688469">
      </trkpt>
      <trkpt lat="41.954306" lon="-87.668983">
      </trkpt>
      <trkpt lat="41.96524" lon="-87.669262">
      </trkpt>
      <trkpt lat="41.965371" lon="-87.659627">
      </trkpt>
      <trkpt lat="41.96558" lon="-87.65963">
      </trkpt>
      <trkpt lat="41.96558" lon="-87.65963">
      </trkpt>
      <trkpt lat="41.967205" lon="-87.65966">
      </trkpt>
      <trkpt lat="41.967222" lon="-87.658639">
      </trkpt>
      <trkpt lat="41.961156" lon="-87.654742">
      </trkpt>
      <trkpt lat="41.937175" lon="-87.654016">
      </trkpt>
      <trkpt lat="41.937186" lon="-87.653552">
      </trkpt>
      <trkpt lat="41.937074" lon="-87.65355">
      </trkpt>
      <trkpt lat="41.937074" lon="-87.65355">
      </trkpt>
      <trkpt lat="41.937074" lon="-87.65355">
      </trkpt>
      <trkpt lat="41.937074" lon="-87.65355">
      </trkpt>
      <trkpt lat="41.937186" lon="-87.653552">
      </trkpt>
      <trkpt lat="41.937175" lon="-87.654016">
      </trkpt>
      <trkpt lat="41.939918" lon="-87.654106">
      </trkpt>
      <trkpt lat="41.940268" lon="-87.638796">
      </trkpt>
      <trkpt lat="41.939931" lon="-87.638606">
      </trkpt>
      <trkpt lat="41.934639" lon="-87.632453">
      </trkpt>
      <trkpt lat="41.928427" lon="-87.632048">
      </trkpt>
      <trkpt lat="41.902733" lon="-87.62421">
      </trkpt>
      <trkpt lat="41.900898" lon="-87.619617">
      </trkpt>
      <trkpt lat="41.892868" lon="-87.614264">
      </trkpt>
      <trkpt lat="41.884928" lon="-87.614127">
      </trkpt>
      <trkpt lat="41.881821" lon="-87.617453">
      </trkpt>
      <trkpt lat="41.869765" lon="-87.617261">
      </trkpt>
      <trkpt lat="41.866068" lon="-87.619589">
      </trkpt>
      <trkpt lat="41.833588" lon="-87.607689">
      </trkpt>
      <trkpt lat="41.815295" lon="-87.593977">
      </trkpt>
      <trkpt lat="41.804634" lon="-87.582734">
      </trkpt>
      <trkpt lat="41.802023" lon="-87.581577">
      </trkpt>
      <trkpt lat="41.799768" lon="-87.581709">
      </trkpt>
      <trkpt lat="41.799619" lon="-87.584048">
      </trkpt>
      <trkpt lat="41.798305" lon="-87.584017">
      </trkpt>
      <trkpt lat="41.798305" lon="-87.584017">
      </trkpt>
      <trkpt lat="41.799619" lon="-87.584048">
      </trkpt>
      <trkpt lat="41.799588" lon="-87.586391">
      </trkpt>
      <trkpt lat="41.799614" lon="-87.586529">
      </trkpt>
      <trkpt lat="41.799572" lon="-87.587463">
      </trkpt>
      <trkpt lat="41.799473" lon="-87.594608">
      </trkpt>
      <trkpt lat="41.799473" lon="-87.594608">
      </trkpt>
      <trkpt lat="41.799453" lon="-87.596645">
      </trkpt>
      <trkpt lat="41.809636" lon="-87.596831">
      </trkpt>
      <trkpt lat="41.810893" lon="-87.588944">
      </trkpt>
      <trkpt lat="41.832668" lon="-87.606909">
      </trkpt>
      <trkpt lat="41.843509" lon="-87.610426">
      </trkpt>
      <trkpt lat="41.848604" lon="-87.612641">
      </trkpt>
      <trkpt lat="41.847424" lon="-87.630973">
      </trkpt>
      <trkpt lat="41.847736" lon="-87.641219">
      </trkpt>
      <trkpt lat="41.850742" lon="-87.644555">
      </trkpt>
      <trkpt lat="41.867845" lon="-87.644517">
      </trkpt>
      <trkpt lat="41.873521" lon="-87.644628">
      </trkpt>
      <trkpt lat="41.875725" lon="-87.645646">
      </trkpt>
      <trkpt lat="41.875863" lon="-87.649223">
      </trkpt>
      <trkpt lat="41.875763" lon="-87.688313">
      </trkpt>
      <trkpt lat="41.875862" lon="-87.692409">
      </trkpt>
      <trkpt lat="41.875937" lon="-87.701067">
      </trkpt>
      <trkpt lat="41.896575" lon="-87.702222">
      </trkpt>
      <trkpt lat="41.899176" lon="-87.708783">
      </trkpt>
      <trkpt lat="41.899117" lon="-87.715822">
      </trkpt>
      <trkpt lat="41.899117" lon="-87.715822">
      </trkpt>
      <trkpt lat="41.899269" lon="-87.699269">
      </trkpt>
      <trkpt lat="41.899144" lon="-87.699266">
      </trkpt>
      <trkpt lat="41.899144" lon="-87.699266">
      </trkpt>
      <trkpt lat="41.895631" lon="-87.699168">
      </trkpt>
      <trkpt lat="41.895471" lon="-87.715092">
      </trkpt>
      <trkpt lat="41.894531" lon="-87.715059">
      </trkpt>
      <trkpt lat="41.894531" lon="-87.715059">
      </trkpt>
      <trkpt lat="41.895471" lon="-87.715092">
      </trkpt>
      <trkpt lat="41.895505" lon="-87.711442">
      </trkpt>
      <trkpt lat="41.896053" lon="-87.711458">
      </trkpt>
      <trkpt lat="41.896053" lon="-87.711458">
      </trkpt>
      <trkpt lat="41.884634" lon="-87.711113">
      </trkpt>
      <trkpt lat="41.884354" lon="-87.706225">
      </trkpt>
      <trkpt lat="41.859086" lon="-87.705454">
      </trkpt>
      <trkpt lat="41.85906" lon="-87.707896">
      </trkpt>
      <trkpt lat="41.859462" lon="-87.707908">
      </trkpt>
      <trkpt lat="41.859462" lon="-87.707908">
      </trkpt>
      <trkpt lat="41.862931" lon="-87.708012">
      </trkpt>
      <trkpt lat="41.862849" lon="-87.715324">
      </trkpt>
      <trkpt lat="41.866294" lon="-87.715417">
      </trkpt>
      <trkpt lat="41.866176" lon="-87.725178">
      </trkpt>
      <trkpt lat="41.871641" lon="-87.725359">
      </trkpt>
      <trkpt lat="41.871677" lon="-87.721777">
      </trkpt>
      <trkpt lat="41.871677" lon="-87.721777">
      </trkpt>
      <trkpt lat="41.871691" lon="-87.720279">
      </trkpt>
      <trkpt lat="41.870794" lon="-87.720256">
      </trkpt>
      <trkpt lat="41.8708" lon="-87.71971">
      </trkpt>
      <trkpt lat="41.873518" lon="-87.719779">
      </trkpt>
      <trkpt lat="41.873525" lon="-87.719121">
      </trkpt>
      <trkpt lat="41.875189" lon="-87.697594">
      </trkpt>
      <trkpt lat="41.875329" lon="-87.650308">
      </trkpt>
      <trkpt lat="41.875302" lon="-87.647601">
      </trkpt>
      <trkpt lat="41.874563" lon="-87.645452">
      </trkpt>
      <trkpt lat="41.875077" lon="-87.644482">
      </trkpt>
      <trkpt lat="41.876036" lon="-87.64458">
      </trkpt>
      <trkpt lat="41.880374" lon="-87.645275">
      </trkpt>
      <trkpt lat="41.881847" lon="-87.645355">
      </trkpt>
      <trkpt lat="41.882198" lon="-87.645393">
      </trkpt>
      <trkpt lat="41.885931" lon="-87.64591">
      </trkpt>
      <trkpt lat="41.888483" lon="-87.647404">
      </trkpt>
      <trkpt lat="41.897251" lon="-87.658783">
      </trkpt>
      <trkpt lat="41.901753" lon="-87.660805">
      </trkpt>
      <trkpt lat="41.906443" lon="-87.661061">
      </trkpt>
      <trkpt lat="41.910145" lon="-87.664439">
      </trkpt>
      <trkpt lat="41.915739" lon="-87.667973">
      </trkpt>
      <trkpt lat="41.917898" lon="-87.66968">
      </trkpt>
      <trkpt lat="41.917936" lon="-87.667964">
      </trkpt>
      <trkpt lat="41.92163" lon="-87.66862">
      </trkpt>
      <trkpt lat="41.932402" lon="-87.668327">
      </trkpt>
      <trkpt lat="41.932567" lon="-87.65822">
      </trkpt>
      <trkpt lat="41.932567" lon="-87.65822">
      </trkpt>
      <trkpt lat="41.932557" lon="-87.658713">
      </trkpt>
      <trkpt lat="41.934332" lon="-87.661195">
      </trkpt>
      <trkpt lat="41.936537" lon="-87.661241">
      </trkpt>
      <trkpt lat="41.936537" lon="-87.661241">
      </trkpt>
      <trkpt lat="41.93707" lon="-87.661261">
      </trkpt>
      <trkpt lat="41.937102" lon="-87.658876">
      </trkpt>
      <trkpt lat="41.939838" lon="-87.658974">
      </trkpt>
      <trkpt lat="41.940268" lon="-87.638796">
      </trkpt>
      <trkpt lat="41.939931" lon="-87.638606">
      </trkpt>
      <trkpt lat="41.936955" lon="-87.634194">
      </trkpt>
      <trkpt lat="41.934639" lon="-87.632453">
      </trkpt>
      <trkpt lat="41.928427" lon="-87.632048">
      </trkpt>
      <trkpt lat="41.918735" lon="-87.629189">
      </trkpt>
      <trkpt lat="41.911998" lon="-87.62605">
      </trkpt>
      <trkpt lat="41.902733" lon="-87.62421">
      </trkpt>
      <trkpt lat="41.901491" lon="-87.62264">
      </trkpt>
      <trkpt lat="41.900898" lon="-87.619617">
      </trkpt>
      <trkpt lat="41.892868" lon="-87.614264">
      </trkpt>
      <trkpt lat="41.884928" lon="-87.614127">
      </trkpt>
      <trkpt lat="41.881821" lon="-87.617453">
      </trkpt>
      <trkpt lat="41.869895" lon="-87.617247">
      </trkpt>
      <trkpt lat="41.86764" lon="-87.618862">
      </trkpt>
      <trkpt lat="41.867506" lon="-87.624157">
      </trkpt>
      <trkpt lat="41.868888" lon="-87.624039">
      </trkpt>
      <trkpt lat="41.868888" lon="-87.624039">
      </trkpt>
      <trkpt lat="41.873158" lon="-87.624138">
      </trkpt>
      <trkpt lat="41.873248" lon="-87.617318">
      </trkpt>
      <trkpt lat="41.865851" lon="-87.619563">
      </trkpt>
      <trkpt lat="41.853242" lon="-87.614728">
      </trkpt>
      <trkpt lat="41.848506" lon="-87.614444">
      </trkpt>
      <trkpt lat="41.84732" lon="-87.626818">
      </trkpt>
      <trkpt lat="41.847855" lon="-87.631727">
      </trkpt>
      <trkpt lat="41.843118" lon="-87.631351">
      </trkpt>
      <trkpt lat="41.779686" lon="-87.631207">
      </trkpt>
      <trkpt lat="41.772231" lon="-87.626113">
      </trkpt>
      <trkpt lat="41.72052" lon="-87.624621">
      </trkpt>
      <trkpt lat="41.713653" lon="-87.621065">
      </trkpt>
      <trkpt lat="41.713191" lon="-87.600337">
      </trkpt>
      <trkpt lat="41.708673" lon="-87.592948">
      </trkpt>
      <trkpt lat="41.703483" lon="-87.592406">
      </trkpt>
      <trkpt lat="41.685512" lon="-87.601798">
      </trkpt>
      <trkpt lat="41.676933" lon="-87.601728">
      </trkpt>
      <trkpt lat="41.660202" lon="-87.589096">
      </trkpt>
      <trkpt lat="41.659512" lon="-87.59119">
      </trkpt>
      <trkpt lat="41.658851" lon="-87.560717">
      </trkpt>
      <trkpt lat="41.656176" lon="-87.555878">
      </trkpt>
      <trkpt lat="41.65737" lon="-87.555649">
      </trkpt>
      <trkpt lat="41.65736" lon="-87.553811">
      </trkpt>
      <trkpt lat="41.656889" lon="-87.553812">
      </trkpt>
      <trkpt lat="41.656889" lon="-87.553812">
      </trkpt>
      <trkpt lat="41.65736" lon="-87.553811">
      </trkpt>
      <trkpt lat="41.657281" lon="-87.557102">
      </trkpt>
      <trkpt lat="41.660149" lon="-87.585314">
      </trkpt>
      <trkpt lat="41.662478" lon="-87.590822">
      </trkpt>
      <trkpt lat="41.675885" lon="-87.601403">
      </trkpt>
      <trkpt lat="41.685726" lon="-87.601563">
      </trkpt>
      <trkpt lat="41.69908" lon="-87.594329">
      </trkpt>
      <trkpt lat="41.705863" lon="-87.591535">
      </trkpt>
      <trkpt lat="41.711823" lon="-87.595707">
      </trkpt>
      <trkpt lat="41.713575" lon="-87.618809">
      </trkpt>
      <trkpt lat="41.717096" lon="-87.62372">
      </trkpt>
      <trkpt lat="41.769497" lon="-87.625651">
      </trkpt>
      <trkpt lat="41.779495" lon="-87.630747">
      </trkpt>
      <trkpt lat="41.838631" lon="-87.630667">
      </trkpt>
      <trkpt lat="41.843875" lon="-87.631571">
      </trkpt>
      <trkpt lat="41.846207" lon="-87.637745">
      </trkpt>
      <trkpt lat="41.847782" lon="-87.642471">
      </trkpt>
      <trkpt lat="41.845286" lon="-87.651785">
      </trkpt>
      <trkpt lat="41.837422" lon="-87.669478">
      </trkpt>
      <trkpt lat="41.837483" lon="-87.674176">
      </trkpt>
      <trkpt lat="41.831825" lon="-87.675328">
      </trkpt>
      <trkpt lat="41.818401" lon="-87.697256">
      </trkpt>
      <trkpt lat="41.818401" lon="-87.697256">
      </trkpt>
      <trkpt lat="41.825937" lon="-87.684898">
      </trkpt>
      <trkpt lat="41.86479" lon="-87.685988">
      </trkpt>
      <trkpt lat="41.872865" lon="-87.676298">
      </trkpt>
      <trkpt lat="41.911927" lon="-87.677515">
      </trkpt>
      <trkpt lat="41.911905" lon="-87.678604">
      </trkpt>
      <trkpt lat="41.911905" lon="-87.678604">
      </trkpt>
      <trkpt lat="41.911927" lon="-87.677515">
      </trkpt>
      <trkpt lat="41.910469" lon="-87.677494">
      </trkpt>
      <trkpt lat="41.910672" lon="-87.665662">
      </trkpt>
      <trkpt lat="41.910236" lon="-87.665325">
      </trkpt>
      <trkpt lat="41.896667" lon="-87.658834">
      </trkpt>
      <trkpt lat="41.886261" lon="-87.646315">
      </trkpt>
      <trkpt lat="41.850609" lon="-87.644998">
      </trkpt>
      <trkpt lat="41.847255" lon="-87.642186">
      </trkpt>
      <trkpt lat="41.845323" lon="-87.634652">
      </trkpt>
      <trkpt lat="41.84209" lon="-87.63091">
      </trkpt>
      <trkpt lat="41.79178" lon="-87.631289">
      </trkpt>
      <trkpt lat="41.778978" lon="-87.631289">
      </trkpt>
      <trkpt lat="41.773198" lon="-87.626564">
      </trkpt>
      <trkpt lat="41.768925" lon="-87.626239">
      </trkpt>
      <trkpt lat="41.766175" lon="-87.626556">
      </trkpt>
      <trkpt lat="41.7655" lon="-87.626545">
      </trkpt>
      <trkpt lat="41.764704" lon="-87.683249">
      </trkpt>
      <trkpt lat="41.759103" lon="-87.683094">
      </trkpt>
      <trkpt lat="41.750499" lon="-87.702412">
      </trkpt>
      <trkpt lat="41.742333" lon="-87.712916">
      </trkpt>
      <trkpt lat="41.742066" lon="-87.728951">
      </trkpt>
      <trkpt lat="41.740378" lon="-87.728895">
      </trkpt>
      <trkpt lat="41.740378" lon="-87.728895">
      </trkpt>
      <trkpt lat="41.742066" lon="-87.728951">
      </trkpt>
      <trkpt lat="41.741943" lon="-87.741106">
      </trkpt>
      <trkpt lat="41.931542" lon="-87.746595">
      </trkpt>
      <trkpt lat="41.93147" lon="-87.751741">
      </trkpt>
    </trkseg>
  </trk>
</gpx>