<?xml version="1.0" encoding="UTF-8"?>
<gpx xmlns="http://www.topografix.com/GPX/1/1" xmlns:xsi="http://www.w3.org/2001/XMLSchema-instance" xsi:schemaLocation="http://www.topografix.com/GPX/1/1 http://www.topografix.com/GPX/1/1/gpx.xsd" version="1.1" creator="gpx.py -- https://github.com/tkrajina/gpxpy">
  <trk>
    <trkseg>
      <trkpt lat="41.950633" lon="-87.669671">
      </trkpt>
      <trkpt lat="41.950641" lon="-87.669013">
      </trkpt>
      <trkpt lat="41.924216" lon="-87.668122">
      </trkpt>
      <trkpt lat="41.921563" lon="-87.668616">
      </trkpt>
      <trkpt lat="41.921395" lon="-87.677255">
      </trkpt>
      <trkpt lat="41.918139" lon="-87.671115">
      </trkpt>
      <trkpt lat="41.915543" lon="-87.668247">
      </trkpt>
      <trkpt lat="41.909975" lon="-87.664752">
      </trkpt>
      <trkpt lat="41.906635" lon="-87.661559">
      </trkpt>
      <trkpt lat="41.901587" lon="-87.661131">
      </trkpt>
      <trkpt lat="41.896968" lon="-87.659049">
      </trkpt>
      <trkpt lat="41.888343" lon="-87.647531">
      </trkpt>
      <trkpt lat="41.885929" lon="-87.646219">
      </trkpt>
      <trkpt lat="41.881827" lon="-87.645999">
      </trkpt>
      <trkpt lat="41.880956" lon="-87.646134">
      </trkpt>
      <trkpt lat="41.879569" lon="-87.646145">
      </trkpt>
      <trkpt lat="41.878121" lon="-87.646166">
      </trkpt>
      <trkpt lat="41.877218" lon="-87.646107">
      </trkpt>
      <trkpt lat="41.875649" lon="-87.646733">
      </trkpt>
      <trkpt lat="41.875057" lon="-87.646076">
      </trkpt>
      <trkpt lat="41.875572" lon="-87.635788">
      </trkpt>
      <trkpt lat="41.875312" lon="-87.634246">
      </trkpt>
      <trkpt lat="41.874721" lon="-87.634438">
      </trkpt>
      <trkpt lat="41.874834" lon="-87.635124">
      </trkpt>
      <trkpt lat="41.875828" lon="-87.635957">
      </trkpt>
      <trkpt lat="41.876812" lon="-87.636629">
      </trkpt>
      <trkpt lat="41.876812" lon="-87.636803">
      </trkpt>
      <trkpt lat="41.876812" lon="-87.636803">
      </trkpt>
      <trkpt lat="41.876769" lon="-87.639817">
      </trkpt>
      <trkpt lat="41.875803" lon="-87.639823">
      </trkpt>
      <trkpt lat="41.875647" lon="-87.641365">
      </trkpt>
      <trkpt lat="41.875736" lon="-87.651991">
      </trkpt>
      <trkpt lat="41.876197" lon="-87.657603">
      </trkpt>
      <trkpt lat="41.875819" lon="-87.680757">
      </trkpt>
      <trkpt lat="41.876139" lon="-87.683358">
      </trkpt>
      <trkpt lat="41.876006" lon="-87.693713">
      </trkpt>
      <trkpt lat="41.878371" lon="-87.693796">
      </trkpt>
      <trkpt lat="41.878346" lon="-87.696046">
      </trkpt>
      <trkpt lat="41.878346" lon="-87.696046">
      </trkpt>
      <trkpt lat="41.878344" lon="-87.696214">
      </trkpt>
      <trkpt lat="41.874902" lon="-87.696127">
      </trkpt>
      <trkpt lat="41.874908" lon="-87.695509">
      </trkpt>
      <trkpt lat="41.875125" lon="-87.690201">
      </trkpt>
      <trkpt lat="41.87561" lon="-87.659837">
      </trkpt>
      <trkpt lat="41.875318" lon="-87.651569">
      </trkpt>
      <trkpt lat="41.875572" lon="-87.635788">
      </trkpt>
      <trkpt lat="41.875312" lon="-87.634246">
      </trkpt>
      <trkpt lat="41.874721" lon="-87.634438">
      </trkpt>
      <trkpt lat="41.874834" lon="-87.635124">
      </trkpt>
      <trkpt lat="41.876431" lon="-87.635189">
      </trkpt>
      <trkpt lat="41.885733" lon="-87.635419">
      </trkpt>
      <trkpt lat="41.885735" lon="-87.634134">
      </trkpt>
      <trkpt lat="41.885735" lon="-87.634134">
      </trkpt>
      <trkpt lat="41.885746" lon="-87.630207">
      </trkpt>
      <trkpt lat="41.886506" lon="-87.630192">
      </trkpt>
      <trkpt lat="41.886506" lon="-87.630192">
      </trkpt>
      <trkpt lat="41.886919" lon="-87.63022">
      </trkpt>
      <trkpt lat="41.886908" lon="-87.635269">
      </trkpt>
      <trkpt lat="41.88588" lon="-87.636873">
      </trkpt>
      <trkpt lat="41.884459" lon="-87.636965">
      </trkpt>
      <trkpt lat="41.884448" lon="-87.639799">
      </trkpt>
      <trkpt lat="41.885734" lon="-87.639866">
      </trkpt>
      <trkpt lat="41.886808" lon="-87.641353">
      </trkpt>
      <trkpt lat="41.886799" lon="-87.644278">
      </trkpt>
      <trkpt lat="41.889054" lon="-87.644337">
      </trkpt>
      <trkpt lat="41.891194" lon="-87.647627">
      </trkpt>
      <trkpt lat="41.91731" lon="-87.648495">
      </trkpt>
      <trkpt lat="41.91731" lon="-87.648495">
      </trkpt>
      <trkpt lat="41.910927" lon="-87.648286">
      </trkpt>
      <trkpt lat="41.911006" lon="-87.641015">
      </trkpt>
      <trkpt lat="41.911281" lon="-87.641023">
      </trkpt>
      <trkpt lat="41.911281" lon="-87.641023">
      </trkpt>
      <trkpt lat="41.911125" lon="-87.641018">
      </trkpt>
      <trkpt lat="41.910672" lon="-87.665662">
      </trkpt>
      <trkpt lat="41.910236" lon="-87.665325">
      </trkpt>
      <trkpt lat="41.906635" lon="-87.661559">
      </trkpt>
      <trkpt lat="41.905221" lon="-87.66114">
      </trkpt>
      <trkpt lat="41.901306" lon="-87.661057">
      </trkpt>
      <trkpt lat="41.896333" lon="-87.658563">
      </trkpt>
      <trkpt lat="41.895018" lon="-87.657114">
      </trkpt>
      <trkpt lat="41.889352" lon="-87.648602">
      </trkpt>
      <trkpt lat="41.887778" lon="-87.647099">
      </trkpt>
      <trkpt lat="41.885929" lon="-87.646219">
      </trkpt>
      <trkpt lat="41.881827" lon="-87.645999">
      </trkpt>
      <trkpt lat="41.880956" lon="-87.646134">
      </trkpt>
      <trkpt lat="41.879569" lon="-87.646145">
      </trkpt>
      <trkpt lat="41.878121" lon="-87.646166">
      </trkpt>
      <trkpt lat="41.876334" lon="-87.646815">
      </trkpt>
      <trkpt lat="41.87588" lon="-87.647774">
      </trkpt>
      <trkpt lat="41.875728" lon="-87.649135">
      </trkpt>
      <trkpt lat="41.876197" lon="-87.657603">
      </trkpt>
      <trkpt lat="41.875658" lon="-87.697235">
      </trkpt>
      <trkpt lat="41.87458" lon="-87.706246">
      </trkpt>
      <trkpt lat="41.874552" lon="-87.710807">
      </trkpt>
      <trkpt lat="41.880921" lon="-87.711008">
      </trkpt>
      <trkpt lat="41.880872" lon="-87.714889">
      </trkpt>
      <trkpt lat="41.880872" lon="-87.714889">
      </trkpt>
      <trkpt lat="41.880921" lon="-87.711008">
      </trkpt>
      <trkpt lat="41.884634" lon="-87.711113">
      </trkpt>
      <trkpt lat="41.88443" lon="-87.707541">
      </trkpt>
      <trkpt lat="41.88443" lon="-87.707541">
      </trkpt>
      <trkpt lat="41.884089" lon="-87.701291">
      </trkpt>
      <trkpt lat="41.874345" lon="-87.701026">
      </trkpt>
      <trkpt lat="41.874859" lon="-87.69896">
      </trkpt>
      <trkpt lat="41.874908" lon="-87.695509">
      </trkpt>
      <trkpt lat="41.875125" lon="-87.690201">
      </trkpt>
      <trkpt lat="41.87561" lon="-87.659837">
      </trkpt>
      <trkpt lat="41.875329" lon="-87.650308">
      </trkpt>
      <trkpt lat="41.875302" lon="-87.647601">
      </trkpt>
      <trkpt lat="41.874563" lon="-87.645452">
      </trkpt>
      <trkpt lat="41.875077" lon="-87.644482">
      </trkpt>
      <trkpt lat="41.876036" lon="-87.64458">
      </trkpt>
      <trkpt lat="41.877863" lon="-87.645364">
      </trkpt>
      <trkpt lat="41.880374" lon="-87.645275">
      </trkpt>
      <trkpt lat="41.881847" lon="-87.645355">
      </trkpt>
      <trkpt lat="41.882198" lon="-87.645393">
      </trkpt>
      <trkpt lat="41.885306" lon="-87.645735">
      </trkpt>
      <trkpt lat="41.887151" lon="-87.646457">
      </trkpt>
      <trkpt lat="41.8891" lon="-87.648003">
      </trkpt>
      <trkpt lat="41.890597" lon="-87.650048">
      </trkpt>
      <trkpt lat="41.891699" lon="-87.651108">
      </trkpt>
      <trkpt lat="41.892164" lon="-87.650896">
      </trkpt>
      <trkpt lat="41.89242" lon="-87.65026">
      </trkpt>
      <trkpt lat="41.892368" lon="-87.63704">
      </trkpt>
      <trkpt lat="41.893959" lon="-87.63709">
      </trkpt>
      <trkpt lat="41.893997" lon="-87.634134">
      </trkpt>
      <trkpt lat="41.893188" lon="-87.634111">
      </trkpt>
      <trkpt lat="41.893178" lon="-87.634839">
      </trkpt>
      <trkpt lat="41.893178" lon="-87.634839">
      </trkpt>
      <trkpt lat="41.893167" lon="-87.635632">
      </trkpt>
      <trkpt lat="41.891557" lon="-87.635588">
      </trkpt>
      <trkpt lat="41.891543" lon="-87.637019">
      </trkpt>
      <trkpt lat="41.888771" lon="-87.636943">
      </trkpt>
      <trkpt lat="41.888455" lon="-87.636789">
      </trkpt>
      <trkpt lat="41.887983" lon="-87.63637">
      </trkpt>
      <trkpt lat="41.888006" lon="-87.638308">
      </trkpt>
      <trkpt lat="41.887933" lon="-87.638306">
      </trkpt>
      <trkpt lat="41.887943" lon="-87.637518">
      </trkpt>
      <trkpt lat="41.887943" lon="-87.637518">
      </trkpt>
      <trkpt lat="41.887981" lon="-87.637194">
      </trkpt>
      <trkpt lat="41.887983" lon="-87.63637">
      </trkpt>
      <trkpt lat="41.888455" lon="-87.636789">
      </trkpt>
      <trkpt lat="41.888771" lon="-87.636943">
      </trkpt>
      <trkpt lat="41.889941" lon="-87.636984">
      </trkpt>
      <trkpt lat="41.889943" lon="-87.636764">
      </trkpt>
      <trkpt lat="41.889126" lon="-87.636747">
      </trkpt>
      <trkpt lat="41.889251" lon="-87.628704">
      </trkpt>
      <trkpt lat="41.889251" lon="-87.628704">
      </trkpt>
      <trkpt lat="41.889259" lon="-87.628003">
      </trkpt>
      <trkpt lat="41.887958" lon="-87.628123">
      </trkpt>
      <trkpt lat="41.885858" lon="-87.628037">
      </trkpt>
      <trkpt lat="41.885755" lon="-87.627936">
      </trkpt>
      <trkpt lat="41.885769" lon="-87.624623">
      </trkpt>
      <trkpt lat="41.884489" lon="-87.624571">
      </trkpt>
      <trkpt lat="41.884366" lon="-87.624344">
      </trkpt>
      <trkpt lat="41.884372" lon="-87.623414">
      </trkpt>
      <trkpt lat="41.884293" lon="-87.622907">
      </trkpt>
      <trkpt lat="41.884406" lon="-87.617529">
      </trkpt>
      <trkpt lat="41.884538" lon="-87.617389">
      </trkpt>
      <trkpt lat="41.885524" lon="-87.617418">
      </trkpt>
      <trkpt lat="41.885561" lon="-87.616288">
      </trkpt>
      <trkpt lat="41.886523" lon="-87.616289">
      </trkpt>
      <trkpt lat="41.88653" lon="-87.618715">
      </trkpt>
      <trkpt lat="41.88653" lon="-87.618715">
      </trkpt>
      <trkpt lat="41.886506" lon="-87.619106">
      </trkpt>
      <trkpt lat="41.885527" lon="-87.6191">
      </trkpt>
      <trkpt lat="41.885524" lon="-87.617418">
      </trkpt>
      <trkpt lat="41.884538" lon="-87.617389">
      </trkpt>
      <trkpt lat="41.884503" lon="-87.620586">
      </trkpt>
      <trkpt lat="41.887811" lon="-87.620627">
      </trkpt>
      <trkpt lat="41.887783" lon="-87.620376">
      </trkpt>
      <trkpt lat="41.887462" lon="-87.615811">
      </trkpt>
      <trkpt lat="41.887175" lon="-87.614014">
      </trkpt>
      <trkpt lat="41.885118" lon="-87.61394">
      </trkpt>
      <trkpt lat="41.881821" lon="-87.617453">
      </trkpt>
      <trkpt lat="41.869765" lon="-87.617261">
      </trkpt>
      <trkpt lat="41.866968" lon="-87.619381">
      </trkpt>
      <trkpt lat="41.865645" lon="-87.619521">
      </trkpt>
      <trkpt lat="41.838015" lon="-87.608419">
      </trkpt>
      <trkpt lat="41.833588" lon="-87.607689">
      </trkpt>
      <trkpt lat="41.827907" lon="-87.602929">
      </trkpt>
      <trkpt lat="41.827907" lon="-87.602929">
      </trkpt>
      <trkpt lat="41.827252" lon="-87.60211">
      </trkpt>
      <trkpt lat="41.82517" lon="-87.600903">
      </trkpt>
      <trkpt lat="41.825435" lon="-87.599849">
      </trkpt>
      <trkpt lat="41.829367" lon="-87.604294">
      </trkpt>
      <trkpt lat="41.833032" lon="-87.607125">
      </trkpt>
      <trkpt lat="41.838145" lon="-87.608141">
      </trkpt>
      <trkpt lat="41.843509" lon="-87.610426">
      </trkpt>
      <trkpt lat="41.847741" lon="-87.61149">
      </trkpt>
      <trkpt lat="41.848604" lon="-87.612641">
      </trkpt>
      <trkpt lat="41.848065" lon="-87.623817">
      </trkpt>
      <trkpt lat="41.84709" lon="-87.628154">
      </trkpt>
      <trkpt lat="41.847424" lon="-87.630973">
      </trkpt>
      <trkpt lat="41.847955" lon="-87.634449">
      </trkpt>
      <trkpt lat="41.84749" lon="-87.636524">
      </trkpt>
      <trkpt lat="41.847736" lon="-87.641219">
      </trkpt>
      <trkpt lat="41.848618" lon="-87.64329">
      </trkpt>
      <trkpt lat="41.850742" lon="-87.644555">
      </trkpt>
      <trkpt lat="41.867845" lon="-87.644517">
      </trkpt>
      <trkpt lat="41.873521" lon="-87.644628">
      </trkpt>
      <trkpt lat="41.875725" lon="-87.645646">
      </trkpt>
      <trkpt lat="41.875863" lon="-87.649223">
      </trkpt>
      <trkpt lat="41.875763" lon="-87.688313">
      </trkpt>
      <trkpt lat="41.875862" lon="-87.692409">
      </trkpt>
      <trkpt lat="41.875937" lon="-87.701067">
      </trkpt>
      <trkpt lat="41.902886" lon="-87.702278">
      </trkpt>
      <trkpt lat="41.902888" lon="-87.701605">
      </trkpt>
      <trkpt lat="41.902888" lon="-87.701605">
      </trkpt>
      <trkpt lat="41.902886" lon="-87.702278">
      </trkpt>
      <trkpt lat="41.910165" lon="-87.701875">
      </trkpt>
      <trkpt lat="41.911172" lon="-87.633071">
      </trkpt>
      <trkpt lat="41.913237" lon="-87.632269">
      </trkpt>
      <trkpt lat="41.912247" lon="-87.628505">
      </trkpt>
      <trkpt lat="41.913347" lon="-87.626017">
      </trkpt>
      <trkpt lat="41.927967" lon="-87.631735">
      </trkpt>
      <trkpt lat="41.934989" lon="-87.632402">
      </trkpt>
      <trkpt lat="41.941219" lon="-87.638833">
      </trkpt>
      <trkpt lat="41.950931" lon="-87.644376">
      </trkpt>
      <trkpt lat="41.973046" lon="-87.648738">
      </trkpt>
      <trkpt lat="41.984951" lon="-87.652803">
      </trkpt>
      <trkpt lat="41.985556" lon="-87.655253">
      </trkpt>
      <trkpt lat="41.997803" lon="-87.655634">
      </trkpt>
      <trkpt lat="41.998196" lon="-87.659646">
      </trkpt>
      <trkpt lat="42.003604" lon="-87.660824">
      </trkpt>
      <trkpt lat="42.0035" lon="-87.664245">
      </trkpt>
      <trkpt lat="42.003481" lon="-87.665668">
      </trkpt>
      <trkpt lat="42.003627" lon="-87.665673">
      </trkpt>
      <trkpt lat="42.00362" lon="-87.666051">
      </trkpt>
      <trkpt lat="42.00362" lon="-87.666051">
      </trkpt>
      <trkpt lat="42.003606" lon="-87.666905">
      </trkpt>
      <trkpt lat="41.998129" lon="-87.666741">
      </trkpt>
      <trkpt lat="41.998083" lon="-87.67067">
      </trkpt>
      <trkpt lat="41.996388" lon="-87.670315">
      </trkpt>
      <trkpt lat="41.989706" lon="-87.670085">
      </trkpt>
      <trkpt lat="41.987608" lon="-87.669796">
      </trkpt>
      <trkpt lat="41.984305" lon="-87.669878">
      </trkpt>
      <trkpt lat="41.98441" lon="-87.669348">
      </trkpt>
      <trkpt lat="41.98441" lon="-87.669348">
      </trkpt>
      <trkpt lat="41.984461" lon="-87.668976">
      </trkpt>
      <trkpt lat="41.985433" lon="-87.669181">
      </trkpt>
      <trkpt lat="41.985603" lon="-87.663294">
      </trkpt>
      <trkpt lat="41.985105" lon="-87.662456">
      </trkpt>
      <trkpt lat="41.984999" lon="-87.653157">
      </trkpt>
      <trkpt lat="41.972134" lon="-87.648822">
      </trkpt>
      <trkpt lat="41.951193" lon="-87.64469">
      </trkpt>
      <trkpt lat="41.941067" lon="-87.638957">
      </trkpt>
      <trkpt lat="41.93482" lon="-87.632527">
      </trkpt>
      <trkpt lat="41.928427" lon="-87.632048">
      </trkpt>
      <trkpt lat="41.904908" lon="-87.624861">
      </trkpt>
      <trkpt lat="41.901978" lon="-87.624179">
      </trkpt>
      <trkpt lat="41.900814" lon="-87.624278">
      </trkpt>
      <trkpt lat="41.900095" lon="-87.619261">
      </trkpt>
      <trkpt lat="41.900042" lon="-87.622108">
      </trkpt>
      <trkpt lat="41.900042" lon="-87.622108">
      </trkpt>
      <trkpt lat="41.900012" lon="-87.624245">
      </trkpt>
      <trkpt lat="41.897917" lon="-87.624198">
      </trkpt>
      <trkpt lat="41.897155" lon="-87.624262">
      </trkpt>
      <trkpt lat="41.896443" lon="-87.624388">
      </trkpt>
      <trkpt lat="41.895747" lon="-87.624376">
      </trkpt>
      <trkpt lat="41.895768" lon="-87.622402">
      </trkpt>
      <trkpt lat="41.895768" lon="-87.622402">
      </trkpt>
      <trkpt lat="41.895808" lon="-87.620354">
      </trkpt>
      <trkpt lat="41.896781" lon="-87.620387">
      </trkpt>
      <trkpt lat="41.89691" lon="-87.616735">
      </trkpt>
      <trkpt lat="41.901011" lon="-87.619536">
      </trkpt>
      <trkpt lat="41.90171" lon="-87.622727">
      </trkpt>
      <trkpt lat="41.902893" lon="-87.624048">
      </trkpt>
      <trkpt lat="41.908987" lon="-87.625626">
      </trkpt>
      <trkpt lat="41.912141" lon="-87.62589">
      </trkpt>
      <trkpt lat="41.918036" lon="-87.628743">
      </trkpt>
      <trkpt lat="41.924159" lon="-87.630534">
      </trkpt>
      <trkpt lat="41.926223" lon="-87.63067">
      </trkpt>
      <trkpt lat="41.925697" lon="-87.634084">
      </trkpt>
      <trkpt lat="41.92558" lon="-87.640463">
      </trkpt>
      <trkpt lat="41.927956" lon="-87.641881">
      </trkpt>
      <trkpt lat="41.927956" lon="-87.641881">
      </trkpt>
      <trkpt lat="41.92963" lon="-87.642875">
      </trkpt>
      <trkpt lat="41.93012" lon="-87.643564">
      </trkpt>
      <trkpt lat="41.932979" lon="-87.645015">
      </trkpt>
      <trkpt lat="41.944458" lon="-87.654273">
      </trkpt>
      <trkpt lat="41.95355" lon="-87.65452">
      </trkpt>
      <trkpt lat="41.953599" lon="-87.653557">
      </trkpt>
      <trkpt lat="41.953599" lon="-87.653557">
      </trkpt>
      <trkpt lat="41.95384" lon="-87.650054">
      </trkpt>
      <trkpt lat="41.969021" lon="-87.659673">
      </trkpt>
      <trkpt lat="41.968877" lon="-87.669348">
      </trkpt>
      <trkpt lat="41.976174" lon="-87.669543">
      </trkpt>
      <trkpt lat="41.976095" lon="-87.674927">
      </trkpt>
      <trkpt lat="41.974623" lon="-87.67488">
      </trkpt>
      <trkpt lat="41.974623" lon="-87.67488">
      </trkpt>
      <trkpt lat="41.97335" lon="-87.674845">
      </trkpt>
      <trkpt lat="41.973364" lon="-87.674314">
      </trkpt>
      <trkpt lat="41.976102" lon="-87.674411">
      </trkpt>
      <trkpt lat="41.976324" lon="-87.659864">
      </trkpt>
      <trkpt lat="41.985467" lon="-87.660132">
      </trkpt>
      <trkpt lat="41.985487" lon="-87.658072">
      </trkpt>
      <trkpt lat="41.984272" lon="-87.658038">
      </trkpt>
      <trkpt lat="41.984272" lon="-87.658038">
      </trkpt>
      <trkpt lat="41.983669" lon="-87.658021">
      </trkpt>
      <trkpt lat="41.983688" lon="-87.653702">
      </trkpt>
      <trkpt lat="41.972134" lon="-87.648822">
      </trkpt>
      <trkpt lat="41.955203" lon="-87.644905">
      </trkpt>
      <trkpt lat="41.951193" lon="-87.64469">
      </trkpt>
      <trkpt lat="41.942042" lon="-87.639566">
      </trkpt>
      <trkpt lat="41.940268" lon="-87.638796">
      </trkpt>
      <trkpt lat="41.939918" lon="-87.654106">
      </trkpt>
      <trkpt lat="41.937175" lon="-87.654016">
      </trkpt>
      <trkpt lat="41.937186" lon="-87.653552">
      </trkpt>
      <trkpt lat="41.937074" lon="-87.65355">
      </trkpt>
      <trkpt lat="41.937074" lon="-87.65355">
      </trkpt>
      <trkpt lat="41.937186" lon="-87.653552">
      </trkpt>
      <trkpt lat="41.937175" lon="-87.654016">
      </trkpt>
      <trkpt lat="41.936284" lon="-87.653987">
      </trkpt>
      <trkpt lat="41.936111" lon="-87.663682">
      </trkpt>
      <trkpt lat="41.937916" lon="-87.666175">
      </trkpt>
      <trkpt lat="41.937875" lon="-87.669017">
      </trkpt>
      <trkpt lat="41.937875" lon="-87.669017">
      </trkpt>
      <trkpt lat="41.937845" lon="-87.671019">
      </trkpt>
      <trkpt lat="41.93237" lon="-87.670818">
      </trkpt>
      <trkpt lat="41.932278" lon="-87.678134">
      </trkpt>
      <trkpt lat="41.92139" lon="-87.677765">
      </trkpt>
      <trkpt lat="41.921395" lon="-87.677255">
      </trkpt>
      <trkpt lat="41.918139" lon="-87.671115">
      </trkpt>
      <trkpt lat="41.915543" lon="-87.668247">
      </trkpt>
      <trkpt lat="41.909975" lon="-87.664752">
      </trkpt>
      <trkpt lat="41.906635" lon="-87.661559">
      </trkpt>
      <trkpt lat="41.901587" lon="-87.661131">
      </trkpt>
      <trkpt lat="41.896968" lon="-87.659049">
      </trkpt>
      <trkpt lat="41.888343" lon="-87.647531">
      </trkpt>
      <trkpt lat="41.885929" lon="-87.646219">
      </trkpt>
      <trkpt lat="41.881827" lon="-87.645999">
      </trkpt>
      <trkpt lat="41.880956" lon="-87.646134">
      </trkpt>
      <trkpt lat="41.879569" lon="-87.646145">
      </trkpt>
      <trkpt lat="41.878121" lon="-87.646166">
      </trkpt>
      <trkpt lat="41.877218" lon="-87.646107">
      </trkpt>
      <trkpt lat="41.875649" lon="-87.646733">
      </trkpt>
      <trkpt lat="41.87505" lon="-87.645999">
      </trkpt>
      <trkpt lat="41.875622" lon="-87.621098">
      </trkpt>
      <trkpt lat="41.865835" lon="-87.619968">
      </trkpt>
      <trkpt lat="41.864987" lon="-87.619558">
      </trkpt>
      <trkpt lat="41.865039" lon="-87.613948">
      </trkpt>
      <trkpt lat="41.866115" lon="-87.613754">
      </trkpt>
      <trkpt lat="41.866162" lon="-87.610134">
      </trkpt>
      <trkpt lat="41.864785" lon="-87.609077">
      </trkpt>
      <trkpt lat="41.862992" lon="-87.609222">
      </trkpt>
      <trkpt lat="41.862992" lon="-87.609222">
      </trkpt>
      <trkpt lat="41.866469" lon="-87.610138">
      </trkpt>
      <trkpt lat="41.86504" lon="-87.614089">
      </trkpt>
      <trkpt lat="41.864977" lon="-87.619403">
      </trkpt>
      <trkpt lat="41.853242" lon="-87.614728">
      </trkpt>
      <trkpt lat="41.848506" lon="-87.614444">
      </trkpt>
      <trkpt lat="41.84732" lon="-87.626818">
      </trkpt>
      <trkpt lat="41.847855" lon="-87.631727">
      </trkpt>
      <trkpt lat="41.843118" lon="-87.631351">
      </trkpt>
      <trkpt lat="41.779686" lon="-87.631207">
      </trkpt>
      <trkpt lat="41.772231" lon="-87.626113">
      </trkpt>
      <trkpt lat="41.72052" lon="-87.624621">
      </trkpt>
      <trkpt lat="41.713653" lon="-87.621065">
      </trkpt>
      <trkpt lat="41.713191" lon="-87.600337">
      </trkpt>
      <trkpt lat="41.708673" lon="-87.592948">
      </trkpt>
      <trkpt lat="41.703483" lon="-87.592406">
      </trkpt>
      <trkpt lat="41.685512" lon="-87.601798">
      </trkpt>
      <trkpt lat="41.676933" lon="-87.601728">
      </trkpt>
      <trkpt lat="41.660202" lon="-87.589096">
      </trkpt>
      <trkpt lat="41.659512" lon="-87.59119">
      </trkpt>
      <trkpt lat="41.658851" lon="-87.560717">
      </trkpt>
      <trkpt lat="41.656176" lon="-87.555878">
      </trkpt>
      <trkpt lat="41.65737" lon="-87.555649">
      </trkpt>
      <trkpt lat="41.65736" lon="-87.553811">
      </trkpt>
      <trkpt lat="41.656889" lon="-87.553812">
      </trkpt>
      <trkpt lat="41.656889" lon="-87.553812">
      </trkpt>
      <trkpt lat="41.65736" lon="-87.553811">
      </trkpt>
      <trkpt lat="41.657281" lon="-87.557102">
      </trkpt>
      <trkpt lat="41.660149" lon="-87.585314">
      </trkpt>
      <trkpt lat="41.662478" lon="-87.590822">
      </trkpt>
      <trkpt lat="41.675885" lon="-87.601403">
      </trkpt>
      <trkpt lat="41.685726" lon="-87.601563">
      </trkpt>
      <trkpt lat="41.69908" lon="-87.594329">
      </trkpt>
      <trkpt lat="41.705863" lon="-87.591535">
      </trkpt>
      <trkpt lat="41.711823" lon="-87.595707">
      </trkpt>
      <trkpt lat="41.713575" lon="-87.618809">
      </trkpt>
      <trkpt lat="41.717096" lon="-87.62372">
      </trkpt>
      <trkpt lat="41.769497" lon="-87.625651">
      </trkpt>
      <trkpt lat="41.779495" lon="-87.630747">
      </trkpt>
      <trkpt lat="41.838631" lon="-87.630667">
      </trkpt>
      <trkpt lat="41.844225" lon="-87.63193">
      </trkpt>
      <trkpt lat="41.847448" lon="-87.642221">
      </trkpt>
      <trkpt lat="41.850908" lon="-87.644903">
      </trkpt>
      <trkpt lat="41.873493" lon="-87.644854">
      </trkpt>
      <trkpt lat="41.880374" lon="-87.645275">
      </trkpt>
      <trkpt lat="41.881847" lon="-87.645355">
      </trkpt>
      <trkpt lat="41.882198" lon="-87.645393">
      </trkpt>
      <trkpt lat="41.883308" lon="-87.645396">
      </trkpt>
      <trkpt lat="41.885689" lon="-87.645365">
      </trkpt>
      <trkpt lat="41.885665" lon="-87.647482">
      </trkpt>
      <trkpt lat="41.91731" lon="-87.648495">
      </trkpt>
      <trkpt lat="41.91731" lon="-87.648495">
      </trkpt>
      <trkpt lat="41.925453" lon="-87.648766">
      </trkpt>
      <trkpt lat="41.926223" lon="-87.63067">
      </trkpt>
      <trkpt lat="41.928415" lon="-87.631851">
      </trkpt>
      <trkpt lat="41.935386" lon="-87.632612">
      </trkpt>
      <trkpt lat="41.941219" lon="-87.638833">
      </trkpt>
      <trkpt lat="41.950931" lon="-87.644376">
      </trkpt>
      <trkpt lat="41.954749" lon="-87.644596">
      </trkpt>
      <trkpt lat="41.973046" lon="-87.648738">
      </trkpt>
      <trkpt lat="41.981039" lon="-87.652251">
      </trkpt>
      <trkpt lat="41.984951" lon="-87.652803">
      </trkpt>
      <trkpt lat="41.985556" lon="-87.655253">
      </trkpt>
      <trkpt lat="41.987812" lon="-87.655324">
      </trkpt>
    </trkseg>
  </trk>
</gpx>