<?xml version="1.0" encoding="UTF-8"?>
<gpx xmlns="http://www.topografix.com/GPX/1/1" xmlns:xsi="http://www.w3.org/2001/XMLSchema-instance" xsi:schemaLocation="http://www.topografix.com/GPX/1/1 http://www.topografix.com/GPX/1/1/gpx.xsd" version="1.1" creator="gpx.py -- https://github.com/tkrajina/gpxpy">
  <trk>
    <trkseg>
      <trkpt lat="41.898867" lon="-87.634293">
      </trkpt>
      <trkpt lat="41.861304" lon="-87.633284">
      </trkpt>
      <trkpt lat="41.861304" lon="-87.633284">
      </trkpt>
      <trkpt lat="41.860792" lon="-87.633218">
      </trkpt>
      <trkpt lat="41.860792" lon="-87.633218">
      </trkpt>
      <trkpt lat="41.85776" lon="-87.63188">
      </trkpt>
      <trkpt lat="41.857891" lon="-87.623921">
      </trkpt>
      <trkpt lat="41.867398" lon="-87.624158">
      </trkpt>
      <trkpt lat="41.867474" lon="-87.618739">
      </trkpt>
      <trkpt lat="41.869799" lon="-87.617003">
      </trkpt>
      <trkpt lat="41.881825" lon="-87.617167">
      </trkpt>
      <trkpt lat="41.884932" lon="-87.613613">
      </trkpt>
      <trkpt lat="41.89273" lon="-87.614003">
      </trkpt>
      <trkpt lat="41.900921" lon="-87.619441">
      </trkpt>
      <trkpt lat="41.902893" lon="-87.624048">
      </trkpt>
      <trkpt lat="41.928415" lon="-87.631851">
      </trkpt>
      <trkpt lat="41.934381" lon="-87.632152">
      </trkpt>
      <trkpt lat="41.939073" lon="-87.63676">
      </trkpt>
      <trkpt lat="41.940568" lon="-87.638088">
      </trkpt>
      <trkpt lat="41.939918" lon="-87.654106">
      </trkpt>
      <trkpt lat="41.937175" lon="-87.654016">
      </trkpt>
      <trkpt lat="41.937186" lon="-87.653552">
      </trkpt>
      <trkpt lat="41.937074" lon="-87.65355">
      </trkpt>
      <trkpt lat="41.937074" lon="-87.65355">
      </trkpt>
      <trkpt lat="41.937186" lon="-87.653552">
      </trkpt>
      <trkpt lat="41.937175" lon="-87.654016">
      </trkpt>
      <trkpt lat="41.938097" lon="-87.654046">
      </trkpt>
      <trkpt lat="41.938193" lon="-87.649228">
      </trkpt>
      <trkpt lat="41.932979" lon="-87.645015">
      </trkpt>
      <trkpt lat="41.931849" lon="-87.644577">
      </trkpt>
      <trkpt lat="41.930723" lon="-87.643913">
      </trkpt>
      <trkpt lat="41.930476" lon="-87.645">
      </trkpt>
      <trkpt lat="41.930476" lon="-87.645">
      </trkpt>
      <trkpt lat="41.930359" lon="-87.646491">
      </trkpt>
      <trkpt lat="41.9316" lon="-87.646541">
      </trkpt>
      <trkpt lat="41.931557" lon="-87.648974">
      </trkpt>
      <trkpt lat="41.925453" lon="-87.648766">
      </trkpt>
      <trkpt lat="41.925291" lon="-87.658464">
      </trkpt>
      <trkpt lat="41.917264" lon="-87.658201">
      </trkpt>
      <trkpt lat="41.917067" lon="-87.663815">
      </trkpt>
      <trkpt lat="41.916129" lon="-87.66782">
      </trkpt>
      <trkpt lat="41.886129" lon="-87.667053">
      </trkpt>
      <trkpt lat="41.885323" lon="-87.667085">
      </trkpt>
      <trkpt lat="41.88498" lon="-87.676739">
      </trkpt>
      <trkpt lat="41.881323" lon="-87.676638">
      </trkpt>
      <trkpt lat="41.881324" lon="-87.679085">
      </trkpt>
      <trkpt lat="41.88126" lon="-87.678236">
      </trkpt>
      <trkpt lat="41.88126" lon="-87.678236">
      </trkpt>
      <trkpt lat="41.881744" lon="-87.649697">
      </trkpt>
      <trkpt lat="41.883581" lon="-87.649754">
      </trkpt>
      <trkpt lat="41.883589" lon="-87.649353">
      </trkpt>
      <trkpt lat="41.883589" lon="-87.649353">
      </trkpt>
      <trkpt lat="41.883581" lon="-87.649754">
      </trkpt>
      <trkpt lat="41.881744" lon="-87.649697">
      </trkpt>
      <trkpt lat="41.881801" lon="-87.64573">
      </trkpt>
      <trkpt lat="41.885306" lon="-87.645735">
      </trkpt>
      <trkpt lat="41.888098" lon="-87.647091">
      </trkpt>
      <trkpt lat="41.896345" lon="-87.658063">
      </trkpt>
      <trkpt lat="41.90111" lon="-87.66062">
      </trkpt>
      <trkpt lat="41.907216" lon="-87.661536">
      </trkpt>
      <trkpt lat="41.910145" lon="-87.664439">
      </trkpt>
      <trkpt lat="41.916712" lon="-87.668818">
      </trkpt>
      <trkpt lat="41.920831" lon="-87.675191">
      </trkpt>
      <trkpt lat="41.922669" lon="-87.677815">
      </trkpt>
      <trkpt lat="41.939586" lon="-87.678349">
      </trkpt>
      <trkpt lat="41.939644" lon="-87.673369">
      </trkpt>
      <trkpt lat="41.939644" lon="-87.673369">
      </trkpt>
      <trkpt lat="41.939613" lon="-87.675922">
      </trkpt>
      <trkpt lat="41.935962" lon="-87.675797">
      </trkpt>
      <trkpt lat="41.935976" lon="-87.674697">
      </trkpt>
      <trkpt lat="41.935976" lon="-87.674697">
      </trkpt>
      <trkpt lat="41.936022" lon="-87.670952">
      </trkpt>
      <trkpt lat="41.93237" lon="-87.670818">
      </trkpt>
      <trkpt lat="41.932278" lon="-87.678134">
      </trkpt>
      <trkpt lat="41.925026" lon="-87.677893">
      </trkpt>
      <trkpt lat="41.924902" lon="-87.687645">
      </trkpt>
      <trkpt lat="41.910324" lon="-87.687207">
      </trkpt>
      <trkpt lat="41.910165" lon="-87.701875">
      </trkpt>
      <trkpt lat="41.907241" lon="-87.70125">
      </trkpt>
      <trkpt lat="41.902886" lon="-87.702278">
      </trkpt>
      <trkpt lat="41.902888" lon="-87.701605">
      </trkpt>
      <trkpt lat="41.902888" lon="-87.701605">
      </trkpt>
      <trkpt lat="41.902886" lon="-87.702278">
      </trkpt>
      <trkpt lat="41.907558" lon="-87.701241">
      </trkpt>
      <trkpt lat="41.909737" lon="-87.701859">
      </trkpt>
      <trkpt lat="41.91745" lon="-87.702101">
      </trkpt>
      <trkpt lat="41.917587" lon="-87.687413">
      </trkpt>
      <trkpt lat="41.928661" lon="-87.687706">
      </trkpt>
      <trkpt lat="41.931491" lon="-87.684147">
      </trkpt>
      <trkpt lat="41.932222" lon="-87.683979">
      </trkpt>
      <trkpt lat="41.932257" lon="-87.680713">
      </trkpt>
      <trkpt lat="41.932073" lon="-87.680658">
      </trkpt>
      <trkpt lat="41.932073" lon="-87.680658">
      </trkpt>
      <trkpt lat="41.932257" lon="-87.680713">
      </trkpt>
      <trkpt lat="41.932278" lon="-87.678134">
      </trkpt>
      <trkpt lat="41.900454" lon="-87.677186">
      </trkpt>
      <trkpt lat="41.900367" lon="-87.682861">
      </trkpt>
      <trkpt lat="41.900367" lon="-87.682861">
      </trkpt>
      <trkpt lat="41.900342" lon="-87.684508">
      </trkpt>
      <trkpt lat="41.89942" lon="-87.684486">
      </trkpt>
      <trkpt lat="41.899117" lon="-87.715822">
      </trkpt>
      <trkpt lat="41.899117" lon="-87.715822">
      </trkpt>
      <trkpt lat="41.899238" lon="-87.702461">
      </trkpt>
      <trkpt lat="41.903831" lon="-87.702158">
      </trkpt>
      <trkpt lat="41.907241" lon="-87.70125">
      </trkpt>
      <trkpt lat="41.910165" lon="-87.701875">
      </trkpt>
      <trkpt lat="41.910324" lon="-87.687207">
      </trkpt>
      <trkpt lat="41.924902" lon="-87.687645">
      </trkpt>
      <trkpt lat="41.925374" lon="-87.653601">
      </trkpt>
      <trkpt lat="41.931569" lon="-87.653827">
      </trkpt>
      <trkpt lat="41.931569" lon="-87.653827">
      </trkpt>
      <trkpt lat="41.932636" lon="-87.653863">
      </trkpt>
      <trkpt lat="41.932728" lon="-87.649013">
      </trkpt>
      <trkpt lat="41.939973" lon="-87.649275">
      </trkpt>
      <trkpt lat="41.940568" lon="-87.638088">
      </trkpt>
      <trkpt lat="41.951253" lon="-87.644496">
      </trkpt>
      <trkpt lat="41.954749" lon="-87.644596">
      </trkpt>
      <trkpt lat="41.973046" lon="-87.648738">
      </trkpt>
      <trkpt lat="41.98144" lon="-87.652386">
      </trkpt>
      <trkpt lat="41.983909" lon="-87.65229">
      </trkpt>
      <trkpt lat="41.983555" lon="-87.664956">
      </trkpt>
      <trkpt lat="41.986355" lon="-87.665042">
      </trkpt>
      <trkpt lat="41.986291" lon="-87.668662">
      </trkpt>
    </trkseg>
  </trk>
</gpx>