<?xml version="1.0" encoding="UTF-8"?>
<gpx xmlns="http://www.topografix.com/GPX/1/1" xmlns:xsi="http://www.w3.org/2001/XMLSchema-instance" xsi:schemaLocation="http://www.topografix.com/GPX/1/1 http://www.topografix.com/GPX/1/1/gpx.xsd" version="1.1" creator="gpx.py -- https://github.com/tkrajina/gpxpy">
  <trk>
    <trkseg>
      <trkpt lat="41.987045" lon="-87.681454">
      </trkpt>
      <trkpt lat="41.985105" lon="-87.683199">
      </trkpt>
      <trkpt lat="41.985047" lon="-87.685612">
      </trkpt>
      <trkpt lat="41.982307" lon="-87.685604">
      </trkpt>
      <trkpt lat="41.981706" lon="-87.685439">
      </trkpt>
      <trkpt lat="41.980287" lon="-87.68536">
      </trkpt>
      <trkpt lat="41.978881" lon="-87.688009">
      </trkpt>
      <trkpt lat="41.97886" lon="-87.689265">
      </trkpt>
      <trkpt lat="41.955627" lon="-87.688512">
      </trkpt>
      <trkpt lat="41.910324" lon="-87.687207">
      </trkpt>
      <trkpt lat="41.910165" lon="-87.701875">
      </trkpt>
      <trkpt lat="41.902886" lon="-87.702278">
      </trkpt>
      <trkpt lat="41.902557" lon="-87.733686">
      </trkpt>
      <trkpt lat="41.903012" lon="-87.733699">
      </trkpt>
      <trkpt lat="41.903016" lon="-87.733404">
      </trkpt>
      <trkpt lat="41.903016" lon="-87.733404">
      </trkpt>
      <trkpt lat="41.903012" lon="-87.733699">
      </trkpt>
      <trkpt lat="41.903464" lon="-87.733711">
      </trkpt>
      <trkpt lat="41.903592" lon="-87.726324">
      </trkpt>
      <trkpt lat="41.92265" lon="-87.72708">
      </trkpt>
      <trkpt lat="41.92266" lon="-87.726455">
      </trkpt>
      <trkpt lat="41.960957" lon="-87.727814">
      </trkpt>
      <trkpt lat="41.96106" lon="-87.719257">
      </trkpt>
      <trkpt lat="41.966527" lon="-87.719417">
      </trkpt>
      <trkpt lat="41.966563" lon="-87.716128">
      </trkpt>
      <trkpt lat="41.966563" lon="-87.716128">
      </trkpt>
      <trkpt lat="41.966593" lon="-87.713315">
      </trkpt>
      <trkpt lat="41.975692" lon="-87.713554">
      </trkpt>
      <trkpt lat="41.975899" lon="-87.689151">
      </trkpt>
      <trkpt lat="41.977715" lon="-87.68922">
      </trkpt>
      <trkpt lat="41.977735" lon="-87.688432">
      </trkpt>
      <trkpt lat="41.97925" lon="-87.685014">
      </trkpt>
      <trkpt lat="41.982043" lon="-87.679565">
      </trkpt>
      <trkpt lat="41.983198" lon="-87.679477">
      </trkpt>
      <trkpt lat="41.983365" lon="-87.674607">
      </trkpt>
      <trkpt lat="41.98833" lon="-87.674641">
      </trkpt>
      <trkpt lat="41.988432" lon="-87.669926">
      </trkpt>
      <trkpt lat="41.987608" lon="-87.669796">
      </trkpt>
      <trkpt lat="41.987519" lon="-87.669769">
      </trkpt>
      <trkpt lat="41.987519" lon="-87.669769">
      </trkpt>
      <trkpt lat="41.985953" lon="-87.669343">
      </trkpt>
      <trkpt lat="41.985945" lon="-87.669821">
      </trkpt>
      <trkpt lat="41.986947" lon="-87.669568">
      </trkpt>
      <trkpt lat="41.989705" lon="-87.6699">
      </trkpt>
      <trkpt lat="41.992132" lon="-87.67531">
      </trkpt>
      <trkpt lat="41.994982" lon="-87.675425">
      </trkpt>
      <trkpt lat="42.008899" lon="-87.681855">
      </trkpt>
      <trkpt lat="42.014036" lon="-87.683685">
      </trkpt>
      <trkpt lat="42.014064" lon="-87.686201">
      </trkpt>
      <trkpt lat="42.012766" lon="-87.686196">
      </trkpt>
      <trkpt lat="42.012766" lon="-87.686196">
      </trkpt>
      <trkpt lat="42.012243" lon="-87.686154">
      </trkpt>
      <trkpt lat="42.011826" lon="-87.711447">
      </trkpt>
      <trkpt lat="41.997354" lon="-87.711691">
      </trkpt>
      <trkpt lat="41.997348" lon="-87.787876">
      </trkpt>
      <trkpt lat="41.996914" lon="-87.787492">
      </trkpt>
      <trkpt lat="41.976281" lon="-87.787864">
      </trkpt>
      <trkpt lat="41.978685" lon="-87.795591">
      </trkpt>
      <trkpt lat="41.980109" lon="-87.795904">
      </trkpt>
      <trkpt lat="41.980089" lon="-87.796063">
      </trkpt>
      <trkpt lat="41.980089" lon="-87.796063">
      </trkpt>
      <trkpt lat="41.980109" lon="-87.795904">
      </trkpt>
      <trkpt lat="41.981558" lon="-87.797591">
      </trkpt>
      <trkpt lat="41.982111" lon="-87.797582">
      </trkpt>
      <trkpt lat="41.982068" lon="-87.78646">
      </trkpt>
      <trkpt lat="41.981608" lon="-87.782771">
      </trkpt>
      <trkpt lat="41.972237" lon="-87.766154">
      </trkpt>
      <trkpt lat="41.970295" lon="-87.760441">
      </trkpt>
      <trkpt lat="41.964121" lon="-87.749887">
      </trkpt>
      <trkpt lat="41.962831" lon="-87.74647">
      </trkpt>
      <trkpt lat="41.957103" lon="-87.73715">
      </trkpt>
      <trkpt lat="41.953617" lon="-87.731304">
      </trkpt>
      <trkpt lat="41.954306" lon="-87.668983">
      </trkpt>
      <trkpt lat="41.96524" lon="-87.669262">
      </trkpt>
      <trkpt lat="41.965218" lon="-87.670929">
      </trkpt>
      <trkpt lat="41.964075" lon="-87.670902">
      </trkpt>
      <trkpt lat="41.964075" lon="-87.670902">
      </trkpt>
      <trkpt lat="41.961569" lon="-87.670845">
      </trkpt>
      <trkpt lat="41.961638" lon="-87.665949">
      </trkpt>
      <trkpt lat="41.958026" lon="-87.664497">
      </trkpt>
      <trkpt lat="41.954753" lon="-87.662484">
      </trkpt>
      <trkpt lat="41.944458" lon="-87.654273">
      </trkpt>
      <trkpt lat="41.939918" lon="-87.654106">
      </trkpt>
      <trkpt lat="41.939933" lon="-87.653077">
      </trkpt>
      <trkpt lat="41.939933" lon="-87.653077">
      </trkpt>
      <trkpt lat="41.939838" lon="-87.658974">
      </trkpt>
      <trkpt lat="41.94349" lon="-87.659073">
      </trkpt>
      <trkpt lat="41.943396" lon="-87.665475">
      </trkpt>
      <trkpt lat="41.943396" lon="-87.665475">
      </trkpt>
      <trkpt lat="41.943346" lon="-87.668829">
      </trkpt>
      <trkpt lat="41.924216" lon="-87.668122">
      </trkpt>
      <trkpt lat="41.921138" lon="-87.668644">
      </trkpt>
      <trkpt lat="41.917197" lon="-87.667771">
      </trkpt>
      <trkpt lat="41.903349" lon="-87.667572">
      </trkpt>
      <trkpt lat="41.903268" lon="-87.67239">
      </trkpt>
      <trkpt lat="41.903498" lon="-87.672395">
      </trkpt>
      <trkpt lat="41.903498" lon="-87.672395">
      </trkpt>
      <trkpt lat="41.903268" lon="-87.67239">
      </trkpt>
      <trkpt lat="41.903351" lon="-87.667439">
      </trkpt>
      <trkpt lat="41.910635" lon="-87.667641">
      </trkpt>
      <trkpt lat="41.910674" lon="-87.664445">
      </trkpt>
      <trkpt lat="41.915886" lon="-87.668091">
      </trkpt>
      <trkpt lat="41.91815" lon="-87.670574">
      </trkpt>
      <trkpt lat="41.940439" lon="-87.709664">
      </trkpt>
      <trkpt lat="41.942208" lon="-87.714861">
      </trkpt>
      <trkpt lat="41.947985" lon="-87.719618">
      </trkpt>
      <trkpt lat="41.960998" lon="-87.742619">
      </trkpt>
      <trkpt lat="41.966033" lon="-87.752403">
      </trkpt>
      <trkpt lat="41.967937" lon="-87.75503">
      </trkpt>
      <trkpt lat="41.967938" lon="-87.757623">
      </trkpt>
      <trkpt lat="41.968431" lon="-87.758399">
      </trkpt>
      <trkpt lat="41.968431" lon="-87.758399">
      </trkpt>
      <trkpt lat="41.967875" lon="-87.757622">
      </trkpt>
      <trkpt lat="41.968033" lon="-87.747723">
      </trkpt>
      <trkpt lat="41.972896" lon="-87.747918">
      </trkpt>
      <trkpt lat="41.972794" lon="-87.747761">
      </trkpt>
      <trkpt lat="41.966563" lon="-87.747223">
      </trkpt>
      <trkpt lat="41.963113" lon="-87.745961">
      </trkpt>
      <trkpt lat="41.960129" lon="-87.742125">
      </trkpt>
      <trkpt lat="41.947613" lon="-87.719592">
      </trkpt>
      <trkpt lat="41.94215" lon="-87.715306">
      </trkpt>
      <trkpt lat="41.940524" lon="-87.710219">
      </trkpt>
      <trkpt lat="41.933659" lon="-87.698173">
      </trkpt>
      <trkpt lat="41.927358" lon="-87.687291">
      </trkpt>
      <trkpt lat="41.924962" lon="-87.683686">
      </trkpt>
      <trkpt lat="41.925151" lon="-87.66815">
      </trkpt>
      <trkpt lat="41.939697" lon="-87.668609">
      </trkpt>
      <trkpt lat="41.941506" lon="-87.669927">
      </trkpt>
      <trkpt lat="41.941511" lon="-87.669353">
      </trkpt>
      <trkpt lat="41.941511" lon="-87.669353">
      </trkpt>
      <trkpt lat="41.941487" lon="-87.671146">
      </trkpt>
      <trkpt lat="41.939671" lon="-87.671095">
      </trkpt>
      <trkpt lat="41.939644" lon="-87.673369">
      </trkpt>
      <trkpt lat="41.939644" lon="-87.673369">
      </trkpt>
      <trkpt lat="41.939467" lon="-87.688141">
      </trkpt>
      <trkpt lat="41.910324" lon="-87.687207">
      </trkpt>
      <trkpt lat="41.910045" lon="-87.711884">
      </trkpt>
      <trkpt lat="41.908233" lon="-87.711856">
      </trkpt>
      <trkpt lat="41.90821" lon="-87.714298">
      </trkpt>
      <trkpt lat="41.909624" lon="-87.714347">
      </trkpt>
      <trkpt lat="41.909624" lon="-87.714347">
      </trkpt>
      <trkpt lat="41.910015" lon="-87.71436">
      </trkpt>
      <trkpt lat="41.910223" lon="-87.697029">
      </trkpt>
      <trkpt lat="41.933955" lon="-87.697682">
      </trkpt>
      <trkpt lat="41.942387" lon="-87.715161">
      </trkpt>
      <trkpt lat="41.947985" lon="-87.719618">
      </trkpt>
      <trkpt lat="41.960998" lon="-87.742619">
      </trkpt>
      <trkpt lat="41.965012" lon="-87.746732">
      </trkpt>
      <trkpt lat="41.980044" lon="-87.746614">
      </trkpt>
      <trkpt lat="41.987222" lon="-87.751348">
      </trkpt>
      <trkpt lat="42.006167" lon="-87.748589">
      </trkpt>
      <trkpt lat="42.010101" lon="-87.748003">
      </trkpt>
      <trkpt lat="42.011715" lon="-87.747943">
      </trkpt>
      <trkpt lat="42.012074" lon="-87.69973">
      </trkpt>
      <trkpt lat="42.015702" lon="-87.699666">
      </trkpt>
      <trkpt lat="42.015808" lon="-87.694779">
      </trkpt>
    </trkseg>
  </trk>
</gpx>