<?xml version="1.0" encoding="UTF-8"?>
<gpx xmlns="http://www.topografix.com/GPX/1/1" xmlns:xsi="http://www.w3.org/2001/XMLSchema-instance" xsi:schemaLocation="http://www.topografix.com/GPX/1/1 http://www.topografix.com/GPX/1/1/gpx.xsd" version="1.1" creator="gpx.py -- https://github.com/tkrajina/gpxpy">
  <trk>
    <trkseg>
      <trkpt lat="41.88397" lon="-87.682085">
      </trkpt>
      <trkpt lat="41.88396" lon="-87.682757">
      </trkpt>
      <trkpt lat="41.884759" lon="-87.682784">
      </trkpt>
      <trkpt lat="41.884091" lon="-87.701426">
      </trkpt>
      <trkpt lat="41.885478" lon="-87.725794">
      </trkpt>
      <trkpt lat="41.885957" lon="-87.733178">
      </trkpt>
      <trkpt lat="41.886911" lon="-87.733205">
      </trkpt>
      <trkpt lat="41.886914" lon="-87.732951">
      </trkpt>
      <trkpt lat="41.886914" lon="-87.732951">
      </trkpt>
      <trkpt lat="41.886942" lon="-87.730753">
      </trkpt>
      <trkpt lat="41.885745" lon="-87.730716">
      </trkpt>
      <trkpt lat="41.885208" lon="-87.720917">
      </trkpt>
      <trkpt lat="41.873515" lon="-87.72037">
      </trkpt>
      <trkpt lat="41.873525" lon="-87.719121">
      </trkpt>
      <trkpt lat="41.875189" lon="-87.697594">
      </trkpt>
      <trkpt lat="41.875329" lon="-87.650308">
      </trkpt>
      <trkpt lat="41.875302" lon="-87.647601">
      </trkpt>
      <trkpt lat="41.874563" lon="-87.645452">
      </trkpt>
      <trkpt lat="41.875077" lon="-87.644482">
      </trkpt>
      <trkpt lat="41.876036" lon="-87.64458">
      </trkpt>
      <trkpt lat="41.880374" lon="-87.645275">
      </trkpt>
      <trkpt lat="41.881847" lon="-87.645355">
      </trkpt>
      <trkpt lat="41.883151" lon="-87.645213">
      </trkpt>
      <trkpt lat="41.883153" lon="-87.645113">
      </trkpt>
      <trkpt lat="41.882485" lon="-87.645091">
      </trkpt>
      <trkpt lat="41.882491" lon="-87.644721">
      </trkpt>
      <trkpt lat="41.882491" lon="-87.644721">
      </trkpt>
      <trkpt lat="41.882498" lon="-87.644126">
      </trkpt>
      <trkpt lat="41.881817" lon="-87.644106">
      </trkpt>
      <trkpt lat="41.881801" lon="-87.64573">
      </trkpt>
      <trkpt lat="41.885306" lon="-87.645735">
      </trkpt>
      <trkpt lat="41.888483" lon="-87.647404">
      </trkpt>
      <trkpt lat="41.889615" lon="-87.64861">
      </trkpt>
      <trkpt lat="41.895403" lon="-87.657024">
      </trkpt>
      <trkpt lat="41.897251" lon="-87.658783">
      </trkpt>
      <trkpt lat="41.901753" lon="-87.660805">
      </trkpt>
      <trkpt lat="41.906443" lon="-87.661061">
      </trkpt>
      <trkpt lat="41.910145" lon="-87.664439">
      </trkpt>
      <trkpt lat="41.915739" lon="-87.667973">
      </trkpt>
      <trkpt lat="41.917898" lon="-87.66968">
      </trkpt>
      <trkpt lat="41.917413" lon="-87.705789">
      </trkpt>
      <trkpt lat="41.917413" lon="-87.705789">
      </trkpt>
      <trkpt lat="41.917587" lon="-87.687413">
      </trkpt>
      <trkpt lat="41.924902" lon="-87.687645">
      </trkpt>
      <trkpt lat="41.924978" lon="-87.682301">
      </trkpt>
      <trkpt lat="41.926707" lon="-87.685177">
      </trkpt>
      <trkpt lat="41.940439" lon="-87.709664">
      </trkpt>
      <trkpt lat="41.942387" lon="-87.715161">
      </trkpt>
      <trkpt lat="41.947985" lon="-87.719618">
      </trkpt>
      <trkpt lat="41.960998" lon="-87.742619">
      </trkpt>
      <trkpt lat="41.966033" lon="-87.752403">
      </trkpt>
      <trkpt lat="41.967937" lon="-87.75503">
      </trkpt>
      <trkpt lat="41.967938" lon="-87.757623">
      </trkpt>
      <trkpt lat="41.968431" lon="-87.758399">
      </trkpt>
      <trkpt lat="41.968431" lon="-87.758399">
      </trkpt>
      <trkpt lat="41.967875" lon="-87.757622">
      </trkpt>
      <trkpt lat="41.968033" lon="-87.747723">
      </trkpt>
      <trkpt lat="41.972896" lon="-87.747918">
      </trkpt>
      <trkpt lat="41.972794" lon="-87.747761">
      </trkpt>
      <trkpt lat="41.966563" lon="-87.747223">
      </trkpt>
      <trkpt lat="41.963113" lon="-87.745961">
      </trkpt>
      <trkpt lat="41.960129" lon="-87.742125">
      </trkpt>
      <trkpt lat="41.947613" lon="-87.719592">
      </trkpt>
      <trkpt lat="41.94215" lon="-87.715306">
      </trkpt>
      <trkpt lat="41.940524" lon="-87.710219">
      </trkpt>
      <trkpt lat="41.933659" lon="-87.698173">
      </trkpt>
      <trkpt lat="41.927358" lon="-87.687291">
      </trkpt>
      <trkpt lat="41.925223" lon="-87.684125">
      </trkpt>
      <trkpt lat="41.924902" lon="-87.687645">
      </trkpt>
      <trkpt lat="41.917587" lon="-87.687413">
      </trkpt>
      <trkpt lat="41.917494" lon="-87.697194">
      </trkpt>
      <trkpt lat="41.912372" lon="-87.697059">
      </trkpt>
      <trkpt lat="41.912356" lon="-87.698734">
      </trkpt>
      <trkpt lat="41.912356" lon="-87.698734">
      </trkpt>
      <trkpt lat="41.91233" lon="-87.701498">
      </trkpt>
      <trkpt lat="41.912147" lon="-87.701932">
      </trkpt>
      <trkpt lat="41.921502" lon="-87.702223">
      </trkpt>
      <trkpt lat="41.921462" lon="-87.707109">
      </trkpt>
      <trkpt lat="41.924722" lon="-87.707229">
      </trkpt>
      <trkpt lat="41.924691" lon="-87.710137">
      </trkpt>
      <trkpt lat="41.925193" lon="-87.710152">
      </trkpt>
      <trkpt lat="41.925198" lon="-87.709312">
      </trkpt>
      <trkpt lat="41.925019" lon="-87.709305">
      </trkpt>
      <trkpt lat="41.925019" lon="-87.709305">
      </trkpt>
      <trkpt lat="41.9247" lon="-87.709292">
      </trkpt>
      <trkpt lat="41.92467" lon="-87.712101">
      </trkpt>
      <trkpt lat="41.910607" lon="-87.711704">
      </trkpt>
      <trkpt lat="41.910045" lon="-87.711884">
      </trkpt>
      <trkpt lat="41.909857" lon="-87.727547">
      </trkpt>
      <trkpt lat="41.910437" lon="-87.727565">
      </trkpt>
      <trkpt lat="41.910437" lon="-87.727565">
      </trkpt>
      <trkpt lat="41.911691" lon="-87.727604">
      </trkpt>
      <trkpt lat="41.911632" lon="-87.731879">
      </trkpt>
      <trkpt lat="41.913325" lon="-87.731926">
      </trkpt>
      <trkpt lat="41.913331" lon="-87.731325">
      </trkpt>
      <trkpt lat="41.913271" lon="-87.731323">
      </trkpt>
      <trkpt lat="41.913271" lon="-87.731323">
      </trkpt>
      <trkpt lat="41.909813" lon="-87.731216">
      </trkpt>
      <trkpt lat="41.910672" lon="-87.665662">
      </trkpt>
      <trkpt lat="41.910236" lon="-87.665325">
      </trkpt>
      <trkpt lat="41.906635" lon="-87.661559">
      </trkpt>
      <trkpt lat="41.900902" lon="-87.660921">
      </trkpt>
      <trkpt lat="41.896968" lon="-87.659049">
      </trkpt>
      <trkpt lat="41.895018" lon="-87.657114">
      </trkpt>
      <trkpt lat="41.891931" lon="-87.653963">
      </trkpt>
      <trkpt lat="41.892554" lon="-87.651034">
      </trkpt>
      <trkpt lat="41.892632" lon="-87.617714">
      </trkpt>
      <trkpt lat="41.891456" lon="-87.617676">
      </trkpt>
      <trkpt lat="41.891456" lon="-87.617676">
      </trkpt>
      <trkpt lat="41.891067" lon="-87.617665">
      </trkpt>
      <trkpt lat="41.891141" lon="-87.61158">
      </trkpt>
      <trkpt lat="41.891968" lon="-87.611597">
      </trkpt>
      <trkpt lat="41.891945" lon="-87.612627">
      </trkpt>
      <trkpt lat="41.891945" lon="-87.612627">
      </trkpt>
      <trkpt lat="41.891928" lon="-87.61336">
      </trkpt>
      <trkpt lat="41.900921" lon="-87.619441">
      </trkpt>
      <trkpt lat="41.90131" lon="-87.620113">
      </trkpt>
      <trkpt lat="41.90171" lon="-87.622727">
      </trkpt>
      <trkpt lat="41.902767" lon="-87.623983">
      </trkpt>
      <trkpt lat="41.908987" lon="-87.625626">
      </trkpt>
      <trkpt lat="41.912141" lon="-87.62589">
      </trkpt>
      <trkpt lat="41.918036" lon="-87.628743">
      </trkpt>
      <trkpt lat="41.924159" lon="-87.630534">
      </trkpt>
      <trkpt lat="41.926223" lon="-87.63067">
      </trkpt>
      <trkpt lat="41.925697" lon="-87.634084">
      </trkpt>
      <trkpt lat="41.925491" lon="-87.646336">
      </trkpt>
      <trkpt lat="41.926694" lon="-87.64637">
      </trkpt>
      <trkpt lat="41.926753" lon="-87.642974">
      </trkpt>
      <trkpt lat="41.926753" lon="-87.642974">
      </trkpt>
      <trkpt lat="41.926767" lon="-87.642153">
      </trkpt>
      <trkpt lat="41.927017" lon="-87.641326">
      </trkpt>
      <trkpt lat="41.921963" lon="-87.638269">
      </trkpt>
      <trkpt lat="41.921954" lon="-87.638941">
      </trkpt>
      <trkpt lat="41.918322" lon="-87.638808">
      </trkpt>
      <trkpt lat="41.918106" lon="-87.638503">
      </trkpt>
      <trkpt lat="41.918106" lon="-87.638503">
      </trkpt>
      <trkpt lat="41.915479" lon="-87.634849">
      </trkpt>
      <trkpt lat="41.915623" lon="-87.634358">
      </trkpt>
      <trkpt lat="41.913169" lon="-87.632856">
      </trkpt>
      <trkpt lat="41.912793" lon="-87.633227">
      </trkpt>
      <trkpt lat="41.911528" lon="-87.633232">
      </trkpt>
      <trkpt lat="41.881953" lon="-87.632362">
      </trkpt>
      <trkpt lat="41.881877" lon="-87.640505">
      </trkpt>
      <trkpt lat="41.881877" lon="-87.640505">
      </trkpt>
      <trkpt lat="41.881847" lon="-87.642638">
      </trkpt>
      <trkpt lat="41.885711" lon="-87.642764">
      </trkpt>
      <trkpt lat="41.885732" lon="-87.634774">
      </trkpt>
      <trkpt lat="41.886919" lon="-87.63479">
      </trkpt>
      <trkpt lat="41.886908" lon="-87.635269">
      </trkpt>
      <trkpt lat="41.886783" lon="-87.635659">
      </trkpt>
      <trkpt lat="41.886077" lon="-87.636719">
      </trkpt>
      <trkpt lat="41.885721" lon="-87.636929">
      </trkpt>
      <trkpt lat="41.884351" lon="-87.637036">
      </trkpt>
      <trkpt lat="41.88066" lon="-87.636955">
      </trkpt>
      <trkpt lat="41.88066" lon="-87.637038">
      </trkpt>
      <trkpt lat="41.879658" lon="-87.637008">
      </trkpt>
      <trkpt lat="41.879656" lon="-87.637232">
      </trkpt>
      <trkpt lat="41.879656" lon="-87.637232">
      </trkpt>
      <trkpt lat="41.879658" lon="-87.637008">
      </trkpt>
      <trkpt lat="41.879325" lon="-87.636996">
      </trkpt>
      <trkpt lat="41.879326" lon="-87.636915">
      </trkpt>
      <trkpt lat="41.878024" lon="-87.636895">
      </trkpt>
      <trkpt lat="41.876121" lon="-87.636543">
      </trkpt>
      <trkpt lat="41.875927" lon="-87.635908">
      </trkpt>
      <trkpt lat="41.876336" lon="-87.634264">
      </trkpt>
      <trkpt lat="41.87588" lon="-87.634064">
      </trkpt>
      <trkpt lat="41.875615" lon="-87.643841">
      </trkpt>
      <trkpt lat="41.875736" lon="-87.651991">
      </trkpt>
      <trkpt lat="41.876197" lon="-87.657603">
      </trkpt>
      <trkpt lat="41.875763" lon="-87.688313">
      </trkpt>
      <trkpt lat="41.875862" lon="-87.692409">
      </trkpt>
      <trkpt lat="41.875937" lon="-87.701067">
      </trkpt>
      <trkpt lat="41.889426" lon="-87.701479">
      </trkpt>
      <trkpt lat="41.891131" lon="-87.701974">
      </trkpt>
      <trkpt lat="41.895594" lon="-87.702191">
      </trkpt>
      <trkpt lat="41.895606" lon="-87.701213">
      </trkpt>
      <trkpt lat="41.895606" lon="-87.701213">
      </trkpt>
      <trkpt lat="41.895912" lon="-87.677057">
      </trkpt>
      <trkpt lat="41.903184" lon="-87.677276">
      </trkpt>
      <trkpt lat="41.903268" lon="-87.67239">
      </trkpt>
      <trkpt lat="41.903498" lon="-87.672395">
      </trkpt>
      <trkpt lat="41.903498" lon="-87.672395">
      </trkpt>
      <trkpt lat="41.903268" lon="-87.67239">
      </trkpt>
      <trkpt lat="41.903351" lon="-87.667439">
      </trkpt>
      <trkpt lat="41.916129" lon="-87.66782">
      </trkpt>
      <trkpt lat="41.917067" lon="-87.663815">
      </trkpt>
      <trkpt lat="41.917114" lon="-87.66003">
      </trkpt>
      <trkpt lat="41.917518" lon="-87.660585">
      </trkpt>
      <trkpt lat="41.918398" lon="-87.65947">
      </trkpt>
      <trkpt lat="41.921659" lon="-87.65956">
      </trkpt>
      <trkpt lat="41.921657" lon="-87.659737">
      </trkpt>
      <trkpt lat="41.921657" lon="-87.659737">
      </trkpt>
      <trkpt lat="41.921608" lon="-87.664379">
      </trkpt>
      <trkpt lat="41.927377" lon="-87.672465">
      </trkpt>
      <trkpt lat="41.932278" lon="-87.678134">
      </trkpt>
      <trkpt lat="41.939468" lon="-87.688003">
      </trkpt>
      <trkpt lat="41.949742" lon="-87.688345">
      </trkpt>
    </trkseg>
  </trk>
</gpx>