<?xml version="1.0" encoding="UTF-8"?>
<gpx xmlns="http://www.topografix.com/GPX/1/1" xmlns:xsi="http://www.w3.org/2001/XMLSchema-instance" xsi:schemaLocation="http://www.topografix.com/GPX/1/1 http://www.topografix.com/GPX/1/1/gpx.xsd" version="1.1" creator="gpx.py -- https://github.com/tkrajina/gpxpy">
  <trk>
    <trkseg>
      <trkpt lat="42.019106" lon="-87.712298">
      </trkpt>
      <trkpt lat="42.019113" lon="-87.711292">
      </trkpt>
      <trkpt lat="42.011826" lon="-87.711447">
      </trkpt>
      <trkpt lat="42.011874" lon="-87.709065">
      </trkpt>
      <trkpt lat="42.001038" lon="-87.709353">
      </trkpt>
      <trkpt lat="42.001113" lon="-87.704979">
      </trkpt>
      <trkpt lat="42.001113" lon="-87.704979">
      </trkpt>
      <trkpt lat="42.001198" lon="-87.699731">
      </trkpt>
      <trkpt lat="42.016613" lon="-87.69965">
      </trkpt>
      <trkpt lat="42.0168" lon="-87.691386">
      </trkpt>
      <trkpt lat="42.017293" lon="-87.691387">
      </trkpt>
      <trkpt lat="42.017293" lon="-87.691387">
      </trkpt>
      <trkpt lat="42.0177" lon="-87.691388">
      </trkpt>
      <trkpt lat="42.017524" lon="-87.699634">
      </trkpt>
      <trkpt lat="42.019332" lon="-87.699601">
      </trkpt>
      <trkpt lat="42.019034" lon="-87.747705">
      </trkpt>
      <trkpt lat="42.011817" lon="-87.747939">
      </trkpt>
      <trkpt lat="42.011856" lon="-87.75189">
      </trkpt>
      <trkpt lat="42.012826" lon="-87.752369">
      </trkpt>
      <trkpt lat="42.007194" lon="-87.748838">
      </trkpt>
      <trkpt lat="41.987219" lon="-87.751521">
      </trkpt>
      <trkpt lat="41.980228" lon="-87.746835">
      </trkpt>
      <trkpt lat="41.966563" lon="-87.747223">
      </trkpt>
      <trkpt lat="41.963113" lon="-87.745961">
      </trkpt>
      <trkpt lat="41.960129" lon="-87.742125">
      </trkpt>
      <trkpt lat="41.947613" lon="-87.719592">
      </trkpt>
      <trkpt lat="41.94215" lon="-87.715306">
      </trkpt>
      <trkpt lat="41.933659" lon="-87.698173">
      </trkpt>
      <trkpt lat="41.927358" lon="-87.687291">
      </trkpt>
      <trkpt lat="41.925223" lon="-87.684125">
      </trkpt>
      <trkpt lat="41.924902" lon="-87.687645">
      </trkpt>
      <trkpt lat="41.89575" lon="-87.686835">
      </trkpt>
      <trkpt lat="41.89579" lon="-87.684398">
      </trkpt>
      <trkpt lat="41.895962" lon="-87.684402">
      </trkpt>
      <trkpt lat="41.895962" lon="-87.684402">
      </trkpt>
      <trkpt lat="41.89579" lon="-87.684398">
      </trkpt>
      <trkpt lat="41.895912" lon="-87.677057">
      </trkpt>
      <trkpt lat="41.903184" lon="-87.677276">
      </trkpt>
      <trkpt lat="41.903145" lon="-87.679708">
      </trkpt>
      <trkpt lat="41.903748" lon="-87.679724">
      </trkpt>
      <trkpt lat="41.903748" lon="-87.679724">
      </trkpt>
      <trkpt lat="41.904077" lon="-87.679734">
      </trkpt>
      <trkpt lat="41.904122" lon="-87.677302">
      </trkpt>
      <trkpt lat="41.903184" lon="-87.677276">
      </trkpt>
      <trkpt lat="41.903364" lon="-87.666488">
      </trkpt>
      <trkpt lat="41.899711" lon="-87.660843">
      </trkpt>
      <trkpt lat="41.895493" lon="-87.657719">
      </trkpt>
      <trkpt lat="41.889964" lon="-87.649448">
      </trkpt>
      <trkpt lat="41.888343" lon="-87.647531">
      </trkpt>
      <trkpt lat="41.885929" lon="-87.646219">
      </trkpt>
      <trkpt lat="41.881827" lon="-87.645999">
      </trkpt>
      <trkpt lat="41.880956" lon="-87.646134">
      </trkpt>
      <trkpt lat="41.879569" lon="-87.646145">
      </trkpt>
      <trkpt lat="41.878121" lon="-87.646166">
      </trkpt>
      <trkpt lat="41.877218" lon="-87.646107">
      </trkpt>
      <trkpt lat="41.876551" lon="-87.646063">
      </trkpt>
      <trkpt lat="41.875649" lon="-87.646733">
      </trkpt>
      <trkpt lat="41.87505" lon="-87.645999">
      </trkpt>
      <trkpt lat="41.875457" lon="-87.644423">
      </trkpt>
      <trkpt lat="41.875815" lon="-87.620619">
      </trkpt>
      <trkpt lat="41.875872" lon="-87.62062">
      </trkpt>
      <trkpt lat="41.875872" lon="-87.62062">
      </trkpt>
      <trkpt lat="41.867601" lon="-87.620423">
      </trkpt>
      <trkpt lat="41.867506" lon="-87.624157">
      </trkpt>
      <trkpt lat="41.86762" lon="-87.624071">
      </trkpt>
      <trkpt lat="41.868888" lon="-87.624039">
      </trkpt>
      <trkpt lat="41.868888" lon="-87.624039">
      </trkpt>
      <trkpt lat="41.873158" lon="-87.624138">
      </trkpt>
      <trkpt lat="41.873249" lon="-87.617066">
      </trkpt>
      <trkpt lat="41.881825" lon="-87.617167">
      </trkpt>
      <trkpt lat="41.884932" lon="-87.613613">
      </trkpt>
      <trkpt lat="41.892878" lon="-87.614041">
      </trkpt>
      <trkpt lat="41.900921" lon="-87.619441">
      </trkpt>
      <trkpt lat="41.902893" lon="-87.624048">
      </trkpt>
      <trkpt lat="41.928415" lon="-87.631851">
      </trkpt>
      <trkpt lat="41.934381" lon="-87.632152">
      </trkpt>
      <trkpt lat="41.941219" lon="-87.638833">
      </trkpt>
      <trkpt lat="41.950931" lon="-87.644376">
      </trkpt>
      <trkpt lat="41.973046" lon="-87.648738">
      </trkpt>
      <trkpt lat="41.984951" lon="-87.652803">
      </trkpt>
      <trkpt lat="41.985556" lon="-87.655253">
      </trkpt>
      <trkpt lat="41.987812" lon="-87.655324">
      </trkpt>
      <trkpt lat="41.987812" lon="-87.655324">
      </trkpt>
      <trkpt lat="41.985556" lon="-87.655253">
      </trkpt>
      <trkpt lat="41.984999" lon="-87.653157">
      </trkpt>
      <trkpt lat="41.981232" lon="-87.652706">
      </trkpt>
      <trkpt lat="41.972134" lon="-87.648822">
      </trkpt>
      <trkpt lat="41.955203" lon="-87.644905">
      </trkpt>
      <trkpt lat="41.951193" lon="-87.64469">
      </trkpt>
      <trkpt lat="41.942042" lon="-87.639566">
      </trkpt>
      <trkpt lat="41.940268" lon="-87.638796">
      </trkpt>
      <trkpt lat="41.940119" lon="-87.639537">
      </trkpt>
      <trkpt lat="41.936919" lon="-87.639435">
      </trkpt>
      <trkpt lat="41.936919" lon="-87.639435">
      </trkpt>
      <trkpt lat="41.940119" lon="-87.639537">
      </trkpt>
      <trkpt lat="41.940268" lon="-87.638796">
      </trkpt>
      <trkpt lat="41.939931" lon="-87.638606">
      </trkpt>
      <trkpt lat="41.936955" lon="-87.634194">
      </trkpt>
      <trkpt lat="41.934639" lon="-87.632453">
      </trkpt>
      <trkpt lat="41.928427" lon="-87.632048">
      </trkpt>
      <trkpt lat="41.918735" lon="-87.629189">
      </trkpt>
      <trkpt lat="41.911998" lon="-87.62605">
      </trkpt>
      <trkpt lat="41.902733" lon="-87.62421">
      </trkpt>
      <trkpt lat="41.901491" lon="-87.62264">
      </trkpt>
      <trkpt lat="41.900898" lon="-87.619617">
      </trkpt>
      <trkpt lat="41.892985" lon="-87.614304">
      </trkpt>
      <trkpt lat="41.884928" lon="-87.614127">
      </trkpt>
      <trkpt lat="41.882167" lon="-87.617321">
      </trkpt>
      <trkpt lat="41.878363" lon="-87.617442">
      </trkpt>
      <trkpt lat="41.878331" lon="-87.620697">
      </trkpt>
      <trkpt lat="41.876287" lon="-87.620625">
      </trkpt>
      <trkpt lat="41.87589" lon="-87.623299">
      </trkpt>
      <trkpt lat="41.877002" lon="-87.624302">
      </trkpt>
      <trkpt lat="41.876904" lon="-87.629257">
      </trkpt>
      <trkpt lat="41.877337" lon="-87.629268">
      </trkpt>
      <trkpt lat="41.877337" lon="-87.629268">
      </trkpt>
      <trkpt lat="41.878179" lon="-87.629291">
      </trkpt>
      <trkpt lat="41.878188" lon="-87.628769">
      </trkpt>
      <trkpt lat="41.875706" lon="-87.62871">
      </trkpt>
      <trkpt lat="41.875719" lon="-87.651339">
      </trkpt>
      <trkpt lat="41.876197" lon="-87.657603">
      </trkpt>
      <trkpt lat="41.875763" lon="-87.688313">
      </trkpt>
      <trkpt lat="41.875862" lon="-87.692409">
      </trkpt>
      <trkpt lat="41.875985" lon="-87.695752">
      </trkpt>
      <trkpt lat="41.875985" lon="-87.695752">
      </trkpt>
      <trkpt lat="41.875983" lon="-87.696151">
      </trkpt>
      <trkpt lat="41.874902" lon="-87.696127">
      </trkpt>
      <trkpt lat="41.874908" lon="-87.695509">
      </trkpt>
      <trkpt lat="41.875125" lon="-87.690201">
      </trkpt>
      <trkpt lat="41.875329" lon="-87.650308">
      </trkpt>
      <trkpt lat="41.875302" lon="-87.647601">
      </trkpt>
      <trkpt lat="41.874563" lon="-87.645452">
      </trkpt>
      <trkpt lat="41.875077" lon="-87.644482">
      </trkpt>
      <trkpt lat="41.876036" lon="-87.64458">
      </trkpt>
      <trkpt lat="41.880374" lon="-87.645275">
      </trkpt>
      <trkpt lat="41.881847" lon="-87.645355">
      </trkpt>
      <trkpt lat="41.882198" lon="-87.645393">
      </trkpt>
      <trkpt lat="41.885931" lon="-87.64591">
      </trkpt>
      <trkpt lat="41.888483" lon="-87.647404">
      </trkpt>
      <trkpt lat="41.897251" lon="-87.658783">
      </trkpt>
      <trkpt lat="41.901753" lon="-87.660805">
      </trkpt>
      <trkpt lat="41.906443" lon="-87.661061">
      </trkpt>
      <trkpt lat="41.910145" lon="-87.664439">
      </trkpt>
      <trkpt lat="41.91562" lon="-87.667879">
      </trkpt>
      <trkpt lat="41.91815" lon="-87.670574">
      </trkpt>
      <trkpt lat="41.920831" lon="-87.675191">
      </trkpt>
      <trkpt lat="41.922669" lon="-87.677815">
      </trkpt>
      <trkpt lat="41.946869" lon="-87.67855">
      </trkpt>
      <trkpt lat="41.946929" lon="-87.67359">
      </trkpt>
      <trkpt lat="41.952396" lon="-87.673756">
      </trkpt>
      <trkpt lat="41.952409" lon="-87.672941">
      </trkpt>
      <trkpt lat="41.952409" lon="-87.672941">
      </trkpt>
      <trkpt lat="41.95247" lon="-87.669064">
      </trkpt>
      <trkpt lat="41.94882" lon="-87.66897">
      </trkpt>
      <trkpt lat="41.948878" lon="-87.665272">
      </trkpt>
      <trkpt lat="41.948734" lon="-87.665267">
      </trkpt>
      <trkpt lat="41.948734" lon="-87.665267">
      </trkpt>
      <trkpt lat="41.947064" lon="-87.665227">
      </trkpt>
      <trkpt lat="41.947083" lon="-87.663999">
      </trkpt>
      <trkpt lat="41.954357" lon="-87.664217">
      </trkpt>
      <trkpt lat="41.954634" lon="-87.645235">
      </trkpt>
      <trkpt lat="41.950978" lon="-87.644611">
      </trkpt>
      <trkpt lat="41.941594" lon="-87.639315">
      </trkpt>
      <trkpt lat="41.934639" lon="-87.632453">
      </trkpt>
      <trkpt lat="41.928427" lon="-87.632048">
      </trkpt>
      <trkpt lat="41.918735" lon="-87.629189">
      </trkpt>
      <trkpt lat="41.911998" lon="-87.62605">
      </trkpt>
      <trkpt lat="41.902733" lon="-87.62421">
      </trkpt>
      <trkpt lat="41.901491" lon="-87.62264">
      </trkpt>
      <trkpt lat="41.900996" lon="-87.619743">
      </trkpt>
      <trkpt lat="41.899659" lon="-87.61878">
      </trkpt>
      <trkpt lat="41.89684" lon="-87.617065">
      </trkpt>
      <trkpt lat="41.896757" lon="-87.622557">
      </trkpt>
      <trkpt lat="41.896757" lon="-87.622557">
      </trkpt>
      <trkpt lat="41.896737" lon="-87.624345">
      </trkpt>
      <trkpt lat="41.896443" lon="-87.624388">
      </trkpt>
      <trkpt lat="41.895747" lon="-87.624376">
      </trkpt>
      <trkpt lat="41.895763" lon="-87.622799">
      </trkpt>
      <trkpt lat="41.894975" lon="-87.62278">
      </trkpt>
      <trkpt lat="41.894971" lon="-87.623046">
      </trkpt>
      <trkpt lat="41.894971" lon="-87.623046">
      </trkpt>
      <trkpt lat="41.894946" lon="-87.624357">
      </trkpt>
      <trkpt lat="41.889927" lon="-87.624211">
      </trkpt>
      <trkpt lat="41.88832" lon="-87.624581">
      </trkpt>
      <trkpt lat="41.888239" lon="-87.625491">
      </trkpt>
      <trkpt lat="41.887226" lon="-87.626463">
      </trkpt>
      <trkpt lat="41.886951" lon="-87.627165">
      </trkpt>
      <trkpt lat="41.886906" lon="-87.63544">
      </trkpt>
      <trkpt lat="41.886022" lon="-87.636831">
      </trkpt>
      <trkpt lat="41.884717" lon="-87.637079">
      </trkpt>
      <trkpt lat="41.884717" lon="-87.637079">
      </trkpt>
      <trkpt lat="41.88322" lon="-87.637054">
      </trkpt>
      <trkpt lat="41.883239" lon="-87.635376">
      </trkpt>
      <trkpt lat="41.886768" lon="-87.635439">
      </trkpt>
      <trkpt lat="41.886821" lon="-87.635158">
      </trkpt>
      <trkpt lat="41.886821" lon="-87.634232">
      </trkpt>
      <trkpt lat="41.886821" lon="-87.634232">
      </trkpt>
      <trkpt lat="41.886821" lon="-87.633975">
      </trkpt>
      <trkpt lat="41.881941" lon="-87.633848">
      </trkpt>
      <trkpt lat="41.881801" lon="-87.64573">
      </trkpt>
      <trkpt lat="41.885306" lon="-87.645735">
      </trkpt>
      <trkpt lat="41.888483" lon="-87.647404">
      </trkpt>
      <trkpt lat="41.897251" lon="-87.658783">
      </trkpt>
      <trkpt lat="41.901753" lon="-87.660805">
      </trkpt>
      <trkpt lat="41.906443" lon="-87.661061">
      </trkpt>
      <trkpt lat="41.910145" lon="-87.664439">
      </trkpt>
      <trkpt lat="41.916712" lon="-87.668818">
      </trkpt>
      <trkpt lat="41.929581" lon="-87.690595">
      </trkpt>
      <trkpt lat="41.932133" lon="-87.694122">
      </trkpt>
      <trkpt lat="41.932179" lon="-87.687832">
      </trkpt>
      <trkpt lat="41.933083" lon="-87.687853">
      </trkpt>
      <trkpt lat="41.933126" lon="-87.685481">
      </trkpt>
      <trkpt lat="41.93261" lon="-87.685472">
      </trkpt>
      <trkpt lat="41.932617" lon="-87.684696">
      </trkpt>
      <trkpt lat="41.932617" lon="-87.684696">
      </trkpt>
      <trkpt lat="41.93261" lon="-87.685472">
      </trkpt>
      <trkpt lat="41.932206" lon="-87.685465">
      </trkpt>
      <trkpt lat="41.932179" lon="-87.687832">
      </trkpt>
      <trkpt lat="41.953985" lon="-87.688469">
      </trkpt>
      <trkpt lat="41.954306" lon="-87.668983">
      </trkpt>
      <trkpt lat="41.986947" lon="-87.669568">
      </trkpt>
      <trkpt lat="41.998086" lon="-87.670543">
      </trkpt>
      <trkpt lat="41.99814" lon="-87.665468">
      </trkpt>
      <trkpt lat="41.999968" lon="-87.665572">
      </trkpt>
      <trkpt lat="41.999957" lon="-87.667137">
      </trkpt>
    </trkseg>
  </trk>
</gpx>