<?xml version="1.0" encoding="UTF-8"?>
<gpx xmlns="http://www.topografix.com/GPX/1/1" xmlns:xsi="http://www.w3.org/2001/XMLSchema-instance" xsi:schemaLocation="http://www.topografix.com/GPX/1/1 http://www.topografix.com/GPX/1/1/gpx.xsd" version="1.1" creator="gpx.py -- https://github.com/tkrajina/gpxpy">
  <trk>
    <trkseg>
      <trkpt lat="41.964343" lon="-87.690002">
      </trkpt>
      <trkpt lat="41.96314" lon="-87.689964">
      </trkpt>
      <trkpt lat="41.963152" lon="-87.688751">
      </trkpt>
      <trkpt lat="41.955627" lon="-87.688512">
      </trkpt>
      <trkpt lat="41.939587" lon="-87.688146">
      </trkpt>
      <trkpt lat="41.932278" lon="-87.678134">
      </trkpt>
      <trkpt lat="41.91776" lon="-87.677621">
      </trkpt>
      <trkpt lat="41.917824" lon="-87.673991">
      </trkpt>
      <trkpt lat="41.91088" lon="-87.673814">
      </trkpt>
      <trkpt lat="41.910873" lon="-87.674294">
      </trkpt>
      <trkpt lat="41.910873" lon="-87.674294">
      </trkpt>
      <trkpt lat="41.91088" lon="-87.673814">
      </trkpt>
      <trkpt lat="41.910536" lon="-87.673806">
      </trkpt>
      <trkpt lat="41.910674" lon="-87.664445">
      </trkpt>
      <trkpt lat="41.915886" lon="-87.668091">
      </trkpt>
      <trkpt lat="41.91815" lon="-87.670574">
      </trkpt>
      <trkpt lat="41.940439" lon="-87.709664">
      </trkpt>
      <trkpt lat="41.942208" lon="-87.714861">
      </trkpt>
      <trkpt lat="41.947985" lon="-87.719618">
      </trkpt>
      <trkpt lat="41.958569" lon="-87.738838">
      </trkpt>
      <trkpt lat="41.960451" lon="-87.741371">
      </trkpt>
      <trkpt lat="41.960845" lon="-87.74187">
      </trkpt>
      <trkpt lat="41.960081" lon="-87.794161">
      </trkpt>
      <trkpt lat="41.949144" lon="-87.816945">
      </trkpt>
      <trkpt lat="41.941072" lon="-87.816641">
      </trkpt>
      <trkpt lat="41.941072" lon="-87.816641">
      </trkpt>
      <trkpt lat="41.939617" lon="-87.816587">
      </trkpt>
      <trkpt lat="41.939594" lon="-87.817797">
      </trkpt>
      <trkpt lat="41.948419" lon="-87.818384">
      </trkpt>
      <trkpt lat="41.958438" lon="-87.797713">
      </trkpt>
      <trkpt lat="41.968342" lon="-87.797737">
      </trkpt>
      <trkpt lat="41.96853" lon="-87.778289">
      </trkpt>
      <trkpt lat="41.967665" lon="-87.77728">
      </trkpt>
      <trkpt lat="41.968033" lon="-87.747723">
      </trkpt>
      <trkpt lat="41.972896" lon="-87.747918">
      </trkpt>
      <trkpt lat="41.972794" lon="-87.747761">
      </trkpt>
      <trkpt lat="41.966563" lon="-87.747223">
      </trkpt>
      <trkpt lat="41.963113" lon="-87.745961">
      </trkpt>
      <trkpt lat="41.960129" lon="-87.742125">
      </trkpt>
      <trkpt lat="41.947613" lon="-87.719592">
      </trkpt>
      <trkpt lat="41.94215" lon="-87.715306">
      </trkpt>
      <trkpt lat="41.940524" lon="-87.710219">
      </trkpt>
      <trkpt lat="41.933659" lon="-87.698173">
      </trkpt>
      <trkpt lat="41.919706" lon="-87.673831">
      </trkpt>
      <trkpt lat="41.918264" lon="-87.671882">
      </trkpt>
      <trkpt lat="41.918151" lon="-87.671723">
      </trkpt>
      <trkpt lat="41.91793" lon="-87.667505">
      </trkpt>
      <trkpt lat="41.916455" lon="-87.666413">
      </trkpt>
      <trkpt lat="41.917067" lon="-87.663815">
      </trkpt>
      <trkpt lat="41.917139" lon="-87.658378">
      </trkpt>
      <trkpt lat="41.918041" lon="-87.658214">
      </trkpt>
      <trkpt lat="41.918178" lon="-87.648523">
      </trkpt>
      <trkpt lat="41.91731" lon="-87.648495">
      </trkpt>
      <trkpt lat="41.91731" lon="-87.648495">
      </trkpt>
      <trkpt lat="41.91731" lon="-87.648495">
      </trkpt>
      <trkpt lat="41.91731" lon="-87.648495">
      </trkpt>
      <trkpt lat="41.910013" lon="-87.648257">
      </trkpt>
      <trkpt lat="41.903768" lon="-87.639563">
      </trkpt>
      <trkpt lat="41.903857" lon="-87.634474">
      </trkpt>
      <trkpt lat="41.898867" lon="-87.634293">
      </trkpt>
      <trkpt lat="41.898867" lon="-87.634293">
      </trkpt>
      <trkpt lat="41.905735" lon="-87.634531">
      </trkpt>
      <trkpt lat="41.90578" lon="-87.6315">
      </trkpt>
      <trkpt lat="41.910389" lon="-87.631638">
      </trkpt>
      <trkpt lat="41.910376" lon="-87.632468">
      </trkpt>
      <trkpt lat="41.910376" lon="-87.632468">
      </trkpt>
      <trkpt lat="41.911176" lon="-87.632527">
      </trkpt>
      <trkpt lat="41.910672" lon="-87.665662">
      </trkpt>
      <trkpt lat="41.910236" lon="-87.665325">
      </trkpt>
      <trkpt lat="41.90885" lon="-87.665207">
      </trkpt>
      <trkpt lat="41.908834" lon="-87.666429">
      </trkpt>
      <trkpt lat="41.909028" lon="-87.666435">
      </trkpt>
      <trkpt lat="41.909028" lon="-87.666435">
      </trkpt>
      <trkpt lat="41.910658" lon="-87.666509">
      </trkpt>
      <trkpt lat="41.910165" lon="-87.701875">
      </trkpt>
      <trkpt lat="41.907241" lon="-87.70125">
      </trkpt>
      <trkpt lat="41.904322" lon="-87.70207">
      </trkpt>
      <trkpt lat="41.902886" lon="-87.702278">
      </trkpt>
      <trkpt lat="41.902888" lon="-87.701605">
      </trkpt>
      <trkpt lat="41.902888" lon="-87.701605">
      </trkpt>
      <trkpt lat="41.902886" lon="-87.702278">
      </trkpt>
      <trkpt lat="41.907558" lon="-87.701241">
      </trkpt>
      <trkpt lat="41.909737" lon="-87.701859">
      </trkpt>
      <trkpt lat="41.91745" lon="-87.702101">
      </trkpt>
      <trkpt lat="41.91763" lon="-87.684968">
      </trkpt>
      <trkpt lat="41.918313" lon="-87.684989">
      </trkpt>
      <trkpt lat="41.918313" lon="-87.684989">
      </trkpt>
      <trkpt lat="41.91763" lon="-87.684968">
      </trkpt>
      <trkpt lat="41.91745" lon="-87.702101">
      </trkpt>
      <trkpt lat="41.915629" lon="-87.702035">
      </trkpt>
      <trkpt lat="41.915612" lon="-87.703717">
      </trkpt>
      <trkpt lat="41.915612" lon="-87.703717">
      </trkpt>
      <trkpt lat="41.915629" lon="-87.702035">
      </trkpt>
      <trkpt lat="41.91745" lon="-87.702101">
      </trkpt>
      <trkpt lat="41.917871" lon="-87.671089">
      </trkpt>
      <trkpt lat="41.917216" lon="-87.670404">
      </trkpt>
      <trkpt lat="41.915355" lon="-87.66811">
      </trkpt>
      <trkpt lat="41.909975" lon="-87.664752">
      </trkpt>
      <trkpt lat="41.90696" lon="-87.661748">
      </trkpt>
      <trkpt lat="41.905495" lon="-87.661171">
      </trkpt>
      <trkpt lat="41.902553" lon="-87.661288">
      </trkpt>
      <trkpt lat="41.900902" lon="-87.660921">
      </trkpt>
      <trkpt lat="41.896968" lon="-87.659049">
      </trkpt>
      <trkpt lat="41.895018" lon="-87.657114">
      </trkpt>
      <trkpt lat="41.89377" lon="-87.655657">
      </trkpt>
      <trkpt lat="41.89226" lon="-87.654831">
      </trkpt>
      <trkpt lat="41.891931" lon="-87.653963">
      </trkpt>
      <trkpt lat="41.892554" lon="-87.651034">
      </trkpt>
      <trkpt lat="41.892457" lon="-87.62966">
      </trkpt>
      <trkpt lat="41.894584" lon="-87.629727">
      </trkpt>
      <trkpt lat="41.894584" lon="-87.629727">
      </trkpt>
      <trkpt lat="41.90058" lon="-87.629884">
      </trkpt>
      <trkpt lat="41.9006" lon="-87.628335">
      </trkpt>
      <trkpt lat="41.901573" lon="-87.628361">
      </trkpt>
      <trkpt lat="41.901598" lon="-87.626157">
      </trkpt>
      <trkpt lat="41.901598" lon="-87.626157">
      </trkpt>
      <trkpt lat="41.901573" lon="-87.628361">
      </trkpt>
      <trkpt lat="41.899945" lon="-87.62832">
      </trkpt>
      <trkpt lat="41.899794" lon="-87.631337">
      </trkpt>
      <trkpt lat="41.891621" lon="-87.631127">
      </trkpt>
      <trkpt lat="41.891506" lon="-87.639878">
      </trkpt>
      <trkpt lat="41.891225" lon="-87.644384">
      </trkpt>
      <trkpt lat="41.886799" lon="-87.644278">
      </trkpt>
      <trkpt lat="41.886797" lon="-87.645669">
      </trkpt>
      <trkpt lat="41.887436" lon="-87.645727">
      </trkpt>
      <trkpt lat="41.887437" lon="-87.646194">
      </trkpt>
      <trkpt lat="41.887437" lon="-87.646194">
      </trkpt>
      <trkpt lat="41.887436" lon="-87.645727">
      </trkpt>
      <trkpt lat="41.886797" lon="-87.645669">
      </trkpt>
      <trkpt lat="41.886776" lon="-87.649954">
      </trkpt>
      <trkpt lat="41.886776" lon="-87.649954">
      </trkpt>
      <trkpt lat="41.886743" lon="-87.652176">
      </trkpt>
      <trkpt lat="41.891135" lon="-87.652288">
      </trkpt>
      <trkpt lat="41.891092" lon="-87.655792">
      </trkpt>
      <trkpt lat="41.893906" lon="-87.656525">
      </trkpt>
      <trkpt lat="41.894874" lon="-87.655717">
      </trkpt>
      <trkpt lat="41.897622" lon="-87.659011">
      </trkpt>
      <trkpt lat="41.901753" lon="-87.660805">
      </trkpt>
      <trkpt lat="41.906443" lon="-87.661061">
      </trkpt>
      <trkpt lat="41.910145" lon="-87.664439">
      </trkpt>
      <trkpt lat="41.915739" lon="-87.667973">
      </trkpt>
      <trkpt lat="41.917898" lon="-87.66968">
      </trkpt>
      <trkpt lat="41.917936" lon="-87.667964">
      </trkpt>
      <trkpt lat="41.92163" lon="-87.66862">
      </trkpt>
      <trkpt lat="41.937882" lon="-87.668531">
      </trkpt>
      <trkpt lat="41.937875" lon="-87.669017">
      </trkpt>
      <trkpt lat="41.937875" lon="-87.669017">
      </trkpt>
      <trkpt lat="41.937845" lon="-87.671019">
      </trkpt>
      <trkpt lat="41.941487" lon="-87.671146">
      </trkpt>
      <trkpt lat="41.941519" lon="-87.668652">
      </trkpt>
      <trkpt lat="41.961593" lon="-87.669185">
      </trkpt>
      <trkpt lat="41.961772" lon="-87.655148">
      </trkpt>
      <trkpt lat="41.964503" lon="-87.656894">
      </trkpt>
      <trkpt lat="41.964503" lon="-87.656894">
      </trkpt>
      <trkpt lat="41.961772" lon="-87.655148">
      </trkpt>
      <trkpt lat="41.961908" lon="-87.646878">
      </trkpt>
      <trkpt lat="41.955203" lon="-87.644905">
      </trkpt>
      <trkpt lat="41.950757" lon="-87.644507">
      </trkpt>
      <trkpt lat="41.941067" lon="-87.638957">
      </trkpt>
      <trkpt lat="41.93482" lon="-87.632527">
      </trkpt>
      <trkpt lat="41.928427" lon="-87.632048">
      </trkpt>
      <trkpt lat="41.915117" lon="-87.627538">
      </trkpt>
      <trkpt lat="41.913042" lon="-87.627206">
      </trkpt>
      <trkpt lat="41.912346" lon="-87.628067">
      </trkpt>
      <trkpt lat="41.913459" lon="-87.631428">
      </trkpt>
      <trkpt lat="41.912907" lon="-87.633196">
      </trkpt>
      <trkpt lat="41.89661" lon="-87.632793">
      </trkpt>
      <trkpt lat="41.895912" lon="-87.677057">
      </trkpt>
      <trkpt lat="41.894261" lon="-87.677009">
      </trkpt>
      <trkpt lat="41.894261" lon="-87.677009">
      </trkpt>
      <trkpt lat="41.895912" lon="-87.677057">
      </trkpt>
      <trkpt lat="41.896613" lon="-87.632635">
      </trkpt>
      <trkpt lat="41.900548" lon="-87.632751">
      </trkpt>
      <trkpt lat="41.9006" lon="-87.628335">
      </trkpt>
      <trkpt lat="41.900747" lon="-87.62834">
      </trkpt>
      <trkpt lat="41.900824" lon="-87.624042">
      </trkpt>
      <trkpt lat="41.912141" lon="-87.62589">
      </trkpt>
      <trkpt lat="41.928415" lon="-87.631851">
      </trkpt>
      <trkpt lat="41.934381" lon="-87.632152">
      </trkpt>
      <trkpt lat="41.941219" lon="-87.638833">
      </trkpt>
      <trkpt lat="41.950931" lon="-87.644376">
      </trkpt>
      <trkpt lat="41.973046" lon="-87.648738">
      </trkpt>
      <trkpt lat="41.984951" lon="-87.652803">
      </trkpt>
      <trkpt lat="41.985105" lon="-87.662456">
      </trkpt>
      <trkpt lat="41.987189" lon="-87.665884">
      </trkpt>
      <trkpt lat="41.987146" lon="-87.669585">
      </trkpt>
      <trkpt lat="41.988054" lon="-87.669707">
      </trkpt>
      <trkpt lat="41.987608" lon="-87.669796">
      </trkpt>
      <trkpt lat="41.987519" lon="-87.669769">
      </trkpt>
    </trkseg>
  </trk>
</gpx>