<?xml version="1.0" encoding="UTF-8"?>
<gpx xmlns="http://www.topografix.com/GPX/1/1" xmlns:xsi="http://www.w3.org/2001/XMLSchema-instance" xsi:schemaLocation="http://www.topografix.com/GPX/1/1 http://www.topografix.com/GPX/1/1/gpx.xsd" version="1.1" creator="gpx.py -- https://github.com/tkrajina/gpxpy">
  <trk>
    <trkseg>
      <trkpt lat="41.964503" lon="-87.656894">
      </trkpt>
      <trkpt lat="41.961156" lon="-87.654742">
      </trkpt>
      <trkpt lat="41.954492" lon="-87.654549">
      </trkpt>
      <trkpt lat="41.954302" lon="-87.66911">
      </trkpt>
      <trkpt lat="41.932963" lon="-87.668473">
      </trkpt>
      <trkpt lat="41.932963" lon="-87.668473">
      </trkpt>
      <trkpt lat="41.9324" lon="-87.668452">
      </trkpt>
      <trkpt lat="41.932479" lon="-87.66355">
      </trkpt>
      <trkpt lat="41.934302" lon="-87.663616">
      </trkpt>
      <trkpt lat="41.934287" lon="-87.664529">
      </trkpt>
      <trkpt lat="41.934287" lon="-87.664529">
      </trkpt>
      <trkpt lat="41.934262" lon="-87.666043">
      </trkpt>
      <trkpt lat="41.93244" lon="-87.665979">
      </trkpt>
      <trkpt lat="41.932914" lon="-87.63931">
      </trkpt>
      <trkpt lat="41.930951" lon="-87.636987">
      </trkpt>
      <trkpt lat="41.925745" lon="-87.633621">
      </trkpt>
      <trkpt lat="41.926001" lon="-87.631853">
      </trkpt>
      <trkpt lat="41.912297" lon="-87.626142">
      </trkpt>
      <trkpt lat="41.902733" lon="-87.62421">
      </trkpt>
      <trkpt lat="41.901491" lon="-87.62264">
      </trkpt>
      <trkpt lat="41.900898" lon="-87.619617">
      </trkpt>
      <trkpt lat="41.893955" lon="-87.614907">
      </trkpt>
      <trkpt lat="41.8919" lon="-87.614335">
      </trkpt>
      <trkpt lat="41.891128" lon="-87.614196">
      </trkpt>
      <trkpt lat="41.891141" lon="-87.61158">
      </trkpt>
      <trkpt lat="41.891968" lon="-87.611597">
      </trkpt>
      <trkpt lat="41.891945" lon="-87.612627">
      </trkpt>
      <trkpt lat="41.891945" lon="-87.612627">
      </trkpt>
      <trkpt lat="41.891803" lon="-87.620235">
      </trkpt>
      <trkpt lat="41.893412" lon="-87.620283">
      </trkpt>
      <trkpt lat="41.893376" lon="-87.621935">
      </trkpt>
      <trkpt lat="41.893376" lon="-87.621935">
      </trkpt>
      <trkpt lat="41.893212" lon="-87.632534">
      </trkpt>
      <trkpt lat="41.90389" lon="-87.632844">
      </trkpt>
      <trkpt lat="41.903768" lon="-87.639563">
      </trkpt>
      <trkpt lat="41.906457" lon="-87.643295">
      </trkpt>
      <trkpt lat="41.909507" lon="-87.643385">
      </trkpt>
      <trkpt lat="41.909507" lon="-87.643385">
      </trkpt>
      <trkpt lat="41.911054" lon="-87.643446">
      </trkpt>
      <trkpt lat="41.910674" lon="-87.664445">
      </trkpt>
      <trkpt lat="41.915886" lon="-87.668091">
      </trkpt>
      <trkpt lat="41.91815" lon="-87.670574">
      </trkpt>
      <trkpt lat="41.929581" lon="-87.690595">
      </trkpt>
      <trkpt lat="41.932133" lon="-87.694122">
      </trkpt>
      <trkpt lat="41.932179" lon="-87.687832">
      </trkpt>
      <trkpt lat="41.949742" lon="-87.688345">
      </trkpt>
      <trkpt lat="41.949742" lon="-87.688345">
      </trkpt>
      <trkpt lat="41.939587" lon="-87.688146">
      </trkpt>
      <trkpt lat="41.932278" lon="-87.678134">
      </trkpt>
      <trkpt lat="41.92139" lon="-87.677765">
      </trkpt>
      <trkpt lat="41.921395" lon="-87.677255">
      </trkpt>
      <trkpt lat="41.916326" lon="-87.668918">
      </trkpt>
      <trkpt lat="41.906635" lon="-87.661559">
      </trkpt>
      <trkpt lat="41.896667" lon="-87.658834">
      </trkpt>
      <trkpt lat="41.886973" lon="-87.646614">
      </trkpt>
      <trkpt lat="41.851247" lon="-87.645245">
      </trkpt>
      <trkpt lat="41.847384" lon="-87.642429">
      </trkpt>
      <trkpt lat="41.845323" lon="-87.634652">
      </trkpt>
      <trkpt lat="41.84209" lon="-87.63091">
      </trkpt>
      <trkpt lat="41.79178" lon="-87.631289">
      </trkpt>
      <trkpt lat="41.783322" lon="-87.631532">
      </trkpt>
      <trkpt lat="41.7799" lon="-87.631838">
      </trkpt>
      <trkpt lat="41.780425" lon="-87.604644">
      </trkpt>
      <trkpt lat="41.776542" lon="-87.604614">
      </trkpt>
      <trkpt lat="41.776542" lon="-87.604614">
      </trkpt>
      <trkpt lat="41.776542" lon="-87.604614">
      </trkpt>
      <trkpt lat="41.776542" lon="-87.604614">
      </trkpt>
      <trkpt lat="41.774977" lon="-87.604581">
      </trkpt>
      <trkpt lat="41.774792" lon="-87.615497">
      </trkpt>
      <trkpt lat="41.772974" lon="-87.615455">
      </trkpt>
      <trkpt lat="41.772796" lon="-87.626772">
      </trkpt>
      <trkpt lat="41.772361" lon="-87.626748">
      </trkpt>
      <trkpt lat="41.768925" lon="-87.626239">
      </trkpt>
      <trkpt lat="41.727257" lon="-87.624773">
      </trkpt>
      <trkpt lat="41.721768" lon="-87.625044">
      </trkpt>
      <trkpt lat="41.720728" lon="-87.706715">
      </trkpt>
      <trkpt lat="41.720631" lon="-87.70467">
      </trkpt>
      <trkpt lat="41.720631" lon="-87.70467">
      </trkpt>
      <trkpt lat="41.720668" lon="-87.701844">
      </trkpt>
      <trkpt lat="41.734809" lon="-87.702205">
      </trkpt>
      <trkpt lat="41.735136" lon="-87.701759">
      </trkpt>
      <trkpt lat="41.735465" lon="-87.682526">
      </trkpt>
      <trkpt lat="41.751616" lon="-87.682885">
      </trkpt>
      <trkpt lat="41.751616" lon="-87.682885">
      </trkpt>
      <trkpt lat="41.750108" lon="-87.682848">
      </trkpt>
      <trkpt lat="41.750945" lon="-87.624557">
      </trkpt>
      <trkpt lat="41.751463" lon="-87.624584">
      </trkpt>
      <trkpt lat="41.754305" lon="-87.624864">
      </trkpt>
      <trkpt lat="41.769497" lon="-87.625651">
      </trkpt>
      <trkpt lat="41.77398" lon="-87.626234">
      </trkpt>
      <trkpt lat="41.779495" lon="-87.630747">
      </trkpt>
      <trkpt lat="41.838631" lon="-87.630667">
      </trkpt>
      <trkpt lat="41.844069" lon="-87.631001">
      </trkpt>
      <trkpt lat="41.846653" lon="-87.630081">
      </trkpt>
      <trkpt lat="41.847976" lon="-87.616851">
      </trkpt>
      <trkpt lat="41.847086" lon="-87.612314">
      </trkpt>
      <trkpt lat="41.832576" lon="-87.607188">
      </trkpt>
      <trkpt lat="41.813342" lon="-87.591653">
      </trkpt>
      <trkpt lat="41.810561" lon="-87.58976">
      </trkpt>
      <trkpt lat="41.809686" lon="-87.592448">
      </trkpt>
      <trkpt lat="41.812777" lon="-87.595833">
      </trkpt>
      <trkpt lat="41.812777" lon="-87.595833">
      </trkpt>
      <trkpt lat="41.816913" lon="-87.598884">
      </trkpt>
      <trkpt lat="41.816227" lon="-87.643297">
      </trkpt>
      <trkpt lat="41.816675" lon="-87.643312">
      </trkpt>
      <trkpt lat="41.816684" lon="-87.642841">
      </trkpt>
      <trkpt lat="41.816684" lon="-87.642841">
      </trkpt>
      <trkpt lat="41.816698" lon="-87.642091">
      </trkpt>
      <trkpt lat="41.816246" lon="-87.64208">
      </trkpt>
      <trkpt lat="41.816448" lon="-87.629441">
      </trkpt>
      <trkpt lat="41.816639" lon="-87.629444">
      </trkpt>
      <trkpt lat="41.837743" lon="-87.630393">
      </trkpt>
      <trkpt lat="41.842376" lon="-87.630317">
      </trkpt>
      <trkpt lat="41.844144" lon="-87.631347">
      </trkpt>
      <trkpt lat="41.84523" lon="-87.633465">
      </trkpt>
      <trkpt lat="41.847354" lon="-87.642036">
      </trkpt>
      <trkpt lat="41.850908" lon="-87.644903">
      </trkpt>
      <trkpt lat="41.857362" lon="-87.644156">
      </trkpt>
      <trkpt lat="41.873493" lon="-87.644854">
      </trkpt>
      <trkpt lat="41.87559" lon="-87.644167">
      </trkpt>
      <trkpt lat="41.877863" lon="-87.645364">
      </trkpt>
      <trkpt lat="41.880374" lon="-87.645275">
      </trkpt>
      <trkpt lat="41.881847" lon="-87.645355">
      </trkpt>
      <trkpt lat="41.883151" lon="-87.645213">
      </trkpt>
      <trkpt lat="41.883178" lon="-87.641266">
      </trkpt>
      <trkpt lat="41.883185" lon="-87.639745">
      </trkpt>
      <trkpt lat="41.883239" lon="-87.635376">
      </trkpt>
      <trkpt lat="41.886906" lon="-87.63544">
      </trkpt>
      <trkpt lat="41.887983" lon="-87.63637">
      </trkpt>
      <trkpt lat="41.888" lon="-87.63527">
      </trkpt>
      <trkpt lat="41.888" lon="-87.63527">
      </trkpt>
      <trkpt lat="41.887983" lon="-87.63637">
      </trkpt>
      <trkpt lat="41.888771" lon="-87.636943">
      </trkpt>
      <trkpt lat="41.891543" lon="-87.637019">
      </trkpt>
      <trkpt lat="41.891059" lon="-87.659133">
      </trkpt>
      <trkpt lat="41.885409" lon="-87.662788">
      </trkpt>
      <trkpt lat="41.884802" lon="-87.68163">
      </trkpt>
      <trkpt lat="41.883978" lon="-87.681603">
      </trkpt>
      <trkpt lat="41.88397" lon="-87.682085">
      </trkpt>
    </trkseg>
  </trk>
</gpx>