<?xml version="1.0" encoding="UTF-8"?>
<gpx xmlns="http://www.topografix.com/GPX/1/1" xmlns:xsi="http://www.w3.org/2001/XMLSchema-instance" xsi:schemaLocation="http://www.topografix.com/GPX/1/1 http://www.topografix.com/GPX/1/1/gpx.xsd" version="1.1" creator="gpx.py -- https://github.com/tkrajina/gpxpy">
  <trk>
    <trkseg>
      <trkpt lat="42.020625" lon="-87.664971">
      </trkpt>
      <trkpt lat="42.019271" lon="-87.664576">
      </trkpt>
      <trkpt lat="42.019289" lon="-87.668397">
      </trkpt>
      <trkpt lat="42.012227" lon="-87.683329">
      </trkpt>
      <trkpt lat="42.012287" lon="-87.69024">
      </trkpt>
      <trkpt lat="41.990567" lon="-87.689674">
      </trkpt>
      <trkpt lat="41.990388" lon="-87.70943">
      </trkpt>
      <trkpt lat="41.990388" lon="-87.70943">
      </trkpt>
      <trkpt lat="41.99039" lon="-87.707391">
      </trkpt>
      <trkpt lat="41.983137" lon="-87.695129">
      </trkpt>
      <trkpt lat="41.983166" lon="-87.689415">
      </trkpt>
      <trkpt lat="41.97886" lon="-87.689265">
      </trkpt>
      <trkpt lat="41.978881" lon="-87.688009">
      </trkpt>
      <trkpt lat="41.97923" lon="-87.688015">
      </trkpt>
      <trkpt lat="41.979267" lon="-87.686941">
      </trkpt>
      <trkpt lat="41.979722" lon="-87.685725">
      </trkpt>
      <trkpt lat="41.980287" lon="-87.68536">
      </trkpt>
      <trkpt lat="41.981238" lon="-87.685301">
      </trkpt>
      <trkpt lat="41.982307" lon="-87.685604">
      </trkpt>
      <trkpt lat="41.982385" lon="-87.68541">
      </trkpt>
      <trkpt lat="41.982725" lon="-87.685624">
      </trkpt>
      <trkpt lat="41.986037" lon="-87.685638">
      </trkpt>
      <trkpt lat="41.986051" lon="-87.682929">
      </trkpt>
      <trkpt lat="41.986635" lon="-87.682777">
      </trkpt>
      <trkpt lat="41.986935" lon="-87.682197">
      </trkpt>
      <trkpt lat="41.987045" lon="-87.681454">
      </trkpt>
      <trkpt lat="41.987045" lon="-87.681454">
      </trkpt>
      <trkpt lat="41.986935" lon="-87.682197">
      </trkpt>
      <trkpt lat="41.987493" lon="-87.682845">
      </trkpt>
      <trkpt lat="41.990554" lon="-87.684797">
      </trkpt>
      <trkpt lat="41.990752" lon="-87.67223">
      </trkpt>
      <trkpt lat="41.985105" lon="-87.662456">
      </trkpt>
      <trkpt lat="41.984999" lon="-87.653157">
      </trkpt>
      <trkpt lat="41.972134" lon="-87.648822">
      </trkpt>
      <trkpt lat="41.951193" lon="-87.64469">
      </trkpt>
      <trkpt lat="41.941067" lon="-87.638957">
      </trkpt>
      <trkpt lat="41.93482" lon="-87.632527">
      </trkpt>
      <trkpt lat="41.928427" lon="-87.632048">
      </trkpt>
      <trkpt lat="41.904908" lon="-87.624861">
      </trkpt>
      <trkpt lat="41.901978" lon="-87.624179">
      </trkpt>
      <trkpt lat="41.892538" lon="-87.624293">
      </trkpt>
      <trkpt lat="41.892574" lon="-87.621881">
      </trkpt>
      <trkpt lat="41.892574" lon="-87.621881">
      </trkpt>
      <trkpt lat="41.892685" lon="-87.614597">
      </trkpt>
      <trkpt lat="41.893135" lon="-87.61463">
      </trkpt>
      <trkpt lat="41.89823" lon="-87.618028">
      </trkpt>
      <trkpt lat="41.89823" lon="-87.618028">
      </trkpt>
      <trkpt lat="41.89684" lon="-87.617065">
      </trkpt>
      <trkpt lat="41.896737" lon="-87.624345">
      </trkpt>
      <trkpt lat="41.889927" lon="-87.624211">
      </trkpt>
      <trkpt lat="41.88832" lon="-87.624581">
      </trkpt>
      <trkpt lat="41.888194" lon="-87.625569">
      </trkpt>
      <trkpt lat="41.887064" lon="-87.626741">
      </trkpt>
      <trkpt lat="41.886947" lon="-87.628079">
      </trkpt>
      <trkpt lat="41.883248" lon="-87.627866">
      </trkpt>
      <trkpt lat="41.883251" lon="-87.627421">
      </trkpt>
      <trkpt lat="41.883251" lon="-87.627421">
      </trkpt>
      <trkpt lat="41.883256" lon="-87.624532">
      </trkpt>
      <trkpt lat="41.882115" lon="-87.624508">
      </trkpt>
      <trkpt lat="41.882108" lon="-87.624759">
      </trkpt>
      <trkpt lat="41.882108" lon="-87.624759">
      </trkpt>
      <trkpt lat="41.881984" lon="-87.630875">
      </trkpt>
      <trkpt lat="41.875701" lon="-87.630715">
      </trkpt>
      <trkpt lat="41.875615" lon="-87.643841">
      </trkpt>
      <trkpt lat="41.875736" lon="-87.651991">
      </trkpt>
      <trkpt lat="41.876192" lon="-87.657268">
      </trkpt>
      <trkpt lat="41.876121" lon="-87.662425">
      </trkpt>
      <trkpt lat="41.876354" lon="-87.666742">
      </trkpt>
      <trkpt lat="41.869262" lon="-87.666531">
      </trkpt>
      <trkpt lat="41.8692" lon="-87.670488">
      </trkpt>
      <trkpt lat="41.8692" lon="-87.670488">
      </trkpt>
      <trkpt lat="41.869001" lon="-87.68604">
      </trkpt>
      <trkpt lat="41.890646" lon="-87.686683">
      </trkpt>
      <trkpt lat="41.890711" lon="-87.687618">
      </trkpt>
      <trkpt lat="41.896575" lon="-87.702222">
      </trkpt>
      <trkpt lat="41.902886" lon="-87.702278">
      </trkpt>
      <trkpt lat="41.902888" lon="-87.701605">
      </trkpt>
      <trkpt lat="41.902888" lon="-87.701605">
      </trkpt>
      <trkpt lat="41.902886" lon="-87.702278">
      </trkpt>
      <trkpt lat="41.874345" lon="-87.701026">
      </trkpt>
      <trkpt lat="41.874908" lon="-87.695509">
      </trkpt>
      <trkpt lat="41.875125" lon="-87.690201">
      </trkpt>
      <trkpt lat="41.875329" lon="-87.650308">
      </trkpt>
      <trkpt lat="41.875215" lon="-87.648052">
      </trkpt>
      <trkpt lat="41.869485" lon="-87.644983">
      </trkpt>
      <trkpt lat="41.850609" lon="-87.644998">
      </trkpt>
      <trkpt lat="41.847255" lon="-87.642186">
      </trkpt>
      <trkpt lat="41.845323" lon="-87.634652">
      </trkpt>
      <trkpt lat="41.84209" lon="-87.63091">
      </trkpt>
      <trkpt lat="41.779686" lon="-87.631207">
      </trkpt>
      <trkpt lat="41.772231" lon="-87.626113">
      </trkpt>
      <trkpt lat="41.72052" lon="-87.624621">
      </trkpt>
      <trkpt lat="41.713653" lon="-87.621065">
      </trkpt>
      <trkpt lat="41.713191" lon="-87.600337">
      </trkpt>
      <trkpt lat="41.708673" lon="-87.592948">
      </trkpt>
      <trkpt lat="41.703483" lon="-87.592406">
      </trkpt>
      <trkpt lat="41.685512" lon="-87.601798">
      </trkpt>
      <trkpt lat="41.676933" lon="-87.601728">
      </trkpt>
      <trkpt lat="41.660202" lon="-87.589096">
      </trkpt>
      <trkpt lat="41.659512" lon="-87.59119">
      </trkpt>
      <trkpt lat="41.658851" lon="-87.560717">
      </trkpt>
      <trkpt lat="41.656176" lon="-87.555878">
      </trkpt>
      <trkpt lat="41.65737" lon="-87.555649">
      </trkpt>
      <trkpt lat="41.65736" lon="-87.553811">
      </trkpt>
      <trkpt lat="41.656889" lon="-87.553812">
      </trkpt>
      <trkpt lat="41.656889" lon="-87.553812">
      </trkpt>
      <trkpt lat="41.65736" lon="-87.553811">
      </trkpt>
      <trkpt lat="41.657281" lon="-87.557102">
      </trkpt>
      <trkpt lat="41.660149" lon="-87.585314">
      </trkpt>
      <trkpt lat="41.662478" lon="-87.590822">
      </trkpt>
      <trkpt lat="41.675885" lon="-87.601403">
      </trkpt>
      <trkpt lat="41.685726" lon="-87.601563">
      </trkpt>
      <trkpt lat="41.69908" lon="-87.594329">
      </trkpt>
      <trkpt lat="41.705863" lon="-87.591535">
      </trkpt>
      <trkpt lat="41.711823" lon="-87.595707">
      </trkpt>
      <trkpt lat="41.713575" lon="-87.618809">
      </trkpt>
      <trkpt lat="41.717096" lon="-87.62372">
      </trkpt>
      <trkpt lat="41.769497" lon="-87.625651">
      </trkpt>
      <trkpt lat="41.779578" lon="-87.630526">
      </trkpt>
      <trkpt lat="41.823852" lon="-87.630064">
      </trkpt>
      <trkpt lat="41.830961" lon="-87.629817">
      </trkpt>
      <trkpt lat="41.831008" lon="-87.626457">
      </trkpt>
      <trkpt lat="41.83283" lon="-87.626475">
      </trkpt>
      <trkpt lat="41.832863" lon="-87.625023">
      </trkpt>
      <trkpt lat="41.832863" lon="-87.625023">
      </trkpt>
      <trkpt lat="41.83469" lon="-87.625058">
      </trkpt>
      <trkpt lat="41.834721" lon="-87.621834">
      </trkpt>
      <trkpt lat="41.838364" lon="-87.621916">
      </trkpt>
      <trkpt lat="41.838567" lon="-87.609219">
      </trkpt>
      <trkpt lat="41.832576" lon="-87.607188">
      </trkpt>
      <trkpt lat="41.825932" lon="-87.600839">
      </trkpt>
      <trkpt lat="41.821499" lon="-87.598683">
      </trkpt>
      <trkpt lat="41.815931" lon="-87.594475">
      </trkpt>
      <trkpt lat="41.806989" lon="-87.585968">
      </trkpt>
      <trkpt lat="41.803885" lon="-87.58209">
      </trkpt>
      <trkpt lat="41.799068" lon="-87.581347">
      </trkpt>
      <trkpt lat="41.796009" lon="-87.57922">
      </trkpt>
      <trkpt lat="41.794428" lon="-87.579597">
      </trkpt>
      <trkpt lat="41.792571" lon="-87.580573">
      </trkpt>
      <trkpt lat="41.792193" lon="-87.585251">
      </trkpt>
      <trkpt lat="41.788615" lon="-87.584985">
      </trkpt>
      <trkpt lat="41.787765" lon="-87.58578">
      </trkpt>
      <trkpt lat="41.787226" lon="-87.596362">
      </trkpt>
      <trkpt lat="41.787801" lon="-87.596376">
      </trkpt>
      <trkpt lat="41.78778" lon="-87.597993">
      </trkpt>
      <trkpt lat="41.788071" lon="-87.597999">
      </trkpt>
      <trkpt lat="41.788071" lon="-87.597999">
      </trkpt>
      <trkpt lat="41.788071" lon="-87.597999">
      </trkpt>
      <trkpt lat="41.788071" lon="-87.597999">
      </trkpt>
      <trkpt lat="41.788071" lon="-87.597999">
      </trkpt>
      <trkpt lat="41.788071" lon="-87.597999">
      </trkpt>
      <trkpt lat="41.791414" lon="-87.598076">
      </trkpt>
      <trkpt lat="41.791377" lon="-87.601307">
      </trkpt>
      <trkpt lat="41.787173" lon="-87.601215">
      </trkpt>
      <trkpt lat="41.787126" lon="-87.606064">
      </trkpt>
      <trkpt lat="41.77677" lon="-87.605849">
      </trkpt>
      <trkpt lat="41.776783" lon="-87.60462">
      </trkpt>
      <trkpt lat="41.776542" lon="-87.604614">
      </trkpt>
      <trkpt lat="41.776542" lon="-87.604614">
      </trkpt>
      <trkpt lat="41.774977" lon="-87.604581">
      </trkpt>
      <trkpt lat="41.77523" lon="-87.584893">
      </trkpt>
      <trkpt lat="41.780203" lon="-87.584175">
      </trkpt>
      <trkpt lat="41.780713" lon="-87.574628">
      </trkpt>
      <trkpt lat="41.791827" lon="-87.580105">
      </trkpt>
      <trkpt lat="41.795899" lon="-87.579065">
      </trkpt>
      <trkpt lat="41.80353" lon="-87.581733">
      </trkpt>
      <trkpt lat="41.815381" lon="-87.593676">
      </trkpt>
      <trkpt lat="41.826403" lon="-87.600955">
      </trkpt>
      <trkpt lat="41.832668" lon="-87.606909">
      </trkpt>
      <trkpt lat="41.852437" lon="-87.613467">
      </trkpt>
      <trkpt lat="41.861647" lon="-87.618159">
      </trkpt>
      <trkpt lat="41.866344" lon="-87.619249">
      </trkpt>
      <trkpt lat="41.869799" lon="-87.617003">
      </trkpt>
      <trkpt lat="41.881566" lon="-87.617218">
      </trkpt>
      <trkpt lat="41.884512" lon="-87.613723">
      </trkpt>
      <trkpt lat="41.889097" lon="-87.614006">
      </trkpt>
      <trkpt lat="41.891968" lon="-87.611597">
      </trkpt>
      <trkpt lat="41.891833" lon="-87.617687">
      </trkpt>
      <trkpt lat="41.891456" lon="-87.617676">
      </trkpt>
      <trkpt lat="41.891456" lon="-87.617676">
      </trkpt>
      <trkpt lat="41.891833" lon="-87.617687">
      </trkpt>
      <trkpt lat="41.891543" lon="-87.637019">
      </trkpt>
      <trkpt lat="41.892795" lon="-87.637056">
      </trkpt>
      <trkpt lat="41.892522" lon="-87.64596">
      </trkpt>
      <trkpt lat="41.892674" lon="-87.65028">
      </trkpt>
      <trkpt lat="41.892622" lon="-87.653268">
      </trkpt>
      <trkpt lat="41.896481" lon="-87.658404">
      </trkpt>
      <trkpt lat="41.901399" lon="-87.660896">
      </trkpt>
      <trkpt lat="41.906646" lon="-87.66137">
      </trkpt>
      <trkpt lat="41.917654" lon="-87.670146">
      </trkpt>
      <trkpt lat="41.940372" lon="-87.709927">
      </trkpt>
      <trkpt lat="41.94215" lon="-87.715306">
      </trkpt>
      <trkpt lat="41.947613" lon="-87.719592">
      </trkpt>
      <trkpt lat="41.95982" lon="-87.741635">
      </trkpt>
      <trkpt lat="41.963594" lon="-87.746287">
      </trkpt>
      <trkpt lat="41.975724" lon="-87.747426">
      </trkpt>
      <trkpt lat="41.976396" lon="-87.74607">
      </trkpt>
      <trkpt lat="41.975364" lon="-87.745776">
      </trkpt>
      <trkpt lat="41.975339" lon="-87.747984">
      </trkpt>
      <trkpt lat="41.968033" lon="-87.747723">
      </trkpt>
      <trkpt lat="41.967938" lon="-87.757623">
      </trkpt>
      <trkpt lat="41.968431" lon="-87.758399">
      </trkpt>
      <trkpt lat="41.968431" lon="-87.758399">
      </trkpt>
      <trkpt lat="41.967875" lon="-87.757622">
      </trkpt>
      <trkpt lat="41.968033" lon="-87.747723">
      </trkpt>
      <trkpt lat="41.972896" lon="-87.747918">
      </trkpt>
      <trkpt lat="41.972794" lon="-87.747761">
      </trkpt>
      <trkpt lat="41.966563" lon="-87.747223">
      </trkpt>
      <trkpt lat="41.963113" lon="-87.745961">
      </trkpt>
      <trkpt lat="41.960129" lon="-87.742125">
      </trkpt>
      <trkpt lat="41.947613" lon="-87.719592">
      </trkpt>
      <trkpt lat="41.94215" lon="-87.715306">
      </trkpt>
      <trkpt lat="41.940524" lon="-87.710219">
      </trkpt>
      <trkpt lat="41.933659" lon="-87.698173">
      </trkpt>
      <trkpt lat="41.918139" lon="-87.671115">
      </trkpt>
      <trkpt lat="41.915851" lon="-87.668499">
      </trkpt>
      <trkpt lat="41.913088" lon="-87.666712">
      </trkpt>
      <trkpt lat="41.910672" lon="-87.665662">
      </trkpt>
      <trkpt lat="41.910826" lon="-87.654084">
      </trkpt>
      <trkpt lat="41.905133" lon="-87.649323">
      </trkpt>
      <trkpt lat="41.905133" lon="-87.649323">
      </trkpt>
      <trkpt lat="41.905042" lon="-87.649202">
      </trkpt>
      <trkpt lat="41.905038" lon="-87.648124">
      </trkpt>
      <trkpt lat="41.89225" lon="-87.647661">
      </trkpt>
      <trkpt lat="41.892277" lon="-87.644422">
      </trkpt>
      <trkpt lat="41.886799" lon="-87.644278">
      </trkpt>
      <trkpt lat="41.886819" lon="-87.639904">
      </trkpt>
      <trkpt lat="41.887293" lon="-87.639932">
      </trkpt>
      <trkpt lat="41.887293" lon="-87.639932">
      </trkpt>
      <trkpt lat="41.889064" lon="-87.64001">
      </trkpt>
      <trkpt lat="41.889054" lon="-87.644337">
      </trkpt>
      <trkpt lat="41.903364" lon="-87.666488">
      </trkpt>
      <trkpt lat="41.903184" lon="-87.677276">
      </trkpt>
      <trkpt lat="41.908257" lon="-87.677416">
      </trkpt>
      <trkpt lat="41.908243" lon="-87.678238">
      </trkpt>
      <trkpt lat="41.908243" lon="-87.678238">
      </trkpt>
      <trkpt lat="41.908215" lon="-87.679848">
      </trkpt>
      <trkpt lat="41.910446" lon="-87.679912">
      </trkpt>
      <trkpt lat="41.910903" lon="-87.649501">
      </trkpt>
      <trkpt lat="41.904375" lon="-87.6404">
      </trkpt>
      <trkpt lat="41.904515" lon="-87.64022">
      </trkpt>
      <trkpt lat="41.904149" lon="-87.639718">
      </trkpt>
      <trkpt lat="41.904149" lon="-87.639718">
      </trkpt>
      <trkpt lat="41.904515" lon="-87.64022">
      </trkpt>
      <trkpt lat="41.904375" lon="-87.6404">
      </trkpt>
      <trkpt lat="41.903768" lon="-87.639563">
      </trkpt>
      <trkpt lat="41.903716" lon="-87.643216">
      </trkpt>
      <trkpt lat="41.896481" lon="-87.642947">
      </trkpt>
      <trkpt lat="41.896492" lon="-87.641559">
      </trkpt>
      <trkpt lat="41.893453" lon="-87.641445">
      </trkpt>
      <trkpt lat="41.889918" lon="-87.638577">
      </trkpt>
      <trkpt lat="41.889119" lon="-87.638119">
      </trkpt>
      <trkpt lat="41.889102" lon="-87.641432">
      </trkpt>
      <trkpt lat="41.886808" lon="-87.641353">
      </trkpt>
      <trkpt lat="41.886819" lon="-87.639904">
      </trkpt>
      <trkpt lat="41.887994" lon="-87.639953">
      </trkpt>
      <trkpt lat="41.88801" lon="-87.640199">
      </trkpt>
      <trkpt lat="41.88801" lon="-87.640199">
      </trkpt>
      <trkpt lat="41.88801" lon="-87.640199">
      </trkpt>
      <trkpt lat="41.88801" lon="-87.640199">
      </trkpt>
      <trkpt lat="41.887994" lon="-87.639953">
      </trkpt>
      <trkpt lat="41.889064" lon="-87.64001">
      </trkpt>
      <trkpt lat="41.889242" lon="-87.629579">
      </trkpt>
      <trkpt lat="41.894584" lon="-87.629727">
      </trkpt>
      <trkpt lat="41.894584" lon="-87.629727">
      </trkpt>
      <trkpt lat="41.894584" lon="-87.629727">
      </trkpt>
      <trkpt lat="41.894584" lon="-87.629727">
      </trkpt>
      <trkpt lat="41.89485" lon="-87.629736">
      </trkpt>
      <trkpt lat="41.894831" lon="-87.631201">
      </trkpt>
      <trkpt lat="41.857771" lon="-87.630236">
      </trkpt>
      <trkpt lat="41.857766" lon="-87.631005">
      </trkpt>
      <trkpt lat="41.856397" lon="-87.631034">
      </trkpt>
      <trkpt lat="41.856397" lon="-87.631034">
      </trkpt>
      <trkpt lat="41.857766" lon="-87.631005">
      </trkpt>
      <trkpt lat="41.857771" lon="-87.630236">
      </trkpt>
      <trkpt lat="41.872252" lon="-87.63061">
      </trkpt>
      <trkpt lat="41.87229" lon="-87.629121">
      </trkpt>
      <trkpt lat="41.885752" lon="-87.629504">
      </trkpt>
      <trkpt lat="41.885755" lon="-87.627936">
      </trkpt>
      <trkpt lat="41.885755" lon="-87.627936">
      </trkpt>
      <trkpt lat="41.882046" lon="-87.627799">
      </trkpt>
      <trkpt lat="41.881984" lon="-87.630875">
      </trkpt>
      <trkpt lat="41.875701" lon="-87.630715">
      </trkpt>
      <trkpt lat="41.875644" lon="-87.641651">
      </trkpt>
      <trkpt lat="41.876207" lon="-87.646562">
      </trkpt>
      <trkpt lat="41.872433" lon="-87.645662">
      </trkpt>
      <trkpt lat="41.857367" lon="-87.644363">
      </trkpt>
      <trkpt lat="41.850828" lon="-87.645091">
      </trkpt>
      <trkpt lat="41.847292" lon="-87.642257">
      </trkpt>
      <trkpt lat="41.845323" lon="-87.634652">
      </trkpt>
      <trkpt lat="41.844131" lon="-87.632484">
      </trkpt>
      <trkpt lat="41.842516" lon="-87.631557">
      </trkpt>
      <trkpt lat="41.819121" lon="-87.630789">
      </trkpt>
      <trkpt lat="41.816682" lon="-87.631192">
      </trkpt>
      <trkpt lat="41.816426" lon="-87.631192">
      </trkpt>
      <trkpt lat="41.816544" lon="-87.623022">
      </trkpt>
      <trkpt lat="41.815421" lon="-87.623001">
      </trkpt>
      <trkpt lat="41.815421" lon="-87.623001">
      </trkpt>
      <trkpt lat="41.814738" lon="-87.622988">
      </trkpt>
      <trkpt lat="41.814689" lon="-87.626222">
      </trkpt>
      <trkpt lat="41.816493" lon="-87.626265">
      </trkpt>
      <trkpt lat="41.816448" lon="-87.629441">
      </trkpt>
      <trkpt lat="41.816639" lon="-87.629444">
      </trkpt>
      <trkpt lat="41.819675" lon="-87.629961">
      </trkpt>
      <trkpt lat="41.837743" lon="-87.630393">
      </trkpt>
      <trkpt lat="41.841726" lon="-87.630492">
      </trkpt>
      <trkpt lat="41.844069" lon="-87.631001">
      </trkpt>
      <trkpt lat="41.845776" lon="-87.63096">
      </trkpt>
      <trkpt lat="41.846653" lon="-87.630081">
      </trkpt>
      <trkpt lat="41.847737" lon="-87.624498">
      </trkpt>
      <trkpt lat="41.847894" lon="-87.622076">
      </trkpt>
      <trkpt lat="41.847688" lon="-87.619892">
      </trkpt>
      <trkpt lat="41.847696" lon="-87.618334">
      </trkpt>
      <trkpt lat="41.848104" lon="-87.618041">
      </trkpt>
      <trkpt lat="41.848483" lon="-87.618375">
      </trkpt>
      <trkpt lat="41.848387" lon="-87.622136">
      </trkpt>
      <trkpt lat="41.85248" lon="-87.622229">
      </trkpt>
      <trkpt lat="41.852475" lon="-87.622712">
      </trkpt>
      <trkpt lat="41.852475" lon="-87.622712">
      </trkpt>
      <trkpt lat="41.85248" lon="-87.622229">
      </trkpt>
      <trkpt lat="41.867418" lon="-87.622442">
      </trkpt>
      <trkpt lat="41.867447" lon="-87.62038">
      </trkpt>
      <trkpt lat="41.886864" lon="-87.620668">
      </trkpt>
      <trkpt lat="41.886864" lon="-87.620668">
      </trkpt>
      <trkpt lat="41.886919" lon="-87.620667">
      </trkpt>
      <trkpt lat="41.886902" lon="-87.622316">
      </trkpt>
      <trkpt lat="41.886841" lon="-87.622315">
      </trkpt>
      <trkpt lat="41.886861" lon="-87.620789">
      </trkpt>
      <trkpt lat="41.884318" lon="-87.620743">
      </trkpt>
      <trkpt lat="41.884426" lon="-87.617441">
      </trkpt>
      <trkpt lat="41.884538" lon="-87.617389">
      </trkpt>
      <trkpt lat="41.885524" lon="-87.617418">
      </trkpt>
      <trkpt lat="41.885534" lon="-87.616373">
      </trkpt>
      <trkpt lat="41.885561" lon="-87.616288">
      </trkpt>
      <trkpt lat="41.885628" lon="-87.616251">
      </trkpt>
      <trkpt lat="41.886523" lon="-87.616289">
      </trkpt>
      <trkpt lat="41.886547" lon="-87.616352">
      </trkpt>
      <trkpt lat="41.88653" lon="-87.618715">
      </trkpt>
      <trkpt lat="41.88653" lon="-87.618715">
      </trkpt>
      <trkpt lat="41.886506" lon="-87.619106">
      </trkpt>
      <trkpt lat="41.885527" lon="-87.6191">
      </trkpt>
      <trkpt lat="41.885524" lon="-87.617418">
      </trkpt>
      <trkpt lat="41.884538" lon="-87.617389">
      </trkpt>
      <trkpt lat="41.884448" lon="-87.639799">
      </trkpt>
      <trkpt lat="41.885734" lon="-87.639866">
      </trkpt>
      <trkpt lat="41.886808" lon="-87.641353">
      </trkpt>
      <trkpt lat="41.886776" lon="-87.649954">
      </trkpt>
      <trkpt lat="41.886776" lon="-87.649954">
      </trkpt>
      <trkpt lat="41.88676" lon="-87.651006">
      </trkpt>
      <trkpt lat="41.885607" lon="-87.650961">
      </trkpt>
      <trkpt lat="41.88533" lon="-87.66685">
      </trkpt>
      <trkpt lat="41.888851" lon="-87.667034">
      </trkpt>
      <trkpt lat="41.888879" lon="-87.664096">
      </trkpt>
      <trkpt lat="41.888879" lon="-87.664096">
      </trkpt>
      <trkpt lat="41.888866" lon="-87.66544">
      </trkpt>
      <trkpt lat="41.889913" lon="-87.665479">
      </trkpt>
      <trkpt lat="41.890082" lon="-87.64876">
      </trkpt>
      <trkpt lat="41.889017" lon="-87.648718">
      </trkpt>
      <trkpt lat="41.889054" lon="-87.641668">
      </trkpt>
      <trkpt lat="41.888757" lon="-87.641385">
      </trkpt>
      <trkpt lat="41.885723" lon="-87.641346">
      </trkpt>
      <trkpt lat="41.885733" lon="-87.63676">
      </trkpt>
      <trkpt lat="41.886123" lon="-87.63648">
      </trkpt>
      <trkpt lat="41.886768" lon="-87.635439">
      </trkpt>
      <trkpt lat="41.886821" lon="-87.634232">
      </trkpt>
      <trkpt lat="41.886821" lon="-87.634232">
      </trkpt>
      <trkpt lat="41.886819" lon="-87.632568">
      </trkpt>
      <trkpt lat="41.883305" lon="-87.632482">
      </trkpt>
      <trkpt lat="41.883246" lon="-87.631699">
      </trkpt>
      <trkpt lat="41.883184" lon="-87.630932">
      </trkpt>
      <trkpt lat="41.87816" lon="-87.63078">
      </trkpt>
      <trkpt lat="41.878331" lon="-87.620697">
      </trkpt>
      <trkpt lat="41.875872" lon="-87.62062">
      </trkpt>
      <trkpt lat="41.875872" lon="-87.62062">
      </trkpt>
      <trkpt lat="41.878331" lon="-87.620697">
      </trkpt>
      <trkpt lat="41.878364" lon="-87.617182">
      </trkpt>
      <trkpt lat="41.882205" lon="-87.616996">
      </trkpt>
      <trkpt lat="41.882876" lon="-87.616282">
      </trkpt>
      <trkpt lat="41.883727" lon="-87.614349">
      </trkpt>
      <trkpt lat="41.885068" lon="-87.613605">
      </trkpt>
      <trkpt lat="41.892878" lon="-87.614041">
      </trkpt>
      <trkpt lat="41.89691" lon="-87.616735">
      </trkpt>
      <trkpt lat="41.896633" lon="-87.631243">
      </trkpt>
      <trkpt lat="41.895637" lon="-87.631219">
      </trkpt>
      <trkpt lat="41.895653" lon="-87.630373">
      </trkpt>
      <trkpt lat="41.895653" lon="-87.630373">
      </trkpt>
      <trkpt lat="41.895665" lon="-87.629762">
      </trkpt>
      <trkpt lat="41.896655" lon="-87.62978">
      </trkpt>
      <trkpt lat="41.896633" lon="-87.631243">
      </trkpt>
      <trkpt lat="41.889473" lon="-87.631072">
      </trkpt>
      <trkpt lat="41.889473" lon="-87.631072">
      </trkpt>
      <trkpt lat="41.885747" lon="-87.630986">
      </trkpt>
      <trkpt lat="41.885769" lon="-87.624623">
      </trkpt>
      <trkpt lat="41.884489" lon="-87.624571">
      </trkpt>
      <trkpt lat="41.884366" lon="-87.624344">
      </trkpt>
      <trkpt lat="41.884372" lon="-87.623414">
      </trkpt>
      <trkpt lat="41.884293" lon="-87.622907">
      </trkpt>
      <trkpt lat="41.884406" lon="-87.617529">
      </trkpt>
      <trkpt lat="41.884538" lon="-87.617389">
      </trkpt>
      <trkpt lat="41.885524" lon="-87.617418">
      </trkpt>
      <trkpt lat="41.885561" lon="-87.616288">
      </trkpt>
      <trkpt lat="41.886523" lon="-87.616289">
      </trkpt>
      <trkpt lat="41.88653" lon="-87.618715">
      </trkpt>
      <trkpt lat="41.88653" lon="-87.618715">
      </trkpt>
      <trkpt lat="41.88653" lon="-87.618715">
      </trkpt>
      <trkpt lat="41.88653" lon="-87.618715">
      </trkpt>
      <trkpt lat="41.886506" lon="-87.619106">
      </trkpt>
      <trkpt lat="41.885527" lon="-87.6191">
      </trkpt>
      <trkpt lat="41.885524" lon="-87.617418">
      </trkpt>
      <trkpt lat="41.884538" lon="-87.617389">
      </trkpt>
      <trkpt lat="41.884503" lon="-87.620586">
      </trkpt>
      <trkpt lat="41.887811" lon="-87.620627">
      </trkpt>
      <trkpt lat="41.887783" lon="-87.620376">
      </trkpt>
      <trkpt lat="41.887462" lon="-87.615811">
      </trkpt>
      <trkpt lat="41.887569" lon="-87.613913">
      </trkpt>
      <trkpt lat="41.889544" lon="-87.613977">
      </trkpt>
      <trkpt lat="41.893189" lon="-87.614171">
      </trkpt>
      <trkpt lat="41.900921" lon="-87.619441">
      </trkpt>
      <trkpt lat="41.90171" lon="-87.622727">
      </trkpt>
      <trkpt lat="41.902893" lon="-87.624048">
      </trkpt>
      <trkpt lat="41.912141" lon="-87.62589">
      </trkpt>
      <trkpt lat="41.918036" lon="-87.628743">
      </trkpt>
      <trkpt lat="41.928213" lon="-87.631799">
      </trkpt>
      <trkpt lat="41.934701" lon="-87.632273">
      </trkpt>
      <trkpt lat="41.941399" lon="-87.638962">
      </trkpt>
      <trkpt lat="41.950931" lon="-87.644376">
      </trkpt>
      <trkpt lat="41.952992" lon="-87.644572">
      </trkpt>
      <trkpt lat="41.954667" lon="-87.644162">
      </trkpt>
      <trkpt lat="41.954357" lon="-87.664217">
      </trkpt>
      <trkpt lat="41.948897" lon="-87.664054">
      </trkpt>
      <trkpt lat="41.948845" lon="-87.667351">
      </trkpt>
      <trkpt lat="41.948845" lon="-87.667351">
      </trkpt>
      <trkpt lat="41.948897" lon="-87.664054">
      </trkpt>
      <trkpt lat="41.957682" lon="-87.664292">
      </trkpt>
      <trkpt lat="41.959336" lon="-87.665071">
      </trkpt>
      <trkpt lat="41.959319" lon="-87.664488">
      </trkpt>
      <trkpt lat="41.960581" lon="-87.664187">
      </trkpt>
      <trkpt lat="41.960581" lon="-87.664187">
      </trkpt>
      <trkpt lat="41.959319" lon="-87.664488">
      </trkpt>
      <trkpt lat="41.959336" lon="-87.665071">
      </trkpt>
      <trkpt lat="41.961638" lon="-87.665949">
      </trkpt>
      <trkpt lat="41.962086" lon="-87.645534">
      </trkpt>
      <trkpt lat="41.963703" lon="-87.646617">
      </trkpt>
      <trkpt lat="41.973421" lon="-87.648867">
      </trkpt>
      <trkpt lat="41.98144" lon="-87.652386">
      </trkpt>
      <trkpt lat="41.984866" lon="-87.652765">
      </trkpt>
      <trkpt lat="41.985504" lon="-87.653488">
      </trkpt>
      <trkpt lat="41.985556" lon="-87.655253">
      </trkpt>
      <trkpt lat="41.997803" lon="-87.655634">
      </trkpt>
      <trkpt lat="41.998196" lon="-87.659646">
      </trkpt>
      <trkpt lat="41.998874" lon="-87.660644">
      </trkpt>
      <trkpt lat="42.006762" lon="-87.661292">
      </trkpt>
      <trkpt lat="42.021956" lon="-87.666816">
      </trkpt>
      <trkpt lat="42.023203" lon="-87.665312">
      </trkpt>
      <trkpt lat="42.026585" lon="-87.667277">
      </trkpt>
      <trkpt lat="42.027188" lon="-87.670647">
      </trkpt>
      <trkpt lat="42.033783" lon="-87.670571">
      </trkpt>
      <trkpt lat="42.033906" lon="-87.674774">
      </trkpt>
      <trkpt lat="42.03578" lon="-87.675008">
      </trkpt>
      <trkpt lat="42.03578" lon="-87.675008">
      </trkpt>
      <trkpt lat="42.033906" lon="-87.674774">
      </trkpt>
      <trkpt lat="42.034032" lon="-87.68996">
      </trkpt>
      <trkpt lat="42.033613" lon="-87.723162">
      </trkpt>
      <trkpt lat="42.031739" lon="-87.723214">
      </trkpt>
      <trkpt lat="42.031729" lon="-87.724415">
      </trkpt>
      <trkpt lat="42.033502" lon="-87.723981">
      </trkpt>
      <trkpt lat="42.033507" lon="-87.723597">
      </trkpt>
      <trkpt lat="42.033507" lon="-87.723597">
      </trkpt>
      <trkpt lat="42.033513" lon="-87.723164">
      </trkpt>
      <trkpt lat="42.031739" lon="-87.723214">
      </trkpt>
      <trkpt lat="42.031729" lon="-87.724415">
      </trkpt>
      <trkpt lat="42.026266" lon="-87.72577">
      </trkpt>
      <trkpt lat="42.026291" lon="-87.746923">
      </trkpt>
      <trkpt lat="42.011817" lon="-87.747939">
      </trkpt>
      <trkpt lat="42.011856" lon="-87.75189">
      </trkpt>
      <trkpt lat="42.007194" lon="-87.748838">
      </trkpt>
      <trkpt lat="41.987219" lon="-87.751521">
      </trkpt>
      <trkpt lat="41.980228" lon="-87.746835">
      </trkpt>
      <trkpt lat="41.966563" lon="-87.747223">
      </trkpt>
      <trkpt lat="41.962358" lon="-87.745232">
      </trkpt>
      <trkpt lat="41.947613" lon="-87.719592">
      </trkpt>
      <trkpt lat="41.94215" lon="-87.715306">
      </trkpt>
      <trkpt lat="41.917654" lon="-87.670146">
      </trkpt>
      <trkpt lat="41.906646" lon="-87.66137">
      </trkpt>
      <trkpt lat="41.897685" lon="-87.659246">
      </trkpt>
      <trkpt lat="41.886261" lon="-87.646315">
      </trkpt>
      <trkpt lat="41.850609" lon="-87.644998">
      </trkpt>
      <trkpt lat="41.847255" lon="-87.642186">
      </trkpt>
      <trkpt lat="41.845323" lon="-87.634652">
      </trkpt>
      <trkpt lat="41.84209" lon="-87.63091">
      </trkpt>
      <trkpt lat="41.779686" lon="-87.631207">
      </trkpt>
      <trkpt lat="41.772231" lon="-87.626113">
      </trkpt>
      <trkpt lat="41.72052" lon="-87.624621">
      </trkpt>
      <trkpt lat="41.715903" lon="-87.627884">
      </trkpt>
      <trkpt lat="41.714895" lon="-87.636193">
      </trkpt>
      <trkpt lat="41.714153" lon="-87.651299">
      </trkpt>
      <trkpt lat="41.714057" lon="-87.652056">
      </trkpt>
      <trkpt lat="41.714061" lon="-87.655187">
      </trkpt>
      <trkpt lat="41.717528" lon="-87.655278">
      </trkpt>
      <trkpt lat="41.717535" lon="-87.654822">
      </trkpt>
      <trkpt lat="41.717535" lon="-87.654822">
      </trkpt>
      <trkpt lat="41.717535" lon="-87.654822">
      </trkpt>
      <trkpt lat="41.717535" lon="-87.654822">
      </trkpt>
      <trkpt lat="41.717528" lon="-87.655278">
      </trkpt>
      <trkpt lat="41.714061" lon="-87.655187">
      </trkpt>
      <trkpt lat="41.714057" lon="-87.652056">
      </trkpt>
      <trkpt lat="41.713181" lon="-87.650961">
      </trkpt>
      <trkpt lat="41.714223" lon="-87.642306">
      </trkpt>
      <trkpt lat="41.714662" lon="-87.632642">
      </trkpt>
      <trkpt lat="41.715693" lon="-87.627057">
      </trkpt>
      <trkpt lat="41.719562" lon="-87.624177">
      </trkpt>
      <trkpt lat="41.769497" lon="-87.625651">
      </trkpt>
      <trkpt lat="41.77431" lon="-87.626008">
      </trkpt>
      <trkpt lat="41.779138" lon="-87.630456">
      </trkpt>
      <trkpt lat="41.789529" lon="-87.630633">
      </trkpt>
      <trkpt lat="41.794556" lon="-87.630508">
      </trkpt>
      <trkpt lat="41.793876" lon="-87.684065">
      </trkpt>
      <trkpt lat="41.808423" lon="-87.684444">
      </trkpt>
      <trkpt lat="41.808225" lon="-87.698362">
      </trkpt>
      <trkpt lat="41.808225" lon="-87.698362">
      </trkpt>
      <trkpt lat="41.808287" lon="-87.694195">
      </trkpt>
      <trkpt lat="41.825534" lon="-87.694692">
      </trkpt>
      <trkpt lat="41.82558" lon="-87.692244">
      </trkpt>
      <trkpt lat="41.826156" lon="-87.692261">
      </trkpt>
      <trkpt lat="41.826156" lon="-87.692261">
      </trkpt>
      <trkpt lat="41.8274" lon="-87.692297">
      </trkpt>
      <trkpt lat="41.827169" lon="-87.704536">
      </trkpt>
      <trkpt lat="41.828464" lon="-87.704501">
      </trkpt>
      <trkpt lat="41.828882" lon="-87.704288">
      </trkpt>
      <trkpt lat="41.830574" lon="-87.699332">
      </trkpt>
      <trkpt lat="41.836711" lon="-87.680385">
      </trkpt>
      <trkpt lat="41.83747" lon="-87.66766">
      </trkpt>
      <trkpt lat="41.841885" lon="-87.658964">
      </trkpt>
      <trkpt lat="41.844952" lon="-87.651204">
      </trkpt>
      <trkpt lat="41.845514" lon="-87.646587">
      </trkpt>
      <trkpt lat="41.846659" lon="-87.642563">
      </trkpt>
      <trkpt lat="41.847625" lon="-87.642133">
      </trkpt>
      <trkpt lat="41.848899" lon="-87.643626">
      </trkpt>
      <trkpt lat="41.850742" lon="-87.644555">
      </trkpt>
      <trkpt lat="41.853157" lon="-87.644932">
      </trkpt>
      <trkpt lat="41.855471" lon="-87.643738">
      </trkpt>
      <trkpt lat="41.855904" lon="-87.643758">
      </trkpt>
      <trkpt lat="41.856415" lon="-87.642611">
      </trkpt>
      <trkpt lat="41.856959" lon="-87.642853">
      </trkpt>
      <trkpt lat="41.856959" lon="-87.642853">
      </trkpt>
      <trkpt lat="41.857605" lon="-87.64287">
      </trkpt>
      <trkpt lat="41.857668" lon="-87.638934">
      </trkpt>
      <trkpt lat="41.855696" lon="-87.63887">
      </trkpt>
      <trkpt lat="41.85401" lon="-87.638568">
      </trkpt>
      <trkpt lat="41.852796" lon="-87.638539">
      </trkpt>
      <trkpt lat="41.852884" lon="-87.635306">
      </trkpt>
      <trkpt lat="41.852769" lon="-87.633441">
      </trkpt>
      <trkpt lat="41.852788" lon="-87.632031">
      </trkpt>
      <trkpt lat="41.851747" lon="-87.632001">
      </trkpt>
      <trkpt lat="41.851747" lon="-87.632001">
      </trkpt>
      <trkpt lat="41.852919" lon="-87.632035">
      </trkpt>
      <trkpt lat="41.852796" lon="-87.638539">
      </trkpt>
      <trkpt lat="41.857668" lon="-87.638934">
      </trkpt>
      <trkpt lat="41.857593" lon="-87.643769">
      </trkpt>
      <trkpt lat="41.857758" lon="-87.643778">
      </trkpt>
      <trkpt lat="41.886419" lon="-87.646101">
      </trkpt>
      <trkpt lat="41.897003" lon="-87.6586">
      </trkpt>
      <trkpt lat="41.906443" lon="-87.661061">
      </trkpt>
      <trkpt lat="41.91562" lon="-87.667879">
      </trkpt>
      <trkpt lat="41.939496" lon="-87.708002">
      </trkpt>
      <trkpt lat="41.942429" lon="-87.712586">
      </trkpt>
      <trkpt lat="41.942239" lon="-87.712582">
      </trkpt>
      <trkpt lat="41.942862" lon="-87.715459">
      </trkpt>
      <trkpt lat="41.942862" lon="-87.715459">
      </trkpt>
      <trkpt lat="41.942239" lon="-87.712582">
      </trkpt>
      <trkpt lat="41.941642" lon="-87.712571">
      </trkpt>
      <trkpt lat="41.943044" lon="-87.715981">
      </trkpt>
      <trkpt lat="41.947985" lon="-87.719618">
      </trkpt>
      <trkpt lat="41.960998" lon="-87.742619">
      </trkpt>
      <trkpt lat="41.965012" lon="-87.746732">
      </trkpt>
      <trkpt lat="41.975724" lon="-87.747426">
      </trkpt>
      <trkpt lat="41.980044" lon="-87.746614">
      </trkpt>
      <trkpt lat="41.987222" lon="-87.751348">
      </trkpt>
      <trkpt lat="41.989907" lon="-87.75017">
      </trkpt>
      <trkpt lat="41.990414" lon="-87.704254">
      </trkpt>
      <trkpt lat="41.993916" lon="-87.704364">
      </trkpt>
      <trkpt lat="41.99394" lon="-87.703173">
      </trkpt>
      <trkpt lat="41.993781" lon="-87.703168">
      </trkpt>
    </trkseg>
  </trk>
</gpx>