<?xml version="1.0" encoding="UTF-8"?>
<gpx xmlns="http://www.topografix.com/GPX/1/1" xmlns:xsi="http://www.w3.org/2001/XMLSchema-instance" xsi:schemaLocation="http://www.topografix.com/GPX/1/1 http://www.topografix.com/GPX/1/1/gpx.xsd" version="1.1" creator="gpx.py -- https://github.com/tkrajina/gpxpy">
  <trk>
    <trkseg>
      <trkpt lat="41.978847" lon="-87.674163">
      </trkpt>
      <trkpt lat="41.978915" lon="-87.669739">
      </trkpt>
      <trkpt lat="41.976173" lon="-87.66966">
      </trkpt>
      <trkpt lat="41.976453" lon="-87.651813">
      </trkpt>
      <trkpt lat="41.972134" lon="-87.648822">
      </trkpt>
      <trkpt lat="41.950978" lon="-87.644611">
      </trkpt>
      <trkpt lat="41.941067" lon="-87.638957">
      </trkpt>
      <trkpt lat="41.934639" lon="-87.632453">
      </trkpt>
      <trkpt lat="41.928427" lon="-87.632048">
      </trkpt>
      <trkpt lat="41.902733" lon="-87.62421">
      </trkpt>
      <trkpt lat="41.900898" lon="-87.619617">
      </trkpt>
      <trkpt lat="41.892985" lon="-87.614304">
      </trkpt>
      <trkpt lat="41.884928" lon="-87.614127">
      </trkpt>
      <trkpt lat="41.88092" lon="-87.617506">
      </trkpt>
      <trkpt lat="41.880838" lon="-87.624244">
      </trkpt>
      <trkpt lat="41.881322" lon="-87.624206">
      </trkpt>
      <trkpt lat="41.881941" lon="-87.633848">
      </trkpt>
      <trkpt lat="41.880058" lon="-87.633797">
      </trkpt>
      <trkpt lat="41.880272" lon="-87.634302">
      </trkpt>
      <trkpt lat="41.880272" lon="-87.634302">
      </trkpt>
      <trkpt lat="41.88005" lon="-87.634296">
      </trkpt>
      <trkpt lat="41.880058" lon="-87.633797">
      </trkpt>
      <trkpt lat="41.87567" lon="-87.633684">
      </trkpt>
      <trkpt lat="41.875726" lon="-87.65167">
      </trkpt>
      <trkpt lat="41.876197" lon="-87.657603">
      </trkpt>
      <trkpt lat="41.875763" lon="-87.688313">
      </trkpt>
      <trkpt lat="41.875862" lon="-87.692409">
      </trkpt>
      <trkpt lat="41.875983" lon="-87.696151">
      </trkpt>
      <trkpt lat="41.880169" lon="-87.696261">
      </trkpt>
      <trkpt lat="41.880173" lon="-87.695733">
      </trkpt>
      <trkpt lat="41.880173" lon="-87.695733">
      </trkpt>
      <trkpt lat="41.880169" lon="-87.696261">
      </trkpt>
      <trkpt lat="41.874902" lon="-87.696127">
      </trkpt>
      <trkpt lat="41.874908" lon="-87.695509">
      </trkpt>
      <trkpt lat="41.875125" lon="-87.690201">
      </trkpt>
      <trkpt lat="41.87561" lon="-87.659837">
      </trkpt>
      <trkpt lat="41.875318" lon="-87.651569">
      </trkpt>
      <trkpt lat="41.87559" lon="-87.623113">
      </trkpt>
      <trkpt lat="41.875815" lon="-87.620619">
      </trkpt>
      <trkpt lat="41.875872" lon="-87.62062">
      </trkpt>
      <trkpt lat="41.875872" lon="-87.62062">
      </trkpt>
      <trkpt lat="41.873218" lon="-87.620589">
      </trkpt>
      <trkpt lat="41.873248" lon="-87.617318">
      </trkpt>
      <trkpt lat="41.869641" lon="-87.617289">
      </trkpt>
      <trkpt lat="41.865851" lon="-87.619563">
      </trkpt>
      <trkpt lat="41.853242" lon="-87.614728">
      </trkpt>
      <trkpt lat="41.849799" lon="-87.613506">
      </trkpt>
      <trkpt lat="41.848506" lon="-87.614444">
      </trkpt>
      <trkpt lat="41.848101" lon="-87.623443">
      </trkpt>
      <trkpt lat="41.84732" lon="-87.626818">
      </trkpt>
      <trkpt lat="41.848155" lon="-87.630758">
      </trkpt>
      <trkpt lat="41.847855" lon="-87.631727">
      </trkpt>
      <trkpt lat="41.843118" lon="-87.631351">
      </trkpt>
      <trkpt lat="41.819121" lon="-87.630789">
      </trkpt>
      <trkpt lat="41.816682" lon="-87.631192">
      </trkpt>
      <trkpt lat="41.816426" lon="-87.631192">
      </trkpt>
      <trkpt lat="41.816544" lon="-87.623022">
      </trkpt>
      <trkpt lat="41.815421" lon="-87.623001">
      </trkpt>
      <trkpt lat="41.815421" lon="-87.623001">
      </trkpt>
      <trkpt lat="41.814738" lon="-87.622988">
      </trkpt>
      <trkpt lat="41.814689" lon="-87.626222">
      </trkpt>
      <trkpt lat="41.816493" lon="-87.626265">
      </trkpt>
      <trkpt lat="41.816448" lon="-87.629441">
      </trkpt>
      <trkpt lat="41.816639" lon="-87.629444">
      </trkpt>
      <trkpt lat="41.837743" lon="-87.630393">
      </trkpt>
      <trkpt lat="41.844069" lon="-87.631001">
      </trkpt>
      <trkpt lat="41.845776" lon="-87.63096">
      </trkpt>
      <trkpt lat="41.846653" lon="-87.630081">
      </trkpt>
      <trkpt lat="41.847827" lon="-87.623841">
      </trkpt>
      <trkpt lat="41.847976" lon="-87.616851">
      </trkpt>
      <trkpt lat="41.848193" lon="-87.613276">
      </trkpt>
      <trkpt lat="41.849732" lon="-87.612177">
      </trkpt>
      <trkpt lat="41.863523" lon="-87.618709">
      </trkpt>
      <trkpt lat="41.867696" lon="-87.62045">
      </trkpt>
      <trkpt lat="41.875872" lon="-87.62062">
      </trkpt>
      <trkpt lat="41.875872" lon="-87.62062">
      </trkpt>
      <trkpt lat="41.878331" lon="-87.620697">
      </trkpt>
      <trkpt lat="41.878293" lon="-87.624208">
      </trkpt>
      <trkpt lat="41.879559" lon="-87.62429">
      </trkpt>
      <trkpt lat="41.879406" lon="-87.632294">
      </trkpt>
      <trkpt lat="41.880812" lon="-87.632334">
      </trkpt>
      <trkpt lat="41.880812" lon="-87.632334">
      </trkpt>
      <trkpt lat="41.879406" lon="-87.632294">
      </trkpt>
      <trkpt lat="41.879389" lon="-87.633782">
      </trkpt>
      <trkpt lat="41.87567" lon="-87.633684">
      </trkpt>
      <trkpt lat="41.875644" lon="-87.641651">
      </trkpt>
      <trkpt lat="41.875809" lon="-87.643837">
      </trkpt>
      <trkpt lat="41.876437" lon="-87.645614">
      </trkpt>
      <trkpt lat="41.876426" lon="-87.646076">
      </trkpt>
      <trkpt lat="41.876207" lon="-87.646562">
      </trkpt>
      <trkpt lat="41.87554" lon="-87.646845">
      </trkpt>
      <trkpt lat="41.872433" lon="-87.645662">
      </trkpt>
      <trkpt lat="41.869682" lon="-87.645367">
      </trkpt>
      <trkpt lat="41.867243" lon="-87.645153">
      </trkpt>
      <trkpt lat="41.867148" lon="-87.65105">
      </trkpt>
      <trkpt lat="41.862292" lon="-87.650889">
      </trkpt>
      <trkpt lat="41.862587" lon="-87.651784">
      </trkpt>
      <trkpt lat="41.86257" lon="-87.653113">
      </trkpt>
      <trkpt lat="41.86257" lon="-87.653113">
      </trkpt>
      <trkpt lat="41.862525" lon="-87.656563">
      </trkpt>
      <trkpt lat="41.863428" lon="-87.656562">
      </trkpt>
      <trkpt lat="41.863361" lon="-87.660688">
      </trkpt>
      <trkpt lat="41.863361" lon="-87.660688">
      </trkpt>
      <trkpt lat="41.863428" lon="-87.656562">
      </trkpt>
      <trkpt lat="41.863264" lon="-87.656555">
      </trkpt>
      <trkpt lat="41.867014" lon="-87.653364">
      </trkpt>
      <trkpt lat="41.86712" lon="-87.646914">
      </trkpt>
      <trkpt lat="41.869551" lon="-87.646884">
      </trkpt>
      <trkpt lat="41.869691" lon="-87.644443">
      </trkpt>
      <trkpt lat="41.891702" lon="-87.651689">
      </trkpt>
      <trkpt lat="41.917654" lon="-87.670146">
      </trkpt>
      <trkpt lat="41.963594" lon="-87.746287">
      </trkpt>
      <trkpt lat="42.009149" lon="-87.749057">
      </trkpt>
      <trkpt lat="42.026582" lon="-87.768599">
      </trkpt>
      <trkpt lat="42.062763" lon="-87.754799">
      </trkpt>
      <trkpt lat="42.086787" lon="-87.75864">
      </trkpt>
      <trkpt lat="42.140407" lon="-87.790096">
      </trkpt>
      <trkpt lat="42.145764" lon="-87.794967">
      </trkpt>
      <trkpt lat="42.144415" lon="-87.827859">
      </trkpt>
      <trkpt lat="42.150293" lon="-87.872445">
      </trkpt>
      <trkpt lat="42.178444" lon="-87.874607">
      </trkpt>
      <trkpt lat="42.195708" lon="-87.885326">
      </trkpt>
      <trkpt lat="42.200343" lon="-87.887093">
      </trkpt>
      <trkpt lat="42.197284" lon="-87.989426">
      </trkpt>
      <trkpt lat="42.208819" lon="-87.991475">
      </trkpt>
      <trkpt lat="42.211682" lon="-87.980298">
      </trkpt>
      <trkpt lat="42.211682" lon="-87.980298">
      </trkpt>
      <trkpt lat="42.211719" lon="-87.986733">
      </trkpt>
      <trkpt lat="42.208988" lon="-87.988556">
      </trkpt>
      <trkpt lat="42.209038" lon="-87.991858">
      </trkpt>
      <trkpt lat="42.205174" lon="-87.989691">
      </trkpt>
      <trkpt lat="42.19717" lon="-87.989623">
      </trkpt>
      <trkpt lat="42.197142" lon="-87.968593">
      </trkpt>
      <trkpt lat="42.195932" lon="-87.964613">
      </trkpt>
      <trkpt lat="42.195671" lon="-87.952439">
      </trkpt>
      <trkpt lat="42.197501" lon="-87.932302">
      </trkpt>
      <trkpt lat="42.200709" lon="-87.924155">
      </trkpt>
      <trkpt lat="42.200162" lon="-87.890689">
      </trkpt>
      <trkpt lat="42.187906" lon="-87.879606">
      </trkpt>
      <trkpt lat="42.180205" lon="-87.875457">
      </trkpt>
      <trkpt lat="42.155109" lon="-87.874445">
      </trkpt>
      <trkpt lat="42.15118" lon="-87.873803">
      </trkpt>
      <trkpt lat="42.149599" lon="-87.870737">
      </trkpt>
      <trkpt lat="42.149388" lon="-87.843061">
      </trkpt>
      <trkpt lat="42.144245" lon="-87.827956">
      </trkpt>
      <trkpt lat="42.145702" lon="-87.810965">
      </trkpt>
      <trkpt lat="42.144633" lon="-87.794203">
      </trkpt>
      <trkpt lat="42.136177" lon="-87.787078">
      </trkpt>
      <trkpt lat="42.126982" lon="-87.784412">
      </trkpt>
      <trkpt lat="42.088352" lon="-87.759404">
      </trkpt>
      <trkpt lat="42.085826" lon="-87.759602">
      </trkpt>
      <trkpt lat="42.08359" lon="-87.756856">
      </trkpt>
      <trkpt lat="42.079405" lon="-87.754436">
      </trkpt>
      <trkpt lat="42.078937" lon="-87.711058">
      </trkpt>
      <trkpt lat="42.06911" lon="-87.702804">
      </trkpt>
      <trkpt lat="42.06911" lon="-87.702804">
      </trkpt>
      <trkpt lat="42.053534" lon="-87.689961">
      </trkpt>
      <trkpt lat="42.044647" lon="-87.690207">
      </trkpt>
      <trkpt lat="42.044647" lon="-87.690207">
      </trkpt>
      <trkpt lat="42.048544" lon="-87.690141">
      </trkpt>
      <trkpt lat="42.048527" lon="-87.688792">
      </trkpt>
      <trkpt lat="42.050898" lon="-87.688008">
      </trkpt>
      <trkpt lat="42.053962" lon="-87.687393">
      </trkpt>
      <trkpt lat="42.053841" lon="-87.677209">
      </trkpt>
      <trkpt lat="42.056866" lon="-87.677157">
      </trkpt>
      <trkpt lat="42.056866" lon="-87.677157">
      </trkpt>
      <trkpt lat="42.051106" lon="-87.677291">
      </trkpt>
      <trkpt lat="42.045024" lon="-87.680232">
      </trkpt>
      <trkpt lat="42.044073" lon="-87.680521">
      </trkpt>
      <trkpt lat="42.044102" lon="-87.681904">
      </trkpt>
      <trkpt lat="42.043758" lon="-87.68191">
      </trkpt>
      <trkpt lat="42.043758" lon="-87.68191">
      </trkpt>
      <trkpt lat="42.045816" lon="-87.681865">
      </trkpt>
      <trkpt lat="42.04705" lon="-87.681362">
      </trkpt>
      <trkpt lat="42.049698" lon="-87.680072">
      </trkpt>
      <trkpt lat="42.049865" lon="-87.680133">
      </trkpt>
      <trkpt lat="42.049954" lon="-87.680438">
      </trkpt>
      <trkpt lat="42.049974" lon="-87.68164">
      </trkpt>
      <trkpt lat="42.049796" lon="-87.681811">
      </trkpt>
      <trkpt lat="42.047749" lon="-87.681868">
      </trkpt>
      <trkpt lat="42.047749" lon="-87.681868">
      </trkpt>
      <trkpt lat="42.047061" lon="-87.681897">
      </trkpt>
      <trkpt lat="42.044102" lon="-87.681904">
      </trkpt>
      <trkpt lat="42.044073" lon="-87.680521">
      </trkpt>
      <trkpt lat="42.040143" lon="-87.680565">
      </trkpt>
      <trkpt lat="42.039269" lon="-87.680405">
      </trkpt>
      <trkpt lat="42.039252" lon="-87.678825">
      </trkpt>
      <trkpt lat="42.038819" lon="-87.678821">
      </trkpt>
      <trkpt lat="42.038819" lon="-87.678821">
      </trkpt>
      <trkpt lat="42.039252" lon="-87.678825">
      </trkpt>
      <trkpt lat="42.039269" lon="-87.680405">
      </trkpt>
      <trkpt lat="42.040143" lon="-87.680565">
      </trkpt>
      <trkpt lat="42.044073" lon="-87.680521">
      </trkpt>
      <trkpt lat="42.045024" lon="-87.680232">
      </trkpt>
      <trkpt lat="42.046194" lon="-87.679657">
      </trkpt>
      <trkpt lat="42.047008" lon="-87.682652">
      </trkpt>
      <trkpt lat="42.047037" lon="-87.683456">
      </trkpt>
      <trkpt lat="42.047071" lon="-87.685699">
      </trkpt>
      <trkpt lat="42.047071" lon="-87.685699">
      </trkpt>
      <trkpt lat="42.047108" lon="-87.690144">
      </trkpt>
      <trkpt lat="42.048544" lon="-87.690141">
      </trkpt>
      <trkpt lat="42.048591" lon="-87.693603">
      </trkpt>
      <trkpt lat="42.04843" lon="-87.696419">
      </trkpt>
      <trkpt lat="42.048153" lon="-87.714181">
      </trkpt>
      <trkpt lat="42.04449" lon="-87.717486">
      </trkpt>
      <trkpt lat="42.042643" lon="-87.718819">
      </trkpt>
      <trkpt lat="42.042611" lon="-87.723799">
      </trkpt>
      <trkpt lat="42.042611" lon="-87.723799">
      </trkpt>
      <trkpt lat="42.042614" lon="-87.72296">
      </trkpt>
      <trkpt lat="42.040799" lon="-87.722973">
      </trkpt>
      <trkpt lat="42.041263" lon="-87.688374">
      </trkpt>
      <trkpt lat="42.037646" lon="-87.687595">
      </trkpt>
      <trkpt lat="42.037573" lon="-87.680914">
      </trkpt>
      <trkpt lat="42.036146" lon="-87.680612">
      </trkpt>
      <trkpt lat="42.036146" lon="-87.680612">
      </trkpt>
      <trkpt lat="42.03395" lon="-87.680075">
      </trkpt>
      <trkpt lat="42.033944" lon="-87.679383">
      </trkpt>
      <trkpt lat="42.027266" lon="-87.678155">
      </trkpt>
      <trkpt lat="42.027274" lon="-87.678958">
      </trkpt>
      <trkpt lat="42.026622" lon="-87.678877">
      </trkpt>
      <trkpt lat="42.026563" lon="-87.67917">
      </trkpt>
      <trkpt lat="42.024619" lon="-87.679186">
      </trkpt>
      <trkpt lat="42.024619" lon="-87.679186">
      </trkpt>
      <trkpt lat="42.022968" lon="-87.679203">
      </trkpt>
      <trkpt lat="42.022975" lon="-87.680435">
      </trkpt>
      <trkpt lat="42.032767" lon="-87.680277">
      </trkpt>
      <trkpt lat="42.033953" lon="-87.680484">
      </trkpt>
      <trkpt lat="42.03395" lon="-87.680075">
      </trkpt>
      <trkpt lat="42.036146" lon="-87.680612">
      </trkpt>
      <trkpt lat="42.036146" lon="-87.680612">
      </trkpt>
      <trkpt lat="42.03395" lon="-87.680075">
      </trkpt>
      <trkpt lat="42.033575" lon="-87.727932">
      </trkpt>
      <trkpt lat="42.035338" lon="-87.727869">
      </trkpt>
      <trkpt lat="42.034055" lon="-87.728039">
      </trkpt>
      <trkpt lat="42.034055" lon="-87.728039">
      </trkpt>
      <trkpt lat="42.018989" lon="-87.728471">
      </trkpt>
      <trkpt lat="42.019034" lon="-87.747705">
      </trkpt>
      <trkpt lat="42.011817" lon="-87.747939">
      </trkpt>
      <trkpt lat="42.011856" lon="-87.75189">
      </trkpt>
      <trkpt lat="42.012826" lon="-87.752369">
      </trkpt>
      <trkpt lat="42.007194" lon="-87.748838">
      </trkpt>
      <trkpt lat="41.987219" lon="-87.751521">
      </trkpt>
      <trkpt lat="41.980228" lon="-87.746835">
      </trkpt>
      <trkpt lat="41.966563" lon="-87.747223">
      </trkpt>
      <trkpt lat="41.963113" lon="-87.745961">
      </trkpt>
      <trkpt lat="41.960129" lon="-87.742125">
      </trkpt>
      <trkpt lat="41.947613" lon="-87.719592">
      </trkpt>
      <trkpt lat="41.94215" lon="-87.715306">
      </trkpt>
      <trkpt lat="41.933659" lon="-87.698173">
      </trkpt>
      <trkpt lat="41.919706" lon="-87.673831">
      </trkpt>
      <trkpt lat="41.918264" lon="-87.671882">
      </trkpt>
      <trkpt lat="41.918151" lon="-87.671723">
      </trkpt>
      <trkpt lat="41.91793" lon="-87.667505">
      </trkpt>
      <trkpt lat="41.916455" lon="-87.666413">
      </trkpt>
      <trkpt lat="41.917139" lon="-87.658378">
      </trkpt>
      <trkpt lat="41.918041" lon="-87.658214">
      </trkpt>
      <trkpt lat="41.918322" lon="-87.638808">
      </trkpt>
      <trkpt lat="41.918106" lon="-87.638503">
      </trkpt>
      <trkpt lat="41.918106" lon="-87.638503">
      </trkpt>
      <trkpt lat="41.915479" lon="-87.634849">
      </trkpt>
      <trkpt lat="41.915623" lon="-87.634358">
      </trkpt>
      <trkpt lat="41.913071" lon="-87.632796">
      </trkpt>
      <trkpt lat="41.913236" lon="-87.631046">
      </trkpt>
      <trkpt lat="41.912247" lon="-87.628505">
      </trkpt>
      <trkpt lat="41.912316" lon="-87.626932">
      </trkpt>
      <trkpt lat="41.912166" lon="-87.62645">
      </trkpt>
      <trkpt lat="41.911491" lon="-87.626204">
      </trkpt>
      <trkpt lat="41.904908" lon="-87.624861">
      </trkpt>
      <trkpt lat="41.901978" lon="-87.624179">
      </trkpt>
      <trkpt lat="41.892538" lon="-87.624293">
      </trkpt>
      <trkpt lat="41.892574" lon="-87.621881">
      </trkpt>
      <trkpt lat="41.892574" lon="-87.621881">
      </trkpt>
      <trkpt lat="41.892588" lon="-87.620263">
      </trkpt>
      <trkpt lat="41.891016" lon="-87.62021">
      </trkpt>
      <trkpt lat="41.891128" lon="-87.614346">
      </trkpt>
      <trkpt lat="41.891141" lon="-87.61158">
      </trkpt>
      <trkpt lat="41.891968" lon="-87.611597">
      </trkpt>
      <trkpt lat="41.891945" lon="-87.612627">
      </trkpt>
      <trkpt lat="41.891945" lon="-87.612627">
      </trkpt>
      <trkpt lat="41.8919" lon="-87.614335">
      </trkpt>
      <trkpt lat="41.887479" lon="-87.614043">
      </trkpt>
      <trkpt lat="41.884717" lon="-87.614074">
      </trkpt>
      <trkpt lat="41.881821" lon="-87.617453">
      </trkpt>
      <trkpt lat="41.869765" lon="-87.617261">
      </trkpt>
      <trkpt lat="41.866208" lon="-87.619588">
      </trkpt>
      <trkpt lat="41.862252" lon="-87.618646">
      </trkpt>
      <trkpt lat="41.832576" lon="-87.607188">
      </trkpt>
      <trkpt lat="41.825932" lon="-87.600839">
      </trkpt>
      <trkpt lat="41.815295" lon="-87.593977">
      </trkpt>
      <trkpt lat="41.803502" lon="-87.581876">
      </trkpt>
      <trkpt lat="41.796009" lon="-87.57922">
      </trkpt>
      <trkpt lat="41.791662" lon="-87.58022">
      </trkpt>
      <trkpt lat="41.781232" lon="-87.574954">
      </trkpt>
      <trkpt lat="41.779846" lon="-87.579216">
      </trkpt>
      <trkpt lat="41.780203" lon="-87.584175">
      </trkpt>
      <trkpt lat="41.776085" lon="-87.586376">
      </trkpt>
      <trkpt lat="41.775177" lon="-87.586341">
      </trkpt>
      <trkpt lat="41.775074" lon="-87.594524">
      </trkpt>
      <trkpt lat="41.773342" lon="-87.59449">
      </trkpt>
      <trkpt lat="41.773342" lon="-87.59449">
      </trkpt>
      <trkpt lat="41.773258" lon="-87.594488">
      </trkpt>
      <trkpt lat="41.773242" lon="-87.596034">
      </trkpt>
      <trkpt lat="41.786007" lon="-87.596334">
      </trkpt>
      <trkpt lat="41.785929" lon="-87.600093">
      </trkpt>
      <trkpt lat="41.785929" lon="-87.600093">
      </trkpt>
      <trkpt lat="41.78613" lon="-87.586647">
      </trkpt>
      <trkpt lat="41.713407" lon="-87.58491">
      </trkpt>
      <trkpt lat="41.710798" lon="-87.585252">
      </trkpt>
      <trkpt lat="41.709053" lon="-87.587094">
      </trkpt>
      <trkpt lat="41.707853" lon="-87.588443">
      </trkpt>
      <trkpt lat="41.707369" lon="-87.610116">
      </trkpt>
      <trkpt lat="41.704557" lon="-87.610028">
      </trkpt>
      <trkpt lat="41.704557" lon="-87.610028">
      </trkpt>
      <trkpt lat="41.703716" lon="-87.610009">
      </trkpt>
      <trkpt lat="41.703666" lon="-87.613666">
      </trkpt>
      <trkpt lat="41.714097" lon="-87.613969">
      </trkpt>
      <trkpt lat="41.714985" lon="-87.620899">
      </trkpt>
      <trkpt lat="41.718201" lon="-87.623994">
      </trkpt>
      <trkpt lat="41.769497" lon="-87.625651">
      </trkpt>
      <trkpt lat="41.779495" lon="-87.630747">
      </trkpt>
      <trkpt lat="41.838631" lon="-87.630667">
      </trkpt>
      <trkpt lat="41.844225" lon="-87.63193">
      </trkpt>
      <trkpt lat="41.847354" lon="-87.642036">
      </trkpt>
      <trkpt lat="41.850632" lon="-87.644778">
      </trkpt>
      <trkpt lat="41.885816" lon="-87.645875">
      </trkpt>
      <trkpt lat="41.897251" lon="-87.658783">
      </trkpt>
      <trkpt lat="41.899938" lon="-87.659701">
      </trkpt>
      <trkpt lat="41.899597" lon="-87.674089">
      </trkpt>
      <trkpt lat="41.90052" lon="-87.67412">
      </trkpt>
      <trkpt lat="41.90052" lon="-87.67412">
      </trkpt>
      <trkpt lat="41.901415" lon="-87.67415">
      </trkpt>
      <trkpt lat="41.901426" lon="-87.673548">
      </trkpt>
      <trkpt lat="41.903247" lon="-87.673606">
      </trkpt>
      <trkpt lat="41.903351" lon="-87.667439">
      </trkpt>
      <trkpt lat="41.910635" lon="-87.667641">
      </trkpt>
      <trkpt lat="41.910927" lon="-87.648286">
      </trkpt>
      <trkpt lat="41.91731" lon="-87.648495">
      </trkpt>
      <trkpt lat="41.91731" lon="-87.648495">
      </trkpt>
      <trkpt lat="41.91731" lon="-87.648495">
      </trkpt>
      <trkpt lat="41.91731" lon="-87.648495">
      </trkpt>
      <trkpt lat="41.918178" lon="-87.648523">
      </trkpt>
      <trkpt lat="41.918472" lon="-87.636131">
      </trkpt>
      <trkpt lat="41.913071" lon="-87.632796">
      </trkpt>
      <trkpt lat="41.913236" lon="-87.631046">
      </trkpt>
      <trkpt lat="41.912247" lon="-87.628505">
      </trkpt>
      <trkpt lat="41.912316" lon="-87.626932">
      </trkpt>
      <trkpt lat="41.912166" lon="-87.62645">
      </trkpt>
      <trkpt lat="41.911491" lon="-87.626204">
      </trkpt>
      <trkpt lat="41.904908" lon="-87.624861">
      </trkpt>
      <trkpt lat="41.901978" lon="-87.624179">
      </trkpt>
      <trkpt lat="41.892538" lon="-87.624293">
      </trkpt>
      <trkpt lat="41.892574" lon="-87.621881">
      </trkpt>
      <trkpt lat="41.892574" lon="-87.621881">
      </trkpt>
      <trkpt lat="41.892588" lon="-87.620263">
      </trkpt>
      <trkpt lat="41.896781" lon="-87.620387">
      </trkpt>
      <trkpt lat="41.89691" lon="-87.616735">
      </trkpt>
      <trkpt lat="41.901011" lon="-87.619536">
      </trkpt>
      <trkpt lat="41.902893" lon="-87.624048">
      </trkpt>
      <trkpt lat="41.928213" lon="-87.631799">
      </trkpt>
      <trkpt lat="41.934701" lon="-87.632273">
      </trkpt>
      <trkpt lat="41.941219" lon="-87.638833">
      </trkpt>
      <trkpt lat="41.950931" lon="-87.644376">
      </trkpt>
      <trkpt lat="41.973046" lon="-87.648738">
      </trkpt>
      <trkpt lat="41.984951" lon="-87.652803">
      </trkpt>
      <trkpt lat="41.985105" lon="-87.662456">
      </trkpt>
      <trkpt lat="41.992132" lon="-87.67531">
      </trkpt>
      <trkpt lat="42.008899" lon="-87.681855">
      </trkpt>
      <trkpt lat="42.00895" lon="-87.682247">
      </trkpt>
    </trkseg>
  </trk>
</gpx>