<?xml version="1.0" encoding="UTF-8"?>
<gpx xmlns="http://www.topografix.com/GPX/1/1" xmlns:xsi="http://www.w3.org/2001/XMLSchema-instance" xsi:schemaLocation="http://www.topografix.com/GPX/1/1 http://www.topografix.com/GPX/1/1/gpx.xsd" version="1.1" creator="gpx.py -- https://github.com/tkrajina/gpxpy">
  <trk>
    <trkseg>
      <trkpt lat="41.999957" lon="-87.667137">
      </trkpt>
      <trkpt lat="41.999939" lon="-87.66922">
      </trkpt>
      <trkpt lat="41.998103" lon="-87.669168">
      </trkpt>
      <trkpt lat="41.998011" lon="-87.655748">
      </trkpt>
      <trkpt lat="41.985556" lon="-87.655253">
      </trkpt>
      <trkpt lat="41.984999" lon="-87.653157">
      </trkpt>
      <trkpt lat="41.973006" lon="-87.649079">
      </trkpt>
      <trkpt lat="41.950978" lon="-87.644611">
      </trkpt>
      <trkpt lat="41.941067" lon="-87.638957">
      </trkpt>
      <trkpt lat="41.935041" lon="-87.632637">
      </trkpt>
      <trkpt lat="41.927741" lon="-87.631858">
      </trkpt>
      <trkpt lat="41.926001" lon="-87.631853">
      </trkpt>
      <trkpt lat="41.925453" lon="-87.648766">
      </trkpt>
      <trkpt lat="41.91731" lon="-87.648495">
      </trkpt>
      <trkpt lat="41.91731" lon="-87.648495">
      </trkpt>
      <trkpt lat="41.925453" lon="-87.648766">
      </trkpt>
      <trkpt lat="41.926223" lon="-87.63067">
      </trkpt>
      <trkpt lat="41.928415" lon="-87.631851">
      </trkpt>
      <trkpt lat="41.935386" lon="-87.632612">
      </trkpt>
      <trkpt lat="41.941219" lon="-87.638833">
      </trkpt>
      <trkpt lat="41.950931" lon="-87.644376">
      </trkpt>
      <trkpt lat="41.960253" lon="-87.646094">
      </trkpt>
      <trkpt lat="41.962086" lon="-87.645534">
      </trkpt>
      <trkpt lat="41.961772" lon="-87.655148">
      </trkpt>
      <trkpt lat="41.964503" lon="-87.656894">
      </trkpt>
      <trkpt lat="41.964503" lon="-87.656894">
      </trkpt>
      <trkpt lat="41.961772" lon="-87.655148">
      </trkpt>
      <trkpt lat="41.961908" lon="-87.646878">
      </trkpt>
      <trkpt lat="41.950757" lon="-87.644507">
      </trkpt>
      <trkpt lat="41.941067" lon="-87.638957">
      </trkpt>
      <trkpt lat="41.934639" lon="-87.632453">
      </trkpt>
      <trkpt lat="41.928427" lon="-87.632048">
      </trkpt>
      <trkpt lat="41.902733" lon="-87.62421">
      </trkpt>
      <trkpt lat="41.900898" lon="-87.619617">
      </trkpt>
      <trkpt lat="41.892868" lon="-87.614264">
      </trkpt>
      <trkpt lat="41.884928" lon="-87.614127">
      </trkpt>
      <trkpt lat="41.881821" lon="-87.617453">
      </trkpt>
      <trkpt lat="41.869765" lon="-87.617261">
      </trkpt>
      <trkpt lat="41.866208" lon="-87.619588">
      </trkpt>
      <trkpt lat="41.853242" lon="-87.614728">
      </trkpt>
      <trkpt lat="41.848506" lon="-87.614444">
      </trkpt>
      <trkpt lat="41.84732" lon="-87.626818">
      </trkpt>
      <trkpt lat="41.847855" lon="-87.631727">
      </trkpt>
      <trkpt lat="41.843118" lon="-87.631351">
      </trkpt>
      <trkpt lat="41.819121" lon="-87.630789">
      </trkpt>
      <trkpt lat="41.816682" lon="-87.631192">
      </trkpt>
      <trkpt lat="41.816426" lon="-87.631192">
      </trkpt>
      <trkpt lat="41.816544" lon="-87.623022">
      </trkpt>
      <trkpt lat="41.815421" lon="-87.623001">
      </trkpt>
      <trkpt lat="41.815421" lon="-87.623001">
      </trkpt>
      <trkpt lat="41.814738" lon="-87.622988">
      </trkpt>
      <trkpt lat="41.814689" lon="-87.626222">
      </trkpt>
      <trkpt lat="41.816493" lon="-87.626265">
      </trkpt>
      <trkpt lat="41.816448" lon="-87.629441">
      </trkpt>
      <trkpt lat="41.816639" lon="-87.629444">
      </trkpt>
      <trkpt lat="41.837743" lon="-87.630393">
      </trkpt>
      <trkpt lat="41.844069" lon="-87.631001">
      </trkpt>
      <trkpt lat="41.845776" lon="-87.63096">
      </trkpt>
      <trkpt lat="41.846653" lon="-87.630081">
      </trkpt>
      <trkpt lat="41.847827" lon="-87.623841">
      </trkpt>
      <trkpt lat="41.847976" lon="-87.616851">
      </trkpt>
      <trkpt lat="41.848193" lon="-87.613276">
      </trkpt>
      <trkpt lat="41.849732" lon="-87.612177">
      </trkpt>
      <trkpt lat="41.863523" lon="-87.618709">
      </trkpt>
      <trkpt lat="41.867696" lon="-87.62045">
      </trkpt>
      <trkpt lat="41.875872" lon="-87.62062">
      </trkpt>
      <trkpt lat="41.875872" lon="-87.62062">
      </trkpt>
      <trkpt lat="41.875872" lon="-87.62062">
      </trkpt>
      <trkpt lat="41.875872" lon="-87.62062">
      </trkpt>
      <trkpt lat="41.878331" lon="-87.620697">
      </trkpt>
      <trkpt lat="41.878293" lon="-87.624208">
      </trkpt>
      <trkpt lat="41.880103" lon="-87.624303">
      </trkpt>
      <trkpt lat="41.88245" lon="-87.624209">
      </trkpt>
      <trkpt lat="41.884366" lon="-87.624344">
      </trkpt>
      <trkpt lat="41.884372" lon="-87.623414">
      </trkpt>
      <trkpt lat="41.884293" lon="-87.622907">
      </trkpt>
      <trkpt lat="41.884319" lon="-87.621085">
      </trkpt>
      <trkpt lat="41.884319" lon="-87.621085">
      </trkpt>
      <trkpt lat="41.884316" lon="-87.620576">
      </trkpt>
      <trkpt lat="41.884484" lon="-87.624371">
      </trkpt>
      <trkpt lat="41.900824" lon="-87.624042">
      </trkpt>
      <trkpt lat="41.902709" lon="-87.623664">
      </trkpt>
      <trkpt lat="41.912141" lon="-87.62589">
      </trkpt>
      <trkpt lat="41.918036" lon="-87.628743">
      </trkpt>
      <trkpt lat="41.924159" lon="-87.630534">
      </trkpt>
      <trkpt lat="41.926223" lon="-87.63067">
      </trkpt>
      <trkpt lat="41.92558" lon="-87.640463">
      </trkpt>
      <trkpt lat="41.927956" lon="-87.641881">
      </trkpt>
      <trkpt lat="41.927956" lon="-87.641881">
      </trkpt>
      <trkpt lat="41.927956" lon="-87.641881">
      </trkpt>
      <trkpt lat="41.927956" lon="-87.641881">
      </trkpt>
      <trkpt lat="41.92558" lon="-87.640463">
      </trkpt>
      <trkpt lat="41.926001" lon="-87.631853">
      </trkpt>
      <trkpt lat="41.912297" lon="-87.626142">
      </trkpt>
      <trkpt lat="41.902733" lon="-87.62421">
      </trkpt>
      <trkpt lat="41.901491" lon="-87.62264">
      </trkpt>
      <trkpt lat="41.900898" lon="-87.619617">
      </trkpt>
      <trkpt lat="41.892868" lon="-87.614264">
      </trkpt>
      <trkpt lat="41.884928" lon="-87.614127">
      </trkpt>
      <trkpt lat="41.882167" lon="-87.617321">
      </trkpt>
      <trkpt lat="41.878363" lon="-87.617442">
      </trkpt>
      <trkpt lat="41.878331" lon="-87.620697">
      </trkpt>
      <trkpt lat="41.876287" lon="-87.620625">
      </trkpt>
      <trkpt lat="41.87589" lon="-87.623299">
      </trkpt>
      <trkpt lat="41.876991" lon="-87.624242">
      </trkpt>
      <trkpt lat="41.876964" lon="-87.627123">
      </trkpt>
      <trkpt lat="41.876964" lon="-87.627123">
      </trkpt>
      <trkpt lat="41.876898" lon="-87.629742">
      </trkpt>
      <trkpt lat="41.875705" lon="-87.629714">
      </trkpt>
      <trkpt lat="41.875644" lon="-87.641651">
      </trkpt>
      <trkpt lat="41.876207" lon="-87.646562">
      </trkpt>
      <trkpt lat="41.872433" lon="-87.645662">
      </trkpt>
      <trkpt lat="41.850828" lon="-87.645091">
      </trkpt>
      <trkpt lat="41.847292" lon="-87.642257">
      </trkpt>
      <trkpt lat="41.845323" lon="-87.634652">
      </trkpt>
      <trkpt lat="41.84209" lon="-87.63091">
      </trkpt>
      <trkpt lat="41.779686" lon="-87.631207">
      </trkpt>
      <trkpt lat="41.772231" lon="-87.626113">
      </trkpt>
      <trkpt lat="41.72052" lon="-87.624621">
      </trkpt>
      <trkpt lat="41.713653" lon="-87.621065">
      </trkpt>
      <trkpt lat="41.713191" lon="-87.600337">
      </trkpt>
      <trkpt lat="41.708673" lon="-87.592948">
      </trkpt>
      <trkpt lat="41.703483" lon="-87.592406">
      </trkpt>
      <trkpt lat="41.685512" lon="-87.601798">
      </trkpt>
      <trkpt lat="41.676933" lon="-87.601728">
      </trkpt>
      <trkpt lat="41.660202" lon="-87.589096">
      </trkpt>
      <trkpt lat="41.659512" lon="-87.59119">
      </trkpt>
      <trkpt lat="41.658851" lon="-87.560717">
      </trkpt>
      <trkpt lat="41.656176" lon="-87.555878">
      </trkpt>
      <trkpt lat="41.65737" lon="-87.555649">
      </trkpt>
      <trkpt lat="41.65736" lon="-87.553811">
      </trkpt>
      <trkpt lat="41.656889" lon="-87.553812">
      </trkpt>
      <trkpt lat="41.656889" lon="-87.553812">
      </trkpt>
      <trkpt lat="41.65736" lon="-87.553811">
      </trkpt>
      <trkpt lat="41.657281" lon="-87.557102">
      </trkpt>
      <trkpt lat="41.660149" lon="-87.585314">
      </trkpt>
      <trkpt lat="41.662478" lon="-87.590822">
      </trkpt>
      <trkpt lat="41.675885" lon="-87.601403">
      </trkpt>
      <trkpt lat="41.685726" lon="-87.601563">
      </trkpt>
      <trkpt lat="41.69908" lon="-87.594329">
      </trkpt>
      <trkpt lat="41.705863" lon="-87.591535">
      </trkpt>
      <trkpt lat="41.711823" lon="-87.595707">
      </trkpt>
      <trkpt lat="41.713575" lon="-87.618809">
      </trkpt>
      <trkpt lat="41.717096" lon="-87.62372">
      </trkpt>
      <trkpt lat="41.769497" lon="-87.625651">
      </trkpt>
      <trkpt lat="41.779578" lon="-87.630526">
      </trkpt>
      <trkpt lat="41.819951" lon="-87.629968">
      </trkpt>
      <trkpt lat="41.823673" lon="-87.629633">
      </trkpt>
      <trkpt lat="41.823804" lon="-87.619991">
      </trkpt>
      <trkpt lat="41.822908" lon="-87.619964">
      </trkpt>
      <trkpt lat="41.822908" lon="-87.619964">
      </trkpt>
      <trkpt lat="41.822908" lon="-87.619964">
      </trkpt>
      <trkpt lat="41.822908" lon="-87.619964">
      </trkpt>
      <trkpt lat="41.823804" lon="-87.619991">
      </trkpt>
      <trkpt lat="41.823673" lon="-87.629633">
      </trkpt>
      <trkpt lat="41.827425" lon="-87.629738">
      </trkpt>
      <trkpt lat="41.837743" lon="-87.630393">
      </trkpt>
      <trkpt lat="41.842376" lon="-87.630317">
      </trkpt>
      <trkpt lat="41.844144" lon="-87.631347">
      </trkpt>
      <trkpt lat="41.84523" lon="-87.633465">
      </trkpt>
      <trkpt lat="41.847354" lon="-87.642036">
      </trkpt>
      <trkpt lat="41.850987" lon="-87.644933">
      </trkpt>
      <trkpt lat="41.857362" lon="-87.644156">
      </trkpt>
      <trkpt lat="41.885013" lon="-87.645685">
      </trkpt>
      <trkpt lat="41.888098" lon="-87.647091">
      </trkpt>
      <trkpt lat="41.890597" lon="-87.650048">
      </trkpt>
      <trkpt lat="41.891699" lon="-87.651108">
      </trkpt>
      <trkpt lat="41.89242" lon="-87.65026">
      </trkpt>
      <trkpt lat="41.892439" lon="-87.631145">
      </trkpt>
      <trkpt lat="41.889473" lon="-87.631072">
      </trkpt>
      <trkpt lat="41.889473" lon="-87.631072">
      </trkpt>
      <trkpt lat="41.889218" lon="-87.631063">
      </trkpt>
      <trkpt lat="41.889205" lon="-87.631823">
      </trkpt>
      <trkpt lat="41.889205" lon="-87.631823">
      </trkpt>
      <trkpt lat="41.889054" lon="-87.644337">
      </trkpt>
      <trkpt lat="41.885699" lon="-87.644242">
      </trkpt>
      <trkpt lat="41.885686" lon="-87.645903">
      </trkpt>
      <trkpt lat="41.857367" lon="-87.644363">
      </trkpt>
      <trkpt lat="41.852447" lon="-87.645793">
      </trkpt>
      <trkpt lat="41.849097" lon="-87.644333">
      </trkpt>
      <trkpt lat="41.847746" lon="-87.643981">
      </trkpt>
      <trkpt lat="41.846776" lon="-87.644894">
      </trkpt>
      <trkpt lat="41.845121" lon="-87.652275">
      </trkpt>
      <trkpt lat="41.838058" lon="-87.666643">
      </trkpt>
      <trkpt lat="41.837422" lon="-87.669478">
      </trkpt>
      <trkpt lat="41.837483" lon="-87.674176">
      </trkpt>
      <trkpt lat="41.8377" lon="-87.675396">
      </trkpt>
      <trkpt lat="41.848542" lon="-87.675739">
      </trkpt>
      <trkpt lat="41.848385" lon="-87.676155">
      </trkpt>
      <trkpt lat="41.848385" lon="-87.676155">
      </trkpt>
      <trkpt lat="41.848542" lon="-87.675739">
      </trkpt>
      <trkpt lat="41.837577" lon="-87.675532">
      </trkpt>
      <trkpt lat="41.837403" lon="-87.66757">
      </trkpt>
      <trkpt lat="41.844887" lon="-87.651867">
      </trkpt>
      <trkpt lat="41.847012" lon="-87.642765">
      </trkpt>
      <trkpt lat="41.847976" lon="-87.616851">
      </trkpt>
      <trkpt lat="41.848153" lon="-87.613392">
      </trkpt>
      <trkpt lat="41.84938" lon="-87.612168">
      </trkpt>
      <trkpt lat="41.8661" lon="-87.619244">
      </trkpt>
      <trkpt lat="41.869799" lon="-87.617003">
      </trkpt>
      <trkpt lat="41.881825" lon="-87.617167">
      </trkpt>
      <trkpt lat="41.884762" lon="-87.613645">
      </trkpt>
      <trkpt lat="41.89273" lon="-87.614003">
      </trkpt>
      <trkpt lat="41.900921" lon="-87.619441">
      </trkpt>
      <trkpt lat="41.902893" lon="-87.624048">
      </trkpt>
      <trkpt lat="41.928415" lon="-87.631851">
      </trkpt>
      <trkpt lat="41.934381" lon="-87.632152">
      </trkpt>
      <trkpt lat="41.939073" lon="-87.63676">
      </trkpt>
      <trkpt lat="41.940568" lon="-87.638088">
      </trkpt>
      <trkpt lat="41.939973" lon="-87.649275">
      </trkpt>
      <trkpt lat="41.936386" lon="-87.64915">
      </trkpt>
      <trkpt lat="41.936154" lon="-87.661245">
      </trkpt>
      <trkpt lat="41.936537" lon="-87.661241">
      </trkpt>
      <trkpt lat="41.936537" lon="-87.661241">
      </trkpt>
      <trkpt lat="41.932518" lon="-87.661134">
      </trkpt>
      <trkpt lat="41.9324" lon="-87.668452">
      </trkpt>
      <trkpt lat="41.921563" lon="-87.668616">
      </trkpt>
      <trkpt lat="41.921395" lon="-87.677255">
      </trkpt>
      <trkpt lat="41.918139" lon="-87.671115">
      </trkpt>
      <trkpt lat="41.915543" lon="-87.668247">
      </trkpt>
      <trkpt lat="41.909975" lon="-87.664752">
      </trkpt>
      <trkpt lat="41.906635" lon="-87.661559">
      </trkpt>
      <trkpt lat="41.900902" lon="-87.660921">
      </trkpt>
      <trkpt lat="41.896968" lon="-87.659049">
      </trkpt>
      <trkpt lat="41.895018" lon="-87.657114">
      </trkpt>
      <trkpt lat="41.891931" lon="-87.653963">
      </trkpt>
      <trkpt lat="41.892554" lon="-87.651034">
      </trkpt>
      <trkpt lat="41.892404" lon="-87.634077">
      </trkpt>
      <trkpt lat="41.890774" lon="-87.634037">
      </trkpt>
      <trkpt lat="41.890784" lon="-87.633354">
      </trkpt>
      <trkpt lat="41.890784" lon="-87.633354">
      </trkpt>
      <trkpt lat="41.890795" lon="-87.632484">
      </trkpt>
      <trkpt lat="41.8916" lon="-87.6325">
      </trkpt>
      <trkpt lat="41.890639" lon="-87.687286">
      </trkpt>
      <trkpt lat="41.896575" lon="-87.702222">
      </trkpt>
      <trkpt lat="41.902777" lon="-87.702311">
      </trkpt>
      <trkpt lat="41.907558" lon="-87.701241">
      </trkpt>
      <trkpt lat="41.909737" lon="-87.701859">
      </trkpt>
      <trkpt lat="41.915629" lon="-87.702035">
      </trkpt>
      <trkpt lat="41.915612" lon="-87.703717">
      </trkpt>
    </trkseg>
  </trk>
</gpx>