<?xml version="1.0" encoding="UTF-8"?>
<gpx xmlns="http://www.topografix.com/GPX/1/1" xmlns:xsi="http://www.w3.org/2001/XMLSchema-instance" xsi:schemaLocation="http://www.topografix.com/GPX/1/1 http://www.topografix.com/GPX/1/1/gpx.xsd" version="1.1" creator="gpx.py -- https://github.com/tkrajina/gpxpy">
  <trk>
    <trkseg>
      <trkpt lat="41.972674" lon="-87.660107">
      </trkpt>
      <trkpt lat="41.972678" lon="-87.659771">
      </trkpt>
      <trkpt lat="41.969021" lon="-87.659673">
      </trkpt>
      <trkpt lat="41.968876" lon="-87.669477">
      </trkpt>
      <trkpt lat="41.954302" lon="-87.66911">
      </trkpt>
      <trkpt lat="41.954086" lon="-87.688469">
      </trkpt>
      <trkpt lat="41.910324" lon="-87.687207">
      </trkpt>
      <trkpt lat="41.910165" lon="-87.701875">
      </trkpt>
      <trkpt lat="41.907558" lon="-87.701241">
      </trkpt>
      <trkpt lat="41.902777" lon="-87.702311">
      </trkpt>
      <trkpt lat="41.895594" lon="-87.702191">
      </trkpt>
      <trkpt lat="41.895606" lon="-87.701213">
      </trkpt>
      <trkpt lat="41.895606" lon="-87.701213">
      </trkpt>
      <trkpt lat="41.895912" lon="-87.677057">
      </trkpt>
      <trkpt lat="41.903184" lon="-87.677276">
      </trkpt>
      <trkpt lat="41.903202" lon="-87.676231">
      </trkpt>
      <trkpt lat="41.903202" lon="-87.676231">
      </trkpt>
      <trkpt lat="41.903184" lon="-87.677276">
      </trkpt>
      <trkpt lat="41.925839" lon="-87.677923">
      </trkpt>
      <trkpt lat="41.939039" lon="-87.69781">
      </trkpt>
      <trkpt lat="41.956867" lon="-87.698335">
      </trkpt>
      <trkpt lat="41.956867" lon="-87.698335">
      </trkpt>
      <trkpt lat="41.921208" lon="-87.697302">
      </trkpt>
      <trkpt lat="41.919347" lon="-87.694257">
      </trkpt>
      <trkpt lat="41.918735" lon="-87.694965">
      </trkpt>
      <trkpt lat="41.918735" lon="-87.694965">
      </trkpt>
      <trkpt lat="41.918384" lon="-87.695371">
      </trkpt>
      <trkpt lat="41.91752" lon="-87.694174">
      </trkpt>
      <trkpt lat="41.917494" lon="-87.697194">
      </trkpt>
      <trkpt lat="41.922902" lon="-87.697351">
      </trkpt>
      <trkpt lat="41.932003" lon="-87.712293">
      </trkpt>
      <trkpt lat="41.934031" lon="-87.712351">
      </trkpt>
      <trkpt lat="41.934379" lon="-87.711981">
      </trkpt>
      <trkpt lat="41.934379" lon="-87.711981">
      </trkpt>
      <trkpt lat="41.935677" lon="-87.710651">
      </trkpt>
      <trkpt lat="41.935654" lon="-87.712341">
      </trkpt>
      <trkpt lat="41.935735" lon="-87.712392">
      </trkpt>
      <trkpt lat="41.937474" lon="-87.712442">
      </trkpt>
      <trkpt lat="41.937466" lon="-87.712967">
      </trkpt>
      <trkpt lat="41.936135" lon="-87.714412">
      </trkpt>
      <trkpt lat="41.936135" lon="-87.714412">
      </trkpt>
      <trkpt lat="41.934451" lon="-87.716242">
      </trkpt>
      <trkpt lat="41.933888" lon="-87.715323">
      </trkpt>
      <trkpt lat="41.936607" lon="-87.712419">
      </trkpt>
      <trkpt lat="41.946565" lon="-87.712704">
      </trkpt>
      <trkpt lat="41.946686" lon="-87.698037">
      </trkpt>
      <trkpt lat="41.953982" lon="-87.698254">
      </trkpt>
      <trkpt lat="41.954667" lon="-87.644162">
      </trkpt>
      <trkpt lat="41.95795" lon="-87.64569">
      </trkpt>
      <trkpt lat="41.960253" lon="-87.646094">
      </trkpt>
      <trkpt lat="41.962086" lon="-87.645534">
      </trkpt>
      <trkpt lat="41.962798" lon="-87.639779">
      </trkpt>
      <trkpt lat="41.963606" lon="-87.638571">
      </trkpt>
      <trkpt lat="41.963606" lon="-87.638571">
      </trkpt>
      <trkpt lat="41.963341" lon="-87.638723">
      </trkpt>
      <trkpt lat="41.963055" lon="-87.639059">
      </trkpt>
      <trkpt lat="41.962786" lon="-87.639836">
      </trkpt>
      <trkpt lat="41.961908" lon="-87.646878">
      </trkpt>
      <trkpt lat="41.959711" lon="-87.646746">
      </trkpt>
      <trkpt lat="41.958545" lon="-87.646481">
      </trkpt>
      <trkpt lat="41.958463" lon="-87.652">
      </trkpt>
      <trkpt lat="41.958463" lon="-87.652">
      </trkpt>
      <trkpt lat="41.958545" lon="-87.646481">
      </trkpt>
      <trkpt lat="41.961908" lon="-87.646878">
      </trkpt>
      <trkpt lat="41.955203" lon="-87.644905">
      </trkpt>
      <trkpt lat="41.950978" lon="-87.644611">
      </trkpt>
      <trkpt lat="41.942042" lon="-87.639566">
      </trkpt>
      <trkpt lat="41.940268" lon="-87.638796">
      </trkpt>
      <trkpt lat="41.940119" lon="-87.639537">
      </trkpt>
      <trkpt lat="41.936919" lon="-87.639435">
      </trkpt>
      <trkpt lat="41.936919" lon="-87.639435">
      </trkpt>
      <trkpt lat="41.936919" lon="-87.639435">
      </trkpt>
      <trkpt lat="41.936919" lon="-87.639435">
      </trkpt>
      <trkpt lat="41.940119" lon="-87.639537">
      </trkpt>
      <trkpt lat="41.940568" lon="-87.638088">
      </trkpt>
      <trkpt lat="41.942275" lon="-87.639469">
      </trkpt>
      <trkpt lat="41.950931" lon="-87.644376">
      </trkpt>
      <trkpt lat="41.951655" lon="-87.644581">
      </trkpt>
      <trkpt lat="41.952992" lon="-87.644572">
      </trkpt>
      <trkpt lat="41.954667" lon="-87.644162">
      </trkpt>
      <trkpt lat="41.95429" lon="-87.673794">
      </trkpt>
      <trkpt lat="41.952396" lon="-87.673756">
      </trkpt>
      <trkpt lat="41.952401" lon="-87.673469">
      </trkpt>
      <trkpt lat="41.952401" lon="-87.673469">
      </trkpt>
      <trkpt lat="41.952396" lon="-87.673756">
      </trkpt>
      <trkpt lat="41.946929" lon="-87.67359">
      </trkpt>
      <trkpt lat="41.946928" lon="-87.673726">
      </trkpt>
      <trkpt lat="41.939809" lon="-87.668729">
      </trkpt>
      <trkpt lat="41.936111" lon="-87.663682">
      </trkpt>
      <trkpt lat="41.927039" lon="-87.663383">
      </trkpt>
      <trkpt lat="41.927018" lon="-87.664639">
      </trkpt>
      <trkpt lat="41.926889" lon="-87.664634">
      </trkpt>
      <trkpt lat="41.926889" lon="-87.664634">
      </trkpt>
      <trkpt lat="41.925197" lon="-87.664567">
      </trkpt>
      <trkpt lat="41.925139" lon="-87.669348">
      </trkpt>
      <trkpt lat="41.927377" lon="-87.672465">
      </trkpt>
      <trkpt lat="41.932278" lon="-87.678134">
      </trkpt>
      <trkpt lat="41.939468" lon="-87.688003">
      </trkpt>
      <trkpt lat="41.939421" lon="-87.695268">
      </trkpt>
      <trkpt lat="41.940262" lon="-87.695246">
      </trkpt>
      <trkpt lat="41.940229" lon="-87.69448">
      </trkpt>
      <trkpt lat="41.940836" lon="-87.694671">
      </trkpt>
      <trkpt lat="41.940836" lon="-87.694671">
      </trkpt>
      <trkpt lat="41.940307" lon="-87.694511">
      </trkpt>
      <trkpt lat="41.940262" lon="-87.695246">
      </trkpt>
      <trkpt lat="41.939421" lon="-87.695268">
      </trkpt>
      <trkpt lat="41.939468" lon="-87.688003">
      </trkpt>
      <trkpt lat="41.958583" lon="-87.688598">
      </trkpt>
      <trkpt lat="41.958553" lon="-87.693909">
      </trkpt>
      <trkpt lat="41.958567" lon="-87.694067">
      </trkpt>
      <trkpt lat="41.958567" lon="-87.694067">
      </trkpt>
      <trkpt lat="41.958571" lon="-87.69172">
      </trkpt>
      <trkpt lat="41.959467" lon="-87.691746">
      </trkpt>
      <trkpt lat="41.959498" lon="-87.688628">
      </trkpt>
      <trkpt lat="41.955627" lon="-87.688512">
      </trkpt>
      <trkpt lat="41.924902" lon="-87.687645">
      </trkpt>
      <trkpt lat="41.924878" lon="-87.690086">
      </trkpt>
      <trkpt lat="41.925214" lon="-87.690094">
      </trkpt>
      <trkpt lat="41.925214" lon="-87.690094">
      </trkpt>
      <trkpt lat="41.926696" lon="-87.690149">
      </trkpt>
      <trkpt lat="41.926718" lon="-87.687704">
      </trkpt>
      <trkpt lat="41.926885" lon="-87.687672">
      </trkpt>
      <trkpt lat="41.927019" lon="-87.687339">
      </trkpt>
      <trkpt lat="41.926403" lon="-87.686023">
      </trkpt>
      <trkpt lat="41.924962" lon="-87.683686">
      </trkpt>
      <trkpt lat="41.925139" lon="-87.669348">
      </trkpt>
      <trkpt lat="41.921692" lon="-87.664499">
      </trkpt>
      <trkpt lat="41.921692" lon="-87.664499">
      </trkpt>
      <trkpt lat="41.927377" lon="-87.672465">
      </trkpt>
      <trkpt lat="41.932278" lon="-87.678134">
      </trkpt>
      <trkpt lat="41.939468" lon="-87.688003">
      </trkpt>
      <trkpt lat="41.949742" lon="-87.688345">
      </trkpt>
      <trkpt lat="41.949742" lon="-87.688345">
      </trkpt>
      <trkpt lat="41.917587" lon="-87.687413">
      </trkpt>
      <trkpt lat="41.917494" lon="-87.697194">
      </trkpt>
      <trkpt lat="41.912372" lon="-87.697059">
      </trkpt>
      <trkpt lat="41.912356" lon="-87.698734">
      </trkpt>
      <trkpt lat="41.912356" lon="-87.698734">
      </trkpt>
      <trkpt lat="41.912372" lon="-87.697059">
      </trkpt>
      <trkpt lat="41.910223" lon="-87.697029">
      </trkpt>
      <trkpt lat="41.910672" lon="-87.665662">
      </trkpt>
      <trkpt lat="41.910236" lon="-87.665325">
      </trkpt>
      <trkpt lat="41.907574" lon="-87.662271">
      </trkpt>
      <trkpt lat="41.906386" lon="-87.661439">
      </trkpt>
      <trkpt lat="41.901306" lon="-87.661057">
      </trkpt>
      <trkpt lat="41.896667" lon="-87.658834">
      </trkpt>
      <trkpt lat="41.895018" lon="-87.657114">
      </trkpt>
      <trkpt lat="41.889096" lon="-87.6483">
      </trkpt>
      <trkpt lat="41.886973" lon="-87.646614">
      </trkpt>
      <trkpt lat="41.885119" lon="-87.646108">
      </trkpt>
      <trkpt lat="41.883144" lon="-87.646413">
      </trkpt>
      <trkpt lat="41.883178" lon="-87.641266">
      </trkpt>
      <trkpt lat="41.883185" lon="-87.639745">
      </trkpt>
      <trkpt lat="41.883257" lon="-87.624233">
      </trkpt>
      <trkpt lat="41.884366" lon="-87.624344">
      </trkpt>
      <trkpt lat="41.884372" lon="-87.623414">
      </trkpt>
      <trkpt lat="41.884319" lon="-87.621085">
      </trkpt>
      <trkpt lat="41.884319" lon="-87.621085">
      </trkpt>
      <trkpt lat="41.884319" lon="-87.621085">
      </trkpt>
      <trkpt lat="41.884319" lon="-87.621085">
      </trkpt>
      <trkpt lat="41.884316" lon="-87.620576">
      </trkpt>
      <trkpt lat="41.884489" lon="-87.627902">
      </trkpt>
      <trkpt lat="41.882046" lon="-87.627799">
      </trkpt>
      <trkpt lat="41.881801" lon="-87.64573">
      </trkpt>
      <trkpt lat="41.885306" lon="-87.645735">
      </trkpt>
      <trkpt lat="41.888098" lon="-87.647091">
      </trkpt>
      <trkpt lat="41.896345" lon="-87.658063">
      </trkpt>
      <trkpt lat="41.90111" lon="-87.66062">
      </trkpt>
      <trkpt lat="41.907216" lon="-87.661536">
      </trkpt>
      <trkpt lat="41.910145" lon="-87.664439">
      </trkpt>
      <trkpt lat="41.916712" lon="-87.668818">
      </trkpt>
      <trkpt lat="41.920831" lon="-87.675191">
      </trkpt>
      <trkpt lat="41.922669" lon="-87.677815">
      </trkpt>
      <trkpt lat="41.923896" lon="-87.677854">
      </trkpt>
      <trkpt lat="41.922689" lon="-87.675932">
      </trkpt>
      <trkpt lat="41.922689" lon="-87.675932">
      </trkpt>
      <trkpt lat="41.923896" lon="-87.677854">
      </trkpt>
      <trkpt lat="41.932278" lon="-87.678134">
      </trkpt>
      <trkpt lat="41.939468" lon="-87.688003">
      </trkpt>
      <trkpt lat="41.949742" lon="-87.688345">
      </trkpt>
      <trkpt lat="41.949742" lon="-87.688345">
      </trkpt>
      <trkpt lat="41.939587" lon="-87.688146">
      </trkpt>
      <trkpt lat="41.932278" lon="-87.678134">
      </trkpt>
      <trkpt lat="41.92139" lon="-87.677765">
      </trkpt>
      <trkpt lat="41.921395" lon="-87.677255">
      </trkpt>
      <trkpt lat="41.918139" lon="-87.671115">
      </trkpt>
      <trkpt lat="41.915543" lon="-87.668247">
      </trkpt>
      <trkpt lat="41.909975" lon="-87.664752">
      </trkpt>
      <trkpt lat="41.906635" lon="-87.661559">
      </trkpt>
      <trkpt lat="41.901587" lon="-87.661131">
      </trkpt>
      <trkpt lat="41.896968" lon="-87.659049">
      </trkpt>
      <trkpt lat="41.888343" lon="-87.647531">
      </trkpt>
      <trkpt lat="41.885929" lon="-87.646219">
      </trkpt>
      <trkpt lat="41.881827" lon="-87.645999">
      </trkpt>
      <trkpt lat="41.880956" lon="-87.646134">
      </trkpt>
      <trkpt lat="41.87924" lon="-87.64632">
      </trkpt>
      <trkpt lat="41.879202" lon="-87.648452">
      </trkpt>
      <trkpt lat="41.878629" lon="-87.648435">
      </trkpt>
      <trkpt lat="41.878629" lon="-87.648435">
      </trkpt>
      <trkpt lat="41.877929" lon="-87.648413">
      </trkpt>
      <trkpt lat="41.877963" lon="-87.645564">
      </trkpt>
      <trkpt lat="41.880374" lon="-87.645275">
      </trkpt>
      <trkpt lat="41.881847" lon="-87.645355">
      </trkpt>
      <trkpt lat="41.882198" lon="-87.645393">
      </trkpt>
      <trkpt lat="41.885931" lon="-87.64591">
      </trkpt>
      <trkpt lat="41.888483" lon="-87.647404">
      </trkpt>
      <trkpt lat="41.897251" lon="-87.658783">
      </trkpt>
      <trkpt lat="41.901753" lon="-87.660805">
      </trkpt>
      <trkpt lat="41.906443" lon="-87.661061">
      </trkpt>
      <trkpt lat="41.910145" lon="-87.664439">
      </trkpt>
      <trkpt lat="41.915886" lon="-87.668091">
      </trkpt>
      <trkpt lat="41.91815" lon="-87.670574">
      </trkpt>
      <trkpt lat="41.922676" lon="-87.678438">
      </trkpt>
      <trkpt lat="41.924733" lon="-87.681513">
      </trkpt>
      <trkpt lat="41.924902" lon="-87.687645">
      </trkpt>
      <trkpt lat="41.923301" lon="-87.687594">
      </trkpt>
      <trkpt lat="41.923296" lon="-87.687949">
      </trkpt>
      <trkpt lat="41.923296" lon="-87.687949">
      </trkpt>
      <trkpt lat="41.923248" lon="-87.691444">
      </trkpt>
      <trkpt lat="41.924866" lon="-87.691485">
      </trkpt>
      <trkpt lat="41.924616" lon="-87.716986">
      </trkpt>
      <trkpt lat="41.92898" lon="-87.717101">
      </trkpt>
      <trkpt lat="41.92898" lon="-87.717101">
      </trkpt>
      <trkpt lat="41.92898" lon="-87.717101">
      </trkpt>
      <trkpt lat="41.92898" lon="-87.717101">
      </trkpt>
      <trkpt lat="41.924616" lon="-87.716986">
      </trkpt>
      <trkpt lat="41.924722" lon="-87.707229">
      </trkpt>
      <trkpt lat="41.910104" lon="-87.706907">
      </trkpt>
      <trkpt lat="41.910324" lon="-87.687207">
      </trkpt>
      <trkpt lat="41.9085" lon="-87.687155">
      </trkpt>
      <trkpt lat="41.908488" lon="-87.688401">
      </trkpt>
      <trkpt lat="41.908677" lon="-87.688406">
      </trkpt>
      <trkpt lat="41.908677" lon="-87.688406">
      </trkpt>
      <trkpt lat="41.910319" lon="-87.688449">
      </trkpt>
      <trkpt lat="41.910324" lon="-87.687207">
      </trkpt>
      <trkpt lat="41.924902" lon="-87.687645">
      </trkpt>
      <trkpt lat="41.924878" lon="-87.690086">
      </trkpt>
      <trkpt lat="41.925214" lon="-87.690094">
      </trkpt>
      <trkpt lat="41.925214" lon="-87.690094">
      </trkpt>
      <trkpt lat="41.926696" lon="-87.690149">
      </trkpt>
      <trkpt lat="41.926718" lon="-87.687704">
      </trkpt>
      <trkpt lat="41.917587" lon="-87.687413">
      </trkpt>
      <trkpt lat="41.917494" lon="-87.697194">
      </trkpt>
      <trkpt lat="41.912372" lon="-87.697059">
      </trkpt>
      <trkpt lat="41.912356" lon="-87.698734">
      </trkpt>
      <trkpt lat="41.912356" lon="-87.698734">
      </trkpt>
      <trkpt lat="41.912372" lon="-87.697059">
      </trkpt>
      <trkpt lat="41.910223" lon="-87.697029">
      </trkpt>
      <trkpt lat="41.910324" lon="-87.687207">
      </trkpt>
      <trkpt lat="41.903025" lon="-87.687018">
      </trkpt>
      <trkpt lat="41.903226" lon="-87.674833">
      </trkpt>
      <trkpt lat="41.902204" lon="-87.674795">
      </trkpt>
      <trkpt lat="41.902204" lon="-87.674795">
      </trkpt>
      <trkpt lat="41.901404" lon="-87.674763">
      </trkpt>
      <trkpt lat="41.901426" lon="-87.673548">
      </trkpt>
      <trkpt lat="41.903247" lon="-87.673606">
      </trkpt>
      <trkpt lat="41.903351" lon="-87.667439">
      </trkpt>
      <trkpt lat="41.910635" lon="-87.667641">
      </trkpt>
      <trkpt lat="41.910674" lon="-87.664445">
      </trkpt>
      <trkpt lat="41.915886" lon="-87.668091">
      </trkpt>
      <trkpt lat="41.91815" lon="-87.670574">
      </trkpt>
      <trkpt lat="41.940439" lon="-87.709664">
      </trkpt>
      <trkpt lat="41.942387" lon="-87.715161">
      </trkpt>
      <trkpt lat="41.947406" lon="-87.71887">
      </trkpt>
      <trkpt lat="41.950079" lon="-87.723791">
      </trkpt>
      <trkpt lat="41.952511" lon="-87.727575">
      </trkpt>
      <trkpt lat="41.95365" lon="-87.727612">
      </trkpt>
      <trkpt lat="41.953712" lon="-87.719156">
      </trkpt>
      <trkpt lat="41.953111" lon="-87.718284">
      </trkpt>
      <trkpt lat="41.953111" lon="-87.718284">
      </trkpt>
      <trkpt lat="41.953712" lon="-87.719156">
      </trkpt>
      <trkpt lat="41.953985" lon="-87.688469">
      </trkpt>
      <trkpt lat="41.949742" lon="-87.688345">
      </trkpt>
      <trkpt lat="41.949742" lon="-87.688345">
      </trkpt>
      <trkpt lat="41.910324" lon="-87.687207">
      </trkpt>
      <trkpt lat="41.910165" lon="-87.701875">
      </trkpt>
      <trkpt lat="41.907241" lon="-87.70125">
      </trkpt>
      <trkpt lat="41.902886" lon="-87.702278">
      </trkpt>
      <trkpt lat="41.902888" lon="-87.701605">
      </trkpt>
      <trkpt lat="41.902888" lon="-87.701605">
      </trkpt>
      <trkpt lat="41.902888" lon="-87.701605">
      </trkpt>
      <trkpt lat="41.902888" lon="-87.701605">
      </trkpt>
      <trkpt lat="41.902928" lon="-87.696883">
      </trkpt>
      <trkpt lat="41.895661" lon="-87.696699">
      </trkpt>
      <trkpt lat="41.896586" lon="-87.63421">
      </trkpt>
      <trkpt lat="41.898867" lon="-87.634293">
      </trkpt>
      <trkpt lat="41.898867" lon="-87.634293">
      </trkpt>
      <trkpt lat="41.90053" lon="-87.63435">
      </trkpt>
      <trkpt lat="41.900546" lon="-87.632901">
      </trkpt>
      <trkpt lat="41.899913" lon="-87.632884">
      </trkpt>
      <trkpt lat="41.899913" lon="-87.632884">
      </trkpt>
      <trkpt lat="41.899245" lon="-87.632866">
      </trkpt>
      <trkpt lat="41.90389" lon="-87.632844">
      </trkpt>
      <trkpt lat="41.903768" lon="-87.639563">
      </trkpt>
      <trkpt lat="41.917207" lon="-87.658278">
      </trkpt>
      <trkpt lat="41.921676" lon="-87.65834">
      </trkpt>
      <trkpt lat="41.921657" lon="-87.659737">
      </trkpt>
      <trkpt lat="41.921657" lon="-87.659737">
      </trkpt>
      <trkpt lat="41.921657" lon="-87.659737">
      </trkpt>
      <trkpt lat="41.921657" lon="-87.659737">
      </trkpt>
      <trkpt lat="41.921626" lon="-87.6632">
      </trkpt>
      <trkpt lat="41.933389" lon="-87.663583">
      </trkpt>
      <trkpt lat="41.933396" lon="-87.663146">
      </trkpt>
      <trkpt lat="41.933396" lon="-87.663146">
      </trkpt>
      <trkpt lat="41.933389" lon="-87.663583">
      </trkpt>
      <trkpt lat="41.936111" lon="-87.663682">
      </trkpt>
      <trkpt lat="41.937916" lon="-87.666175">
      </trkpt>
      <trkpt lat="41.937875" lon="-87.669017">
      </trkpt>
      <trkpt lat="41.937875" lon="-87.669017">
      </trkpt>
      <trkpt lat="41.937845" lon="-87.671019">
      </trkpt>
      <trkpt lat="41.93237" lon="-87.670818">
      </trkpt>
      <trkpt lat="41.932278" lon="-87.678134">
      </trkpt>
      <trkpt lat="41.925026" lon="-87.677893">
      </trkpt>
      <trkpt lat="41.924981" lon="-87.681912">
      </trkpt>
      <trkpt lat="41.926707" lon="-87.685177">
      </trkpt>
      <trkpt lat="41.940439" lon="-87.709664">
      </trkpt>
      <trkpt lat="41.942208" lon="-87.714861">
      </trkpt>
      <trkpt lat="41.947985" lon="-87.719618">
      </trkpt>
      <trkpt lat="41.958569" lon="-87.738838">
      </trkpt>
      <trkpt lat="41.960451" lon="-87.741371">
      </trkpt>
      <trkpt lat="41.960845" lon="-87.74187">
      </trkpt>
      <trkpt lat="41.960081" lon="-87.794161">
      </trkpt>
      <trkpt lat="41.949144" lon="-87.816945">
      </trkpt>
      <trkpt lat="41.941072" lon="-87.816641">
      </trkpt>
      <trkpt lat="41.941072" lon="-87.816641">
      </trkpt>
      <trkpt lat="41.939617" lon="-87.816587">
      </trkpt>
      <trkpt lat="41.939594" lon="-87.817797">
      </trkpt>
      <trkpt lat="41.948419" lon="-87.818384">
      </trkpt>
      <trkpt lat="41.958438" lon="-87.797713">
      </trkpt>
      <trkpt lat="41.968342" lon="-87.797737">
      </trkpt>
      <trkpt lat="41.96853" lon="-87.778289">
      </trkpt>
      <trkpt lat="41.967665" lon="-87.77728">
      </trkpt>
      <trkpt lat="41.968033" lon="-87.747723">
      </trkpt>
      <trkpt lat="41.972896" lon="-87.747918">
      </trkpt>
      <trkpt lat="41.972794" lon="-87.747761">
      </trkpt>
      <trkpt lat="41.966563" lon="-87.747223">
      </trkpt>
      <trkpt lat="41.963113" lon="-87.745961">
      </trkpt>
      <trkpt lat="41.960129" lon="-87.742125">
      </trkpt>
      <trkpt lat="41.947613" lon="-87.719592">
      </trkpt>
      <trkpt lat="41.94215" lon="-87.715306">
      </trkpt>
      <trkpt lat="41.940524" lon="-87.710219">
      </trkpt>
      <trkpt lat="41.933659" lon="-87.698173">
      </trkpt>
      <trkpt lat="41.919706" lon="-87.673831">
      </trkpt>
      <trkpt lat="41.918264" lon="-87.671882">
      </trkpt>
      <trkpt lat="41.917859" lon="-87.671887">
      </trkpt>
      <trkpt lat="41.91776" lon="-87.677621">
      </trkpt>
      <trkpt lat="41.908257" lon="-87.677416">
      </trkpt>
      <trkpt lat="41.908243" lon="-87.678238">
      </trkpt>
      <trkpt lat="41.908243" lon="-87.678238">
      </trkpt>
      <trkpt lat="41.908173" lon="-87.682288">
      </trkpt>
      <trkpt lat="41.903106" lon="-87.68215">
      </trkpt>
      <trkpt lat="41.902599" lon="-87.731211">
      </trkpt>
      <trkpt lat="41.897122" lon="-87.731064">
      </trkpt>
      <trkpt lat="41.897055" lon="-87.73476">
      </trkpt>
      <trkpt lat="41.896294" lon="-87.734739">
      </trkpt>
      <trkpt lat="41.896294" lon="-87.734739">
      </trkpt>
      <trkpt lat="41.895208" lon="-87.734711">
      </trkpt>
      <trkpt lat="41.895105" lon="-87.740786">
      </trkpt>
      <trkpt lat="41.894697" lon="-87.740706">
      </trkpt>
      <trkpt lat="41.893455" lon="-87.73837">
      </trkpt>
      <trkpt lat="41.886183" lon="-87.738104">
      </trkpt>
      <trkpt lat="41.885745" lon="-87.730716">
      </trkpt>
      <trkpt lat="41.883568" lon="-87.730649">
      </trkpt>
      <trkpt lat="41.883568" lon="-87.730649">
      </trkpt>
      <trkpt lat="41.883305" lon="-87.730641">
      </trkpt>
      <trkpt lat="41.883366" lon="-87.725734">
      </trkpt>
      <trkpt lat="41.89537" lon="-87.726081">
      </trkpt>
      <trkpt lat="41.895421" lon="-87.72121">
      </trkpt>
      <trkpt lat="41.909928" lon="-87.721646">
      </trkpt>
      <trkpt lat="41.909964" lon="-87.718643">
      </trkpt>
      <trkpt lat="41.909964" lon="-87.718643">
      </trkpt>
      <trkpt lat="41.910104" lon="-87.706907">
      </trkpt>
      <trkpt lat="41.898325" lon="-87.706651">
      </trkpt>
      <trkpt lat="41.896575" lon="-87.702222">
      </trkpt>
      <trkpt lat="41.891131" lon="-87.701974">
      </trkpt>
      <trkpt lat="41.889426" lon="-87.701479">
      </trkpt>
      <trkpt lat="41.877385" lon="-87.70111">
      </trkpt>
      <trkpt lat="41.877461" lon="-87.693785">
      </trkpt>
      <trkpt lat="41.878371" lon="-87.693796">
      </trkpt>
      <trkpt lat="41.878346" lon="-87.696046">
      </trkpt>
    </trkseg>
  </trk>
</gpx>