<?xml version="1.0" encoding="UTF-8"?>
<gpx xmlns="http://www.topografix.com/GPX/1/1" xmlns:xsi="http://www.w3.org/2001/XMLSchema-instance" xsi:schemaLocation="http://www.topografix.com/GPX/1/1 http://www.topografix.com/GPX/1/1/gpx.xsd" version="1.1" creator="gpx.py -- https://github.com/tkrajina/gpxpy">
  <trk>
    <trkseg>
      <trkpt lat="41.996357" lon="-87.663308">
      </trkpt>
      <trkpt lat="41.996348" lon="-87.664158">
      </trkpt>
      <trkpt lat="41.99452" lon="-87.664109">
      </trkpt>
      <trkpt lat="41.994013" lon="-87.69709">
      </trkpt>
      <trkpt lat="41.992791" lon="-87.697047">
      </trkpt>
      <trkpt lat="41.992791" lon="-87.697047">
      </trkpt>
      <trkpt lat="41.990463" lon="-87.696964">
      </trkpt>
      <trkpt lat="41.99044" lon="-87.689669">
      </trkpt>
      <trkpt lat="41.955627" lon="-87.688512">
      </trkpt>
      <trkpt lat="41.946744" lon="-87.688245">
      </trkpt>
      <trkpt lat="41.94665" lon="-87.705359">
      </trkpt>
      <trkpt lat="41.943085" lon="-87.705281">
      </trkpt>
      <trkpt lat="41.943085" lon="-87.705281">
      </trkpt>
      <trkpt lat="41.942755" lon="-87.70527">
      </trkpt>
      <trkpt lat="41.942795" lon="-87.697932">
      </trkpt>
      <trkpt lat="41.946686" lon="-87.698037">
      </trkpt>
      <trkpt lat="41.946744" lon="-87.688245">
      </trkpt>
      <trkpt lat="42.005024" lon="-87.690071">
      </trkpt>
      <trkpt lat="42.005209" lon="-87.680175">
      </trkpt>
      <trkpt lat="42.007344" lon="-87.681159">
      </trkpt>
      <trkpt lat="42.007313" lon="-87.682735">
      </trkpt>
      <trkpt lat="42.007313" lon="-87.682735">
      </trkpt>
      <trkpt lat="42.00729" lon="-87.683904">
      </trkpt>
      <trkpt lat="42.008875" lon="-87.683963">
      </trkpt>
      <trkpt lat="42.008959" lon="-87.682033">
      </trkpt>
      <trkpt lat="42.008899" lon="-87.681855">
      </trkpt>
      <trkpt lat="42.012318" lon="-87.683076">
      </trkpt>
      <trkpt lat="42.01647" lon="-87.674345">
      </trkpt>
      <trkpt lat="42.01647" lon="-87.674345">
      </trkpt>
      <trkpt lat="42.016061" lon="-87.675204">
      </trkpt>
      <trkpt lat="42.017327" lon="-87.675457">
      </trkpt>
      <trkpt lat="42.01941" lon="-87.676332">
      </trkpt>
      <trkpt lat="42.019532" lon="-87.690179">
      </trkpt>
      <trkpt lat="42.019106" lon="-87.712298">
      </trkpt>
      <trkpt lat="42.019106" lon="-87.712298">
      </trkpt>
      <trkpt lat="42.019106" lon="-87.712298">
      </trkpt>
      <trkpt lat="42.019106" lon="-87.712298">
      </trkpt>
      <trkpt lat="42.019106" lon="-87.712298">
      </trkpt>
      <trkpt lat="42.019106" lon="-87.712298">
      </trkpt>
      <trkpt lat="42.019532" lon="-87.690179">
      </trkpt>
      <trkpt lat="42.017434" lon="-87.690195">
      </trkpt>
      <trkpt lat="42.017434" lon="-87.68887">
      </trkpt>
      <trkpt lat="42.015997" lon="-87.688882">
      </trkpt>
      <trkpt lat="42.015997" lon="-87.688882">
      </trkpt>
      <trkpt lat="42.012272" lon="-87.68891">
      </trkpt>
      <trkpt lat="42.012227" lon="-87.683329">
      </trkpt>
      <trkpt lat="42.01647" lon="-87.674345">
      </trkpt>
      <trkpt lat="42.01647" lon="-87.674345">
      </trkpt>
      <trkpt lat="42.017329" lon="-87.672527">
      </trkpt>
      <trkpt lat="42.014891" lon="-87.672443">
      </trkpt>
      <trkpt lat="42.014968" lon="-87.668332">
      </trkpt>
      <trkpt lat="42.014935" lon="-87.668268">
      </trkpt>
      <trkpt lat="42.014939" lon="-87.66788">
      </trkpt>
      <trkpt lat="42.014972" lon="-87.667802">
      </trkpt>
      <trkpt lat="42.014978" lon="-87.667467">
      </trkpt>
      <trkpt lat="42.014978" lon="-87.667467">
      </trkpt>
      <trkpt lat="42.014929" lon="-87.670267">
      </trkpt>
      <trkpt lat="42.012718" lon="-87.670195">
      </trkpt>
      <trkpt lat="42.012511" lon="-87.682294">
      </trkpt>
      <trkpt lat="42.012621" lon="-87.682444">
      </trkpt>
      <trkpt lat="42.011826" lon="-87.711447">
      </trkpt>
      <trkpt lat="42.004623" lon="-87.711658">
      </trkpt>
      <trkpt lat="42.004647" lon="-87.761818">
      </trkpt>
      <trkpt lat="41.997387" lon="-87.763778">
      </trkpt>
      <trkpt lat="41.997348" lon="-87.787876">
      </trkpt>
      <trkpt lat="41.996914" lon="-87.787492">
      </trkpt>
      <trkpt lat="41.964947" lon="-87.788044">
      </trkpt>
      <trkpt lat="41.962988" lon="-87.786909">
      </trkpt>
      <trkpt lat="41.960205" lon="-87.786816">
      </trkpt>
      <trkpt lat="41.960061" lon="-87.794287">
      </trkpt>
      <trkpt lat="41.946631" lon="-87.822074">
      </trkpt>
      <trkpt lat="41.937842" lon="-87.821404">
      </trkpt>
      <trkpt lat="41.937866" lon="-87.820185">
      </trkpt>
      <trkpt lat="41.936076" lon="-87.820102">
      </trkpt>
      <trkpt lat="41.936062" lon="-87.820727">
      </trkpt>
      <trkpt lat="41.934634" lon="-87.82067">
      </trkpt>
      <trkpt lat="41.934634" lon="-87.82067">
      </trkpt>
      <trkpt lat="41.934634" lon="-87.82067">
      </trkpt>
      <trkpt lat="41.934634" lon="-87.82067">
      </trkpt>
      <trkpt lat="41.93424" lon="-87.820654">
      </trkpt>
      <trkpt lat="41.934229" lon="-87.821275">
      </trkpt>
      <trkpt lat="41.937842" lon="-87.821404">
      </trkpt>
      <trkpt lat="41.937819" lon="-87.822616">
      </trkpt>
      <trkpt lat="41.945136" lon="-87.82292">
      </trkpt>
      <trkpt lat="41.945095" lon="-87.824627">
      </trkpt>
      <trkpt lat="41.958438" lon="-87.797713">
      </trkpt>
      <trkpt lat="41.968342" lon="-87.797737">
      </trkpt>
      <trkpt lat="41.96853" lon="-87.778289">
      </trkpt>
      <trkpt lat="41.967665" lon="-87.77728">
      </trkpt>
      <trkpt lat="41.968033" lon="-87.747723">
      </trkpt>
      <trkpt lat="41.972896" lon="-87.747918">
      </trkpt>
      <trkpt lat="41.972794" lon="-87.747761">
      </trkpt>
      <trkpt lat="41.966563" lon="-87.747223">
      </trkpt>
      <trkpt lat="41.962358" lon="-87.745232">
      </trkpt>
      <trkpt lat="41.947613" lon="-87.719592">
      </trkpt>
      <trkpt lat="41.94215" lon="-87.715306">
      </trkpt>
      <trkpt lat="41.940372" lon="-87.709927">
      </trkpt>
      <trkpt lat="41.917654" lon="-87.670146">
      </trkpt>
      <trkpt lat="41.906646" lon="-87.66137">
      </trkpt>
      <trkpt lat="41.897394" lon="-87.659066">
      </trkpt>
      <trkpt lat="41.892534" lon="-87.653065">
      </trkpt>
      <trkpt lat="41.892368" lon="-87.63704">
      </trkpt>
      <trkpt lat="41.902837" lon="-87.637419">
      </trkpt>
      <trkpt lat="41.902843" lon="-87.636893">
      </trkpt>
      <trkpt lat="41.902843" lon="-87.636893">
      </trkpt>
      <trkpt lat="41.902837" lon="-87.637419">
      </trkpt>
      <trkpt lat="41.900496" lon="-87.637329">
      </trkpt>
      <trkpt lat="41.9006" lon="-87.628335">
      </trkpt>
      <trkpt lat="41.900747" lon="-87.62834">
      </trkpt>
      <trkpt lat="41.900781" lon="-87.626352">
      </trkpt>
      <trkpt lat="41.900781" lon="-87.626352">
      </trkpt>
      <trkpt lat="41.900824" lon="-87.624042">
      </trkpt>
      <trkpt lat="41.912141" lon="-87.62589">
      </trkpt>
      <trkpt lat="41.928415" lon="-87.631851">
      </trkpt>
      <trkpt lat="41.934381" lon="-87.632152">
      </trkpt>
      <trkpt lat="41.941219" lon="-87.638833">
      </trkpt>
      <trkpt lat="41.950931" lon="-87.644376">
      </trkpt>
      <trkpt lat="41.973046" lon="-87.648738">
      </trkpt>
      <trkpt lat="41.984951" lon="-87.652803">
      </trkpt>
      <trkpt lat="41.985556" lon="-87.655253">
      </trkpt>
      <trkpt lat="41.997803" lon="-87.655634">
      </trkpt>
      <trkpt lat="41.998196" lon="-87.659646">
      </trkpt>
      <trkpt lat="42.000436" lon="-87.660721">
      </trkpt>
      <trkpt lat="42.000414" lon="-87.663148">
      </trkpt>
      <trkpt lat="41.998978" lon="-87.663104">
      </trkpt>
      <trkpt lat="41.998978" lon="-87.663104">
      </trkpt>
      <trkpt lat="41.998164" lon="-87.66306">
      </trkpt>
      <trkpt lat="41.998227" lon="-87.656369">
      </trkpt>
      <trkpt lat="41.998011" lon="-87.655748">
      </trkpt>
      <trkpt lat="41.987812" lon="-87.655324">
      </trkpt>
      <trkpt lat="41.987812" lon="-87.655324">
      </trkpt>
      <trkpt lat="41.985556" lon="-87.655253">
      </trkpt>
      <trkpt lat="41.984999" lon="-87.653157">
      </trkpt>
      <trkpt lat="41.981232" lon="-87.652706">
      </trkpt>
      <trkpt lat="41.973006" lon="-87.649079">
      </trkpt>
      <trkpt lat="41.955203" lon="-87.644905">
      </trkpt>
      <trkpt lat="41.950978" lon="-87.644611">
      </trkpt>
      <trkpt lat="41.941067" lon="-87.638957">
      </trkpt>
      <trkpt lat="41.935041" lon="-87.632637">
      </trkpt>
      <trkpt lat="41.927741" lon="-87.631858">
      </trkpt>
      <trkpt lat="41.926001" lon="-87.631853">
      </trkpt>
      <trkpt lat="41.925658" lon="-87.636586">
      </trkpt>
      <trkpt lat="41.92199" lon="-87.63646">
      </trkpt>
      <trkpt lat="41.921954" lon="-87.638941">
      </trkpt>
      <trkpt lat="41.922866" lon="-87.639042">
      </trkpt>
      <trkpt lat="41.922846" lon="-87.64057">
      </trkpt>
      <trkpt lat="41.922846" lon="-87.64057">
      </trkpt>
      <trkpt lat="41.922835" lon="-87.641391">
      </trkpt>
      <trkpt lat="41.921918" lon="-87.641361">
      </trkpt>
      <trkpt lat="41.921814" lon="-87.648652">
      </trkpt>
      <trkpt lat="41.919998" lon="-87.648584">
      </trkpt>
      <trkpt lat="41.919967" lon="-87.65059">
      </trkpt>
      <trkpt lat="41.919967" lon="-87.65059">
      </trkpt>
      <trkpt lat="41.919961" lon="-87.651004">
      </trkpt>
      <trkpt lat="41.918142" lon="-87.65094">
      </trkpt>
      <trkpt lat="41.918178" lon="-87.648523">
      </trkpt>
      <trkpt lat="41.910013" lon="-87.648257">
      </trkpt>
      <trkpt lat="41.903768" lon="-87.639563">
      </trkpt>
      <trkpt lat="41.903886" lon="-87.633004">
      </trkpt>
      <trkpt lat="41.899913" lon="-87.632884">
      </trkpt>
      <trkpt lat="41.899913" lon="-87.632884">
      </trkpt>
      <trkpt lat="41.899245" lon="-87.632866">
      </trkpt>
      <trkpt lat="41.899247" lon="-87.632712">
      </trkpt>
      <trkpt lat="41.901829" lon="-87.632783">
      </trkpt>
      <trkpt lat="41.901883" lon="-87.628373">
      </trkpt>
      <trkpt lat="41.902373" lon="-87.628332">
      </trkpt>
      <trkpt lat="41.903187" lon="-87.628647">
      </trkpt>
      <trkpt lat="41.903229" lon="-87.6269">
      </trkpt>
      <trkpt lat="41.903229" lon="-87.6269">
      </trkpt>
      <trkpt lat="41.903112" lon="-87.632976">
      </trkpt>
      <trkpt lat="41.891597" lon="-87.632696">
      </trkpt>
      <trkpt lat="41.891225" lon="-87.644384">
      </trkpt>
      <trkpt lat="41.885699" lon="-87.644242">
      </trkpt>
      <trkpt lat="41.885686" lon="-87.645903">
      </trkpt>
      <trkpt lat="41.881827" lon="-87.645999">
      </trkpt>
      <trkpt lat="41.880956" lon="-87.646134">
      </trkpt>
      <trkpt lat="41.879569" lon="-87.646145">
      </trkpt>
      <trkpt lat="41.878121" lon="-87.646166">
      </trkpt>
      <trkpt lat="41.877218" lon="-87.646107">
      </trkpt>
      <trkpt lat="41.875597" lon="-87.646972">
      </trkpt>
      <trkpt lat="41.872433" lon="-87.645662">
      </trkpt>
      <trkpt lat="41.869682" lon="-87.645367">
      </trkpt>
      <trkpt lat="41.869671" lon="-87.647045">
      </trkpt>
      <trkpt lat="41.864784" lon="-87.646848">
      </trkpt>
      <trkpt lat="41.864765" lon="-87.647927">
      </trkpt>
      <trkpt lat="41.864765" lon="-87.647927">
      </trkpt>
      <trkpt lat="41.864784" lon="-87.646848">
      </trkpt>
      <trkpt lat="41.86712" lon="-87.646914">
      </trkpt>
      <trkpt lat="41.867295" lon="-87.632549">
      </trkpt>
      <trkpt lat="41.867657" lon="-87.632502">
      </trkpt>
      <trkpt lat="41.867868" lon="-87.632343">
      </trkpt>
      <trkpt lat="41.868904" lon="-87.632533">
      </trkpt>
      <trkpt lat="41.868904" lon="-87.632533">
      </trkpt>
      <trkpt lat="41.867398" lon="-87.632553">
      </trkpt>
      <trkpt lat="41.867254" lon="-87.644095">
      </trkpt>
      <trkpt lat="41.869693" lon="-87.644369">
      </trkpt>
      <trkpt lat="41.869691" lon="-87.644443">
      </trkpt>
      <trkpt lat="41.886906" lon="-87.646327">
      </trkpt>
      <trkpt lat="41.897003" lon="-87.6586">
      </trkpt>
      <trkpt lat="41.906443" lon="-87.661061">
      </trkpt>
      <trkpt lat="41.91562" lon="-87.667879">
      </trkpt>
      <trkpt lat="41.929581" lon="-87.690595">
      </trkpt>
      <trkpt lat="41.932133" lon="-87.694122">
      </trkpt>
      <trkpt lat="41.932179" lon="-87.687832">
      </trkpt>
      <trkpt lat="41.949742" lon="-87.688345">
      </trkpt>
      <trkpt lat="41.949742" lon="-87.688345">
      </trkpt>
      <trkpt lat="41.899379" lon="-87.686926">
      </trkpt>
      <trkpt lat="41.89942" lon="-87.684486">
      </trkpt>
      <trkpt lat="41.89851" lon="-87.684464">
      </trkpt>
      <trkpt lat="41.898492" lon="-87.685574">
      </trkpt>
      <trkpt lat="41.898492" lon="-87.685574">
      </trkpt>
      <trkpt lat="41.89847" lon="-87.686903">
      </trkpt>
      <trkpt lat="41.928661" lon="-87.687706">
      </trkpt>
      <trkpt lat="41.931491" lon="-87.684147">
      </trkpt>
      <trkpt lat="41.932222" lon="-87.683979">
      </trkpt>
      <trkpt lat="41.932728" lon="-87.649013">
      </trkpt>
      <trkpt lat="41.938193" lon="-87.649228">
      </trkpt>
      <trkpt lat="41.939012" lon="-87.649915">
      </trkpt>
      <trkpt lat="41.938982" lon="-87.651855">
      </trkpt>
      <trkpt lat="41.938982" lon="-87.651855">
      </trkpt>
      <trkpt lat="41.938945" lon="-87.654074">
      </trkpt>
      <trkpt lat="41.939918" lon="-87.654106">
      </trkpt>
      <trkpt lat="41.939729" lon="-87.666233">
      </trkpt>
      <trkpt lat="41.944708" lon="-87.666378">
      </trkpt>
      <trkpt lat="41.944708" lon="-87.666378">
      </trkpt>
      <trkpt lat="41.945214" lon="-87.666391">
      </trkpt>
      <trkpt lat="41.945197" lon="-87.667591">
      </trkpt>
      <trkpt lat="41.943365" lon="-87.667539">
      </trkpt>
      <trkpt lat="41.943346" lon="-87.668829">
      </trkpt>
      <trkpt lat="41.939696" lon="-87.668727">
      </trkpt>
      <trkpt lat="41.939467" lon="-87.688141">
      </trkpt>
      <trkpt lat="41.917587" lon="-87.687413">
      </trkpt>
      <trkpt lat="41.917536" lon="-87.692301">
      </trkpt>
      <trkpt lat="41.917031" lon="-87.692287">
      </trkpt>
      <trkpt lat="41.917031" lon="-87.692287">
      </trkpt>
      <trkpt lat="41.917536" lon="-87.692301">
      </trkpt>
      <trkpt lat="41.917587" lon="-87.687413">
      </trkpt>
      <trkpt lat="41.958583" lon="-87.688598">
      </trkpt>
      <trkpt lat="41.958553" lon="-87.693909">
      </trkpt>
      <trkpt lat="41.958567" lon="-87.694067">
      </trkpt>
      <trkpt lat="41.958567" lon="-87.694067">
      </trkpt>
      <trkpt lat="41.958571" lon="-87.69172">
      </trkpt>
      <trkpt lat="41.959467" lon="-87.691746">
      </trkpt>
      <trkpt lat="41.959498" lon="-87.688628">
      </trkpt>
      <trkpt lat="42.012287" lon="-87.69024">
      </trkpt>
      <trkpt lat="42.012258" lon="-87.687558">
      </trkpt>
      <trkpt lat="42.012869" lon="-87.687549">
      </trkpt>
      <trkpt lat="42.012855" lon="-87.686195">
      </trkpt>
      <trkpt lat="42.012766" lon="-87.686196">
      </trkpt>
      <trkpt lat="42.012766" lon="-87.686196">
      </trkpt>
      <trkpt lat="42.012243" lon="-87.686154">
      </trkpt>
      <trkpt lat="42.012217" lon="-87.6836">
      </trkpt>
      <trkpt lat="42.012168" lon="-87.683023">
      </trkpt>
      <trkpt lat="42.008899" lon="-87.681855">
      </trkpt>
      <trkpt lat="42.004103" lon="-87.679672">
      </trkpt>
      <trkpt lat="42.004091" lon="-87.680339">
      </trkpt>
      <trkpt lat="42.000154" lon="-87.680219">
      </trkpt>
      <trkpt lat="42.000135" lon="-87.681431">
      </trkpt>
      <trkpt lat="42.000225" lon="-87.681434">
      </trkpt>
      <trkpt lat="42.000225" lon="-87.681434">
      </trkpt>
      <trkpt lat="41.99968" lon="-87.681418">
      </trkpt>
      <trkpt lat="41.999699" lon="-87.6802">
      </trkpt>
      <trkpt lat="42.00032" lon="-87.680225">
      </trkpt>
      <trkpt lat="42.00037" lon="-87.677934">
      </trkpt>
      <trkpt lat="42.008899" lon="-87.681855">
      </trkpt>
      <trkpt lat="42.012318" lon="-87.683076">
      </trkpt>
      <trkpt lat="42.014222" lon="-87.679075">
      </trkpt>
      <trkpt lat="42.016798" lon="-87.679061">
      </trkpt>
      <trkpt lat="42.016798" lon="-87.679061">
      </trkpt>
      <trkpt lat="42.019436" lon="-87.679035">
      </trkpt>
      <trkpt lat="42.019532" lon="-87.690179">
      </trkpt>
      <trkpt lat="42.019106" lon="-87.712298">
      </trkpt>
      <trkpt lat="42.019106" lon="-87.712298">
      </trkpt>
      <trkpt lat="42.019532" lon="-87.690179">
      </trkpt>
      <trkpt lat="42.019488" lon="-87.684645">
      </trkpt>
      <trkpt lat="42.014829" lon="-87.683956">
      </trkpt>
      <trkpt lat="42.014829" lon="-87.683956">
      </trkpt>
      <trkpt lat="41.994982" lon="-87.675425">
      </trkpt>
      <trkpt lat="41.992132" lon="-87.67531">
      </trkpt>
      <trkpt lat="41.989576" lon="-87.669778">
      </trkpt>
      <trkpt lat="41.985105" lon="-87.662456">
      </trkpt>
      <trkpt lat="41.985586" lon="-87.654178">
      </trkpt>
      <trkpt lat="41.985103" lon="-87.653214">
      </trkpt>
      <trkpt lat="41.981232" lon="-87.652706">
      </trkpt>
      <trkpt lat="41.972134" lon="-87.648822">
      </trkpt>
      <trkpt lat="41.957427" lon="-87.645733">
      </trkpt>
      <trkpt lat="41.955777" lon="-87.645546">
      </trkpt>
      <trkpt lat="41.954634" lon="-87.645235">
      </trkpt>
      <trkpt lat="41.954561" lon="-87.649713">
      </trkpt>
      <trkpt lat="41.955658" lon="-87.649744">
      </trkpt>
      <trkpt lat="41.955693" lon="-87.647826">
      </trkpt>
    </trkseg>
  </trk>
</gpx>