<?xml version="1.0" encoding="UTF-8"?>
<gpx xmlns="http://www.topografix.com/GPX/1/1" xmlns:xsi="http://www.w3.org/2001/XMLSchema-instance" xsi:schemaLocation="http://www.topografix.com/GPX/1/1 http://www.topografix.com/GPX/1/1/gpx.xsd" version="1.1" creator="gpx.py -- https://github.com/tkrajina/gpxpy">
  <trk>
    <trkseg>
      <trkpt lat="41.936919" lon="-87.639435">
      </trkpt>
      <trkpt lat="41.940119" lon="-87.639537">
      </trkpt>
      <trkpt lat="41.940268" lon="-87.638796">
      </trkpt>
      <trkpt lat="41.939931" lon="-87.638606">
      </trkpt>
      <trkpt lat="41.934639" lon="-87.632453">
      </trkpt>
      <trkpt lat="41.928427" lon="-87.632048">
      </trkpt>
      <trkpt lat="41.902733" lon="-87.62421">
      </trkpt>
      <trkpt lat="41.900898" lon="-87.619617">
      </trkpt>
      <trkpt lat="41.892868" lon="-87.614264">
      </trkpt>
      <trkpt lat="41.884928" lon="-87.614127">
      </trkpt>
      <trkpt lat="41.881821" lon="-87.617453">
      </trkpt>
      <trkpt lat="41.869765" lon="-87.617261">
      </trkpt>
      <trkpt lat="41.866208" lon="-87.619588">
      </trkpt>
      <trkpt lat="41.853242" lon="-87.614728">
      </trkpt>
      <trkpt lat="41.849799" lon="-87.613506">
      </trkpt>
      <trkpt lat="41.848332" lon="-87.614886">
      </trkpt>
      <trkpt lat="41.847138" lon="-87.642894">
      </trkpt>
      <trkpt lat="41.845194" lon="-87.652077">
      </trkpt>
      <trkpt lat="41.837422" lon="-87.669478">
      </trkpt>
      <trkpt lat="41.837483" lon="-87.674176">
      </trkpt>
      <trkpt lat="41.836888" lon="-87.675521">
      </trkpt>
      <trkpt lat="41.831825" lon="-87.675328">
      </trkpt>
      <trkpt lat="41.820049" lon="-87.694565">
      </trkpt>
      <trkpt lat="41.815738" lon="-87.694432">
      </trkpt>
      <trkpt lat="41.815738" lon="-87.694432">
      </trkpt>
      <trkpt lat="41.815554" lon="-87.694426">
      </trkpt>
      <trkpt lat="41.815438" lon="-87.702091">
      </trkpt>
      <trkpt lat="41.815976" lon="-87.701213">
      </trkpt>
      <trkpt lat="41.816343" lon="-87.701596">
      </trkpt>
      <trkpt lat="41.81634" lon="-87.701832">
      </trkpt>
      <trkpt lat="41.818275" lon="-87.701899">
      </trkpt>
      <trkpt lat="41.818275" lon="-87.701899">
      </trkpt>
      <trkpt lat="41.819947" lon="-87.701962">
      </trkpt>
      <trkpt lat="41.819907" lon="-87.704422">
      </trkpt>
      <trkpt lat="41.828464" lon="-87.704501">
      </trkpt>
      <trkpt lat="41.830574" lon="-87.699332">
      </trkpt>
      <trkpt lat="41.836711" lon="-87.680385">
      </trkpt>
      <trkpt lat="41.837594" lon="-87.667241">
      </trkpt>
      <trkpt lat="41.843293" lon="-87.655852">
      </trkpt>
      <trkpt lat="41.845419" lon="-87.649388">
      </trkpt>
      <trkpt lat="41.846464" lon="-87.640546">
      </trkpt>
      <trkpt lat="41.845323" lon="-87.634652">
      </trkpt>
      <trkpt lat="41.843183" lon="-87.631778">
      </trkpt>
      <trkpt lat="41.838902" lon="-87.631331">
      </trkpt>
      <trkpt lat="41.812695" lon="-87.630703">
      </trkpt>
      <trkpt lat="41.807383" lon="-87.63223">
      </trkpt>
      <trkpt lat="41.778978" lon="-87.631289">
      </trkpt>
      <trkpt lat="41.773198" lon="-87.626564">
      </trkpt>
      <trkpt lat="41.768925" lon="-87.626239">
      </trkpt>
      <trkpt lat="41.766175" lon="-87.626556">
      </trkpt>
      <trkpt lat="41.7655" lon="-87.626545">
      </trkpt>
      <trkpt lat="41.765212" lon="-87.644417">
      </trkpt>
      <trkpt lat="41.766001" lon="-87.644436">
      </trkpt>
      <trkpt lat="41.766001" lon="-87.644436">
      </trkpt>
      <trkpt lat="41.765212" lon="-87.644417">
      </trkpt>
      <trkpt lat="41.765061" lon="-87.654113">
      </trkpt>
      <trkpt lat="41.758131" lon="-87.653971">
      </trkpt>
      <trkpt lat="41.758131" lon="-87.653971">
      </trkpt>
      <trkpt lat="41.756014" lon="-87.653872">
      </trkpt>
      <trkpt lat="41.755814" lon="-87.663504">
      </trkpt>
      <trkpt lat="41.794034" lon="-87.664508">
      </trkpt>
      <trkpt lat="41.793706" lon="-87.693791">
      </trkpt>
      <trkpt lat="41.800992" lon="-87.693989">
      </trkpt>
      <trkpt lat="41.800957" lon="-87.696185">
      </trkpt>
      <trkpt lat="41.803924" lon="-87.696327">
      </trkpt>
      <trkpt lat="41.803962" lon="-87.698685">
      </trkpt>
      <trkpt lat="41.803962" lon="-87.698685">
      </trkpt>
      <trkpt lat="41.80392" lon="-87.700012">
      </trkpt>
      <trkpt lat="41.803658" lon="-87.700549">
      </trkpt>
      <trkpt lat="41.803444" lon="-87.700567">
      </trkpt>
      <trkpt lat="41.803404" lon="-87.703846">
      </trkpt>
      <trkpt lat="41.81413" lon="-87.704218">
      </trkpt>
      <trkpt lat="41.817075" lon="-87.699402">
      </trkpt>
      <trkpt lat="41.81838" lon="-87.699446">
      </trkpt>
      <trkpt lat="41.81838" lon="-87.699446">
      </trkpt>
      <trkpt lat="41.818186" lon="-87.699439">
      </trkpt>
      <trkpt lat="41.818095" lon="-87.704359">
      </trkpt>
      <trkpt lat="41.828464" lon="-87.704501">
      </trkpt>
      <trkpt lat="41.830574" lon="-87.699332">
      </trkpt>
      <trkpt lat="41.836711" lon="-87.680385">
      </trkpt>
      <trkpt lat="41.83747" lon="-87.66766">
      </trkpt>
      <trkpt lat="41.844887" lon="-87.651867">
      </trkpt>
      <trkpt lat="41.846989" lon="-87.642887">
      </trkpt>
      <trkpt lat="41.84739" lon="-87.632344">
      </trkpt>
      <trkpt lat="41.846918" lon="-87.628234">
      </trkpt>
      <trkpt lat="41.847827" lon="-87.623841">
      </trkpt>
      <trkpt lat="41.847976" lon="-87.616851">
      </trkpt>
      <trkpt lat="41.848193" lon="-87.613276">
      </trkpt>
      <trkpt lat="41.849732" lon="-87.612177">
      </trkpt>
      <trkpt lat="41.863523" lon="-87.618709">
      </trkpt>
      <trkpt lat="41.867696" lon="-87.62045">
      </trkpt>
      <trkpt lat="41.884517" lon="-87.620609">
      </trkpt>
      <trkpt lat="41.884484" lon="-87.624371">
      </trkpt>
      <trkpt lat="41.891505" lon="-87.624094">
      </trkpt>
      <trkpt lat="41.891505" lon="-87.624094">
      </trkpt>
      <trkpt lat="41.896741" lon="-87.624176">
      </trkpt>
      <trkpt lat="41.896757" lon="-87.622557">
      </trkpt>
      <trkpt lat="41.896757" lon="-87.622557">
      </trkpt>
      <trkpt lat="41.896844" lon="-87.616893">
      </trkpt>
      <trkpt lat="41.892868" lon="-87.614264">
      </trkpt>
      <trkpt lat="41.885247" lon="-87.614081">
      </trkpt>
      <trkpt lat="41.884041" lon="-87.614645">
      </trkpt>
      <trkpt lat="41.881821" lon="-87.617453">
      </trkpt>
      <trkpt lat="41.869765" lon="-87.617261">
      </trkpt>
      <trkpt lat="41.865851" lon="-87.619563">
      </trkpt>
      <trkpt lat="41.838015" lon="-87.608419">
      </trkpt>
      <trkpt lat="41.833588" lon="-87.607689">
      </trkpt>
      <trkpt lat="41.827907" lon="-87.602929">
      </trkpt>
      <trkpt lat="41.827907" lon="-87.602929">
      </trkpt>
      <trkpt lat="41.827907" lon="-87.602929">
      </trkpt>
      <trkpt lat="41.827907" lon="-87.602929">
      </trkpt>
      <trkpt lat="41.827252" lon="-87.60211">
      </trkpt>
      <trkpt lat="41.82517" lon="-87.600903">
      </trkpt>
      <trkpt lat="41.825435" lon="-87.599849">
      </trkpt>
      <trkpt lat="41.829367" lon="-87.604294">
      </trkpt>
      <trkpt lat="41.833032" lon="-87.607125">
      </trkpt>
      <trkpt lat="41.838145" lon="-87.608141">
      </trkpt>
      <trkpt lat="41.852437" lon="-87.613467">
      </trkpt>
      <trkpt lat="41.863523" lon="-87.618709">
      </trkpt>
      <trkpt lat="41.867696" lon="-87.62045">
      </trkpt>
      <trkpt lat="41.873218" lon="-87.620589">
      </trkpt>
      <trkpt lat="41.873158" lon="-87.624138">
      </trkpt>
      <trkpt lat="41.884366" lon="-87.624344">
      </trkpt>
      <trkpt lat="41.884372" lon="-87.623414">
      </trkpt>
      <trkpt lat="41.884406" lon="-87.617529">
      </trkpt>
      <trkpt lat="41.885524" lon="-87.617418">
      </trkpt>
      <trkpt lat="41.885561" lon="-87.616288">
      </trkpt>
      <trkpt lat="41.886523" lon="-87.616289">
      </trkpt>
      <trkpt lat="41.88653" lon="-87.618715">
      </trkpt>
      <trkpt lat="41.88653" lon="-87.618715">
      </trkpt>
      <trkpt lat="41.886506" lon="-87.619106">
      </trkpt>
      <trkpt lat="41.88644" lon="-87.619147">
      </trkpt>
      <trkpt lat="41.885527" lon="-87.6191">
      </trkpt>
      <trkpt lat="41.885524" lon="-87.617418">
      </trkpt>
      <trkpt lat="41.884538" lon="-87.617389">
      </trkpt>
      <trkpt lat="41.884502" lon="-87.618911">
      </trkpt>
      <trkpt lat="41.884514" lon="-87.622299">
      </trkpt>
      <trkpt lat="41.886132" lon="-87.622331">
      </trkpt>
      <trkpt lat="41.886132" lon="-87.622331">
      </trkpt>
      <trkpt lat="41.888223" lon="-87.622307">
      </trkpt>
      <trkpt lat="41.888313" lon="-87.624444">
      </trkpt>
      <trkpt lat="41.900824" lon="-87.624042">
      </trkpt>
      <trkpt lat="41.912141" lon="-87.62589">
      </trkpt>
      <trkpt lat="41.928415" lon="-87.631851">
      </trkpt>
      <trkpt lat="41.934381" lon="-87.632152">
      </trkpt>
      <trkpt lat="41.941219" lon="-87.638833">
      </trkpt>
      <trkpt lat="41.950931" lon="-87.644376">
      </trkpt>
      <trkpt lat="41.973046" lon="-87.648738">
      </trkpt>
      <trkpt lat="41.984951" lon="-87.652803">
      </trkpt>
      <trkpt lat="41.985105" lon="-87.662456">
      </trkpt>
      <trkpt lat="41.987189" lon="-87.665884">
      </trkpt>
      <trkpt lat="41.987146" lon="-87.669585">
      </trkpt>
      <trkpt lat="41.988054" lon="-87.669707">
      </trkpt>
      <trkpt lat="41.987608" lon="-87.669796">
      </trkpt>
      <trkpt lat="41.987519" lon="-87.669769">
      </trkpt>
      <trkpt lat="41.987519" lon="-87.669769">
      </trkpt>
      <trkpt lat="41.986933" lon="-87.669644">
      </trkpt>
      <trkpt lat="41.985433" lon="-87.669181">
      </trkpt>
      <trkpt lat="41.983497" lon="-87.668766">
      </trkpt>
      <trkpt lat="41.983528" lon="-87.666707">
      </trkpt>
      <trkpt lat="41.983528" lon="-87.666707">
      </trkpt>
      <trkpt lat="41.983198" lon="-87.679477">
      </trkpt>
      <trkpt lat="41.982043" lon="-87.679565">
      </trkpt>
      <trkpt lat="41.977735" lon="-87.688432">
      </trkpt>
      <trkpt lat="41.977715" lon="-87.68922">
      </trkpt>
      <trkpt lat="41.975899" lon="-87.689151">
      </trkpt>
      <trkpt lat="41.975122" lon="-87.765782">
      </trkpt>
      <trkpt lat="41.975691" lon="-87.766315">
      </trkpt>
      <trkpt lat="41.975715" lon="-87.771273">
      </trkpt>
      <trkpt lat="41.982556" lon="-87.785038">
      </trkpt>
      <trkpt lat="41.984487" lon="-87.853935">
      </trkpt>
      <trkpt lat="41.996518" lon="-87.875224">
      </trkpt>
      <trkpt lat="42.007565" lon="-87.898667">
      </trkpt>
      <trkpt lat="42.021307" lon="-87.953891">
      </trkpt>
      <trkpt lat="42.038006" lon="-87.977902">
      </trkpt>
      <trkpt lat="42.056093" lon="-88.018823">
      </trkpt>
      <trkpt lat="42.056828" lon="-88.021626">
      </trkpt>
      <trkpt lat="42.057979" lon="-88.029256">
      </trkpt>
      <trkpt lat="42.04186" lon="-88.030904">
      </trkpt>
      <trkpt lat="42.017386" lon="-88.031014">
      </trkpt>
      <trkpt lat="41.990718" lon="-88.023582">
      </trkpt>
      <trkpt lat="41.972392" lon="-88.024834">
      </trkpt>
      <trkpt lat="41.957727" lon="-88.027352">
      </trkpt>
      <trkpt lat="41.947597" lon="-88.037535">
      </trkpt>
      <trkpt lat="41.90897" lon="-88.038117">
      </trkpt>
      <trkpt lat="41.904811" lon="-88.038982">
      </trkpt>
      <trkpt lat="41.902316" lon="-88.103087">
      </trkpt>
      <trkpt lat="41.907877" lon="-88.150515">
      </trkpt>
      <trkpt lat="41.888137" lon="-88.151092">
      </trkpt>
      <trkpt lat="41.884636" lon="-88.204904">
      </trkpt>
      <trkpt lat="41.884636" lon="-88.204904">
      </trkpt>
      <trkpt lat="41.882" lon="-88.200892">
      </trkpt>
      <trkpt lat="41.882082" lon="-88.194625">
      </trkpt>
      <trkpt lat="41.85856" lon="-88.194851">
      </trkpt>
      <trkpt lat="41.850282" lon="-88.203689">
      </trkpt>
      <trkpt lat="41.830769" lon="-88.201072">
      </trkpt>
      <trkpt lat="41.815559" lon="-88.205031">
      </trkpt>
      <trkpt lat="41.802987" lon="-88.203554">
      </trkpt>
      <trkpt lat="41.806297" lon="-88.170986">
      </trkpt>
      <trkpt lat="41.805456" lon="-88.087366">
      </trkpt>
      <trkpt lat="41.809888" lon="-88.073551">
      </trkpt>
      <trkpt lat="41.809533" lon="-88.035675">
      </trkpt>
      <trkpt lat="41.81336" lon="-88.028541">
      </trkpt>
      <trkpt lat="41.830068" lon="-88.01898">
      </trkpt>
      <trkpt lat="41.836259" lon="-88.000391">
      </trkpt>
      <trkpt lat="41.843825" lon="-87.978408">
      </trkpt>
      <trkpt lat="41.845432" lon="-87.94557">
      </trkpt>
      <trkpt lat="41.853259" lon="-87.932811">
      </trkpt>
      <trkpt lat="41.864502" lon="-87.922937">
      </trkpt>
      <trkpt lat="41.872171" lon="-87.911351">
      </trkpt>
      <trkpt lat="41.873316" lon="-87.901684">
      </trkpt>
      <trkpt lat="41.869444" lon="-87.888177">
      </trkpt>
      <trkpt lat="41.869576" lon="-87.882376">
      </trkpt>
      <trkpt lat="41.874042" lon="-87.810791">
      </trkpt>
      <trkpt lat="41.87064" lon="-87.769061">
      </trkpt>
      <trkpt lat="41.875168" lon="-87.69832">
      </trkpt>
      <trkpt lat="41.875329" lon="-87.650308">
      </trkpt>
      <trkpt lat="41.876036" lon="-87.64458">
      </trkpt>
      <trkpt lat="41.880374" lon="-87.645275">
      </trkpt>
      <trkpt lat="41.881847" lon="-87.645355">
      </trkpt>
      <trkpt lat="41.882198" lon="-87.645393">
      </trkpt>
      <trkpt lat="41.888483" lon="-87.647404">
      </trkpt>
      <trkpt lat="41.897251" lon="-87.658783">
      </trkpt>
      <trkpt lat="41.906443" lon="-87.661061">
      </trkpt>
      <trkpt lat="41.915739" lon="-87.667973">
      </trkpt>
      <trkpt lat="41.917898" lon="-87.66968">
      </trkpt>
      <trkpt lat="41.917936" lon="-87.667964">
      </trkpt>
      <trkpt lat="41.928787" lon="-87.668204">
      </trkpt>
      <trkpt lat="41.928767" lon="-87.669479">
      </trkpt>
      <trkpt lat="41.929027" lon="-87.669488">
      </trkpt>
      <trkpt lat="41.929027" lon="-87.669488">
      </trkpt>
      <trkpt lat="41.932385" lon="-87.669594">
      </trkpt>
      <trkpt lat="41.932807" lon="-87.644906">
      </trkpt>
      <trkpt lat="41.931849" lon="-87.644577">
      </trkpt>
      <trkpt lat="41.93012" lon="-87.643564">
      </trkpt>
      <trkpt lat="41.92963" lon="-87.642875">
      </trkpt>
      <trkpt lat="41.927956" lon="-87.641881">
      </trkpt>
      <trkpt lat="41.927956" lon="-87.641881">
      </trkpt>
      <trkpt lat="41.929694" lon="-87.642943">
      </trkpt>
      <trkpt lat="41.929324" lon="-87.644199">
      </trkpt>
      <trkpt lat="41.929135" lon="-87.645552">
      </trkpt>
      <trkpt lat="41.928972" lon="-87.65652">
      </trkpt>
      <trkpt lat="41.928972" lon="-87.65652">
      </trkpt>
      <trkpt lat="41.929016" lon="-87.653741">
      </trkpt>
      <trkpt lat="41.932636" lon="-87.653863">
      </trkpt>
      <trkpt lat="41.932728" lon="-87.649013">
      </trkpt>
      <trkpt lat="41.939973" lon="-87.649275">
      </trkpt>
      <trkpt lat="41.940004" lon="-87.646832">
      </trkpt>
      <trkpt lat="41.939115" lon="-87.646803">
      </trkpt>
      <trkpt lat="41.939084" lon="-87.648925">
      </trkpt>
      <trkpt lat="41.939084" lon="-87.648925">
      </trkpt>
      <trkpt lat="41.939079" lon="-87.649247">
      </trkpt>
      <trkpt lat="41.939973" lon="-87.649275">
      </trkpt>
      <trkpt lat="41.940268" lon="-87.638796">
      </trkpt>
      <trkpt lat="41.939931" lon="-87.638606">
      </trkpt>
      <trkpt lat="41.934639" lon="-87.632453">
      </trkpt>
      <trkpt lat="41.902733" lon="-87.62421">
      </trkpt>
      <trkpt lat="41.900898" lon="-87.619617">
      </trkpt>
      <trkpt lat="41.892868" lon="-87.614264">
      </trkpt>
      <trkpt lat="41.866208" lon="-87.619588">
      </trkpt>
      <trkpt lat="41.853242" lon="-87.614728">
      </trkpt>
      <trkpt lat="41.848506" lon="-87.614444">
      </trkpt>
      <trkpt lat="41.84732" lon="-87.626818">
      </trkpt>
      <trkpt lat="41.847855" lon="-87.631727">
      </trkpt>
      <trkpt lat="41.843118" lon="-87.631351">
      </trkpt>
      <trkpt lat="41.779686" lon="-87.631207">
      </trkpt>
      <trkpt lat="41.772231" lon="-87.626113">
      </trkpt>
      <trkpt lat="41.72052" lon="-87.624621">
      </trkpt>
      <trkpt lat="41.71536" lon="-87.62925">
      </trkpt>
      <trkpt lat="41.714664" lon="-87.648733">
      </trkpt>
      <trkpt lat="41.712423" lon="-87.652734">
      </trkpt>
      <trkpt lat="41.700924" lon="-87.653382">
      </trkpt>
      <trkpt lat="41.696057" lon="-87.658942">
      </trkpt>
      <trkpt lat="41.687822" lon="-87.662025">
      </trkpt>
      <trkpt lat="41.667302" lon="-87.662861">
      </trkpt>
      <trkpt lat="41.657912" lon="-87.662859">
      </trkpt>
      <trkpt lat="41.655615" lon="-87.670277">
      </trkpt>
      <trkpt lat="41.655369" lon="-87.691186">
      </trkpt>
      <trkpt lat="41.649639" lon="-87.691911">
      </trkpt>
      <trkpt lat="41.649436" lon="-87.693784">
      </trkpt>
      <trkpt lat="41.649436" lon="-87.693784">
      </trkpt>
      <trkpt lat="41.649639" lon="-87.691911">
      </trkpt>
      <trkpt lat="41.655369" lon="-87.691186">
      </trkpt>
      <trkpt lat="41.655615" lon="-87.670277">
      </trkpt>
      <trkpt lat="41.658289" lon="-87.661676">
      </trkpt>
      <trkpt lat="41.663542" lon="-87.662153">
      </trkpt>
      <trkpt lat="41.6876" lon="-87.661702">
      </trkpt>
      <trkpt lat="41.695796" lon="-87.658693">
      </trkpt>
      <trkpt lat="41.700714" lon="-87.653084">
      </trkpt>
      <trkpt lat="41.712012" lon="-87.652574">
      </trkpt>
      <trkpt lat="41.714432" lon="-87.648322">
      </trkpt>
      <trkpt lat="41.714662" lon="-87.632642">
      </trkpt>
      <trkpt lat="41.715693" lon="-87.627057">
      </trkpt>
      <trkpt lat="41.719562" lon="-87.624177">
      </trkpt>
      <trkpt lat="41.769497" lon="-87.625651">
      </trkpt>
      <trkpt lat="41.779495" lon="-87.630747">
      </trkpt>
      <trkpt lat="41.838631" lon="-87.630667">
      </trkpt>
      <trkpt lat="41.844069" lon="-87.631001">
      </trkpt>
      <trkpt lat="41.846653" lon="-87.630081">
      </trkpt>
      <trkpt lat="41.847976" lon="-87.616851">
      </trkpt>
      <trkpt lat="41.84938" lon="-87.612168">
      </trkpt>
      <trkpt lat="41.8661" lon="-87.619244">
      </trkpt>
      <trkpt lat="41.89273" lon="-87.614003">
      </trkpt>
      <trkpt lat="41.900921" lon="-87.619441">
      </trkpt>
      <trkpt lat="41.902767" lon="-87.623983">
      </trkpt>
      <trkpt lat="41.924159" lon="-87.630534">
      </trkpt>
      <trkpt lat="41.926223" lon="-87.63067">
      </trkpt>
      <trkpt lat="41.92558" lon="-87.640463">
      </trkpt>
      <trkpt lat="41.927956" lon="-87.641881">
      </trkpt>
      <trkpt lat="41.927956" lon="-87.641881">
      </trkpt>
      <trkpt lat="41.92963" lon="-87.642875">
      </trkpt>
      <trkpt lat="41.93012" lon="-87.643564">
      </trkpt>
      <trkpt lat="41.932979" lon="-87.645015">
      </trkpt>
      <trkpt lat="41.95438" lon="-87.662225">
      </trkpt>
      <trkpt lat="41.954253" lon="-87.676324">
      </trkpt>
      <trkpt lat="41.956747" lon="-87.6764">
      </trkpt>
      <trkpt lat="41.956747" lon="-87.6764">
      </trkpt>
      <trkpt lat="41.954148" lon="-87.676321">
      </trkpt>
      <trkpt lat="41.954302" lon="-87.66911">
      </trkpt>
      <trkpt lat="41.939809" lon="-87.668729">
      </trkpt>
      <trkpt lat="41.925453" lon="-87.648766">
      </trkpt>
      <trkpt lat="41.91731" lon="-87.648495">
      </trkpt>
      <trkpt lat="41.91731" lon="-87.648495">
      </trkpt>
      <trkpt lat="41.945447" lon="-87.649434">
      </trkpt>
      <trkpt lat="41.945444" lon="-87.647954">
      </trkpt>
      <trkpt lat="41.944563" lon="-87.647654">
      </trkpt>
      <trkpt lat="41.944563" lon="-87.647654">
      </trkpt>
      <trkpt lat="41.945444" lon="-87.647954">
      </trkpt>
      <trkpt lat="41.946785" lon="-87.642375">
      </trkpt>
      <trkpt lat="41.941203" lon="-87.639574">
      </trkpt>
      <trkpt lat="41.939931" lon="-87.638606">
      </trkpt>
      <trkpt lat="41.936955" lon="-87.634194">
      </trkpt>
      <trkpt lat="41.934639" lon="-87.632453">
      </trkpt>
      <trkpt lat="41.928427" lon="-87.632048">
      </trkpt>
      <trkpt lat="41.918735" lon="-87.629189">
      </trkpt>
      <trkpt lat="41.911998" lon="-87.62605">
      </trkpt>
      <trkpt lat="41.904908" lon="-87.624861">
      </trkpt>
      <trkpt lat="41.901978" lon="-87.624179">
      </trkpt>
      <trkpt lat="41.893335" lon="-87.624316">
      </trkpt>
      <trkpt lat="41.893255" lon="-87.629681">
      </trkpt>
      <trkpt lat="41.894584" lon="-87.629727">
      </trkpt>
      <trkpt lat="41.894584" lon="-87.629727">
      </trkpt>
      <trkpt lat="41.89485" lon="-87.629736">
      </trkpt>
      <trkpt lat="41.894831" lon="-87.631201">
      </trkpt>
      <trkpt lat="41.889218" lon="-87.631063">
      </trkpt>
      <trkpt lat="41.889247" lon="-87.629067">
      </trkpt>
      <trkpt lat="41.888503" lon="-87.629129">
      </trkpt>
      <trkpt lat="41.888486" lon="-87.630524">
      </trkpt>
      <trkpt lat="41.888486" lon="-87.630524">
      </trkpt>
      <trkpt lat="41.888503" lon="-87.629129">
      </trkpt>
      <trkpt lat="41.889247" lon="-87.629067">
      </trkpt>
      <trkpt lat="41.889054" lon="-87.644337">
      </trkpt>
      <trkpt lat="41.895983" lon="-87.654976">
      </trkpt>
      <trkpt lat="41.89501" lon="-87.655808">
      </trkpt>
      <trkpt lat="41.89596" lon="-87.657675">
      </trkpt>
      <trkpt lat="41.898217" lon="-87.65932">
      </trkpt>
      <trkpt lat="41.901753" lon="-87.660805">
      </trkpt>
      <trkpt lat="41.906799" lon="-87.661253">
      </trkpt>
      <trkpt lat="41.91766" lon="-87.669906">
      </trkpt>
      <trkpt lat="41.93676" lon="-87.702937">
      </trkpt>
      <trkpt lat="41.940632" lon="-87.710036">
      </trkpt>
      <trkpt lat="41.941793" lon="-87.713979">
      </trkpt>
      <trkpt lat="41.943044" lon="-87.715981">
      </trkpt>
      <trkpt lat="41.94651" lon="-87.717815">
      </trkpt>
      <trkpt lat="41.946215" lon="-87.739921">
      </trkpt>
      <trkpt lat="41.946215" lon="-87.739921">
      </trkpt>
      <trkpt lat="41.946484" lon="-87.71959">
      </trkpt>
      <trkpt lat="41.944989" lon="-87.718156">
      </trkpt>
      <trkpt lat="41.942115" lon="-87.715518">
      </trkpt>
      <trkpt lat="41.939977" lon="-87.709442">
      </trkpt>
      <trkpt lat="41.919706" lon="-87.673831">
      </trkpt>
      <trkpt lat="41.918264" lon="-87.671882">
      </trkpt>
      <trkpt lat="41.918151" lon="-87.671723">
      </trkpt>
      <trkpt lat="41.91793" lon="-87.667505">
      </trkpt>
      <trkpt lat="41.916455" lon="-87.666413">
      </trkpt>
      <trkpt lat="41.917067" lon="-87.663815">
      </trkpt>
      <trkpt lat="41.917139" lon="-87.658378">
      </trkpt>
      <trkpt lat="41.918041" lon="-87.658214">
      </trkpt>
      <trkpt lat="41.918178" lon="-87.648523">
      </trkpt>
      <trkpt lat="41.91731" lon="-87.648495">
      </trkpt>
      <trkpt lat="41.91731" lon="-87.648495">
      </trkpt>
      <trkpt lat="41.910927" lon="-87.648286">
      </trkpt>
      <trkpt lat="41.910045" lon="-87.711884">
      </trkpt>
      <trkpt lat="41.905527" lon="-87.711768">
      </trkpt>
      <trkpt lat="41.905523" lon="-87.712214">
      </trkpt>
      <trkpt lat="41.905523" lon="-87.712214">
      </trkpt>
      <trkpt lat="41.905505" lon="-87.714206">
      </trkpt>
      <trkpt lat="41.906409" lon="-87.714235">
      </trkpt>
      <trkpt lat="41.906435" lon="-87.711798">
      </trkpt>
      <trkpt lat="41.902792" lon="-87.71168">
      </trkpt>
      <trkpt lat="41.902797" lon="-87.705986">
      </trkpt>
      <trkpt lat="41.902888" lon="-87.701605">
      </trkpt>
      <trkpt lat="41.902888" lon="-87.701605">
      </trkpt>
      <trkpt lat="41.902886" lon="-87.702278">
      </trkpt>
      <trkpt lat="41.907241" lon="-87.70125">
      </trkpt>
      <trkpt lat="41.910165" lon="-87.701875">
      </trkpt>
      <trkpt lat="41.910324" lon="-87.687207">
      </trkpt>
      <trkpt lat="41.924902" lon="-87.687645">
      </trkpt>
      <trkpt lat="41.924978" lon="-87.682301">
      </trkpt>
      <trkpt lat="41.926707" lon="-87.685177">
      </trkpt>
      <trkpt lat="41.939496" lon="-87.708002">
      </trkpt>
      <trkpt lat="41.942429" lon="-87.712586">
      </trkpt>
      <trkpt lat="41.942239" lon="-87.712582">
      </trkpt>
      <trkpt lat="41.942252" lon="-87.714433">
      </trkpt>
      <trkpt lat="41.942862" lon="-87.715459">
      </trkpt>
      <trkpt lat="41.942862" lon="-87.715459">
      </trkpt>
      <trkpt lat="41.942252" lon="-87.714433">
      </trkpt>
      <trkpt lat="41.942239" lon="-87.712582">
      </trkpt>
      <trkpt lat="41.939288" lon="-87.712487">
      </trkpt>
      <trkpt lat="41.939221" lon="-87.717392">
      </trkpt>
      <trkpt lat="41.930091" lon="-87.717134">
      </trkpt>
      <trkpt lat="41.930086" lon="-87.718374">
      </trkpt>
      <trkpt lat="41.931664" lon="-87.718419">
      </trkpt>
      <trkpt lat="41.931664" lon="-87.718419">
      </trkpt>
      <trkpt lat="41.93191" lon="-87.718427">
      </trkpt>
      <trkpt lat="41.931929" lon="-87.717188">
      </trkpt>
      <trkpt lat="41.935091" lon="-87.717283">
      </trkpt>
      <trkpt lat="41.946271" lon="-87.735605">
      </trkpt>
      <trkpt lat="41.945578" lon="-87.791262">
      </trkpt>
      <trkpt lat="41.946512" lon="-87.7913">
      </trkpt>
      <trkpt lat="41.946512" lon="-87.7913">
      </trkpt>
      <trkpt lat="41.945578" lon="-87.791262">
      </trkpt>
      <trkpt lat="41.946623" lon="-87.708842">
      </trkpt>
      <trkpt lat="41.944219" lon="-87.705317">
      </trkpt>
      <trkpt lat="41.943085" lon="-87.705281">
      </trkpt>
      <trkpt lat="41.943085" lon="-87.705281">
      </trkpt>
      <trkpt lat="41.939366" lon="-87.705182">
      </trkpt>
      <trkpt lat="41.939378" lon="-87.702718">
      </trkpt>
      <trkpt lat="41.907558" lon="-87.701241">
      </trkpt>
      <trkpt lat="41.902886" lon="-87.702278">
      </trkpt>
      <trkpt lat="41.902928" lon="-87.696883">
      </trkpt>
      <trkpt lat="41.89808" lon="-87.696763">
      </trkpt>
      <trkpt lat="41.898067" lon="-87.698012">
      </trkpt>
      <trkpt lat="41.899151" lon="-87.698042">
      </trkpt>
      <trkpt lat="41.899151" lon="-87.698042">
      </trkpt>
      <trkpt lat="41.899277" lon="-87.698045">
      </trkpt>
      <trkpt lat="41.89942" lon="-87.684486">
      </trkpt>
      <trkpt lat="41.89851" lon="-87.684464">
      </trkpt>
      <trkpt lat="41.898492" lon="-87.685574">
      </trkpt>
      <trkpt lat="41.898492" lon="-87.685574">
      </trkpt>
      <trkpt lat="41.89847" lon="-87.686903">
      </trkpt>
      <trkpt lat="41.899379" lon="-87.686926">
      </trkpt>
      <trkpt lat="41.899176" lon="-87.708783">
      </trkpt>
      <trkpt lat="41.900143" lon="-87.711243">
      </trkpt>
      <trkpt lat="41.900057" lon="-87.711889">
      </trkpt>
      <trkpt lat="41.900725" lon="-87.712727">
      </trkpt>
      <trkpt lat="41.902754" lon="-87.717777">
      </trkpt>
      <trkpt lat="41.902229" lon="-87.758251">
      </trkpt>
      <trkpt lat="41.905846" lon="-87.758352">
      </trkpt>
      <trkpt lat="41.905861" lon="-87.757177">
      </trkpt>
      <trkpt lat="41.905861" lon="-87.757177">
      </trkpt>
      <trkpt lat="41.905876" lon="-87.755859">
      </trkpt>
      <trkpt lat="41.962461" lon="-87.75745">
      </trkpt>
      <trkpt lat="41.962474" lon="-87.756072">
      </trkpt>
      <trkpt lat="41.992548" lon="-87.782865">
      </trkpt>
      <trkpt lat="41.992968" lon="-87.783706">
      </trkpt>
      <trkpt lat="42.013044" lon="-87.802234">
      </trkpt>
      <trkpt lat="42.022048" lon="-87.803045">
      </trkpt>
      <trkpt lat="42.033498" lon="-87.800826">
      </trkpt>
    </trkseg>
  </trk>
</gpx>