<?xml version="1.0" encoding="UTF-8"?>
<gpx xmlns="http://www.topografix.com/GPX/1/1" xmlns:xsi="http://www.w3.org/2001/XMLSchema-instance" xsi:schemaLocation="http://www.topografix.com/GPX/1/1 http://www.topografix.com/GPX/1/1/gpx.xsd" version="1.1" creator="gpx.py -- https://github.com/tkrajina/gpxpy">
  <trk>
    <trkseg>
      <trkpt lat="41.927537" lon="-87.706559">
      </trkpt>
      <trkpt lat="41.927535" lon="-87.707002">
      </trkpt>
      <trkpt lat="41.927967" lon="-87.706799">
      </trkpt>
      <trkpt lat="41.928423" lon="-87.702415">
      </trkpt>
      <trkpt lat="41.932074" lon="-87.702516">
      </trkpt>
      <trkpt lat="41.932116" lon="-87.696547">
      </trkpt>
      <trkpt lat="41.916815" lon="-87.669405">
      </trkpt>
      <trkpt lat="41.909975" lon="-87.664752">
      </trkpt>
      <trkpt lat="41.906635" lon="-87.661559">
      </trkpt>
      <trkpt lat="41.900902" lon="-87.660921">
      </trkpt>
      <trkpt lat="41.896968" lon="-87.659049">
      </trkpt>
      <trkpt lat="41.895018" lon="-87.657114">
      </trkpt>
      <trkpt lat="41.891931" lon="-87.653963">
      </trkpt>
      <trkpt lat="41.892554" lon="-87.651034">
      </trkpt>
      <trkpt lat="41.892498" lon="-87.626742">
      </trkpt>
      <trkpt lat="41.889909" lon="-87.626665">
      </trkpt>
      <trkpt lat="41.889909" lon="-87.626665">
      </trkpt>
      <trkpt lat="41.889909" lon="-87.626665">
      </trkpt>
      <trkpt lat="41.889909" lon="-87.626665">
      </trkpt>
      <trkpt lat="41.886804" lon="-87.626312">
      </trkpt>
      <trkpt lat="41.886817" lon="-87.623818">
      </trkpt>
      <trkpt lat="41.886797" lon="-87.620759">
      </trkpt>
      <trkpt lat="41.880871" lon="-87.620794">
      </trkpt>
      <trkpt lat="41.88092" lon="-87.617506">
      </trkpt>
      <trkpt lat="41.853242" lon="-87.614728">
      </trkpt>
      <trkpt lat="41.848506" lon="-87.614444">
      </trkpt>
      <trkpt lat="41.84732" lon="-87.626818">
      </trkpt>
      <trkpt lat="41.847855" lon="-87.631727">
      </trkpt>
      <trkpt lat="41.843118" lon="-87.631351">
      </trkpt>
      <trkpt lat="41.72052" lon="-87.624621">
      </trkpt>
      <trkpt lat="41.71536" lon="-87.62925">
      </trkpt>
      <trkpt lat="41.712152" lon="-87.652909">
      </trkpt>
      <trkpt lat="41.686593" lon="-87.662258">
      </trkpt>
      <trkpt lat="41.639285" lon="-87.661341">
      </trkpt>
      <trkpt lat="41.628813" lon="-87.673823">
      </trkpt>
      <trkpt lat="41.626398" lon="-87.677337">
      </trkpt>
      <trkpt lat="41.620636" lon="-87.685126">
      </trkpt>
      <trkpt lat="41.617956" lon="-87.690318">
      </trkpt>
      <trkpt lat="41.608259" lon="-87.681844">
      </trkpt>
      <trkpt lat="41.594295" lon="-87.681251">
      </trkpt>
      <trkpt lat="41.581216" lon="-87.679074">
      </trkpt>
      <trkpt lat="41.577865" lon="-87.669891">
      </trkpt>
      <trkpt lat="41.577516" lon="-87.665522">
      </trkpt>
      <trkpt lat="41.564788" lon="-87.667355">
      </trkpt>
      <trkpt lat="41.564479" lon="-87.666332">
      </trkpt>
      <trkpt lat="41.559724" lon="-87.66833">
      </trkpt>
      <trkpt lat="41.559724" lon="-87.66833">
      </trkpt>
      <trkpt lat="41.559457" lon="-87.668334">
      </trkpt>
      <trkpt lat="41.557253" lon="-87.669514">
      </trkpt>
      <trkpt lat="41.55724" lon="-87.671375">
      </trkpt>
      <trkpt lat="41.559701" lon="-87.67008">
      </trkpt>
      <trkpt lat="41.561066" lon="-87.669514">
      </trkpt>
      <trkpt lat="41.56297" lon="-87.668541">
      </trkpt>
      <trkpt lat="41.56297" lon="-87.668541">
      </trkpt>
      <trkpt lat="41.55724" lon="-87.671375">
      </trkpt>
      <trkpt lat="41.557207" lon="-87.681092">
      </trkpt>
      <trkpt lat="41.554029" lon="-87.682208">
      </trkpt>
      <trkpt lat="41.5386" lon="-87.692172">
      </trkpt>
      <trkpt lat="41.507891" lon="-87.712061">
      </trkpt>
      <trkpt lat="41.507585" lon="-87.713205">
      </trkpt>
      <trkpt lat="41.491654" lon="-87.71301">
      </trkpt>
      <trkpt lat="41.491656" lon="-87.711362">
      </trkpt>
      <trkpt lat="41.490533" lon="-87.711357">
      </trkpt>
      <trkpt lat="41.490483" lon="-87.709758">
      </trkpt>
      <trkpt lat="41.489488" lon="-87.709229">
      </trkpt>
      <trkpt lat="41.489488" lon="-87.709229">
      </trkpt>
      <trkpt lat="41.489488" lon="-87.709229">
      </trkpt>
      <trkpt lat="41.489488" lon="-87.709229">
      </trkpt>
      <trkpt lat="41.490483" lon="-87.709758">
      </trkpt>
      <trkpt lat="41.490533" lon="-87.711357">
      </trkpt>
      <trkpt lat="41.491656" lon="-87.711362">
      </trkpt>
      <trkpt lat="41.491654" lon="-87.71301">
      </trkpt>
      <trkpt lat="41.506004" lon="-87.71304">
      </trkpt>
      <trkpt lat="41.506197" lon="-87.620038">
      </trkpt>
      <trkpt lat="41.506197" lon="-87.620038">
      </trkpt>
      <trkpt lat="41.506225" lon="-87.731762">
      </trkpt>
      <trkpt lat="41.506595" lon="-87.732334">
      </trkpt>
      <trkpt lat="41.517112" lon="-87.732396">
      </trkpt>
      <trkpt lat="41.517075" lon="-87.727065">
      </trkpt>
      <trkpt lat="41.519732" lon="-87.727096">
      </trkpt>
      <trkpt lat="41.519724" lon="-87.725416">
      </trkpt>
      <trkpt lat="41.519724" lon="-87.725416">
      </trkpt>
      <trkpt lat="41.519732" lon="-87.727096">
      </trkpt>
      <trkpt lat="41.520743" lon="-87.727109">
      </trkpt>
      <trkpt lat="41.520585" lon="-87.732442">
      </trkpt>
      <trkpt lat="41.527967" lon="-87.73251">
      </trkpt>
      <trkpt lat="41.527946" lon="-87.69969">
      </trkpt>
      <trkpt lat="41.527691" lon="-87.699258">
      </trkpt>
      <trkpt lat="41.551748" lon="-87.683685">
      </trkpt>
      <trkpt lat="41.55189" lon="-87.686615">
      </trkpt>
      <trkpt lat="41.55189" lon="-87.686615">
      </trkpt>
      <trkpt lat="41.551748" lon="-87.683685">
      </trkpt>
      <trkpt lat="41.535986" lon="-87.693923">
      </trkpt>
      <trkpt lat="41.527945" lon="-87.693878">
      </trkpt>
      <trkpt lat="41.527883" lon="-87.67452">
      </trkpt>
      <trkpt lat="41.520117" lon="-87.674449">
      </trkpt>
      <trkpt lat="41.520081" lon="-87.680264">
      </trkpt>
      <trkpt lat="41.520345" lon="-87.681738">
      </trkpt>
      <trkpt lat="41.520345" lon="-87.681738">
      </trkpt>
      <trkpt lat="41.520117" lon="-87.674449">
      </trkpt>
      <trkpt lat="41.527883" lon="-87.67452">
      </trkpt>
      <trkpt lat="41.52806" lon="-87.790451">
      </trkpt>
      <trkpt lat="41.520874" lon="-87.790419">
      </trkpt>
      <trkpt lat="41.520843" lon="-87.81573">
      </trkpt>
      <trkpt lat="41.521648" lon="-87.821159">
      </trkpt>
      <trkpt lat="41.521648" lon="-87.821159">
      </trkpt>
      <trkpt lat="41.520843" lon="-87.81573">
      </trkpt>
      <trkpt lat="41.520871" lon="-87.790279">
      </trkpt>
      <trkpt lat="41.528058" lon="-87.790253">
      </trkpt>
      <trkpt lat="41.527887" lon="-87.713268">
      </trkpt>
      <trkpt lat="41.525726" lon="-87.713268">
      </trkpt>
      <trkpt lat="41.526069" lon="-87.709608">
      </trkpt>
      <trkpt lat="41.527936" lon="-87.709282">
      </trkpt>
      <trkpt lat="41.527994" lon="-87.712594">
      </trkpt>
      <trkpt lat="41.527994" lon="-87.712594">
      </trkpt>
      <trkpt lat="41.528062" lon="-87.736293">
      </trkpt>
      <trkpt lat="41.528573" lon="-87.740246">
      </trkpt>
      <trkpt lat="41.530993" lon="-87.742353">
      </trkpt>
      <trkpt lat="41.570419" lon="-87.743189">
      </trkpt>
      <trkpt lat="41.574355" lon="-87.742012">
      </trkpt>
      <trkpt lat="41.579429" lon="-87.737975">
      </trkpt>
      <trkpt lat="41.610093" lon="-87.697782">
      </trkpt>
      <trkpt lat="41.613296" lon="-87.693172">
      </trkpt>
      <trkpt lat="41.615556" lon="-87.68701">
      </trkpt>
      <trkpt lat="41.617363" lon="-87.685797">
      </trkpt>
      <trkpt lat="41.629165" lon="-87.692998">
      </trkpt>
      <trkpt lat="41.632186" lon="-87.697463">
      </trkpt>
      <trkpt lat="41.633236" lon="-87.709998">
      </trkpt>
      <trkpt lat="41.635871" lon="-87.715202">
      </trkpt>
      <trkpt lat="41.640399" lon="-87.719276">
      </trkpt>
      <trkpt lat="41.655191" lon="-87.726753">
      </trkpt>
      <trkpt lat="41.658747" lon="-87.730576">
      </trkpt>
      <trkpt lat="41.661836" lon="-87.733601">
      </trkpt>
      <trkpt lat="41.662248" lon="-87.704622">
      </trkpt>
      <trkpt lat="41.667121" lon="-87.704806">
      </trkpt>
      <trkpt lat="41.667104" lon="-87.705774">
      </trkpt>
      <trkpt lat="41.667104" lon="-87.705774">
      </trkpt>
      <trkpt lat="41.667121" lon="-87.704806">
      </trkpt>
      <trkpt lat="41.669583" lon="-87.704884">
      </trkpt>
      <trkpt lat="41.66966" lon="-87.70004">
      </trkpt>
      <trkpt lat="41.713469" lon="-87.70159">
      </trkpt>
      <trkpt lat="41.71332" lon="-87.711354">
      </trkpt>
      <trkpt lat="41.717287" lon="-87.711493">
      </trkpt>
      <trkpt lat="41.717287" lon="-87.711493">
      </trkpt>
      <trkpt lat="41.720534" lon="-87.711606">
      </trkpt>
      <trkpt lat="41.72081" lon="-87.691951">
      </trkpt>
      <trkpt lat="41.719031" lon="-87.691893">
      </trkpt>
      <trkpt lat="41.719042" lon="-87.690253">
      </trkpt>
      <trkpt lat="41.719727" lon="-87.690272">
      </trkpt>
      <trkpt lat="41.719727" lon="-87.690272">
      </trkpt>
      <trkpt lat="41.720931" lon="-87.69031">
      </trkpt>
      <trkpt lat="41.720728" lon="-87.706715">
      </trkpt>
      <trkpt lat="41.720602" lon="-87.706711">
      </trkpt>
      <trkpt lat="41.720631" lon="-87.70467">
      </trkpt>
      <trkpt lat="41.720631" lon="-87.70467">
      </trkpt>
      <trkpt lat="41.720668" lon="-87.701844">
      </trkpt>
      <trkpt lat="41.691567" lon="-87.700809">
      </trkpt>
      <trkpt lat="41.691945" lon="-87.67064">
      </trkpt>
      <trkpt lat="41.691703" lon="-87.669742">
      </trkpt>
      <trkpt lat="41.689767" lon="-87.669969">
      </trkpt>
      <trkpt lat="41.689211" lon="-87.668204">
      </trkpt>
      <trkpt lat="41.690591" lon="-87.667416">
      </trkpt>
      <trkpt lat="41.690591" lon="-87.667416">
      </trkpt>
      <trkpt lat="41.690901" lon="-87.667239">
      </trkpt>
      <trkpt lat="41.690077" lon="-87.664651">
      </trkpt>
      <trkpt lat="41.692104" lon="-87.663319">
      </trkpt>
      <trkpt lat="41.69276" lon="-87.611098">
      </trkpt>
      <trkpt lat="41.692023" lon="-87.611073">
      </trkpt>
      <trkpt lat="41.692023" lon="-87.611073">
      </trkpt>
      <trkpt lat="41.69276" lon="-87.611098">
      </trkpt>
      <trkpt lat="41.692835" lon="-87.600205">
      </trkpt>
      <trkpt lat="41.690765" lon="-87.59932">
      </trkpt>
      <trkpt lat="41.684534" lon="-87.601937">
      </trkpt>
      <trkpt lat="41.674572" lon="-87.601127">
      </trkpt>
      <trkpt lat="41.650521" lon="-87.580781">
      </trkpt>
      <trkpt lat="41.646182" lon="-87.578746">
      </trkpt>
      <trkpt lat="41.613594" lon="-87.579059">
      </trkpt>
      <trkpt lat="41.604037" lon="-87.583364">
      </trkpt>
      <trkpt lat="41.600972" lon="-87.586637">
      </trkpt>
      <trkpt lat="41.600887" lon="-87.617044">
      </trkpt>
      <trkpt lat="41.609427" lon="-87.617059">
      </trkpt>
      <trkpt lat="41.610912" lon="-87.624147">
      </trkpt>
      <trkpt lat="41.612684" lon="-87.624138">
      </trkpt>
      <trkpt lat="41.612681" lon="-87.625383">
      </trkpt>
      <trkpt lat="41.612681" lon="-87.625383">
      </trkpt>
      <trkpt lat="41.61268" lon="-87.626113">
      </trkpt>
      <trkpt lat="41.611026" lon="-87.626104">
      </trkpt>
      <trkpt lat="41.610888" lon="-87.634577">
      </trkpt>
      <trkpt lat="41.600866" lon="-87.628849">
      </trkpt>
      <trkpt lat="41.600856" lon="-87.626007">
      </trkpt>
      <trkpt lat="41.600856" lon="-87.626007">
      </trkpt>
      <trkpt lat="41.600854" lon="-87.625559">
      </trkpt>
      <trkpt lat="41.600966" lon="-87.676222">
      </trkpt>
      <trkpt lat="41.602996" lon="-87.680576">
      </trkpt>
      <trkpt lat="41.629565" lon="-87.693541">
      </trkpt>
      <trkpt lat="41.635871" lon="-87.715202">
      </trkpt>
      <trkpt lat="41.655739" lon="-87.727128">
      </trkpt>
      <trkpt lat="41.660208" lon="-87.733184">
      </trkpt>
      <trkpt lat="41.665701" lon="-87.738669">
      </trkpt>
      <trkpt lat="41.723753" lon="-87.740919">
      </trkpt>
      <trkpt lat="41.727556" lon="-87.731696">
      </trkpt>
      <trkpt lat="41.750499" lon="-87.702412">
      </trkpt>
      <trkpt lat="41.771682" lon="-87.702975">
      </trkpt>
      <trkpt lat="41.771658" lon="-87.705026">
      </trkpt>
      <trkpt lat="41.771658" lon="-87.705026">
      </trkpt>
      <trkpt lat="41.771989" lon="-87.68345">
      </trkpt>
      <trkpt lat="41.78654" lon="-87.68385">
      </trkpt>
      <trkpt lat="41.78653" lon="-87.682191">
      </trkpt>
      <trkpt lat="41.78653" lon="-87.682191">
      </trkpt>
      <trkpt lat="41.78654" lon="-87.68385">
      </trkpt>
      <trkpt lat="41.759103" lon="-87.683094">
      </trkpt>
      <trkpt lat="41.749955" lon="-87.703307">
      </trkpt>
      <trkpt lat="41.734907" lon="-87.722361">
      </trkpt>
      <trkpt lat="41.734163" lon="-87.765685">
      </trkpt>
      <trkpt lat="41.73143" lon="-87.765596">
      </trkpt>
      <trkpt lat="41.731426" lon="-87.765831">
      </trkpt>
      <trkpt lat="41.731426" lon="-87.765831">
      </trkpt>
      <trkpt lat="41.731506" lon="-87.76069">
      </trkpt>
      <trkpt lat="41.728806" lon="-87.760608">
      </trkpt>
      <trkpt lat="41.728854" lon="-87.757682">
      </trkpt>
      <trkpt lat="41.729755" lon="-87.757708">
      </trkpt>
      <trkpt lat="41.729804" lon="-87.754974">
      </trkpt>
      <trkpt lat="41.729804" lon="-87.754974">
      </trkpt>
      <trkpt lat="41.729807" lon="-87.754786">
      </trkpt>
      <trkpt lat="41.734242" lon="-87.754937">
      </trkpt>
      <trkpt lat="41.736236" lon="-87.624169">
      </trkpt>
      <trkpt lat="41.736981" lon="-87.62419">
      </trkpt>
      <trkpt lat="41.769497" lon="-87.625651">
      </trkpt>
      <trkpt lat="41.779495" lon="-87.630747">
      </trkpt>
      <trkpt lat="41.838631" lon="-87.630667">
      </trkpt>
      <trkpt lat="41.844069" lon="-87.631001">
      </trkpt>
      <trkpt lat="41.846653" lon="-87.630081">
      </trkpt>
      <trkpt lat="41.847976" lon="-87.616851">
      </trkpt>
      <trkpt lat="41.84938" lon="-87.612168">
      </trkpt>
      <trkpt lat="41.8661" lon="-87.619244">
      </trkpt>
      <trkpt lat="41.89273" lon="-87.614003">
      </trkpt>
      <trkpt lat="41.900921" lon="-87.619441">
      </trkpt>
      <trkpt lat="41.902767" lon="-87.623983">
      </trkpt>
      <trkpt lat="41.924159" lon="-87.630534">
      </trkpt>
      <trkpt lat="41.926223" lon="-87.63067">
      </trkpt>
      <trkpt lat="41.92558" lon="-87.640463">
      </trkpt>
      <trkpt lat="41.927956" lon="-87.641881">
      </trkpt>
      <trkpt lat="41.927956" lon="-87.641881">
      </trkpt>
      <trkpt lat="41.92558" lon="-87.640463">
      </trkpt>
      <trkpt lat="41.924902" lon="-87.687645">
      </trkpt>
      <trkpt lat="41.910324" lon="-87.687207">
      </trkpt>
      <trkpt lat="41.910241" lon="-87.695773">
      </trkpt>
      <trkpt lat="41.911942" lon="-87.69582">
      </trkpt>
      <trkpt lat="41.911942" lon="-87.69582">
      </trkpt>
      <trkpt lat="41.912067" lon="-87.695823">
      </trkpt>
      <trkpt lat="41.912078" lon="-87.694602">
      </trkpt>
      <trkpt lat="41.910258" lon="-87.69455">
      </trkpt>
      <trkpt lat="41.910672" lon="-87.665662">
      </trkpt>
      <trkpt lat="41.910236" lon="-87.665325">
      </trkpt>
      <trkpt lat="41.907574" lon="-87.662271">
      </trkpt>
      <trkpt lat="41.906386" lon="-87.661439">
      </trkpt>
      <trkpt lat="41.901306" lon="-87.661057">
      </trkpt>
      <trkpt lat="41.896667" lon="-87.658834">
      </trkpt>
      <trkpt lat="41.895018" lon="-87.657114">
      </trkpt>
      <trkpt lat="41.889096" lon="-87.6483">
      </trkpt>
      <trkpt lat="41.886973" lon="-87.646614">
      </trkpt>
      <trkpt lat="41.885119" lon="-87.646108">
      </trkpt>
      <trkpt lat="41.883144" lon="-87.646413">
      </trkpt>
      <trkpt lat="41.883178" lon="-87.641266">
      </trkpt>
      <trkpt lat="41.883185" lon="-87.639745">
      </trkpt>
      <trkpt lat="41.883246" lon="-87.631699">
      </trkpt>
      <trkpt lat="41.883184" lon="-87.630932">
      </trkpt>
      <trkpt lat="41.882086" lon="-87.63088">
      </trkpt>
      <trkpt lat="41.882086" lon="-87.63088">
      </trkpt>
      <trkpt lat="41.875701" lon="-87.630715">
      </trkpt>
      <trkpt lat="41.875719" lon="-87.651339">
      </trkpt>
      <trkpt lat="41.876197" lon="-87.657603">
      </trkpt>
      <trkpt lat="41.875763" lon="-87.688313">
      </trkpt>
      <trkpt lat="41.875862" lon="-87.692409">
      </trkpt>
      <trkpt lat="41.875937" lon="-87.701067">
      </trkpt>
      <trkpt lat="41.889426" lon="-87.701479">
      </trkpt>
      <trkpt lat="41.891131" lon="-87.701974">
      </trkpt>
      <trkpt lat="41.897899" lon="-87.702431">
      </trkpt>
      <trkpt lat="41.902886" lon="-87.702278">
      </trkpt>
      <trkpt lat="41.902888" lon="-87.701605">
      </trkpt>
      <trkpt lat="41.902888" lon="-87.701605">
      </trkpt>
      <trkpt lat="41.902886" lon="-87.702278">
      </trkpt>
      <trkpt lat="41.874345" lon="-87.701026">
      </trkpt>
      <trkpt lat="41.874908" lon="-87.695509">
      </trkpt>
      <trkpt lat="41.875125" lon="-87.690201">
      </trkpt>
      <trkpt lat="41.875329" lon="-87.650308">
      </trkpt>
      <trkpt lat="41.875215" lon="-87.648052">
      </trkpt>
      <trkpt lat="41.869485" lon="-87.644983">
      </trkpt>
      <trkpt lat="41.850609" lon="-87.644998">
      </trkpt>
      <trkpt lat="41.847255" lon="-87.642186">
      </trkpt>
      <trkpt lat="41.845323" lon="-87.634652">
      </trkpt>
      <trkpt lat="41.84209" lon="-87.63091">
      </trkpt>
      <trkpt lat="41.79178" lon="-87.631289">
      </trkpt>
      <trkpt lat="41.778978" lon="-87.631289">
      </trkpt>
      <trkpt lat="41.775353" lon="-87.627804">
      </trkpt>
      <trkpt lat="41.774072" lon="-87.619425">
      </trkpt>
      <trkpt lat="41.731668" lon="-87.560639">
      </trkpt>
      <trkpt lat="41.728885" lon="-87.557314">
      </trkpt>
      <trkpt lat="41.731533" lon="-87.560976">
      </trkpt>
      <trkpt lat="41.72265" lon="-87.56073">
      </trkpt>
      <trkpt lat="41.722597" lon="-87.564707">
      </trkpt>
      <trkpt lat="41.713006" lon="-87.564571">
      </trkpt>
      <trkpt lat="41.713006" lon="-87.564571">
      </trkpt>
      <trkpt lat="41.722597" lon="-87.564707">
      </trkpt>
      <trkpt lat="41.722806" lon="-87.545616">
      </trkpt>
      <trkpt lat="41.724319" lon="-87.547715">
      </trkpt>
      <trkpt lat="41.72501" lon="-87.546077">
      </trkpt>
      <trkpt lat="41.730984" lon="-87.54016">
      </trkpt>
      <trkpt lat="41.748764" lon="-87.540522">
      </trkpt>
      <trkpt lat="41.750364" lon="-87.541919">
      </trkpt>
      <trkpt lat="41.75205" lon="-87.548007">
      </trkpt>
      <trkpt lat="41.75528" lon="-87.551591">
      </trkpt>
      <trkpt lat="41.754479" lon="-87.552923">
      </trkpt>
      <trkpt lat="41.757264" lon="-87.555915">
      </trkpt>
      <trkpt lat="41.756561" lon="-87.557097">
      </trkpt>
      <trkpt lat="41.756561" lon="-87.557097">
      </trkpt>
      <trkpt lat="41.756493" lon="-87.557209">
      </trkpt>
      <trkpt lat="41.759137" lon="-87.560055">
      </trkpt>
      <trkpt lat="41.7662" lon="-87.5664">
      </trkpt>
      <trkpt lat="41.773161" lon="-87.566625">
      </trkpt>
      <trkpt lat="41.773723" lon="-87.56701">
      </trkpt>
      <trkpt lat="41.775182" lon="-87.569465">
      </trkpt>
      <trkpt lat="41.775596" lon="-87.571049">
      </trkpt>
      <trkpt lat="41.775326" lon="-87.574372">
      </trkpt>
      <trkpt lat="41.77595" lon="-87.578254">
      </trkpt>
      <trkpt lat="41.775662" lon="-87.580936">
      </trkpt>
      <trkpt lat="41.775654" lon="-87.582865">
      </trkpt>
      <trkpt lat="41.77523" lon="-87.584893">
      </trkpt>
      <trkpt lat="41.775177" lon="-87.586341">
      </trkpt>
      <trkpt lat="41.773335" lon="-87.586285">
      </trkpt>
      <trkpt lat="41.773294" lon="-87.590895">
      </trkpt>
      <trkpt lat="41.773294" lon="-87.590895">
      </trkpt>
      <trkpt lat="41.773342" lon="-87.585754">
      </trkpt>
      <trkpt lat="41.780203" lon="-87.584175">
      </trkpt>
      <trkpt lat="41.780713" lon="-87.574628">
      </trkpt>
      <trkpt lat="41.791827" lon="-87.580105">
      </trkpt>
      <trkpt lat="41.795899" lon="-87.579065">
      </trkpt>
      <trkpt lat="41.803976" lon="-87.581975">
      </trkpt>
      <trkpt lat="41.815381" lon="-87.593676">
      </trkpt>
      <trkpt lat="41.826403" lon="-87.600955">
      </trkpt>
      <trkpt lat="41.832668" lon="-87.606909">
      </trkpt>
      <trkpt lat="41.843509" lon="-87.610426">
      </trkpt>
      <trkpt lat="41.848604" lon="-87.612641">
      </trkpt>
      <trkpt lat="41.847424" lon="-87.630973">
      </trkpt>
      <trkpt lat="41.847736" lon="-87.641219">
      </trkpt>
      <trkpt lat="41.850742" lon="-87.644555">
      </trkpt>
      <trkpt lat="41.886906" lon="-87.646327">
      </trkpt>
      <trkpt lat="41.897003" lon="-87.6586">
      </trkpt>
      <trkpt lat="41.906443" lon="-87.661061">
      </trkpt>
      <trkpt lat="41.916334" lon="-87.668478">
      </trkpt>
      <trkpt lat="41.922676" lon="-87.678438">
      </trkpt>
      <trkpt lat="41.924981" lon="-87.681912">
      </trkpt>
      <trkpt lat="41.928348" lon="-87.6877">
      </trkpt>
      <trkpt lat="41.928661" lon="-87.687706">
      </trkpt>
      <trkpt lat="41.928496" lon="-87.693879">
      </trkpt>
      <trkpt lat="41.928751" lon="-87.693886">
      </trkpt>
      <trkpt lat="41.928744" lon="-87.69452">
      </trkpt>
      <trkpt lat="41.928744" lon="-87.69452">
      </trkpt>
      <trkpt lat="41.928713" lon="-87.697523">
      </trkpt>
      <trkpt lat="41.932108" lon="-87.697602">
      </trkpt>
      <trkpt lat="41.932116" lon="-87.696547">
      </trkpt>
      <trkpt lat="41.920564" lon="-87.675234">
      </trkpt>
      <trkpt lat="41.916444" lon="-87.669025">
      </trkpt>
      <trkpt lat="41.909975" lon="-87.664752">
      </trkpt>
      <trkpt lat="41.906635" lon="-87.661559">
      </trkpt>
      <trkpt lat="41.901587" lon="-87.661131">
      </trkpt>
      <trkpt lat="41.896968" lon="-87.659049">
      </trkpt>
      <trkpt lat="41.888343" lon="-87.647531">
      </trkpt>
      <trkpt lat="41.885929" lon="-87.646219">
      </trkpt>
      <trkpt lat="41.881827" lon="-87.645999">
      </trkpt>
      <trkpt lat="41.880956" lon="-87.646134">
      </trkpt>
      <trkpt lat="41.879569" lon="-87.646145">
      </trkpt>
      <trkpt lat="41.878121" lon="-87.646166">
      </trkpt>
      <trkpt lat="41.877218" lon="-87.646107">
      </trkpt>
      <trkpt lat="41.875649" lon="-87.646733">
      </trkpt>
      <trkpt lat="41.875057" lon="-87.646076">
      </trkpt>
      <trkpt lat="41.875546" lon="-87.629223">
      </trkpt>
      <trkpt lat="41.878179" lon="-87.629291">
      </trkpt>
      <trkpt lat="41.878262" lon="-87.626099">
      </trkpt>
      <trkpt lat="41.876978" lon="-87.626066">
      </trkpt>
      <trkpt lat="41.876964" lon="-87.627123">
      </trkpt>
      <trkpt lat="41.876964" lon="-87.627123">
      </trkpt>
      <trkpt lat="41.876938" lon="-87.627664">
      </trkpt>
      <trkpt lat="41.860173" lon="-87.627357">
      </trkpt>
      <trkpt lat="41.860127" lon="-87.630281">
      </trkpt>
      <trkpt lat="41.867992" lon="-87.630401">
      </trkpt>
      <trkpt lat="41.867992" lon="-87.630401">
      </trkpt>
      <trkpt lat="41.874518" lon="-87.630686">
      </trkpt>
      <trkpt lat="41.874483" lon="-87.633036">
      </trkpt>
      <trkpt lat="41.875667" lon="-87.633082">
      </trkpt>
      <trkpt lat="41.875644" lon="-87.641651">
      </trkpt>
      <trkpt lat="41.876207" lon="-87.646562">
      </trkpt>
      <trkpt lat="41.872433" lon="-87.645662">
      </trkpt>
      <trkpt lat="41.857367" lon="-87.644363">
      </trkpt>
      <trkpt lat="41.849097" lon="-87.644333">
      </trkpt>
      <trkpt lat="41.846776" lon="-87.644894">
      </trkpt>
      <trkpt lat="41.837772" lon="-87.66744">
      </trkpt>
      <trkpt lat="41.836863" lon="-87.680834">
      </trkpt>
      <trkpt lat="41.796778" lon="-87.808237">
      </trkpt>
      <trkpt lat="41.796078" lon="-87.817366">
      </trkpt>
      <trkpt lat="41.765426" lon="-87.84963">
      </trkpt>
      <trkpt lat="41.763122" lon="-87.858365">
      </trkpt>
      <trkpt lat="41.762669" lon="-87.862747">
      </trkpt>
      <trkpt lat="41.761936" lon="-87.868089">
      </trkpt>
      <trkpt lat="41.757229" lon="-87.866442">
      </trkpt>
      <trkpt lat="41.746261" lon="-87.853987">
      </trkpt>
      <trkpt lat="41.745129" lon="-87.848804">
      </trkpt>
      <trkpt lat="41.746191" lon="-87.843794">
      </trkpt>
      <trkpt lat="41.741148" lon="-87.830007">
      </trkpt>
      <trkpt lat="41.728825" lon="-87.812487">
      </trkpt>
      <trkpt lat="41.721123" lon="-87.807922">
      </trkpt>
      <trkpt lat="41.718721" lon="-87.80945">
      </trkpt>
      <trkpt lat="41.710618" lon="-87.808458">
      </trkpt>
      <trkpt lat="41.710618" lon="-87.808458">
      </trkpt>
      <trkpt lat="41.718721" lon="-87.80945">
      </trkpt>
      <trkpt lat="41.718732" lon="-87.805512">
      </trkpt>
      <trkpt lat="41.717645" lon="-87.804742">
      </trkpt>
      <trkpt lat="41.728985" lon="-87.812282">
      </trkpt>
      <trkpt lat="41.741692" lon="-87.830369">
      </trkpt>
      <trkpt lat="41.74646" lon="-87.84289">
      </trkpt>
      <trkpt lat="41.747223" lon="-87.856847">
      </trkpt>
      <trkpt lat="41.754418" lon="-87.8727">
      </trkpt>
      <trkpt lat="41.76235" lon="-87.896806">
      </trkpt>
      <trkpt lat="41.76636" lon="-87.903115">
      </trkpt>
      <trkpt lat="41.772785" lon="-87.907051">
      </trkpt>
      <trkpt lat="41.797088" lon="-87.908162">
      </trkpt>
      <trkpt lat="41.814979" lon="-87.913697">
      </trkpt>
      <trkpt lat="41.818828" lon="-87.912244">
      </trkpt>
      <trkpt lat="41.820721" lon="-87.900588">
      </trkpt>
      <trkpt lat="41.819671" lon="-87.889449">
      </trkpt>
      <trkpt lat="41.814994" lon="-87.889246">
      </trkpt>
      <trkpt lat="41.815006" lon="-87.888849">
      </trkpt>
      <trkpt lat="41.815006" lon="-87.888849">
      </trkpt>
      <trkpt lat="41.814994" lon="-87.889246">
      </trkpt>
      <trkpt lat="41.783682" lon="-87.887868">
      </trkpt>
      <trkpt lat="41.779182" lon="-87.896952">
      </trkpt>
      <trkpt lat="41.778094" lon="-87.900704">
      </trkpt>
      <trkpt lat="41.778647" lon="-87.90091">
      </trkpt>
      <trkpt lat="41.778537" lon="-87.901152">
      </trkpt>
      <trkpt lat="41.778537" lon="-87.901152">
      </trkpt>
      <trkpt lat="41.778094" lon="-87.900704">
      </trkpt>
      <trkpt lat="41.775797" lon="-87.904757">
      </trkpt>
      <trkpt lat="41.77152" lon="-87.916323">
      </trkpt>
      <trkpt lat="41.756143" lon="-87.915841">
      </trkpt>
      <trkpt lat="41.755125" lon="-87.916209">
      </trkpt>
      <trkpt lat="41.755161" lon="-87.917485">
      </trkpt>
      <trkpt lat="41.756286" lon="-87.916426">
      </trkpt>
      <trkpt lat="41.758692" lon="-87.909885">
      </trkpt>
      <trkpt lat="41.760505" lon="-87.902515">
      </trkpt>
      <trkpt lat="41.760882" lon="-87.873751">
      </trkpt>
      <trkpt lat="41.763899" lon="-87.851994">
      </trkpt>
      <trkpt lat="41.765605" lon="-87.849047">
      </trkpt>
      <trkpt lat="41.773543" lon="-87.842686">
      </trkpt>
      <trkpt lat="41.779396" lon="-87.836547">
      </trkpt>
      <trkpt lat="41.784136" lon="-87.830061">
      </trkpt>
      <trkpt lat="41.789845" lon="-87.824374">
      </trkpt>
      <trkpt lat="41.79163" lon="-87.821898">
      </trkpt>
      <trkpt lat="41.792444" lon="-87.819194">
      </trkpt>
      <trkpt lat="41.790627" lon="-87.812514">
      </trkpt>
      <trkpt lat="41.791727" lon="-87.807603">
      </trkpt>
      <trkpt lat="41.792155" lon="-87.791682">
      </trkpt>
      <trkpt lat="41.792155" lon="-87.791682">
      </trkpt>
      <trkpt lat="41.791926" lon="-87.801533">
      </trkpt>
      <trkpt lat="41.776587" lon="-87.800905">
      </trkpt>
      <trkpt lat="41.772067" lon="-87.804533">
      </trkpt>
      <trkpt lat="41.770152" lon="-87.804848">
      </trkpt>
      <trkpt lat="41.767977" lon="-87.803884">
      </trkpt>
      <trkpt lat="41.765315" lon="-87.800921">
      </trkpt>
      <trkpt lat="41.762691" lon="-87.800351">
      </trkpt>
      <trkpt lat="41.762707" lon="-87.799695">
      </trkpt>
      <trkpt lat="41.7629" lon="-87.794833">
      </trkpt>
      <trkpt lat="41.759182" lon="-87.794712">
      </trkpt>
      <trkpt lat="41.759264" lon="-87.790328">
      </trkpt>
      <trkpt lat="41.758895" lon="-87.790318">
      </trkpt>
      <trkpt lat="41.758895" lon="-87.790318">
      </trkpt>
      <trkpt lat="41.759264" lon="-87.790328">
      </trkpt>
      <trkpt lat="41.759182" lon="-87.794712">
      </trkpt>
      <trkpt lat="41.7629" lon="-87.794833">
      </trkpt>
      <trkpt lat="41.762694" lon="-87.800221">
      </trkpt>
      <trkpt lat="41.770367" lon="-87.804708">
      </trkpt>
      <trkpt lat="41.776802" lon="-87.80088">
      </trkpt>
      <trkpt lat="41.798431" lon="-87.80173">
      </trkpt>
      <trkpt lat="41.836574" lon="-87.680867">
      </trkpt>
      <trkpt lat="41.837594" lon="-87.667241">
      </trkpt>
      <trkpt lat="41.845157" lon="-87.651015">
      </trkpt>
      <trkpt lat="41.847976" lon="-87.616851">
      </trkpt>
      <trkpt lat="41.84938" lon="-87.612168">
      </trkpt>
      <trkpt lat="41.8661" lon="-87.619244">
      </trkpt>
      <trkpt lat="41.892878" lon="-87.614041">
      </trkpt>
      <trkpt lat="41.900921" lon="-87.619441">
      </trkpt>
      <trkpt lat="41.902767" lon="-87.623983">
      </trkpt>
      <trkpt lat="41.934701" lon="-87.632273">
      </trkpt>
      <trkpt lat="41.950931" lon="-87.644376">
      </trkpt>
      <trkpt lat="41.984951" lon="-87.652803">
      </trkpt>
      <trkpt lat="41.985105" lon="-87.662456">
      </trkpt>
      <trkpt lat="41.987189" lon="-87.665884">
      </trkpt>
      <trkpt lat="41.987146" lon="-87.669585">
      </trkpt>
      <trkpt lat="41.988054" lon="-87.669707">
      </trkpt>
      <trkpt lat="41.987608" lon="-87.669796">
      </trkpt>
      <trkpt lat="41.987519" lon="-87.669769">
      </trkpt>
    </trkseg>
  </trk>
</gpx>