<?xml version="1.0" encoding="UTF-8"?>
<gpx xmlns="http://www.topografix.com/GPX/1/1" xmlns:xsi="http://www.w3.org/2001/XMLSchema-instance" xsi:schemaLocation="http://www.topografix.com/GPX/1/1 http://www.topografix.com/GPX/1/1/gpx.xsd" version="1.1" creator="gpx.py -- https://github.com/tkrajina/gpxpy">
  <trk>
    <trkseg>
      <trkpt lat="41.939918" lon="-87.654106">
      </trkpt>
      <trkpt lat="41.939729" lon="-87.666233">
      </trkpt>
      <trkpt lat="41.937916" lon="-87.666175">
      </trkpt>
      <trkpt lat="41.93788" lon="-87.668655">
      </trkpt>
      <trkpt lat="41.925151" lon="-87.66815">
      </trkpt>
      <trkpt lat="41.924981" lon="-87.681912">
      </trkpt>
      <trkpt lat="41.926707" lon="-87.685177">
      </trkpt>
      <trkpt lat="41.940439" lon="-87.709664">
      </trkpt>
      <trkpt lat="41.942208" lon="-87.714861">
      </trkpt>
      <trkpt lat="41.943331" lon="-87.716273">
      </trkpt>
      <trkpt lat="41.946973" lon="-87.718472">
      </trkpt>
      <trkpt lat="41.947985" lon="-87.719618">
      </trkpt>
      <trkpt lat="41.958569" lon="-87.738838">
      </trkpt>
      <trkpt lat="41.960451" lon="-87.741371">
      </trkpt>
      <trkpt lat="41.960809" lon="-87.741062">
      </trkpt>
      <trkpt lat="41.960809" lon="-87.741062">
      </trkpt>
      <trkpt lat="41.960812" lon="-87.743853">
      </trkpt>
      <trkpt lat="41.958818" lon="-87.740635">
      </trkpt>
      <trkpt lat="41.958438" lon="-87.739456">
      </trkpt>
      <trkpt lat="41.957103" lon="-87.73715">
      </trkpt>
      <trkpt lat="41.955492" lon="-87.734704">
      </trkpt>
      <trkpt lat="41.953617" lon="-87.731304">
      </trkpt>
      <trkpt lat="41.953865" lon="-87.709456">
      </trkpt>
      <trkpt lat="41.953972" lon="-87.709457">
      </trkpt>
      <trkpt lat="41.953965" lon="-87.709947">
      </trkpt>
      <trkpt lat="41.953965" lon="-87.709947">
      </trkpt>
      <trkpt lat="41.953958" lon="-87.710466">
      </trkpt>
      <trkpt lat="41.947636" lon="-87.710301">
      </trkpt>
      <trkpt lat="41.945936" lon="-87.707815">
      </trkpt>
      <trkpt lat="41.938646" lon="-87.707705">
      </trkpt>
      <trkpt lat="41.919706" lon="-87.673831">
      </trkpt>
      <trkpt lat="41.918264" lon="-87.671882">
      </trkpt>
      <trkpt lat="41.917859" lon="-87.671887">
      </trkpt>
      <trkpt lat="41.91776" lon="-87.677621">
      </trkpt>
      <trkpt lat="41.894261" lon="-87.677009">
      </trkpt>
      <trkpt lat="41.894261" lon="-87.677009">
      </trkpt>
      <trkpt lat="41.895912" lon="-87.677057">
      </trkpt>
      <trkpt lat="41.895606" lon="-87.701213">
      </trkpt>
      <trkpt lat="41.895606" lon="-87.701213">
      </trkpt>
      <trkpt lat="41.896071" lon="-87.667222">
      </trkpt>
      <trkpt lat="41.899713" lon="-87.667339">
      </trkpt>
      <trkpt lat="41.899842" lon="-87.660982">
      </trkpt>
      <trkpt lat="41.899711" lon="-87.660843">
      </trkpt>
      <trkpt lat="41.896667" lon="-87.658834">
      </trkpt>
      <trkpt lat="41.895018" lon="-87.657114">
      </trkpt>
      <trkpt lat="41.89377" lon="-87.655657">
      </trkpt>
      <trkpt lat="41.89226" lon="-87.654831">
      </trkpt>
      <trkpt lat="41.891931" lon="-87.653963">
      </trkpt>
      <trkpt lat="41.892554" lon="-87.651034">
      </trkpt>
      <trkpt lat="41.89242" lon="-87.632701">
      </trkpt>
      <trkpt lat="41.890793" lon="-87.632683">
      </trkpt>
      <trkpt lat="41.891051" lon="-87.61861">
      </trkpt>
      <trkpt lat="41.889504" lon="-87.61855">
      </trkpt>
      <trkpt lat="41.889507" lon="-87.618129">
      </trkpt>
      <trkpt lat="41.889507" lon="-87.618129">
      </trkpt>
      <trkpt lat="41.889634" lon="-87.621542">
      </trkpt>
      <trkpt lat="41.88971" lon="-87.621612">
      </trkpt>
      <trkpt lat="41.890105" lon="-87.621642">
      </trkpt>
      <trkpt lat="41.890126" lon="-87.62195">
      </trkpt>
      <trkpt lat="41.890967" lon="-87.62196">
      </trkpt>
      <trkpt lat="41.891016" lon="-87.62021">
      </trkpt>
      <trkpt lat="41.889573" lon="-87.620395">
      </trkpt>
      <trkpt lat="41.889608" lon="-87.621589">
      </trkpt>
      <trkpt lat="41.890134" lon="-87.621608">
      </trkpt>
      <trkpt lat="41.890945" lon="-87.62164">
      </trkpt>
      <trkpt lat="41.890952" lon="-87.621327">
      </trkpt>
      <trkpt lat="41.890952" lon="-87.621327">
      </trkpt>
      <trkpt lat="41.890997" lon="-87.620784">
      </trkpt>
      <trkpt lat="41.891015" lon="-87.621649">
      </trkpt>
      <trkpt lat="41.891098" lon="-87.621842">
      </trkpt>
      <trkpt lat="41.890981" lon="-87.621986">
      </trkpt>
      <trkpt lat="41.890945" lon="-87.624246">
      </trkpt>
      <trkpt lat="41.88986" lon="-87.624214">
      </trkpt>
      <trkpt lat="41.88832" lon="-87.624581">
      </trkpt>
      <trkpt lat="41.888334" lon="-87.62517">
      </trkpt>
      <trkpt lat="41.888239" lon="-87.625491">
      </trkpt>
      <trkpt lat="41.887226" lon="-87.626463">
      </trkpt>
      <trkpt lat="41.887064" lon="-87.626741">
      </trkpt>
      <trkpt lat="41.886951" lon="-87.627165">
      </trkpt>
      <trkpt lat="41.886906" lon="-87.63544">
      </trkpt>
      <trkpt lat="41.887983" lon="-87.63637">
      </trkpt>
      <trkpt lat="41.888" lon="-87.63527">
      </trkpt>
      <trkpt lat="41.888" lon="-87.63527">
      </trkpt>
      <trkpt lat="41.887983" lon="-87.63637">
      </trkpt>
      <trkpt lat="41.892368" lon="-87.63704">
      </trkpt>
      <trkpt lat="41.892541" lon="-87.624121">
      </trkpt>
      <trkpt lat="41.900824" lon="-87.624042">
      </trkpt>
      <trkpt lat="41.902709" lon="-87.623664">
      </trkpt>
      <trkpt lat="41.912141" lon="-87.62589">
      </trkpt>
      <trkpt lat="41.918036" lon="-87.628743">
      </trkpt>
      <trkpt lat="41.928415" lon="-87.631851">
      </trkpt>
      <trkpt lat="41.934381" lon="-87.632152">
      </trkpt>
      <trkpt lat="41.936704" lon="-87.633661">
      </trkpt>
      <trkpt lat="41.939073" lon="-87.63676">
      </trkpt>
      <trkpt lat="41.940568" lon="-87.638088">
      </trkpt>
      <trkpt lat="41.940119" lon="-87.639537">
      </trkpt>
      <trkpt lat="41.936919" lon="-87.639435">
      </trkpt>
      <trkpt lat="41.936919" lon="-87.639435">
      </trkpt>
      <trkpt lat="41.940119" lon="-87.639537">
      </trkpt>
      <trkpt lat="41.940268" lon="-87.638796">
      </trkpt>
      <trkpt lat="41.939931" lon="-87.638606">
      </trkpt>
      <trkpt lat="41.936955" lon="-87.634194">
      </trkpt>
      <trkpt lat="41.93482" lon="-87.632527">
      </trkpt>
      <trkpt lat="41.928427" lon="-87.632048">
      </trkpt>
      <trkpt lat="41.915117" lon="-87.627538">
      </trkpt>
      <trkpt lat="41.913042" lon="-87.627206">
      </trkpt>
      <trkpt lat="41.912346" lon="-87.628067">
      </trkpt>
      <trkpt lat="41.913459" lon="-87.631428">
      </trkpt>
      <trkpt lat="41.912907" lon="-87.633196">
      </trkpt>
      <trkpt lat="41.89661" lon="-87.632793">
      </trkpt>
      <trkpt lat="41.896269" lon="-87.654734">
      </trkpt>
      <trkpt lat="41.891059" lon="-87.659133">
      </trkpt>
      <trkpt lat="41.890868" lon="-87.674452">
      </trkpt>
      <trkpt lat="41.889765" lon="-87.674428">
      </trkpt>
      <trkpt lat="41.889736" lon="-87.676345">
      </trkpt>
      <trkpt lat="41.889431" lon="-87.676333">
      </trkpt>
      <trkpt lat="41.889431" lon="-87.676333">
      </trkpt>
      <trkpt lat="41.889736" lon="-87.676345">
      </trkpt>
      <trkpt lat="41.889728" lon="-87.676872">
      </trkpt>
      <trkpt lat="41.890825" lon="-87.676904">
      </trkpt>
      <trkpt lat="41.891061" lon="-87.65893">
      </trkpt>
      <trkpt lat="41.896273" lon="-87.654527">
      </trkpt>
      <trkpt lat="41.896613" lon="-87.632635">
      </trkpt>
      <trkpt lat="41.900548" lon="-87.632751">
      </trkpt>
      <trkpt lat="41.9006" lon="-87.628335">
      </trkpt>
      <trkpt lat="41.900747" lon="-87.62834">
      </trkpt>
      <trkpt lat="41.900824" lon="-87.624042">
      </trkpt>
      <trkpt lat="41.912141" lon="-87.62589">
      </trkpt>
      <trkpt lat="41.928415" lon="-87.631851">
      </trkpt>
      <trkpt lat="41.934381" lon="-87.632152">
      </trkpt>
      <trkpt lat="41.941219" lon="-87.638833">
      </trkpt>
      <trkpt lat="41.950931" lon="-87.644376">
      </trkpt>
      <trkpt lat="41.973046" lon="-87.648738">
      </trkpt>
      <trkpt lat="41.984951" lon="-87.652803">
      </trkpt>
      <trkpt lat="41.985105" lon="-87.662456">
      </trkpt>
      <trkpt lat="41.990814" lon="-87.672113">
      </trkpt>
      <trkpt lat="41.990727" lon="-87.679826">
      </trkpt>
      <trkpt lat="41.993977" lon="-87.679921">
      </trkpt>
      <trkpt lat="41.993977" lon="-87.679921">
      </trkpt>
      <trkpt lat="41.990727" lon="-87.679826">
      </trkpt>
      <trkpt lat="41.990509" lon="-87.689876">
      </trkpt>
      <trkpt lat="41.99044" lon="-87.689669">
      </trkpt>
      <trkpt lat="41.955627" lon="-87.688512">
      </trkpt>
      <trkpt lat="41.910324" lon="-87.687207">
      </trkpt>
      <trkpt lat="41.910165" lon="-87.701875">
      </trkpt>
      <trkpt lat="41.902886" lon="-87.702278">
      </trkpt>
      <trkpt lat="41.902888" lon="-87.701605">
      </trkpt>
      <trkpt lat="41.902888" lon="-87.701605">
      </trkpt>
      <trkpt lat="41.902888" lon="-87.701605">
      </trkpt>
      <trkpt lat="41.902888" lon="-87.701605">
      </trkpt>
      <trkpt lat="41.902928" lon="-87.696883">
      </trkpt>
      <trkpt lat="41.895661" lon="-87.696699">
      </trkpt>
      <trkpt lat="41.895912" lon="-87.677057">
      </trkpt>
      <trkpt lat="41.894261" lon="-87.677009">
      </trkpt>
      <trkpt lat="41.894261" lon="-87.677009">
      </trkpt>
      <trkpt lat="41.895912" lon="-87.677057">
      </trkpt>
      <trkpt lat="41.89575" lon="-87.686835">
      </trkpt>
      <trkpt lat="41.903025" lon="-87.687018">
      </trkpt>
      <trkpt lat="41.902888" lon="-87.701605">
      </trkpt>
      <trkpt lat="41.902888" lon="-87.701605">
      </trkpt>
      <trkpt lat="41.902928" lon="-87.696883">
      </trkpt>
      <trkpt lat="41.895661" lon="-87.696699">
      </trkpt>
      <trkpt lat="41.896586" lon="-87.63421">
      </trkpt>
      <trkpt lat="41.898867" lon="-87.634293">
      </trkpt>
      <trkpt lat="41.898867" lon="-87.634293">
      </trkpt>
      <trkpt lat="41.903857" lon="-87.634474">
      </trkpt>
      <trkpt lat="41.90389" lon="-87.632844">
      </trkpt>
      <trkpt lat="41.912584" lon="-87.633095">
      </trkpt>
      <trkpt lat="41.913071" lon="-87.632796">
      </trkpt>
      <trkpt lat="41.918564" lon="-87.636142">
      </trkpt>
      <trkpt lat="41.927956" lon="-87.641881">
      </trkpt>
      <trkpt lat="41.927956" lon="-87.641881">
      </trkpt>
      <trkpt lat="41.92558" lon="-87.640463">
      </trkpt>
      <trkpt lat="41.926001" lon="-87.631853">
      </trkpt>
      <trkpt lat="41.912297" lon="-87.626142">
      </trkpt>
      <trkpt lat="41.904908" lon="-87.624861">
      </trkpt>
      <trkpt lat="41.901978" lon="-87.624179">
      </trkpt>
      <trkpt lat="41.884489" lon="-87.624571">
      </trkpt>
      <trkpt lat="41.884372" lon="-87.623414">
      </trkpt>
      <trkpt lat="41.884319" lon="-87.621085">
      </trkpt>
      <trkpt lat="41.884319" lon="-87.621085">
      </trkpt>
      <trkpt lat="41.884316" lon="-87.620576">
      </trkpt>
      <trkpt lat="41.884503" lon="-87.620586">
      </trkpt>
      <trkpt lat="41.884484" lon="-87.624371">
      </trkpt>
      <trkpt lat="41.887965" lon="-87.624484">
      </trkpt>
      <trkpt lat="41.889969" lon="-87.624034">
      </trkpt>
      <trkpt lat="41.892541" lon="-87.624121">
      </trkpt>
      <trkpt lat="41.892574" lon="-87.621881">
      </trkpt>
      <trkpt lat="41.892574" lon="-87.621881">
      </trkpt>
      <trkpt lat="41.892588" lon="-87.620263">
      </trkpt>
      <trkpt lat="41.893412" lon="-87.620283">
      </trkpt>
      <trkpt lat="41.893148" lon="-87.637063">
      </trkpt>
      <trkpt lat="41.892522" lon="-87.64596">
      </trkpt>
      <trkpt lat="41.892674" lon="-87.65028">
      </trkpt>
      <trkpt lat="41.892622" lon="-87.653268">
      </trkpt>
      <trkpt lat="41.896481" lon="-87.658404">
      </trkpt>
      <trkpt lat="41.901399" lon="-87.660896">
      </trkpt>
      <trkpt lat="41.906646" lon="-87.66137">
      </trkpt>
      <trkpt lat="41.917654" lon="-87.670146">
      </trkpt>
      <trkpt lat="41.940372" lon="-87.709927">
      </trkpt>
      <trkpt lat="41.94215" lon="-87.715306">
      </trkpt>
      <trkpt lat="41.947613" lon="-87.719592">
      </trkpt>
      <trkpt lat="41.95982" lon="-87.741635">
      </trkpt>
      <trkpt lat="41.963594" lon="-87.746287">
      </trkpt>
      <trkpt lat="41.975724" lon="-87.747426">
      </trkpt>
      <trkpt lat="41.976396" lon="-87.74607">
      </trkpt>
      <trkpt lat="41.975364" lon="-87.745776">
      </trkpt>
      <trkpt lat="41.975314" lon="-87.74954">
      </trkpt>
      <trkpt lat="41.975314" lon="-87.74954">
      </trkpt>
      <trkpt lat="41.975317" lon="-87.749263">
      </trkpt>
      <trkpt lat="41.973672" lon="-87.749213">
      </trkpt>
      <trkpt lat="41.968116" lon="-87.74016">
      </trkpt>
      <trkpt lat="41.960937" lon="-87.729684">
      </trkpt>
      <trkpt lat="41.961311" lon="-87.689903">
      </trkpt>
      <trkpt lat="41.964343" lon="-87.690002">
      </trkpt>
    </trkseg>
  </trk>
</gpx>