<?xml version="1.0" encoding="UTF-8"?>
<gpx xmlns="http://www.topografix.com/GPX/1/1" xmlns:xsi="http://www.w3.org/2001/XMLSchema-instance" xsi:schemaLocation="http://www.topografix.com/GPX/1/1 http://www.topografix.com/GPX/1/1/gpx.xsd" version="1.1" creator="gpx.py -- https://github.com/tkrajina/gpxpy">
  <trk>
    <trkseg>
      <trkpt lat="42.005122" lon="-87.668176">
      </trkpt>
      <trkpt lat="42.005422" lon="-87.668185">
      </trkpt>
      <trkpt lat="42.005024" lon="-87.690071">
      </trkpt>
      <trkpt lat="41.955627" lon="-87.688512">
      </trkpt>
      <trkpt lat="41.949742" lon="-87.688345">
      </trkpt>
      <trkpt lat="41.949742" lon="-87.688345">
      </trkpt>
      <trkpt lat="41.949742" lon="-87.688345">
      </trkpt>
      <trkpt lat="41.949742" lon="-87.688345">
      </trkpt>
      <trkpt lat="41.946744" lon="-87.688245">
      </trkpt>
      <trkpt lat="41.946928" lon="-87.673726">
      </trkpt>
      <trkpt lat="41.939809" lon="-87.668729">
      </trkpt>
      <trkpt lat="41.93788" lon="-87.668655">
      </trkpt>
      <trkpt lat="41.937875" lon="-87.669017">
      </trkpt>
      <trkpt lat="41.937875" lon="-87.669017">
      </trkpt>
      <trkpt lat="41.937875" lon="-87.669017">
      </trkpt>
      <trkpt lat="41.937875" lon="-87.669017">
      </trkpt>
      <trkpt lat="41.937845" lon="-87.671019">
      </trkpt>
      <trkpt lat="41.93237" lon="-87.670818">
      </trkpt>
      <trkpt lat="41.932278" lon="-87.678134">
      </trkpt>
      <trkpt lat="41.92139" lon="-87.677765">
      </trkpt>
      <trkpt lat="41.921395" lon="-87.677255">
      </trkpt>
      <trkpt lat="41.918139" lon="-87.671115">
      </trkpt>
      <trkpt lat="41.915543" lon="-87.668247">
      </trkpt>
      <trkpt lat="41.909975" lon="-87.664752">
      </trkpt>
      <trkpt lat="41.906635" lon="-87.661559">
      </trkpt>
      <trkpt lat="41.900902" lon="-87.660921">
      </trkpt>
      <trkpt lat="41.896968" lon="-87.659049">
      </trkpt>
      <trkpt lat="41.895018" lon="-87.657114">
      </trkpt>
      <trkpt lat="41.891931" lon="-87.653963">
      </trkpt>
      <trkpt lat="41.892554" lon="-87.651034">
      </trkpt>
      <trkpt lat="41.892457" lon="-87.62966">
      </trkpt>
      <trkpt lat="41.894584" lon="-87.629727">
      </trkpt>
      <trkpt lat="41.894584" lon="-87.629727">
      </trkpt>
      <trkpt lat="41.89485" lon="-87.629736">
      </trkpt>
      <trkpt lat="41.894831" lon="-87.631201">
      </trkpt>
      <trkpt lat="41.882086" lon="-87.63088">
      </trkpt>
      <trkpt lat="41.882086" lon="-87.63088">
      </trkpt>
      <trkpt lat="41.880701" lon="-87.630838">
      </trkpt>
      <trkpt lat="41.880924" lon="-87.617244">
      </trkpt>
      <trkpt lat="41.881825" lon="-87.617167">
      </trkpt>
      <trkpt lat="41.882444" lon="-87.616825">
      </trkpt>
      <trkpt lat="41.882876" lon="-87.616282">
      </trkpt>
      <trkpt lat="41.883727" lon="-87.614349">
      </trkpt>
      <trkpt lat="41.884344" lon="-87.61381">
      </trkpt>
      <trkpt lat="41.885068" lon="-87.613605">
      </trkpt>
      <trkpt lat="41.887886" lon="-87.613972">
      </trkpt>
      <trkpt lat="41.892878" lon="-87.614041">
      </trkpt>
      <trkpt lat="41.89691" lon="-87.616735">
      </trkpt>
      <trkpt lat="41.89684" lon="-87.617065">
      </trkpt>
      <trkpt lat="41.898469" lon="-87.618191">
      </trkpt>
      <trkpt lat="41.898405" lon="-87.622926">
      </trkpt>
      <trkpt lat="41.898405" lon="-87.622926">
      </trkpt>
      <trkpt lat="41.898389" lon="-87.624042">
      </trkpt>
      <trkpt lat="41.900014" lon="-87.624077">
      </trkpt>
      <trkpt lat="41.89998" lon="-87.626209">
      </trkpt>
      <trkpt lat="41.89998" lon="-87.626209">
      </trkpt>
      <trkpt lat="41.899963" lon="-87.627142">
      </trkpt>
      <trkpt lat="41.900764" lon="-87.627526">
      </trkpt>
      <trkpt lat="41.900824" lon="-87.624042">
      </trkpt>
      <trkpt lat="41.902709" lon="-87.623664">
      </trkpt>
      <trkpt lat="41.90867" lon="-87.625557">
      </trkpt>
      <trkpt lat="41.912141" lon="-87.62589">
      </trkpt>
      <trkpt lat="41.918036" lon="-87.628743">
      </trkpt>
      <trkpt lat="41.924159" lon="-87.630534">
      </trkpt>
      <trkpt lat="41.926223" lon="-87.63067">
      </trkpt>
      <trkpt lat="41.925745" lon="-87.633621">
      </trkpt>
      <trkpt lat="41.930951" lon="-87.636987">
      </trkpt>
      <trkpt lat="41.932914" lon="-87.63931">
      </trkpt>
      <trkpt lat="41.932557" lon="-87.658713">
      </trkpt>
      <trkpt lat="41.935776" lon="-87.663209">
      </trkpt>
      <trkpt lat="41.935776" lon="-87.663209">
      </trkpt>
      <trkpt lat="41.936111" lon="-87.663682">
      </trkpt>
      <trkpt lat="41.921626" lon="-87.6632">
      </trkpt>
      <trkpt lat="41.921608" lon="-87.664379">
      </trkpt>
      <trkpt lat="41.921692" lon="-87.664499">
      </trkpt>
      <trkpt lat="41.921692" lon="-87.664499">
      </trkpt>
      <trkpt lat="41.921608" lon="-87.664379">
      </trkpt>
      <trkpt lat="41.921626" lon="-87.6632">
      </trkpt>
      <trkpt lat="41.932479" lon="-87.66355">
      </trkpt>
      <trkpt lat="41.932567" lon="-87.65822">
      </trkpt>
      <trkpt lat="41.932567" lon="-87.65822">
      </trkpt>
      <trkpt lat="41.932567" lon="-87.65822">
      </trkpt>
      <trkpt lat="41.932567" lon="-87.65822">
      </trkpt>
      <trkpt lat="41.932557" lon="-87.658713">
      </trkpt>
      <trkpt lat="41.939809" lon="-87.668729">
      </trkpt>
      <trkpt lat="41.954216" lon="-87.678771">
      </trkpt>
      <trkpt lat="41.953988" lon="-87.696952">
      </trkpt>
      <trkpt lat="41.953469" lon="-87.696956">
      </trkpt>
      <trkpt lat="41.953469" lon="-87.696956">
      </trkpt>
      <trkpt lat="41.953988" lon="-87.696952">
      </trkpt>
      <trkpt lat="41.953965" lon="-87.709947">
      </trkpt>
      <trkpt lat="41.953965" lon="-87.709947">
      </trkpt>
      <trkpt lat="41.952982" lon="-87.78166">
      </trkpt>
      <trkpt lat="41.950253" lon="-87.781561">
      </trkpt>
      <trkpt lat="41.950237" lon="-87.783996">
      </trkpt>
      <trkpt lat="41.951138" lon="-87.784034">
      </trkpt>
      <trkpt lat="41.951144" lon="-87.783615">
      </trkpt>
      <trkpt lat="41.951302" lon="-87.783623">
      </trkpt>
      <trkpt lat="41.951302" lon="-87.783623">
      </trkpt>
      <trkpt lat="41.952957" lon="-87.783585">
      </trkpt>
      <trkpt lat="41.953044" lon="-87.776769">
      </trkpt>
      <trkpt lat="41.966743" lon="-87.77724">
      </trkpt>
      <trkpt lat="41.966836" lon="-87.770356">
      </trkpt>
      <trkpt lat="41.966836" lon="-87.770356">
      </trkpt>
      <trkpt lat="41.966874" lon="-87.767449">
      </trkpt>
      <trkpt lat="41.97033" lon="-87.767572">
      </trkpt>
      <trkpt lat="41.973175" lon="-87.778228">
      </trkpt>
      <trkpt lat="41.978397" lon="-87.794387">
      </trkpt>
      <trkpt lat="41.979871" lon="-87.801174">
      </trkpt>
      <trkpt lat="41.983212" lon="-87.801134">
      </trkpt>
      <trkpt lat="41.986584" lon="-87.808496">
      </trkpt>
      <trkpt lat="41.986584" lon="-87.808496">
      </trkpt>
      <trkpt lat="41.983212" lon="-87.801134">
      </trkpt>
      <trkpt lat="41.979871" lon="-87.801174">
      </trkpt>
      <trkpt lat="41.978452" lon="-87.794587">
      </trkpt>
      <trkpt lat="41.975902" lon="-87.786657">
      </trkpt>
      <trkpt lat="41.973364" lon="-87.786704">
      </trkpt>
      <trkpt lat="41.973364" lon="-87.786704">
      </trkpt>
      <trkpt lat="41.973833" lon="-87.786695">
      </trkpt>
      <trkpt lat="41.973842" lon="-87.785496">
      </trkpt>
      <trkpt lat="41.97552" lon="-87.785453">
      </trkpt>
      <trkpt lat="41.973175" lon="-87.778228">
      </trkpt>
      <trkpt lat="41.971247" lon="-87.770994">
      </trkpt>
      <trkpt lat="41.972341" lon="-87.770965">
      </trkpt>
      <trkpt lat="41.971704" lon="-87.768552">
      </trkpt>
      <trkpt lat="41.975215" lon="-87.768475">
      </trkpt>
      <trkpt lat="41.974307" lon="-87.76686">
      </trkpt>
      <trkpt lat="41.974042" lon="-87.766285">
      </trkpt>
      <trkpt lat="41.973" lon="-87.765347">
      </trkpt>
      <trkpt lat="41.973056" lon="-87.765235">
      </trkpt>
      <trkpt lat="41.972273" lon="-87.763848">
      </trkpt>
      <trkpt lat="41.972273" lon="-87.763848">
      </trkpt>
      <trkpt lat="41.973056" lon="-87.765235">
      </trkpt>
      <trkpt lat="41.973" lon="-87.765347">
      </trkpt>
      <trkpt lat="41.974381" lon="-87.766589">
      </trkpt>
      <trkpt lat="41.993422" lon="-87.800819">
      </trkpt>
      <trkpt lat="41.994" lon="-87.800236">
      </trkpt>
      <trkpt lat="41.994" lon="-87.800236">
      </trkpt>
      <trkpt lat="41.993422" lon="-87.800819">
      </trkpt>
      <trkpt lat="41.996984" lon="-87.806806">
      </trkpt>
      <trkpt lat="41.943446" lon="-87.806936">
      </trkpt>
      <trkpt lat="41.943422" lon="-87.808144">
      </trkpt>
      <trkpt lat="41.943211" lon="-87.808136">
      </trkpt>
      <trkpt lat="41.943211" lon="-87.808136">
      </trkpt>
      <trkpt lat="41.941524" lon="-87.808075">
      </trkpt>
      <trkpt lat="41.941646" lon="-87.805636">
      </trkpt>
      <trkpt lat="41.945287" lon="-87.805777">
      </trkpt>
      <trkpt lat="41.946215" lon="-87.739921">
      </trkpt>
      <trkpt lat="41.946215" lon="-87.739921">
      </trkpt>
      <trkpt lat="41.947064" lon="-87.665227">
      </trkpt>
      <trkpt lat="41.94523" lon="-87.665169">
      </trkpt>
      <trkpt lat="41.945239" lon="-87.664502">
      </trkpt>
      <trkpt lat="41.945239" lon="-87.664502">
      </trkpt>
      <trkpt lat="41.945247" lon="-87.663953">
      </trkpt>
      <trkpt lat="41.957682" lon="-87.664292">
      </trkpt>
      <trkpt lat="41.961638" lon="-87.665949">
      </trkpt>
      <trkpt lat="41.961772" lon="-87.655148">
      </trkpt>
      <trkpt lat="41.964503" lon="-87.656894">
      </trkpt>
    </trkseg>
  </trk>
</gpx>