<?xml version="1.0" encoding="UTF-8"?>
<gpx xmlns="http://www.topografix.com/GPX/1/1" xmlns:xsi="http://www.w3.org/2001/XMLSchema-instance" xsi:schemaLocation="http://www.topografix.com/GPX/1/1 http://www.topografix.com/GPX/1/1/gpx.xsd" version="1.1" creator="gpx.py -- https://github.com/tkrajina/gpxpy">
  <trk>
    <trkseg>
      <trkpt lat="41.987519" lon="-87.669769">
      </trkpt>
      <trkpt lat="41.985953" lon="-87.669343">
      </trkpt>
      <trkpt lat="41.985943" lon="-87.669943">
      </trkpt>
      <trkpt lat="41.973436" lon="-87.669592">
      </trkpt>
      <trkpt lat="41.973256" lon="-87.678955">
      </trkpt>
      <trkpt lat="41.973256" lon="-87.678955">
      </trkpt>
      <trkpt lat="41.973249" lon="-87.679312">
      </trkpt>
      <trkpt lat="41.968753" lon="-87.679185">
      </trkpt>
      <trkpt lat="41.968384" lon="-87.715821">
      </trkpt>
      <trkpt lat="41.966567" lon="-87.715763">
      </trkpt>
      <trkpt lat="41.966563" lon="-87.716128">
      </trkpt>
      <trkpt lat="41.966563" lon="-87.716128">
      </trkpt>
      <trkpt lat="41.966563" lon="-87.716128">
      </trkpt>
      <trkpt lat="41.966563" lon="-87.716128">
      </trkpt>
      <trkpt lat="41.966593" lon="-87.713315">
      </trkpt>
      <trkpt lat="41.968411" lon="-87.713373">
      </trkpt>
      <trkpt lat="41.969021" lon="-87.659673">
      </trkpt>
      <trkpt lat="41.964503" lon="-87.656894">
      </trkpt>
      <trkpt lat="41.964503" lon="-87.656894">
      </trkpt>
      <trkpt lat="41.965401" lon="-87.657469">
      </trkpt>
      <trkpt lat="41.965499" lon="-87.648611">
      </trkpt>
      <trkpt lat="41.965774" lon="-87.646428">
      </trkpt>
      <trkpt lat="41.967291" lon="-87.647437">
      </trkpt>
      <trkpt lat="41.974381" lon="-87.649207">
      </trkpt>
      <trkpt lat="41.981297" lon="-87.652338">
      </trkpt>
      <trkpt lat="41.985125" lon="-87.652927">
      </trkpt>
      <trkpt lat="41.985586" lon="-87.654178">
      </trkpt>
      <trkpt lat="41.985463" lon="-87.660947">
      </trkpt>
      <trkpt lat="41.985105" lon="-87.662456">
      </trkpt>
      <trkpt lat="41.989895" lon="-87.670217">
      </trkpt>
      <trkpt lat="41.992132" lon="-87.67531">
      </trkpt>
      <trkpt lat="41.994352" lon="-87.675392">
      </trkpt>
      <trkpt lat="41.994231" lon="-87.682417">
      </trkpt>
      <trkpt lat="41.996596" lon="-87.682521">
      </trkpt>
      <trkpt lat="41.996596" lon="-87.682521">
      </trkpt>
      <trkpt lat="41.994231" lon="-87.682417">
      </trkpt>
      <trkpt lat="41.994274" lon="-87.67993">
      </trkpt>
      <trkpt lat="41.990622" lon="-87.679823">
      </trkpt>
      <trkpt lat="41.990712" lon="-87.674711">
      </trkpt>
      <trkpt lat="41.98969" lon="-87.674682">
      </trkpt>
      <trkpt lat="41.98969" lon="-87.674682">
      </trkpt>
      <trkpt lat="41.990712" lon="-87.674711">
      </trkpt>
      <trkpt lat="41.990857" lon="-87.665171">
      </trkpt>
      <trkpt lat="41.991183" lon="-87.66518">
      </trkpt>
      <trkpt lat="41.991183" lon="-87.66518">
      </trkpt>
      <trkpt lat="41.990857" lon="-87.665171">
      </trkpt>
      <trkpt lat="41.99093" lon="-87.660308">
      </trkpt>
      <trkpt lat="41.985467" lon="-87.660132">
      </trkpt>
      <trkpt lat="41.985582" lon="-87.653995">
      </trkpt>
      <trkpt lat="41.984999" lon="-87.653157">
      </trkpt>
      <trkpt lat="41.981232" lon="-87.652706">
      </trkpt>
      <trkpt lat="41.972134" lon="-87.648822">
      </trkpt>
      <trkpt lat="41.955203" lon="-87.644905">
      </trkpt>
      <trkpt lat="41.951193" lon="-87.64469">
      </trkpt>
      <trkpt lat="41.942042" lon="-87.639566">
      </trkpt>
      <trkpt lat="41.936481" lon="-87.636832">
      </trkpt>
      <trkpt lat="41.936481" lon="-87.636832">
      </trkpt>
      <trkpt lat="41.933168" lon="-87.636082">
      </trkpt>
      <trkpt lat="41.931132" lon="-87.637134">
      </trkpt>
      <trkpt lat="41.925745" lon="-87.633621">
      </trkpt>
      <trkpt lat="41.926001" lon="-87.631853">
      </trkpt>
      <trkpt lat="41.912297" lon="-87.626142">
      </trkpt>
      <trkpt lat="41.904908" lon="-87.624861">
      </trkpt>
      <trkpt lat="41.901978" lon="-87.624179">
      </trkpt>
      <trkpt lat="41.893335" lon="-87.624316">
      </trkpt>
      <trkpt lat="41.893295" lon="-87.626758">
      </trkpt>
      <trkpt lat="41.889909" lon="-87.626665">
      </trkpt>
      <trkpt lat="41.889909" lon="-87.626665">
      </trkpt>
      <trkpt lat="41.888509" lon="-87.627249">
      </trkpt>
      <trkpt lat="41.886804" lon="-87.626312">
      </trkpt>
      <trkpt lat="41.886817" lon="-87.623818">
      </trkpt>
      <trkpt lat="41.886797" lon="-87.620759">
      </trkpt>
      <trkpt lat="41.880871" lon="-87.620794">
      </trkpt>
      <trkpt lat="41.88092" lon="-87.617506">
      </trkpt>
      <trkpt lat="41.869765" lon="-87.617261">
      </trkpt>
      <trkpt lat="41.866068" lon="-87.619589">
      </trkpt>
      <trkpt lat="41.853242" lon="-87.614728">
      </trkpt>
      <trkpt lat="41.849959" lon="-87.613521">
      </trkpt>
      <trkpt lat="41.84861" lon="-87.614264">
      </trkpt>
      <trkpt lat="41.848129" lon="-87.623007">
      </trkpt>
      <trkpt lat="41.847768" lon="-87.626571">
      </trkpt>
      <trkpt lat="41.847608" lon="-87.626978">
      </trkpt>
      <trkpt lat="41.833703" lon="-87.626661">
      </trkpt>
      <trkpt lat="41.833703" lon="-87.626661">
      </trkpt>
      <trkpt lat="41.831006" lon="-87.62663">
      </trkpt>
      <trkpt lat="41.830961" lon="-87.629817">
      </trkpt>
      <trkpt lat="41.831311" lon="-87.629831">
      </trkpt>
      <trkpt lat="41.837743" lon="-87.630393">
      </trkpt>
      <trkpt lat="41.842376" lon="-87.630317">
      </trkpt>
      <trkpt lat="41.844144" lon="-87.631347">
      </trkpt>
      <trkpt lat="41.84523" lon="-87.633465">
      </trkpt>
      <trkpt lat="41.847354" lon="-87.642036">
      </trkpt>
      <trkpt lat="41.850908" lon="-87.644903">
      </trkpt>
      <trkpt lat="41.857362" lon="-87.644156">
      </trkpt>
      <trkpt lat="41.873493" lon="-87.644854">
      </trkpt>
      <trkpt lat="41.87559" lon="-87.644167">
      </trkpt>
      <trkpt lat="41.877863" lon="-87.645364">
      </trkpt>
      <trkpt lat="41.880374" lon="-87.645275">
      </trkpt>
      <trkpt lat="41.881847" lon="-87.645355">
      </trkpt>
      <trkpt lat="41.882198" lon="-87.645393">
      </trkpt>
      <trkpt lat="41.883308" lon="-87.645396">
      </trkpt>
      <trkpt lat="41.884407" lon="-87.645241">
      </trkpt>
      <trkpt lat="41.884406" lon="-87.646033">
      </trkpt>
      <trkpt lat="41.884406" lon="-87.646033">
      </trkpt>
      <trkpt lat="41.884393" lon="-87.648607">
      </trkpt>
      <trkpt lat="41.889662" lon="-87.648752">
      </trkpt>
      <trkpt lat="41.889662" lon="-87.648752">
      </trkpt>
      <trkpt lat="41.890082" lon="-87.64876">
      </trkpt>
      <trkpt lat="41.890088" lon="-87.647611">
      </trkpt>
      <trkpt lat="41.896405" lon="-87.647675">
      </trkpt>
      <trkpt lat="41.896613" lon="-87.632635">
      </trkpt>
      <trkpt lat="41.90389" lon="-87.632844">
      </trkpt>
      <trkpt lat="41.903908" lon="-87.631438">
      </trkpt>
      <trkpt lat="41.910389" lon="-87.631638">
      </trkpt>
      <trkpt lat="41.910376" lon="-87.632468">
      </trkpt>
      <trkpt lat="41.910376" lon="-87.632468">
      </trkpt>
      <trkpt lat="41.910389" lon="-87.631638">
      </trkpt>
      <trkpt lat="41.882086" lon="-87.63088">
      </trkpt>
      <trkpt lat="41.882086" lon="-87.63088">
      </trkpt>
      <trkpt lat="41.880701" lon="-87.630838">
      </trkpt>
      <trkpt lat="41.880924" lon="-87.617244">
      </trkpt>
      <trkpt lat="41.882559" lon="-87.616723">
      </trkpt>
      <trkpt lat="41.883727" lon="-87.614349">
      </trkpt>
      <trkpt lat="41.884762" lon="-87.613645">
      </trkpt>
      <trkpt lat="41.892878" lon="-87.614041">
      </trkpt>
      <trkpt lat="41.900921" lon="-87.619441">
      </trkpt>
      <trkpt lat="41.90171" lon="-87.622727">
      </trkpt>
      <trkpt lat="41.902767" lon="-87.623983">
      </trkpt>
      <trkpt lat="41.912141" lon="-87.62589">
      </trkpt>
      <trkpt lat="41.918036" lon="-87.628743">
      </trkpt>
      <trkpt lat="41.924159" lon="-87.630534">
      </trkpt>
      <trkpt lat="41.926223" lon="-87.63067">
      </trkpt>
      <trkpt lat="41.925527" lon="-87.643933">
      </trkpt>
      <trkpt lat="41.924618" lon="-87.64388">
      </trkpt>
      <trkpt lat="41.924583" lon="-87.646304">
      </trkpt>
      <trkpt lat="41.92499" lon="-87.646319">
      </trkpt>
      <trkpt lat="41.92499" lon="-87.646319">
      </trkpt>
      <trkpt lat="41.925491" lon="-87.646336">
      </trkpt>
      <trkpt lat="41.925453" lon="-87.648766">
      </trkpt>
      <trkpt lat="41.929016" lon="-87.653741">
      </trkpt>
      <trkpt lat="41.928972" lon="-87.65652">
      </trkpt>
      <trkpt lat="41.928972" lon="-87.65652">
      </trkpt>
      <trkpt lat="41.928939" lon="-87.658589">
      </trkpt>
      <trkpt lat="41.917207" lon="-87.658278">
      </trkpt>
      <trkpt lat="41.916524" lon="-87.657343">
      </trkpt>
      <trkpt lat="41.915829" lon="-87.65826">
      </trkpt>
      <trkpt lat="41.905133" lon="-87.649323">
      </trkpt>
      <trkpt lat="41.905133" lon="-87.649323">
      </trkpt>
      <trkpt lat="41.905042" lon="-87.649202">
      </trkpt>
      <trkpt lat="41.905038" lon="-87.648124">
      </trkpt>
      <trkpt lat="41.903643" lon="-87.648086">
      </trkpt>
      <trkpt lat="41.903664" lon="-87.646585">
      </trkpt>
      <trkpt lat="41.900232" lon="-87.643793">
      </trkpt>
      <trkpt lat="41.90041" lon="-87.643303">
      </trkpt>
      <trkpt lat="41.90053" lon="-87.63435">
      </trkpt>
      <trkpt lat="41.898205" lon="-87.634269">
      </trkpt>
      <trkpt lat="41.898197" lon="-87.634817">
      </trkpt>
      <trkpt lat="41.898197" lon="-87.634817">
      </trkpt>
      <trkpt lat="41.898205" lon="-87.634269">
      </trkpt>
      <trkpt lat="41.891576" lon="-87.634054">
      </trkpt>
      <trkpt lat="41.891225" lon="-87.644384">
      </trkpt>
      <trkpt lat="41.885699" lon="-87.644242">
      </trkpt>
      <trkpt lat="41.885686" lon="-87.645903">
      </trkpt>
      <trkpt lat="41.877697" lon="-87.645988">
      </trkpt>
      <trkpt lat="41.861936" lon="-87.644538">
      </trkpt>
      <trkpt lat="41.855528" lon="-87.645083">
      </trkpt>
      <trkpt lat="41.852585" lon="-87.6512">
      </trkpt>
      <trkpt lat="41.852248" lon="-87.671409">
      </trkpt>
      <trkpt lat="41.852248" lon="-87.671409">
      </trkpt>
      <trkpt lat="41.852334" lon="-87.666089">
      </trkpt>
      <trkpt lat="41.837665" lon="-87.665804">
      </trkpt>
      <trkpt lat="41.834776" lon="-87.670489">
      </trkpt>
      <trkpt lat="41.832477" lon="-87.670438">
      </trkpt>
      <trkpt lat="41.832477" lon="-87.670438">
      </trkpt>
      <trkpt lat="41.834776" lon="-87.670489">
      </trkpt>
      <trkpt lat="41.834088" lon="-87.671617">
      </trkpt>
      <trkpt lat="41.834042" lon="-87.675374">
      </trkpt>
      <trkpt lat="41.836727" lon="-87.675396">
      </trkpt>
      <trkpt lat="41.837515" lon="-87.667192">
      </trkpt>
      <trkpt lat="41.841885" lon="-87.658964">
      </trkpt>
      <trkpt lat="41.846659" lon="-87.642563">
      </trkpt>
      <trkpt lat="41.850742" lon="-87.644555">
      </trkpt>
      <trkpt lat="41.885306" lon="-87.645735">
      </trkpt>
      <trkpt lat="41.88874" lon="-87.647638">
      </trkpt>
      <trkpt lat="41.891702" lon="-87.651689">
      </trkpt>
      <trkpt lat="41.896836" lon="-87.65868">
      </trkpt>
      <trkpt lat="41.906646" lon="-87.66137">
      </trkpt>
      <trkpt lat="41.917654" lon="-87.670146">
      </trkpt>
      <trkpt lat="41.940372" lon="-87.709927">
      </trkpt>
      <trkpt lat="41.94215" lon="-87.715306">
      </trkpt>
      <trkpt lat="41.947613" lon="-87.719592">
      </trkpt>
      <trkpt lat="41.95982" lon="-87.741635">
      </trkpt>
      <trkpt lat="41.963594" lon="-87.746287">
      </trkpt>
      <trkpt lat="41.975724" lon="-87.747426">
      </trkpt>
      <trkpt lat="41.976396" lon="-87.74607">
      </trkpt>
      <trkpt lat="41.975364" lon="-87.745776">
      </trkpt>
      <trkpt lat="41.975122" lon="-87.765782">
      </trkpt>
      <trkpt lat="41.975691" lon="-87.766315">
      </trkpt>
      <trkpt lat="41.975715" lon="-87.771273">
      </trkpt>
      <trkpt lat="41.982513" lon="-87.784738">
      </trkpt>
      <trkpt lat="41.982443" lon="-87.812691">
      </trkpt>
      <trkpt lat="41.984517" lon="-87.826001">
      </trkpt>
      <trkpt lat="41.984836" lon="-87.831845">
      </trkpt>
      <trkpt lat="41.984644" lon="-87.836934">
      </trkpt>
      <trkpt lat="41.984101" lon="-87.847951">
      </trkpt>
      <trkpt lat="41.984234" lon="-87.870702">
      </trkpt>
      <trkpt lat="41.977158" lon="-87.88909">
      </trkpt>
      <trkpt lat="41.98194" lon="-87.89633">
      </trkpt>
      <trkpt lat="41.982141" lon="-87.898668">
      </trkpt>
      <trkpt lat="41.98214" lon="-87.901973">
      </trkpt>
      <trkpt lat="41.980223" lon="-87.905437">
      </trkpt>
      <trkpt lat="41.980223" lon="-87.905437">
      </trkpt>
      <trkpt lat="41.977612" lon="-87.905773">
      </trkpt>
      <trkpt lat="41.976386" lon="-87.903208">
      </trkpt>
      <trkpt lat="41.977631" lon="-87.900684">
      </trkpt>
      <trkpt lat="41.978448" lon="-87.899295">
      </trkpt>
      <trkpt lat="41.979952" lon="-87.89916">
      </trkpt>
      <trkpt lat="41.980575" lon="-87.899058">
      </trkpt>
      <trkpt lat="41.981567" lon="-87.898329">
      </trkpt>
      <trkpt lat="41.981395" lon="-87.896297">
      </trkpt>
      <trkpt lat="41.977441" lon="-87.891496">
      </trkpt>
      <trkpt lat="41.976922" lon="-87.888978">
      </trkpt>
      <trkpt lat="41.977225" lon="-87.887624">
      </trkpt>
      <trkpt lat="41.982303" lon="-87.875329">
      </trkpt>
      <trkpt lat="41.983021" lon="-87.872567">
      </trkpt>
      <trkpt lat="41.983562" lon="-87.849212">
      </trkpt>
      <trkpt lat="41.984205" lon="-87.837118">
      </trkpt>
      <trkpt lat="41.984126" lon="-87.835373">
      </trkpt>
      <trkpt lat="41.983814" lon="-87.834762">
      </trkpt>
      <trkpt lat="41.983271" lon="-87.834804">
      </trkpt>
      <trkpt lat="41.982648" lon="-87.835684">
      </trkpt>
      <trkpt lat="41.982893" lon="-87.836444">
      </trkpt>
      <trkpt lat="41.986389" lon="-87.836628">
      </trkpt>
      <trkpt lat="41.998258" lon="-87.836333">
      </trkpt>
      <trkpt lat="41.998258" lon="-87.836333">
      </trkpt>
      <trkpt lat="41.986389" lon="-87.836628">
      </trkpt>
      <trkpt lat="41.987873" lon="-87.846583">
      </trkpt>
      <trkpt lat="41.970356" lon="-87.846599">
      </trkpt>
      <trkpt lat="41.970356" lon="-87.846599">
      </trkpt>
      <trkpt lat="41.970356" lon="-87.846599">
      </trkpt>
      <trkpt lat="41.970356" lon="-87.846599">
      </trkpt>
      <trkpt lat="41.966474" lon="-87.846632">
      </trkpt>
      <trkpt lat="41.965985" lon="-87.861655">
      </trkpt>
      <trkpt lat="41.957575" lon="-87.860781">
      </trkpt>
      <trkpt lat="41.954107" lon="-87.860554">
      </trkpt>
      <trkpt lat="41.955767" lon="-87.873087">
      </trkpt>
      <trkpt lat="41.954702" lon="-87.873465">
      </trkpt>
      <trkpt lat="41.953869" lon="-87.873289">
      </trkpt>
      <trkpt lat="41.953145" lon="-87.873494">
      </trkpt>
      <trkpt lat="41.95313" lon="-87.873655">
      </trkpt>
      <trkpt lat="41.952065" lon="-87.873611">
      </trkpt>
      <trkpt lat="41.951994" lon="-87.873311">
      </trkpt>
      <trkpt lat="41.951698" lon="-87.873047">
      </trkpt>
      <trkpt lat="41.951698" lon="-87.873047">
      </trkpt>
      <trkpt lat="41.951994" lon="-87.873311">
      </trkpt>
      <trkpt lat="41.953138" lon="-87.873354">
      </trkpt>
      <trkpt lat="41.953145" lon="-87.873494">
      </trkpt>
      <trkpt lat="41.953869" lon="-87.873289">
      </trkpt>
      <trkpt lat="41.954352" lon="-87.87333">
      </trkpt>
      <trkpt lat="41.954689" lon="-87.873085">
      </trkpt>
      <trkpt lat="41.955752" lon="-87.872984">
      </trkpt>
      <trkpt lat="41.955475" lon="-87.871034">
      </trkpt>
      <trkpt lat="41.951153" lon="-87.87105">
      </trkpt>
      <trkpt lat="41.951033" lon="-87.874778">
      </trkpt>
      <trkpt lat="41.95049" lon="-87.874764">
      </trkpt>
      <trkpt lat="41.950527" lon="-87.872898">
      </trkpt>
      <trkpt lat="41.950527" lon="-87.872898">
      </trkpt>
      <trkpt lat="41.950567" lon="-87.870898">
      </trkpt>
      <trkpt lat="41.955475" lon="-87.871034">
      </trkpt>
      <trkpt lat="41.956419" lon="-87.877683">
      </trkpt>
      <trkpt lat="41.957006" lon="-87.878756">
      </trkpt>
      <trkpt lat="41.958013" lon="-87.878547">
      </trkpt>
      <trkpt lat="41.97281" lon="-87.869309">
      </trkpt>
      <trkpt lat="41.974381" lon="-87.868651">
      </trkpt>
      <trkpt lat="41.976575" lon="-87.868586">
      </trkpt>
      <trkpt lat="41.976682" lon="-87.86662">
      </trkpt>
      <trkpt lat="41.976301" lon="-87.866449">
      </trkpt>
      <trkpt lat="41.975929" lon="-87.866355">
      </trkpt>
      <trkpt lat="41.975929" lon="-87.866355">
      </trkpt>
      <trkpt lat="41.975861" lon="-87.866225">
      </trkpt>
      <trkpt lat="41.975897" lon="-87.865935">
      </trkpt>
      <trkpt lat="41.97581" lon="-87.865825">
      </trkpt>
      <trkpt lat="41.975595" lon="-87.865671">
      </trkpt>
      <trkpt lat="41.975341" lon="-87.865683">
      </trkpt>
      <trkpt lat="41.975194" lon="-87.865753">
      </trkpt>
      <trkpt lat="41.975077" lon="-87.865555">
      </trkpt>
      <trkpt lat="41.975088" lon="-87.862685">
      </trkpt>
      <trkpt lat="41.971227" lon="-87.861858">
      </trkpt>
      <trkpt lat="41.965985" lon="-87.861655">
      </trkpt>
      <trkpt lat="41.965795" lon="-87.865798">
      </trkpt>
      <trkpt lat="41.965795" lon="-87.865798">
      </trkpt>
      <trkpt lat="41.965896" lon="-87.861481">
      </trkpt>
      <trkpt lat="41.97596" lon="-87.862821">
      </trkpt>
      <trkpt lat="41.980765" lon="-87.861863">
      </trkpt>
      <trkpt lat="41.983436" lon="-87.856787">
      </trkpt>
      <trkpt lat="41.984418" lon="-87.832611">
      </trkpt>
      <trkpt lat="41.982178" lon="-87.812646">
      </trkpt>
      <trkpt lat="41.982345" lon="-87.792871">
      </trkpt>
      <trkpt lat="41.982061" lon="-87.788361">
      </trkpt>
      <trkpt lat="41.982061" lon="-87.787747">
      </trkpt>
      <trkpt lat="41.982911" lon="-87.787729">
      </trkpt>
      <trkpt lat="41.982899" lon="-87.782263">
      </trkpt>
      <trkpt lat="41.975674" lon="-87.769268">
      </trkpt>
      <trkpt lat="41.975683" lon="-87.767734">
      </trkpt>
      <trkpt lat="41.974625" lon="-87.766808">
      </trkpt>
      <trkpt lat="41.975287" lon="-87.751811">
      </trkpt>
      <trkpt lat="41.972794" lon="-87.747761">
      </trkpt>
      <trkpt lat="41.966563" lon="-87.747223">
      </trkpt>
      <trkpt lat="41.962358" lon="-87.745232">
      </trkpt>
      <trkpt lat="41.947613" lon="-87.719592">
      </trkpt>
      <trkpt lat="41.94215" lon="-87.715306">
      </trkpt>
      <trkpt lat="41.940372" lon="-87.709927">
      </trkpt>
      <trkpt lat="41.917654" lon="-87.670146">
      </trkpt>
      <trkpt lat="41.906646" lon="-87.66137">
      </trkpt>
      <trkpt lat="41.897394" lon="-87.659066">
      </trkpt>
      <trkpt lat="41.892534" lon="-87.653065">
      </trkpt>
      <trkpt lat="41.892588" lon="-87.620263">
      </trkpt>
      <trkpt lat="41.89379" lon="-87.620293">
      </trkpt>
      <trkpt lat="41.89379" lon="-87.620293">
      </trkpt>
      <trkpt lat="41.893412" lon="-87.620283">
      </trkpt>
      <trkpt lat="41.89336" lon="-87.622735">
      </trkpt>
      <trkpt lat="41.892566" lon="-87.62271">
      </trkpt>
      <trkpt lat="41.892574" lon="-87.621881">
      </trkpt>
      <trkpt lat="41.892574" lon="-87.621881">
      </trkpt>
      <trkpt lat="41.892588" lon="-87.620263">
      </trkpt>
      <trkpt lat="41.887855" lon="-87.620762">
      </trkpt>
      <trkpt lat="41.887462" lon="-87.615811">
      </trkpt>
      <trkpt lat="41.887175" lon="-87.614014">
      </trkpt>
      <trkpt lat="41.885118" lon="-87.61394">
      </trkpt>
      <trkpt lat="41.881821" lon="-87.617453">
      </trkpt>
      <trkpt lat="41.869765" lon="-87.617261">
      </trkpt>
      <trkpt lat="41.866068" lon="-87.619589">
      </trkpt>
      <trkpt lat="41.853242" lon="-87.614728">
      </trkpt>
      <trkpt lat="41.848506" lon="-87.614444">
      </trkpt>
      <trkpt lat="41.84732" lon="-87.626818">
      </trkpt>
      <trkpt lat="41.847855" lon="-87.631727">
      </trkpt>
      <trkpt lat="41.843118" lon="-87.631351">
      </trkpt>
      <trkpt lat="41.815532" lon="-87.630439">
      </trkpt>
      <trkpt lat="41.807984" lon="-87.632226">
      </trkpt>
      <trkpt lat="41.798939" lon="-87.631696">
      </trkpt>
      <trkpt lat="41.794538" lon="-87.631804">
      </trkpt>
      <trkpt lat="41.794034" lon="-87.664508">
      </trkpt>
      <trkpt lat="41.801322" lon="-87.664716">
      </trkpt>
      <trkpt lat="41.800728" lon="-87.664826">
      </trkpt>
      <trkpt lat="41.800728" lon="-87.664826">
      </trkpt>
      <trkpt lat="41.7995" lon="-87.664794">
      </trkpt>
      <trkpt lat="41.852337" lon="-87.665955">
      </trkpt>
      <trkpt lat="41.852429" lon="-87.661159">
      </trkpt>
      <trkpt lat="41.859221" lon="-87.661353">
      </trkpt>
      <trkpt lat="41.859221" lon="-87.661353">
      </trkpt>
      <trkpt lat="41.859697" lon="-87.661368">
      </trkpt>
      <trkpt lat="41.859723" lon="-87.659588">
      </trkpt>
      <trkpt lat="41.863264" lon="-87.656555">
      </trkpt>
      <trkpt lat="41.876515" lon="-87.65693">
      </trkpt>
      <trkpt lat="41.876511" lon="-87.65728">
      </trkpt>
      <trkpt lat="41.876138" lon="-87.661623">
      </trkpt>
      <trkpt lat="41.875763" lon="-87.688313">
      </trkpt>
      <trkpt lat="41.875862" lon="-87.692409">
      </trkpt>
      <trkpt lat="41.87596" lon="-87.698604">
      </trkpt>
      <trkpt lat="41.877405" lon="-87.698638">
      </trkpt>
      <trkpt lat="41.877408" lon="-87.69832">
      </trkpt>
      <trkpt lat="41.877408" lon="-87.69832">
      </trkpt>
      <trkpt lat="41.877385" lon="-87.70111">
      </trkpt>
      <trkpt lat="41.889426" lon="-87.701479">
      </trkpt>
      <trkpt lat="41.891131" lon="-87.701974">
      </trkpt>
      <trkpt lat="41.897899" lon="-87.702431">
      </trkpt>
      <trkpt lat="41.902777" lon="-87.702311">
      </trkpt>
      <trkpt lat="41.907558" lon="-87.701241">
      </trkpt>
      <trkpt lat="41.909737" lon="-87.701859">
      </trkpt>
      <trkpt lat="41.915629" lon="-87.702035">
      </trkpt>
      <trkpt lat="41.915625" lon="-87.702385">
      </trkpt>
      <trkpt lat="41.914235" lon="-87.702344">
      </trkpt>
      <trkpt lat="41.914235" lon="-87.702344">
      </trkpt>
      <trkpt lat="41.910161" lon="-87.702233">
      </trkpt>
      <trkpt lat="41.910672" lon="-87.665662">
      </trkpt>
      <trkpt lat="41.910236" lon="-87.665325">
      </trkpt>
      <trkpt lat="41.907574" lon="-87.662271">
      </trkpt>
      <trkpt lat="41.906386" lon="-87.661439">
      </trkpt>
      <trkpt lat="41.901306" lon="-87.661057">
      </trkpt>
      <trkpt lat="41.896667" lon="-87.658834">
      </trkpt>
      <trkpt lat="41.895018" lon="-87.657114">
      </trkpt>
      <trkpt lat="41.889096" lon="-87.6483">
      </trkpt>
      <trkpt lat="41.886973" lon="-87.646614">
      </trkpt>
      <trkpt lat="41.885119" lon="-87.646108">
      </trkpt>
      <trkpt lat="41.883144" lon="-87.646413">
      </trkpt>
      <trkpt lat="41.883178" lon="-87.641266">
      </trkpt>
      <trkpt lat="41.883185" lon="-87.639745">
      </trkpt>
      <trkpt lat="41.887994" lon="-87.639953">
      </trkpt>
      <trkpt lat="41.88801" lon="-87.640199">
      </trkpt>
      <trkpt lat="41.88801" lon="-87.640199">
      </trkpt>
      <trkpt lat="41.887994" lon="-87.639953">
      </trkpt>
      <trkpt lat="41.889064" lon="-87.64001">
      </trkpt>
      <trkpt lat="41.889102" lon="-87.641432">
      </trkpt>
      <trkpt lat="41.880567" lon="-87.64118">
      </trkpt>
      <trkpt lat="41.880628" lon="-87.636998">
      </trkpt>
      <trkpt lat="41.876812" lon="-87.636803">
      </trkpt>
      <trkpt lat="41.876812" lon="-87.636803">
      </trkpt>
      <trkpt lat="41.876812" lon="-87.636629">
      </trkpt>
      <trkpt lat="41.879925" lon="-87.636738">
      </trkpt>
      <trkpt lat="41.881958" lon="-87.636822">
      </trkpt>
      <trkpt lat="41.885743" lon="-87.636798">
      </trkpt>
      <trkpt lat="41.886119" lon="-87.636546">
      </trkpt>
      <trkpt lat="41.886794" lon="-87.635461">
      </trkpt>
      <trkpt lat="41.886839" lon="-87.627292">
      </trkpt>
      <trkpt lat="41.887145" lon="-87.626408">
      </trkpt>
      <trkpt lat="41.888101" lon="-87.625526">
      </trkpt>
      <trkpt lat="41.888251" lon="-87.62512">
      </trkpt>
      <trkpt lat="41.888208" lon="-87.622943">
      </trkpt>
      <trkpt lat="41.887844" lon="-87.620671">
      </trkpt>
      <trkpt lat="41.890916" lon="-87.620211">
      </trkpt>
      <trkpt lat="41.893412" lon="-87.620283">
      </trkpt>
      <trkpt lat="41.893376" lon="-87.621935">
      </trkpt>
      <trkpt lat="41.893376" lon="-87.621935">
      </trkpt>
      <trkpt lat="41.89336" lon="-87.622735">
      </trkpt>
      <trkpt lat="41.890954" lon="-87.62265">
      </trkpt>
      <trkpt lat="41.891141" lon="-87.61158">
      </trkpt>
      <trkpt lat="41.891968" lon="-87.611597">
      </trkpt>
      <trkpt lat="41.891945" lon="-87.612627">
      </trkpt>
      <trkpt lat="41.891945" lon="-87.612627">
      </trkpt>
      <trkpt lat="41.891506" lon="-87.639878">
      </trkpt>
      <trkpt lat="41.891239" lon="-87.643004">
      </trkpt>
      <trkpt lat="41.891194" lon="-87.647627">
      </trkpt>
      <trkpt lat="41.896808" lon="-87.647683">
      </trkpt>
      <trkpt lat="41.903643" lon="-87.648086">
      </trkpt>
      <trkpt lat="41.903578" lon="-87.652552">
      </trkpt>
      <trkpt lat="41.906934" lon="-87.655438">
      </trkpt>
      <trkpt lat="41.907169" lon="-87.655446">
      </trkpt>
      <trkpt lat="41.907157" lon="-87.655968">
      </trkpt>
      <trkpt lat="41.907157" lon="-87.655968">
      </trkpt>
      <trkpt lat="41.907144" lon="-87.656617">
      </trkpt>
      <trkpt lat="41.904795" lon="-87.656534">
      </trkpt>
      <trkpt lat="41.903534" lon="-87.655448">
      </trkpt>
      <trkpt lat="41.903435" lon="-87.661667">
      </trkpt>
      <trkpt lat="41.901131" lon="-87.661131">
      </trkpt>
      <trkpt lat="41.897272" lon="-87.659243">
      </trkpt>
      <trkpt lat="41.896" lon="-87.658255">
      </trkpt>
      <trkpt lat="41.889352" lon="-87.648602">
      </trkpt>
      <trkpt lat="41.887778" lon="-87.647099">
      </trkpt>
      <trkpt lat="41.885929" lon="-87.646219">
      </trkpt>
      <trkpt lat="41.881827" lon="-87.645999">
      </trkpt>
      <trkpt lat="41.880956" lon="-87.646134">
      </trkpt>
      <trkpt lat="41.879569" lon="-87.646145">
      </trkpt>
      <trkpt lat="41.878121" lon="-87.646166">
      </trkpt>
      <trkpt lat="41.877218" lon="-87.646107">
      </trkpt>
      <trkpt lat="41.876066" lon="-87.646836">
      </trkpt>
      <trkpt lat="41.876066" lon="-87.646836">
      </trkpt>
      <trkpt lat="41.872433" lon="-87.645662">
      </trkpt>
      <trkpt lat="41.850828" lon="-87.645091">
      </trkpt>
      <trkpt lat="41.847292" lon="-87.642257">
      </trkpt>
      <trkpt lat="41.845323" lon="-87.634652">
      </trkpt>
      <trkpt lat="41.84209" lon="-87.63091">
      </trkpt>
      <trkpt lat="41.79178" lon="-87.631289">
      </trkpt>
      <trkpt lat="41.778978" lon="-87.631289">
      </trkpt>
      <trkpt lat="41.773198" lon="-87.626564">
      </trkpt>
      <trkpt lat="41.768925" lon="-87.626239">
      </trkpt>
      <trkpt lat="41.766175" lon="-87.626556">
      </trkpt>
      <trkpt lat="41.7655" lon="-87.626545">
      </trkpt>
      <trkpt lat="41.765212" lon="-87.644417">
      </trkpt>
      <trkpt lat="41.766001" lon="-87.644436">
      </trkpt>
      <trkpt lat="41.766001" lon="-87.644436">
      </trkpt>
      <trkpt lat="41.766001" lon="-87.644436">
      </trkpt>
      <trkpt lat="41.766001" lon="-87.644436">
      </trkpt>
      <trkpt lat="41.765212" lon="-87.644417">
      </trkpt>
      <trkpt lat="41.765368" lon="-87.624899">
      </trkpt>
      <trkpt lat="41.765772" lon="-87.624908">
      </trkpt>
      <trkpt lat="41.769557" lon="-87.62543">
      </trkpt>
      <trkpt lat="41.77431" lon="-87.626008">
      </trkpt>
      <trkpt lat="41.779578" lon="-87.630526">
      </trkpt>
      <trkpt lat="41.837743" lon="-87.630393">
      </trkpt>
      <trkpt lat="41.844144" lon="-87.631347">
      </trkpt>
      <trkpt lat="41.847354" lon="-87.642036">
      </trkpt>
      <trkpt lat="41.85074" lon="-87.644829">
      </trkpt>
      <trkpt lat="41.867845" lon="-87.644517">
      </trkpt>
      <trkpt lat="41.873521" lon="-87.644628">
      </trkpt>
      <trkpt lat="41.875725" lon="-87.645646">
      </trkpt>
      <trkpt lat="41.875863" lon="-87.649223">
      </trkpt>
      <trkpt lat="41.875763" lon="-87.688313">
      </trkpt>
      <trkpt lat="41.875862" lon="-87.692409">
      </trkpt>
      <trkpt lat="41.875983" lon="-87.696151">
      </trkpt>
      <trkpt lat="41.871066" lon="-87.696029">
      </trkpt>
      <trkpt lat="41.87108" lon="-87.69479">
      </trkpt>
      <trkpt lat="41.87108" lon="-87.69479">
      </trkpt>
      <trkpt lat="41.871066" lon="-87.696029">
      </trkpt>
      <trkpt lat="41.874902" lon="-87.696127">
      </trkpt>
      <trkpt lat="41.874908" lon="-87.695509">
      </trkpt>
      <trkpt lat="41.875125" lon="-87.690201">
      </trkpt>
      <trkpt lat="41.875815" lon="-87.620619">
      </trkpt>
      <trkpt lat="41.878331" lon="-87.620697">
      </trkpt>
      <trkpt lat="41.878364" lon="-87.617182">
      </trkpt>
      <trkpt lat="41.882205" lon="-87.616996">
      </trkpt>
      <trkpt lat="41.884762" lon="-87.613645">
      </trkpt>
      <trkpt lat="41.892878" lon="-87.614041">
      </trkpt>
      <trkpt lat="41.900921" lon="-87.619441">
      </trkpt>
      <trkpt lat="41.902767" lon="-87.623983">
      </trkpt>
      <trkpt lat="41.928213" lon="-87.631799">
      </trkpt>
      <trkpt lat="41.934701" lon="-87.632273">
      </trkpt>
      <trkpt lat="41.941219" lon="-87.638833">
      </trkpt>
      <trkpt lat="41.950931" lon="-87.644376">
      </trkpt>
      <trkpt lat="41.973046" lon="-87.648738">
      </trkpt>
      <trkpt lat="41.984866" lon="-87.652765">
      </trkpt>
      <trkpt lat="41.985105" lon="-87.662456">
      </trkpt>
      <trkpt lat="41.987189" lon="-87.665884">
      </trkpt>
      <trkpt lat="41.987146" lon="-87.669585">
      </trkpt>
      <trkpt lat="41.988054" lon="-87.669707">
      </trkpt>
      <trkpt lat="41.987608" lon="-87.669796">
      </trkpt>
      <trkpt lat="41.987519" lon="-87.669769">
      </trkpt>
    </trkseg>
  </trk>
</gpx>