<?xml version="1.0" encoding="UTF-8"?>
<gpx xmlns="http://www.topografix.com/GPX/1/1" xmlns:xsi="http://www.w3.org/2001/XMLSchema-instance" xsi:schemaLocation="http://www.topografix.com/GPX/1/1 http://www.topografix.com/GPX/1/1/gpx.xsd" version="1.1" creator="gpx.py -- https://github.com/tkrajina/gpxpy">
  <trk>
    <trkseg>
      <trkpt lat="46.921111" lon="-104.004008">
      </trkpt>
      <trkpt lat="46.921109" lon="-104.00434">
      </trkpt>
      <trkpt lat="46.920452" lon="-104.004333">
      </trkpt>
      <trkpt lat="46.920303" lon="-104.007713">
      </trkpt>
      <trkpt lat="46.930549" lon="-104.007714">
      </trkpt>
      <trkpt lat="46.821412" lon="-100.845376">
      </trkpt>
      <trkpt lat="46.920377" lon="-97.929326">
      </trkpt>
      <trkpt lat="46.84431" lon="-96.636364">
      </trkpt>
      <trkpt lat="46.040006" lon="-95.841668">
      </trkpt>
      <trkpt lat="45.668414" lon="-94.821253">
      </trkpt>
      <trkpt lat="45.58718" lon="-94.366407">
      </trkpt>
      <trkpt lat="45.094797" lon="-93.449505">
      </trkpt>
      <trkpt lat="45.073368" lon="-93.316321">
      </trkpt>
      <trkpt lat="45.066504" lon="-93.169383">
      </trkpt>
      <trkpt lat="45.037751" lon="-93.092006">
      </trkpt>
      <trkpt lat="44.95846" lon="-93.090897">
      </trkpt>
      <trkpt lat="44.956612" lon="-93.091165">
      </trkpt>
      <trkpt lat="44.95415" lon="-93.090566">
      </trkpt>
      <trkpt lat="44.951923" lon="-93.08647">
      </trkpt>
      <trkpt lat="44.952011" lon="-93.049411">
      </trkpt>
      <trkpt lat="44.901086" lon="-91.765715">
      </trkpt>
      <trkpt lat="44.764039" lon="-91.405786">
      </trkpt>
      <trkpt lat="44.414986" lon="-91.048032">
      </trkpt>
      <trkpt lat="44.150471" lon="-90.551556">
      </trkpt>
      <trkpt lat="43.999682" lon="-90.475118">
      </trkpt>
      <trkpt lat="43.87412" lon="-90.130566">
      </trkpt>
      <trkpt lat="43.663734" lon="-89.814688">
      </trkpt>
      <trkpt lat="43.572688" lon="-89.798572">
      </trkpt>
      <trkpt lat="43.496166" lon="-89.498273">
      </trkpt>
      <trkpt lat="43.110058" lon="-89.285769">
      </trkpt>
      <trkpt lat="42.799124" lon="-89.005142">
      </trkpt>
      <trkpt lat="42.250536" lon="-88.963349">
      </trkpt>
      <trkpt lat="42.1691" lon="-88.593791">
      </trkpt>
      <trkpt lat="41.988327" lon="-87.864082">
      </trkpt>
      <trkpt lat="41.942115" lon="-87.715518">
      </trkpt>
      <trkpt lat="41.940478" lon="-87.712526">
      </trkpt>
      <trkpt lat="41.939288" lon="-87.712487">
      </trkpt>
      <trkpt lat="41.939308" lon="-87.711257">
      </trkpt>
      <trkpt lat="41.935794" lon="-87.711184">
      </trkpt>
      <trkpt lat="41.935794" lon="-87.711184">
      </trkpt>
      <trkpt lat="41.93567" lon="-87.711181">
      </trkpt>
      <trkpt lat="41.935654" lon="-87.712341">
      </trkpt>
      <trkpt lat="41.957384" lon="-87.713022">
      </trkpt>
      <trkpt lat="41.957384" lon="-87.713022">
      </trkpt>
      <trkpt lat="41.953809" lon="-87.712908">
      </trkpt>
      <trkpt lat="41.954634" lon="-87.645235">
      </trkpt>
      <trkpt lat="41.950978" lon="-87.644611">
      </trkpt>
      <trkpt lat="41.941594" lon="-87.639315">
      </trkpt>
      <trkpt lat="41.93482" lon="-87.632527">
      </trkpt>
      <trkpt lat="41.928427" lon="-87.632048">
      </trkpt>
      <trkpt lat="41.915117" lon="-87.627538">
      </trkpt>
      <trkpt lat="41.913042" lon="-87.627206">
      </trkpt>
      <trkpt lat="41.912346" lon="-87.628067">
      </trkpt>
      <trkpt lat="41.913404" lon="-87.631075">
      </trkpt>
      <trkpt lat="41.913169" lon="-87.632856">
      </trkpt>
      <trkpt lat="41.915623" lon="-87.634358">
      </trkpt>
      <trkpt lat="41.915479" lon="-87.634849">
      </trkpt>
      <trkpt lat="41.918106" lon="-87.638503">
      </trkpt>
      <trkpt lat="41.918106" lon="-87.638503">
      </trkpt>
      <trkpt lat="41.918322" lon="-87.638808">
      </trkpt>
      <trkpt lat="41.921954" lon="-87.638941">
      </trkpt>
      <trkpt lat="41.92199" lon="-87.63646">
      </trkpt>
      <trkpt lat="41.925658" lon="-87.636586">
      </trkpt>
      <trkpt lat="41.926223" lon="-87.63067">
      </trkpt>
      <trkpt lat="41.928415" lon="-87.631851">
      </trkpt>
      <trkpt lat="41.935386" lon="-87.632612">
      </trkpt>
      <trkpt lat="41.941219" lon="-87.638833">
      </trkpt>
      <trkpt lat="41.951086" lon="-87.644437">
      </trkpt>
      <trkpt lat="41.954749" lon="-87.644596">
      </trkpt>
      <trkpt lat="41.973046" lon="-87.648738">
      </trkpt>
      <trkpt lat="41.981039" lon="-87.652251">
      </trkpt>
      <trkpt lat="41.984951" lon="-87.652803">
      </trkpt>
      <trkpt lat="41.985586" lon="-87.654178">
      </trkpt>
      <trkpt lat="41.985105" lon="-87.662456">
      </trkpt>
      <trkpt lat="41.987189" lon="-87.665884">
      </trkpt>
      <trkpt lat="41.987146" lon="-87.669585">
      </trkpt>
      <trkpt lat="41.988054" lon="-87.669707">
      </trkpt>
      <trkpt lat="41.987608" lon="-87.669796">
      </trkpt>
      <trkpt lat="41.987519" lon="-87.669769">
      </trkpt>
    </trkseg>
  </trk>
</gpx>