<?xml version="1.0" encoding="UTF-8"?>
<gpx xmlns="http://www.topografix.com/GPX/1/1" xmlns:xsi="http://www.w3.org/2001/XMLSchema-instance" xsi:schemaLocation="http://www.topografix.com/GPX/1/1 http://www.topografix.com/GPX/1/1/gpx.xsd" version="1.1" creator="gpx.py -- https://github.com/tkrajina/gpxpy">
  <trk>
    <trkseg>
      <trkpt lat="42.003394" lon="-87.779748">
      </trkpt>
      <trkpt lat="41.991079" lon="-87.753476">
      </trkpt>
      <trkpt lat="41.980228" lon="-87.746835">
      </trkpt>
      <trkpt lat="41.966563" lon="-87.747223">
      </trkpt>
      <trkpt lat="41.963113" lon="-87.745961">
      </trkpt>
      <trkpt lat="41.960129" lon="-87.742125">
      </trkpt>
      <trkpt lat="41.947613" lon="-87.719592">
      </trkpt>
      <trkpt lat="41.94215" lon="-87.715306">
      </trkpt>
      <trkpt lat="41.933659" lon="-87.698173">
      </trkpt>
      <trkpt lat="41.927358" lon="-87.687291">
      </trkpt>
      <trkpt lat="41.924962" lon="-87.683686">
      </trkpt>
      <trkpt lat="41.92558" lon="-87.640463">
      </trkpt>
      <trkpt lat="41.921963" lon="-87.638269">
      </trkpt>
      <trkpt lat="41.922" lon="-87.635731">
      </trkpt>
      <trkpt lat="41.921147" lon="-87.635682">
      </trkpt>
      <trkpt lat="41.921147" lon="-87.635682">
      </trkpt>
      <trkpt lat="41.922" lon="-87.635731">
      </trkpt>
      <trkpt lat="41.921954" lon="-87.638941">
      </trkpt>
      <trkpt lat="41.909248" lon="-87.638523">
      </trkpt>
      <trkpt lat="41.909234" lon="-87.639739">
      </trkpt>
      <trkpt lat="41.907866" lon="-87.6397">
      </trkpt>
      <trkpt lat="41.907866" lon="-87.6397">
      </trkpt>
      <trkpt lat="41.906506" lon="-87.639662">
      </trkpt>
      <trkpt lat="41.906523" lon="-87.638435">
      </trkpt>
      <trkpt lat="41.911164" lon="-87.638583">
      </trkpt>
      <trkpt lat="41.910674" lon="-87.664445">
      </trkpt>
      <trkpt lat="41.915886" lon="-87.668091">
      </trkpt>
      <trkpt lat="41.91815" lon="-87.670574">
      </trkpt>
      <trkpt lat="41.940439" lon="-87.709664">
      </trkpt>
      <trkpt lat="41.942387" lon="-87.715161">
      </trkpt>
      <trkpt lat="41.947406" lon="-87.71887">
      </trkpt>
      <trkpt lat="41.950079" lon="-87.723791">
      </trkpt>
      <trkpt lat="41.953522" lon="-87.729201">
      </trkpt>
      <trkpt lat="41.957291" lon="-87.729313">
      </trkpt>
      <trkpt lat="41.95727" lon="-87.730944">
      </trkpt>
      <trkpt lat="41.957707" lon="-87.730961">
      </trkpt>
      <trkpt lat="41.957707" lon="-87.730961">
      </trkpt>
      <trkpt lat="41.955442" lon="-87.730896">
      </trkpt>
      <trkpt lat="41.955476" lon="-87.727666">
      </trkpt>
      <trkpt lat="41.95365" lon="-87.727612">
      </trkpt>
      <trkpt lat="41.953649" lon="-87.723082">
      </trkpt>
      <trkpt lat="41.953809" lon="-87.712908">
      </trkpt>
      <trkpt lat="41.957384" lon="-87.713022">
      </trkpt>
      <trkpt lat="41.957384" lon="-87.713022">
      </trkpt>
      <trkpt lat="41.953916" lon="-87.712911">
      </trkpt>
      <trkpt lat="41.95365" lon="-87.727612">
      </trkpt>
      <trkpt lat="41.92266" lon="-87.726455">
      </trkpt>
      <trkpt lat="41.92265" lon="-87.72708">
      </trkpt>
      <trkpt lat="41.90987" lon="-87.726341">
      </trkpt>
      <trkpt lat="41.90984" lon="-87.728974">
      </trkpt>
      <trkpt lat="41.909346" lon="-87.728962">
      </trkpt>
      <trkpt lat="41.909346" lon="-87.728962">
      </trkpt>
      <trkpt lat="41.907146" lon="-87.728898">
      </trkpt>
      <trkpt lat="41.900762" lon="-87.712809">
      </trkpt>
      <trkpt lat="41.900057" lon="-87.711889">
      </trkpt>
      <trkpt lat="41.900143" lon="-87.711243">
      </trkpt>
      <trkpt lat="41.895625" lon="-87.699899">
      </trkpt>
      <trkpt lat="41.895706" lon="-87.691761">
      </trkpt>
      <trkpt lat="41.897514" lon="-87.691808">
      </trkpt>
      <trkpt lat="41.897528" lon="-87.690593">
      </trkpt>
      <trkpt lat="41.896716" lon="-87.690571">
      </trkpt>
      <trkpt lat="41.896716" lon="-87.690571">
      </trkpt>
      <trkpt lat="41.895717" lon="-87.690545">
      </trkpt>
      <trkpt lat="41.89575" lon="-87.686835">
      </trkpt>
      <trkpt lat="41.924902" lon="-87.687645">
      </trkpt>
      <trkpt lat="41.924978" lon="-87.682301">
      </trkpt>
      <trkpt lat="41.926707" lon="-87.685177">
      </trkpt>
      <trkpt lat="41.940439" lon="-87.709664">
      </trkpt>
      <trkpt lat="41.942208" lon="-87.714861">
      </trkpt>
      <trkpt lat="41.947985" lon="-87.719618">
      </trkpt>
      <trkpt lat="41.958569" lon="-87.738838">
      </trkpt>
      <trkpt lat="41.960451" lon="-87.741371">
      </trkpt>
      <trkpt lat="41.96087" lon="-87.735661">
      </trkpt>
      <trkpt lat="41.965066" lon="-87.73571">
      </trkpt>
      <trkpt lat="41.964579" lon="-87.734999">
      </trkpt>
      <trkpt lat="41.965914" lon="-87.733321">
      </trkpt>
      <trkpt lat="41.965601" lon="-87.732862">
      </trkpt>
      <trkpt lat="41.966201" lon="-87.732105">
      </trkpt>
      <trkpt lat="41.966201" lon="-87.732105">
      </trkpt>
      <trkpt lat="41.965601" lon="-87.732862">
      </trkpt>
      <trkpt lat="41.964976" lon="-87.731974">
      </trkpt>
      <trkpt lat="41.963642" lon="-87.733633">
      </trkpt>
      <trkpt lat="41.962499" lon="-87.731967">
      </trkpt>
      <trkpt lat="41.961837" lon="-87.732765">
      </trkpt>
      <trkpt lat="41.960903" lon="-87.732715">
      </trkpt>
      <trkpt lat="41.960636" lon="-87.75449">
      </trkpt>
      <trkpt lat="41.964478" lon="-87.757803">
      </trkpt>
      <trkpt lat="41.964478" lon="-87.757803">
      </trkpt>
      <trkpt lat="41.962474" lon="-87.756072">
      </trkpt>
      <trkpt lat="41.962461" lon="-87.75745">
      </trkpt>
      <trkpt lat="41.953293" lon="-87.757157">
      </trkpt>
      <trkpt lat="41.953011" lon="-87.779217">
      </trkpt>
      <trkpt lat="41.952353" lon="-87.779191">
      </trkpt>
      <trkpt lat="41.952353" lon="-87.779191">
      </trkpt>
      <trkpt lat="41.951191" lon="-87.779147">
      </trkpt>
      <trkpt lat="41.95122" lon="-87.776701">
      </trkpt>
      <trkpt lat="41.953044" lon="-87.776769">
      </trkpt>
      <trkpt lat="41.953371" lon="-87.751028">
      </trkpt>
      <trkpt lat="41.955209" lon="-87.751098">
      </trkpt>
      <trkpt lat="41.955256" lon="-87.747356">
      </trkpt>
      <trkpt lat="41.960724" lon="-87.747538">
      </trkpt>
      <trkpt lat="41.960757" lon="-87.745086">
      </trkpt>
      <trkpt lat="41.960757" lon="-87.745086">
      </trkpt>
      <trkpt lat="41.960723" lon="-87.743848">
      </trkpt>
      <trkpt lat="41.947583" lon="-87.71984">
      </trkpt>
      <trkpt lat="41.94665" lon="-87.718837">
      </trkpt>
      <trkpt lat="41.94319" lon="-87.716727">
      </trkpt>
      <trkpt lat="41.942115" lon="-87.715518">
      </trkpt>
      <trkpt lat="41.940414" lon="-87.710267">
      </trkpt>
      <trkpt lat="41.930594" lon="-87.693566">
      </trkpt>
      <trkpt lat="41.927358" lon="-87.687291">
      </trkpt>
      <trkpt lat="41.924962" lon="-87.683686">
      </trkpt>
      <trkpt lat="41.925151" lon="-87.66815">
      </trkpt>
      <trkpt lat="41.936057" lon="-87.668463">
      </trkpt>
      <trkpt lat="41.936111" lon="-87.663682">
      </trkpt>
      <trkpt lat="41.938211" lon="-87.663758">
      </trkpt>
      <trkpt lat="41.938211" lon="-87.663758">
      </trkpt>
      <trkpt lat="41.936111" lon="-87.663682">
      </trkpt>
      <trkpt lat="41.934332" lon="-87.661195">
      </trkpt>
      <trkpt lat="41.934416" lon="-87.65635">
      </trkpt>
      <trkpt lat="41.935584" lon="-87.656389">
      </trkpt>
      <trkpt lat="41.935584" lon="-87.656389">
      </trkpt>
      <trkpt lat="41.939878" lon="-87.65654">
      </trkpt>
      <trkpt lat="41.940268" lon="-87.638796">
      </trkpt>
      <trkpt lat="41.939931" lon="-87.638606">
      </trkpt>
      <trkpt lat="41.936955" lon="-87.634194">
      </trkpt>
      <trkpt lat="41.93482" lon="-87.632527">
      </trkpt>
      <trkpt lat="41.933155" lon="-87.632114">
      </trkpt>
      <trkpt lat="41.928427" lon="-87.632048">
      </trkpt>
      <trkpt lat="41.918735" lon="-87.629189">
      </trkpt>
      <trkpt lat="41.915117" lon="-87.627538">
      </trkpt>
      <trkpt lat="41.91244" lon="-87.627004">
      </trkpt>
      <trkpt lat="41.913347" lon="-87.626017">
      </trkpt>
      <trkpt lat="41.917847" lon="-87.628668">
      </trkpt>
      <trkpt lat="41.926949" lon="-87.631417">
      </trkpt>
      <trkpt lat="41.926949" lon="-87.631417">
      </trkpt>
      <trkpt lat="41.934701" lon="-87.632273">
      </trkpt>
      <trkpt lat="41.936704" lon="-87.633661">
      </trkpt>
      <trkpt lat="41.939073" lon="-87.63676">
      </trkpt>
      <trkpt lat="41.940568" lon="-87.638088">
      </trkpt>
      <trkpt lat="41.940268" lon="-87.638796">
      </trkpt>
      <trkpt lat="41.939931" lon="-87.638606">
      </trkpt>
      <trkpt lat="41.936955" lon="-87.634194">
      </trkpt>
      <trkpt lat="41.934639" lon="-87.632453">
      </trkpt>
      <trkpt lat="41.928427" lon="-87.632048">
      </trkpt>
      <trkpt lat="41.918735" lon="-87.629189">
      </trkpt>
      <trkpt lat="41.911998" lon="-87.62605">
      </trkpt>
      <trkpt lat="41.904908" lon="-87.624861">
      </trkpt>
      <trkpt lat="41.901978" lon="-87.624179">
      </trkpt>
      <trkpt lat="41.899218" lon="-87.624224">
      </trkpt>
      <trkpt lat="41.89923" lon="-87.623008">
      </trkpt>
      <trkpt lat="41.89923" lon="-87.623008">
      </trkpt>
      <trkpt lat="41.899246" lon="-87.621885">
      </trkpt>
      <trkpt lat="41.900045" lon="-87.621902">
      </trkpt>
      <trkpt lat="41.899794" lon="-87.631337">
      </trkpt>
      <trkpt lat="41.891621" lon="-87.631127">
      </trkpt>
      <trkpt lat="41.891506" lon="-87.639878">
      </trkpt>
      <trkpt lat="41.891225" lon="-87.644384">
      </trkpt>
      <trkpt lat="41.889054" lon="-87.644337">
      </trkpt>
      <trkpt lat="41.889017" lon="-87.648718">
      </trkpt>
      <trkpt lat="41.887378" lon="-87.648695">
      </trkpt>
      <trkpt lat="41.887364" lon="-87.649864">
      </trkpt>
      <trkpt lat="41.886778" lon="-87.649838">
      </trkpt>
      <trkpt lat="41.886776" lon="-87.649954">
      </trkpt>
      <trkpt lat="41.886776" lon="-87.649954">
      </trkpt>
      <trkpt lat="41.88676" lon="-87.651006">
      </trkpt>
      <trkpt lat="41.885607" lon="-87.650961">
      </trkpt>
      <trkpt lat="41.885152" lon="-87.671854">
      </trkpt>
      <trkpt lat="41.886852" lon="-87.671906">
      </trkpt>
      <trkpt lat="41.886827" lon="-87.673532">
      </trkpt>
      <trkpt lat="41.886827" lon="-87.673532">
      </trkpt>
      <trkpt lat="41.886776" lon="-87.676791">
      </trkpt>
      <trkpt lat="41.875016" lon="-87.676555">
      </trkpt>
      <trkpt lat="41.875021" lon="-87.676128">
      </trkpt>
      <trkpt lat="41.875431" lon="-87.673504">
      </trkpt>
      <trkpt lat="41.875506" lon="-87.666185">
      </trkpt>
      <trkpt lat="41.875506" lon="-87.666185">
      </trkpt>
      <trkpt lat="41.875578" lon="-87.662068">
      </trkpt>
      <trkpt lat="41.875322" lon="-87.658543">
      </trkpt>
      <trkpt lat="41.875346" lon="-87.657056">
      </trkpt>
      <trkpt lat="41.874321" lon="-87.656921">
      </trkpt>
      <trkpt lat="41.874248" lon="-87.666668">
      </trkpt>
      <trkpt lat="41.869262" lon="-87.666531">
      </trkpt>
      <trkpt lat="41.8692" lon="-87.670488">
      </trkpt>
      <trkpt lat="41.8692" lon="-87.670488">
      </trkpt>
      <trkpt lat="41.869001" lon="-87.68604">
      </trkpt>
      <trkpt lat="41.881166" lon="-87.686432">
      </trkpt>
      <trkpt lat="41.881145" lon="-87.688489">
      </trkpt>
      <trkpt lat="41.88207" lon="-87.688508">
      </trkpt>
      <trkpt lat="41.882072" lon="-87.688351">
      </trkpt>
      <trkpt lat="41.882072" lon="-87.688351">
      </trkpt>
      <trkpt lat="41.882091" lon="-87.686454">
      </trkpt>
      <trkpt lat="41.884621" lon="-87.686532">
      </trkpt>
      <trkpt lat="41.88533" lon="-87.66685">
      </trkpt>
      <trkpt lat="41.917197" lon="-87.667771">
      </trkpt>
      <trkpt lat="41.92163" lon="-87.66862">
      </trkpt>
      <trkpt lat="41.933311" lon="-87.668361">
      </trkpt>
      <trkpt lat="41.932963" lon="-87.668473">
      </trkpt>
    </trkseg>
  </trk>
</gpx>