{"type": "FeatureCollection", "features": [{"type": "Feature", "geometry": {"coordinates": [[-87.686959, 41.921868], [-87.687548, 41.921862], [-87.686432, 41.881166], [-87.696286, 41.881077], [-87.696189, 41.877434], [-87.69832, 41.877408]], "type": "LineString"}, "properties": {"timestamp": "2023-10-12T09:42:10"}}, {"type": "Feature", "geometry": {"coordinates": [[-87.69832, 41.877408], [-87.696189, 41.877434], [-87.696261, 41.880169], [-87.695733, 41.880173]], "type": "LineString"}, "properties": {"timestamp": "2023-10-12T10:24:30"}}, {"type": "Feature", "geometry": {"coordinates": [[-87.695733, 41.880173], [-87.696261, 41.880169], [-87.696127, 41.874902], [-87.695509, 41.874908], [-87.690201, 41.875125], [-87.659837, 41.87561], [-87.650308, 41.875329], [-87.647601, 41.875302], [-87.645452, 41.874563], [-87.644482, 41.875077], [-87.64458, 41.876036], [-87.645364, 41.877863], [-87.645275, 41.880374], [-87.645355, 41.881847], [-87.645393, 41.882198], [-87.645735, 41.885306], [-87.646457, 41.887151], [-87.648003, 41.8891], [-87.650048, 41.890597], [-87.651108, 41.891699], [-87.650896, 41.892164], [-87.65026, 41.89242], [-87.635611, 41.892386], [-87.635594, 41.891816]], "type": "LineString"}, "properties": {"timestamp": "2023-10-12T10:24:30"}}, {"type": "Feature", "geometry": {"coordinates": [[-87.635594, 41.891816], [-87.635588, 41.891557], [-87.640016, 41.891501], [-87.643004, 41.891239], [-87.667205, 41.890972], [-87.667087, 41.886928], [-87.673532, 41.886827]], "type": "LineString"}, "properties": {"timestamp": "2023-10-12T10:36:41"}}, {"type": "Feature", "geometry": {"coordinates": [[-87.673532, 41.886827], [-87.666966, 41.886929], [-87.667056, 41.889896], [-87.64876, 41.890082], [-87.648718, 41.889017], [-87.634021, 41.889159], [-87.634001, 41.888149]], "type": "LineString"}, "properties": {"timestamp": "2023-10-12T10:36:41"}}, {"type": "Feature", "geometry": {"coordinates": [[-87.634001, 41.888149], [-87.63433, 41.887992], [-87.63637, 41.887983], [-87.636789, 41.888455], [-87.636943, 41.888771], [-87.63704, 41.892368], [-87.62966, 41.892457], [-87.629727, 41.894584]], "type": "LineString"}, "properties": {"timestamp": "2023-10-12T10:59:53"}}, {"type": "Feature", "geometry": {"coordinates": [[-87.629727, 41.894584], [-87.62978, 41.896655], [-87.616893, 41.896844], [-87.614264, 41.892868], [-87.614081, 41.885247], [-87.617453, 41.881821], [-87.617261, 41.869765], [-87.619589, 41.866068], [-87.614728, 41.853242], [-87.614444, 41.848506], [-87.626818, 41.84732], [-87.631727, 41.847855], [-87.631351, 41.843118], [-87.631289, 41.79178], [-87.631289, 41.778978], [-87.626564, 41.773198], [-87.626239, 41.768925], [-87.626556, 41.766175], [-87.626545, 41.7655], [-87.644417, 41.765212], [-87.644436, 41.766001]], "type": "LineString"}, "properties": {"timestamp": "2023-10-12T10:59:53"}}, {"type": "Feature", "geometry": {"coordinates": [[-87.644436, 41.766001], [-87.644417, 41.765212], [-87.624899, 41.765368], [-87.624908, 41.765772], [-87.62543, 41.769557], [-87.626008, 41.77431], [-87.630526, 41.779578], [-87.630393, 41.837743], [-87.631347, 41.844144], [-87.642036, 41.847354], [-87.644829, 41.85074], [-87.644517, 41.867845], [-87.644628, 41.873521], [-87.645646, 41.875725], [-87.649223, 41.875863], [-87.697235, 41.875658], [-87.716326, 41.874195], [-87.719801, 41.874461], [-87.720824, 41.881908], [-87.733061, 41.881952], [-87.73311, 41.883602]], "type": "LineString"}, "properties": {"timestamp": "2023-10-12T15:46:27"}}, {"type": "Feature", "geometry": {"coordinates": [[-87.73311, 41.883602], [-87.733176, 41.885889], [-87.745503, 41.886622], [-87.746595, 41.931542], [-87.751741, 41.93147]], "type": "LineString"}, "properties": {"timestamp": "2023-10-12T15:46:27"}}, {"type": "Feature", "geometry": {"coordinates": [[-87.751741, 41.93147], [-87.746595, 41.931542], [-87.743728, 41.836672], [-87.724363, 41.836894], [-87.72418, 41.82887], [-87.729566, 41.827176], [-87.734706, 41.827142]], "type": "LineString"}, "properties": {"timestamp": "2023-10-12T16:11:09"}}, {"type": "Feature", "geometry": {"coordinates": [[-87.734706, 41.827142], [-87.729252, 41.827196], [-87.724177, 41.828755], [-87.724107, 41.823534], [-87.723984, 41.823155], [-87.680385, 41.836711], [-87.66766, 41.83747], [-87.658964, 41.841885], [-87.651204, 41.844952], [-87.642563, 41.846659], [-87.642133, 41.847625], [-87.644555, 41.850742], [-87.644854, 41.873493], [-87.644167, 41.87559], [-87.645364, 41.877863], [-87.645275, 41.880374], [-87.64518, 41.881808], [-87.644106, 41.881817], [-87.644087, 41.880532], [-87.639693, 41.880598], [-87.639706, 41.881889], [-87.640505, 41.881877]], "type": "LineString"}, "properties": {"timestamp": "2023-10-12T16:11:09"}}, {"type": "Feature", "geometry": {"coordinates": [[-87.640505, 41.881877], [-87.642638, 41.881847], [-87.642712, 41.884435], [-87.645482, 41.884408], [-87.645901, 41.884186], [-87.645999, 41.881827], [-87.646134, 41.880956], [-87.646145, 41.879569], [-87.646166, 41.878121], [-87.646815, 41.876334], [-87.647774, 41.87588], [-87.649135, 41.875728], [-87.657603, 41.876197], [-87.688313, 41.875763], [-87.692409, 41.875862], [-87.695752, 41.875985]], "type": "LineString"}, "properties": {"timestamp": "2023-10-12T16:35:13"}}, {"type": "Feature", "geometry": {"coordinates": [[-87.695752, 41.875985], [-87.696151, 41.875983], [-87.696127, 41.874902], [-87.695509, 41.874908], [-87.690201, 41.875125], [-87.650308, 41.875329], [-87.647601, 41.875302], [-87.645452, 41.874563], [-87.644482, 41.875077], [-87.64458, 41.876036], [-87.645275, 41.880374], [-87.645355, 41.881847], [-87.645393, 41.882198], [-87.64591, 41.885931], [-87.647404, 41.888483], [-87.658783, 41.897251], [-87.660805, 41.901753], [-87.660967, 41.906186], [-87.662226, 41.907951], [-87.664445, 41.910674], [-87.653121, 41.910848], [-87.653601, 41.925374], [-87.646336, 41.925491], [-87.64637, 41.926694], [-87.642974, 41.926753]], "type": "LineString"}, "properties": {"timestamp": "2023-10-12T16:35:13"}}, {"type": "Feature", "geometry": {"coordinates": [[-87.642974, 41.926753], [-87.642153, 41.926767], [-87.641326, 41.927017], [-87.641881, 41.927956]], "type": "LineString"}, "properties": {"timestamp": "2023-10-12T17:26:28"}}, {"type": "Feature", "geometry": {"coordinates": [[-87.641881, 41.927956], [-87.640463, 41.92558], [-87.634084, 41.925697], [-87.631853, 41.926001], [-87.630603, 41.923776], [-87.628851, 41.917816], [-87.626142, 41.912297], [-87.62586, 41.909073], [-87.624861, 41.904908], [-87.624179, 41.901978], [-87.624246, 41.890945], [-87.621986, 41.890981], [-87.62164, 41.890945], [-87.624074, 41.890948], [-87.624094, 41.891505]], "type": "LineString"}, "properties": {"timestamp": "2023-10-12T17:26:28"}}, {"type": "Feature", "geometry": {"coordinates": [[-87.624094, 41.891505], [-87.624208, 41.896271], [-87.624029, 41.897744], [-87.624077, 41.900014], [-87.626209, 41.89998]], "type": "LineString"}, "properties": {"timestamp": "2023-10-12T17:37:59"}}, {"type": "Feature", "geometry": {"coordinates": [[-87.626209, 41.89998], [-87.627142, 41.899963], [-87.627526, 41.900764], [-87.624141, 41.90082], [-87.624024, 41.901687], [-87.624503, 41.902429], [-87.625015, 41.904013], [-87.625125, 41.905182], [-87.626169, 41.90953], [-87.626281, 41.911131], [-87.627054, 41.912538], [-87.627835, 41.912344], [-87.628511, 41.912414], [-87.630586, 41.913269], [-87.631428, 41.913459], [-87.632856, 41.913169], [-87.634358, 41.915623], [-87.634849, 41.915479], [-87.638503, 41.918106]], "type": "LineString"}, "properties": {"timestamp": "2023-10-12T17:37:59"}}, {"type": "Feature", "geometry": {"coordinates": [[-87.638503, 41.918106], [-87.634849, 41.915479], [-87.634358, 41.915623], [-87.632796, 41.913071], [-87.628505, 41.912247], [-87.626932, 41.912316], [-87.624114, 41.90257], [-87.619617, 41.900898], [-87.614264, 41.892868], [-87.614127, 41.884928], [-87.617453, 41.881821], [-87.617261, 41.869765], [-87.619589, 41.866068], [-87.607689, 41.833588], [-87.593977, 41.815295], [-87.58209, 41.803885], [-87.57922, 41.796009], [-87.58022, 41.791662], [-87.574954, 41.781232], [-87.579216, 41.779846], [-87.584175, 41.780203], [-87.586376, 41.776085], [-87.586137, 41.759682], [-87.585114, 41.759693], [-87.585107, 41.759229], [-87.584124, 41.759242]], "type": "LineString"}, "properties": {"timestamp": "2023-10-12T18:04:06"}}, {"type": "Feature", "geometry": {"coordinates": [[-87.584124, 41.759242], [-87.585107, 41.759229], [-87.585114, 41.759693], [-87.585762, 41.759686], [-87.585994, 41.771514], [-87.584175, 41.780203], [-87.574628, 41.780713], [-87.581975, 41.803976], [-87.60745, 41.833737], [-87.619244, 41.8661], [-87.614041, 41.892878], [-87.619441, 41.900921], [-87.624048, 41.902893], [-87.632152, 41.934381], [-87.63676, 41.939073], [-87.638088, 41.940568], [-87.663815, 41.939759], [-87.663907, 41.943419], [-87.665475, 41.943396]], "type": "LineString"}, "properties": {"timestamp": "2023-10-12T18:04:06"}}, {"type": "Feature", "geometry": {"coordinates": [[-87.665475, 41.943396], [-87.6712, 41.943313], [-87.67809, 41.953241], [-87.675964, 41.953264]], "type": "LineString"}, "properties": {"timestamp": "2023-10-12T18:15:41"}}, {"type": "Feature", "geometry": {"coordinates": [[-87.675964, 41.953264], [-87.676294, 41.95326], [-87.676266, 41.952375], [-87.678699, 41.952337], [-87.677765, 41.92139], [-87.677255, 41.921395], [-87.671115, 41.918139], [-87.668247, 41.915543], [-87.664752, 41.909975], [-87.661559, 41.906635], [-87.661131, 41.901587], [-87.659049, 41.896968], [-87.647531, 41.888343], [-87.646219, 41.885929], [-87.645999, 41.881827], [-87.646134, 41.880956], [-87.64632, 41.87924], [-87.648452, 41.879202], [-87.648435, 41.878629]], "type": "LineString"}, "properties": {"timestamp": "2023-10-12T18:15:41"}}, {"type": "Feature", "geometry": {"coordinates": [[-87.648435, 41.878629], [-87.648413, 41.877929], [-87.645564, 41.877963], [-87.645275, 41.880374], [-87.645355, 41.881847], [-87.645393, 41.882198], [-87.64591, 41.885931], [-87.647404, 41.888483], [-87.658783, 41.897251], [-87.660805, 41.901753], [-87.661061, 41.906443], [-87.669227, 41.917096], [-87.702937, 41.93676], [-87.710036, 41.940632], [-87.713979, 41.941793], [-87.715981, 41.943044], [-87.717815, 41.94651], [-87.739705, 41.946218], [-87.739603, 41.942782]], "type": "LineString"}, "properties": {"timestamp": "2023-10-13T07:53:07"}}]}