{"type": "FeatureCollection", "features": [{"type": "Feature", "geometry": {"coordinates": [[-87.736648, 41.948162], [-87.736807, 41.953551], [-87.731304, 41.953617], [-87.719717, 41.947499], [-87.715518, 41.942115], [-87.709442, 41.939977], [-87.670155, 41.917456], [-87.661559, 41.906635], [-87.661057, 41.901306], [-87.658834, 41.896667], [-87.6483, 41.889096], [-87.646108, 41.885119], [-87.646413, 41.883144], [-87.642677, 41.883172], [-87.642712, 41.884435], [-87.646033, 41.884406]], "type": "LineString"}, "properties": {"timestamp": "2023-10-21T17:32:13"}}, {"type": "Feature", "geometry": {"coordinates": [[-87.646033, 41.884406], [-87.647438, 41.884415], [-87.647611, 41.890088], [-87.658969, 41.889978], [-87.65898, 41.890448]], "type": "LineString"}, "properties": {"timestamp": "2023-10-21T18:17:14"}}, {"type": "Feature", "geometry": {"coordinates": [[-87.65898, 41.890448], [-87.659165, 41.890783], [-87.65893, 41.891061], [-87.647627, 41.891194], [-87.647482, 41.885665], [-87.646258, 41.885682], [-87.645922, 41.884746], [-87.645999, 41.881827], [-87.646134, 41.880956], [-87.646145, 41.879569], [-87.646166, 41.878121], [-87.646107, 41.877218], [-87.646972, 41.875597], [-87.645662, 41.872433], [-87.645367, 41.869682], [-87.647045, 41.869671], [-87.646743, 41.861026], [-87.647412, 41.861016]], "type": "LineString"}, "properties": {"timestamp": "2023-10-21T18:17:14"}}, {"type": "Feature", "geometry": {"coordinates": [[-87.647412, 41.861016], [-87.646743, 41.861026], [-87.646759, 41.860181], [-87.646703, 41.859905], [-87.646633, 41.857542], [-87.638934, 41.857668], [-87.638953, 41.858209]], "type": "LineString"}, "properties": {"timestamp": "2023-10-21T18:29:56"}}, {"type": "Feature", "geometry": {"coordinates": [[-87.638953, 41.858209], [-87.638539, 41.852796], [-87.631286, 41.852791], [-87.631153, 41.850453], [-87.631351, 41.843118], [-87.631069, 41.830548], [-87.631438, 41.828035], [-87.631351, 41.823664], [-87.619991, 41.823804], [-87.619964, 41.822908]], "type": "LineString"}, "properties": {"timestamp": "2023-10-21T18:29:56"}}, {"type": "Feature", "geometry": {"coordinates": [[-87.619964, 41.822908], [-87.619991, 41.823804], [-87.621597, 41.823783], [-87.621754, 41.831064], [-87.626457, 41.831008], [-87.626475, 41.83283], [-87.625023, 41.832863]], "type": "LineString"}, "properties": {"timestamp": "2023-10-21T18:39:27"}}, {"type": "Feature", "geometry": {"coordinates": [[-87.625023, 41.832863], [-87.625058, 41.83469], [-87.623338, 41.834707], [-87.622465, 41.794356], [-87.615669, 41.794482], [-87.611263, 41.793256], [-87.608897, 41.793619], [-87.607389, 41.794958], [-87.601351, 41.795003], [-87.601216, 41.795351], [-87.602741, 41.795327], [-87.602777, 41.797196]], "type": "LineString"}, "properties": {"timestamp": "2023-10-21T18:39:27"}}, {"type": "Feature", "geometry": {"coordinates": [[-87.602777, 41.797196], [-87.602891, 41.802303], [-87.595665, 41.802386]], "type": "LineString"}, "properties": {"timestamp": "2023-10-21T19:05:18"}}, {"type": "Feature", "geometry": {"coordinates": [[-87.595665, 41.802386], [-87.596707, 41.802373], [-87.596831, 41.809636], [-87.588944, 41.810893], [-87.606909, 41.832668], [-87.610426, 41.843509], [-87.612641, 41.848604], [-87.630973, 41.847424], [-87.641219, 41.847736], [-87.644555, 41.850742], [-87.644517, 41.867845], [-87.644628, 41.873521], [-87.645646, 41.875725], [-87.649223, 41.875863], [-87.688313, 41.875763], [-87.692409, 41.875862], [-87.701067, 41.875937], [-87.702222, 41.896575], [-87.706651, 41.898325], [-87.706735, 41.901143]], "type": "LineString"}, "properties": {"timestamp": "2023-10-21T19:05:18"}}, {"type": "Feature", "geometry": {"coordinates": [[-87.706735, 41.901143], [-87.707315, 41.927605], [-87.70699, 41.927966], [-87.705222, 41.928405], [-87.693879, 41.928496], [-87.693886, 41.928751], [-87.69452, 41.928744]], "type": "LineString"}, "properties": {"timestamp": "2023-10-21T19:35:48"}}, {"type": "Feature", "geometry": {"coordinates": [[-87.69452, 41.928744], [-87.697523, 41.928713], [-87.697602, 41.932108], [-87.696547, 41.932116], [-87.669746, 41.917124], [-87.661559, 41.906635], [-87.658834, 41.896667], [-87.647099, 41.887778], [-87.644752, 41.867365], [-87.645245, 41.851247], [-87.642429, 41.847384], [-87.634652, 41.845323], [-87.631511, 41.841797], [-87.63168, 41.838241], [-87.626758, 41.838295], [-87.626661, 41.833703]], "type": "LineString"}, "properties": {"timestamp": "2023-10-21T19:35:48"}}, {"type": "Feature", "geometry": {"coordinates": [[-87.626661, 41.833703], [-87.62663, 41.831006], [-87.631513, 41.830937], [-87.631416, 41.827182], [-87.630703, 41.812695], [-87.63223, 41.807383], [-87.631532, 41.783322], [-87.631838, 41.7799], [-87.625367, 41.78006], [-87.6254, 41.779128]], "type": "LineString"}, "properties": {"timestamp": "2023-10-21T20:04:00"}}, {"type": "Feature", "geometry": {"coordinates": [[-87.6254, 41.779128], [-87.625218, 41.772818], [-87.62998, 41.772715], [-87.630149, 41.780433], [-87.63142, 41.807989], [-87.629665, 41.812785], [-87.630393, 41.837743], [-87.631001, 41.844069], [-87.630081, 41.846653], [-87.616851, 41.847976], [-87.613276, 41.848193], [-87.612177, 41.849732], [-87.618709, 41.863523], [-87.620589, 41.873218], [-87.624138, 41.873158], [-87.624171, 41.874529], [-87.626634, 41.874402], [-87.626671, 41.874067]], "type": "LineString"}, "properties": {"timestamp": "2023-10-21T20:04:00"}}, {"type": "Feature", "geometry": {"coordinates": [[-87.626671, 41.874067], [-87.626634, 41.874402], [-87.627593, 41.874392], [-87.627671, 41.874285], [-87.627625, 41.8723], [-87.628561, 41.872337], [-87.63061, 41.872252], [-87.630577, 41.869035], [-87.630649, 41.868862], [-87.630588, 41.86743], [-87.64219, 41.867285], [-87.642168, 41.866585]], "type": "LineString"}, "properties": {"timestamp": "2023-10-21T20:38:13"}}, {"type": "Feature", "geometry": {"coordinates": [[-87.642168, 41.866585], [-87.64227, 41.869723], [-87.644443, 41.869691], [-87.644854, 41.873493], [-87.644691, 41.874454], [-87.644224, 41.875161], [-87.644167, 41.87559], [-87.645364, 41.877863], [-87.645275, 41.880374], [-87.645355, 41.881847], [-87.645393, 41.882198], [-87.645396, 41.883308], [-87.645241, 41.884407], [-87.647438, 41.884415], [-87.647463, 41.885101], [-87.647075, 41.885106]], "type": "LineString"}, "properties": {"timestamp": "2023-10-21T20:38:13"}}, {"type": "Feature", "geometry": {"coordinates": [[-87.647075, 41.885106], [-87.647463, 41.885101], [-87.647482, 41.885665], [-87.646258, 41.885682], [-87.645922, 41.884746], [-87.645988, 41.877697], [-87.644752, 41.867365], [-87.644538, 41.861936], [-87.644794, 41.857575], [-87.630236, 41.857771], [-87.630401, 41.867992]], "type": "LineString"}, "properties": {"timestamp": "2023-10-23T16:59:54"}}]}