{"type": "FeatureCollection", "features": [{"type": "Feature", "geometry": {"coordinates": [[-87.664499, 41.921692], [-87.649501, 41.910903], [-87.63858, 41.911039], [-87.638528, 41.909422]], "type": "LineString"}, "properties": {"timestamp": "2023-12-16T17:50:03"}}, {"type": "Feature", "geometry": {"coordinates": [[-87.638528, 41.909422], [-87.638528, 41.909422]], "type": "LineString"}, "properties": {"timestamp": "2023-12-16T17:53:57"}}, {"type": "Feature", "geometry": {"coordinates": [[-87.638528, 41.909422], [-87.63858, 41.911039], [-87.633071, 41.911172], [-87.633044, 41.912903], [-87.632269, 41.913237], [-87.631395, 41.91329], [-87.630561, 41.913114], [-87.628505, 41.912247], [-87.627696, 41.912183], [-87.626932, 41.912316], [-87.62645, 41.912166], [-87.626204, 41.911491], [-87.625696, 41.908349], [-87.624114, 41.90257], [-87.623432, 41.901893], [-87.62264, 41.901491], [-87.620172, 41.901181], [-87.619617, 41.900898], [-87.615818, 41.895267], [-87.614875, 41.893496], [-87.621935, 41.893376]], "type": "LineString"}, "properties": {"timestamp": "2023-12-16T17:53:57"}}, {"type": "Feature", "geometry": {"coordinates": [[-87.621935, 41.893376], [-87.622735, 41.89336], [-87.622757, 41.894164], [-87.617775, 41.894255], [-87.617802, 41.895054], [-87.6159, 41.895086], [-87.618028, 41.89823]], "type": "LineString"}, "properties": {"timestamp": "2023-12-16T18:11:24"}}, {"type": "Feature", "geometry": {"coordinates": [[-87.618028, 41.89823], [-87.617653, 41.897681], [-87.621852, 41.897618], [-87.621834, 41.896766], [-87.616893, 41.896844], [-87.614264, 41.892868], [-87.614081, 41.885247], [-87.614645, 41.884041], [-87.616685, 41.882873], [-87.617321, 41.882167], [-87.617442, 41.878363], [-87.620697, 41.878331], [-87.620625, 41.876287], [-87.621081, 41.875931], [-87.62435, 41.875724], [-87.631738, 41.875684], [-87.631448, 41.875518]], "type": "LineString"}, "properties": {"timestamp": "2023-12-16T18:11:24"}}, {"type": "Feature", "geometry": {"coordinates": [[-87.631448, 41.875518], [-87.629223, 41.875546], [-87.629401, 41.881987], [-87.631509, 41.881974], [-87.632365, 41.882009], [-87.632751, 41.900548], [-87.632884, 41.899913]], "type": "LineString"}, "properties": {"timestamp": "2023-12-16T18:20:32"}}, {"type": "Feature", "geometry": {"coordinates": [[-87.632884, 41.899913], [-87.632696, 41.891597], [-87.639878, 41.891506], [-87.643004, 41.891239], [-87.654625, 41.891105], [-87.654546, 41.888297]], "type": "LineString"}, "properties": {"timestamp": "2023-12-16T18:20:32"}}, {"type": "Feature", "geometry": {"coordinates": [[-87.654546, 41.888297], [-87.654546, 41.888297]], "type": "LineString"}, "properties": {"timestamp": "2023-12-16T18:41:04"}}, {"type": "Feature", "geometry": {"coordinates": [[-87.654546, 41.888297], [-87.654625, 41.891105], [-87.687286, 41.890639], [-87.702222, 41.896575], [-87.702278, 41.902886], [-87.701605, 41.902888]], "type": "LineString"}, "properties": {"timestamp": "2023-12-16T18:41:04"}}, {"type": "Feature", "geometry": {"coordinates": [[-87.701605, 41.902888], [-87.666488, 41.903364], [-87.660843, 41.899711], [-87.657719, 41.895493], [-87.647794, 41.888636], [-87.646614, 41.886973], [-87.646108, 41.885119], [-87.646413, 41.883144], [-87.641266, 41.883178], [-87.639745, 41.883185], [-87.631699, 41.883246], [-87.630932, 41.883184], [-87.63088, 41.882086]], "type": "LineString"}, "properties": {"timestamp": "2023-12-16T18:57:25"}}, {"type": "Feature", "geometry": {"coordinates": [[-87.63088, 41.882086], [-87.630875, 41.881984], [-87.64573, 41.881801], [-87.645735, 41.885306], [-87.647404, 41.888483], [-87.658783, 41.897251], [-87.660805, 41.901753], [-87.661061, 41.906443], [-87.664439, 41.910145], [-87.667973, 41.915739], [-87.66968, 41.917898], [-87.667964, 41.917936], [-87.66862, 41.92163], [-87.668361, 41.933311], [-87.668473, 41.932963]], "type": "LineString"}, "properties": {"timestamp": "2023-12-16T18:57:25"}}, {"type": "Feature", "geometry": {"coordinates": [[-87.668473, 41.932963], [-87.668473, 41.932963]], "type": "LineString"}, "properties": {"timestamp": "2023-12-16T19:21:01"}}, {"type": "Feature", "geometry": {"coordinates": [[-87.668473, 41.932963], [-87.668616, 41.921563], [-87.677255, 41.921395], [-87.668918, 41.916326], [-87.661559, 41.906635], [-87.658834, 41.896667], [-87.646614, 41.886973], [-87.644538, 41.861936], [-87.645083, 41.855528], [-87.64655, 41.854689], [-87.646443, 41.844914], [-87.646255, 41.844758]], "type": "LineString"}, "properties": {"timestamp": "2023-12-16T19:21:01"}}, {"type": "Feature", "geometry": {"coordinates": [[-87.646255, 41.844758], [-87.646335, 41.844917], [-87.646443, 41.844914], [-87.646499, 41.852666], [-87.64473, 41.852672], [-87.643738, 41.855471], [-87.643778, 41.857758], [-87.644854, 41.873493], [-87.644167, 41.87559], [-87.645364, 41.877863], [-87.645275, 41.880374], [-87.645355, 41.881847], [-87.645393, 41.882198], [-87.645396, 41.883308], [-87.645241, 41.884407], [-87.646033, 41.884406]], "type": "LineString"}, "properties": {"timestamp": "2023-12-16T19:58:40"}}, {"type": "Feature", "geometry": {"coordinates": [[-87.646033, 41.884406], [-87.647438, 41.884415], [-87.647482, 41.885665], [-87.646258, 41.885682], [-87.645922, 41.884746], [-87.645988, 41.877697], [-87.644752, 41.867365], [-87.644538, 41.861936], [-87.644794, 41.857575], [-87.646633, 41.857542], [-87.646649, 41.858102], [-87.66163, 41.857876]], "type": "LineString"}, "properties": {"timestamp": "2023-12-16T19:58:40"}}, {"type": "Feature", "geometry": {"coordinates": [[-87.66163, 41.857876], [-87.66163, 41.857876]], "type": "LineString"}, "properties": {"timestamp": "2023-12-16T20:05:48"}}, {"type": "Feature", "geometry": {"coordinates": [[-87.66163, 41.857876], [-87.646649, 41.858102], [-87.646633, 41.857542], [-87.638934, 41.857668], [-87.639228, 41.86722], [-87.627384, 41.867375], [-87.627449, 41.870533], [-87.628609, 41.870542], [-87.62857, 41.869756]], "type": "LineString"}, "properties": {"timestamp": "2023-12-16T20:05:48"}}, {"type": "Feature", "geometry": {"coordinates": [[-87.62857, 41.869756], [-87.628609, 41.870542], [-87.627588, 41.870514], [-87.627201, 41.85654], [-87.630146, 41.855117], [-87.630071, 41.852946], [-87.631144, 41.852935], [-87.631153, 41.850453], [-87.631351, 41.843118], [-87.631207, 41.779686], [-87.626113, 41.772231], [-87.624621, 41.72052], [-87.621065, 41.713653], [-87.600337, 41.713191], [-87.592948, 41.708673], [-87.592406, 41.703483], [-87.601798, 41.685512], [-87.601728, 41.676933], [-87.589096, 41.660202], [-87.59119, 41.659512], [-87.560717, 41.658851], [-87.555878, 41.656176], [-87.555649, 41.65737], [-87.553811, 41.65736], [-87.553812, 41.656889]], "type": "LineString"}, "properties": {"timestamp": "2023-12-16T20:23:17"}}, {"type": "Feature", "geometry": {"coordinates": [[-87.553812, 41.656889], [-87.553811, 41.65736], [-87.557102, 41.657281], [-87.585314, 41.660149], [-87.590822, 41.662478], [-87.601403, 41.675885], [-87.601563, 41.685726], [-87.594329, 41.69908], [-87.591535, 41.705863], [-87.595707, 41.711823], [-87.618809, 41.713575], [-87.62372, 41.717096], [-87.625651, 41.769497], [-87.630747, 41.779495], [-87.630667, 41.838631], [-87.631001, 41.844069], [-87.630081, 41.846653], [-87.616851, 41.847976], [-87.612168, 41.84938], [-87.619244, 41.8661], [-87.614003, 41.89273], [-87.619441, 41.900921], [-87.623983, 41.902767], [-87.630534, 41.924159], [-87.63067, 41.926223], [-87.648766, 41.925453], [-87.653741, 41.929016], [-87.65652, 41.928972]], "type": "LineString"}, "properties": {"timestamp": "2023-12-16T20:23:17"}}, {"type": "Feature", "geometry": {"coordinates": [[-87.65652, 41.928972], [-87.645552, 41.929135], [-87.644199, 41.929324], [-87.642943, 41.929694], [-87.64343, 41.93001], [-87.64363, 41.930236]], "type": "LineString"}, "properties": {"timestamp": "2023-12-16T20:43:39"}}, {"type": "Feature", "geometry": {"coordinates": [[-87.64363, 41.930236], [-87.64363, 41.930236]], "type": "LineString"}, "properties": {"timestamp": "2023-12-16T20:43:39"}}, {"type": "Feature", "geometry": {"coordinates": [[-87.64363, 41.930236], [-87.643564, 41.93012], [-87.64343, 41.93001], [-87.642875, 41.92963], [-87.64223, 41.928546], [-87.642977, 41.928323]], "type": "LineString"}, "properties": {"timestamp": "2023-12-16T20:46:09"}}, {"type": "Feature", "geometry": {"coordinates": [[-87.642977, 41.928323], [-87.644207, 41.928034], [-87.643933, 41.925527], [-87.631853, 41.926001], [-87.626142, 41.912297], [-87.62421, 41.902733], [-87.62264, 41.901491], [-87.619617, 41.900898], [-87.614907, 41.893955], [-87.614335, 41.8919], [-87.61419, 41.889771], [-87.614407, 41.887691], [-87.620783, 41.887992], [-87.620743, 41.884318], [-87.617441, 41.884426], [-87.617418, 41.885524], [-87.616288, 41.885561], [-87.616289, 41.886523], [-87.618715, 41.88653]], "type": "LineString"}, "properties": {"timestamp": "2023-12-16T20:46:09"}}, {"type": "Feature", "geometry": {"coordinates": [[-87.618715, 41.88653], [-87.619106, 41.886506], [-87.6191, 41.885527], [-87.617418, 41.885524], [-87.617389, 41.884538], [-87.635401, 41.884465], [-87.635465, 41.886982], [-87.636943, 41.888771], [-87.637019, 41.891543], [-87.640016, 41.891501], [-87.643004, 41.891239], [-87.647627, 41.891194], [-87.647674, 41.896553], [-87.647933, 41.900147], [-87.64817, 41.900236], [-87.650209, 41.902692]], "type": "LineString"}, "properties": {"timestamp": "2023-12-18T17:24:45"}}]}