{"type": "FeatureCollection", "features": [{"type": "Feature", "geometry": {"coordinates": [[-87.733603, 41.962417], [-87.734437, 41.962997], [-87.733633, 41.963642], [-87.747761, 41.972794], [-87.747223, 41.966563], [-87.745961, 41.963113], [-87.742125, 41.960129], [-87.719592, 41.947613], [-87.715306, 41.94215], [-87.710219, 41.940524], [-87.698173, 41.933659], [-87.687291, 41.927358], [-87.683686, 41.924962], [-87.675327, 41.925054], [-87.675137, 41.923476], [-87.672314, 41.921495], [-87.666431, 41.921592], [-87.665717, 41.920728], [-87.664662, 41.920733]], "type": "LineString"}, "properties": {"timestamp": "2023-11-13T16:09:58"}}, {"type": "Feature", "geometry": {"coordinates": [[-87.664662, 41.920733], [-87.663168, 41.920731], [-87.6632, 41.921626], [-87.659737, 41.921657]], "type": "LineString"}, "properties": {"timestamp": "2023-11-13T16:29:18"}}, {"type": "Feature", "geometry": {"coordinates": [[-87.659737, 41.921657], [-87.65834, 41.921676], [-87.658378, 41.917139], [-87.663815, 41.917067], [-87.66782, 41.916129], [-87.667365, 41.896069], [-87.691761, 41.895706], [-87.691768, 41.895973]], "type": "LineString"}, "properties": {"timestamp": "2023-11-13T16:29:18"}}, {"type": "Feature", "geometry": {"coordinates": [[-87.691768, 41.895973], [-87.691808, 41.897514], [-87.686881, 41.897571], [-87.688345, 41.949742]], "type": "LineString"}, "properties": {"timestamp": "2023-11-13T16:53:34"}}, {"type": "Feature", "geometry": {"coordinates": [[-87.688345, 41.949742], [-87.688146, 41.939587], [-87.683107, 41.935872], [-87.682973, 41.934076], [-87.680779, 41.932431], [-87.680658, 41.932073]], "type": "LineString"}, "properties": {"timestamp": "2023-11-13T16:53:34"}}, {"type": "Feature", "geometry": {"coordinates": [[-87.680658, 41.932073], [-87.680713, 41.932257], [-87.658713, 41.932557], [-87.656205, 41.930775], [-87.65616, 41.928978], [-87.65652, 41.928972]], "type": "LineString"}, "properties": {"timestamp": "2023-11-13T17:18:54"}}, {"type": "Feature", "geometry": {"coordinates": [[-87.65652, 41.928972], [-87.658589, 41.928939], [-87.658201, 41.917264], [-87.666413, 41.916455], [-87.66216, 41.910715], [-87.665662, 41.910672], [-87.665325, 41.910236], [-87.661439, 41.906386], [-87.658834, 41.896667], [-87.648602, 41.889352], [-87.646315, 41.886261], [-87.644998, 41.850609], [-87.642186, 41.847255], [-87.634652, 41.845323], [-87.63091, 41.84209], [-87.631289, 41.79178], [-87.631532, 41.783322], [-87.631839, 41.779985], [-87.675127, 41.779303], [-87.675081, 41.777388]], "type": "LineString"}, "properties": {"timestamp": "2023-11-13T17:18:54"}}, {"type": "Feature", "geometry": {"coordinates": [[-87.675081, 41.777388], [-87.675036, 41.775694], [-87.67382, 41.775709], [-87.673999, 41.78298], [-87.671588, 41.783016], [-87.671669, 41.786209]], "type": "LineString"}, "properties": {"timestamp": "2023-11-13T17:54:25"}}, {"type": "Feature", "geometry": {"coordinates": [[-87.671669, 41.786209], [-87.67168, 41.786658], [-87.664331, 41.786756], [-87.66568, 41.83774], [-87.65413, 41.843501], [-87.6559, 41.845542], [-87.653697, 41.846601], [-87.65443, 41.846762]], "type": "LineString"}, "properties": {"timestamp": "2023-11-13T17:54:25"}}, {"type": "Feature", "geometry": {"coordinates": [[-87.65443, 41.846762], [-87.656838, 41.846482], [-87.660138, 41.844657], [-87.657685, 41.841793], [-87.66568, 41.83774], [-87.666149, 41.859626], [-87.673612, 41.859517]], "type": "LineString"}, "properties": {"timestamp": "2023-11-13T18:33:21"}}, {"type": "Feature", "geometry": {"coordinates": [[-87.673612, 41.859517], [-87.671143, 41.859553], [-87.671155, 41.861408], [-87.666188, 41.861473], [-87.666563, 41.875179], [-87.666292, 41.875183], [-87.662662, 41.87557], [-87.6605, 41.875604], [-87.651569, 41.875318], [-87.633678, 41.875524], [-87.633487, 41.868948]], "type": "LineString"}, "properties": {"timestamp": "2023-11-13T18:33:21"}}, {"type": "Feature", "geometry": {"coordinates": [[-87.633487, 41.868948], [-87.633566, 41.872148], [-87.63061, 41.872252], [-87.630071, 41.852946], [-87.631144, 41.852935], [-87.631153, 41.850453], [-87.631351, 41.843118], [-87.631163, 41.834246], [-87.631513, 41.830937], [-87.626457, 41.831008], [-87.626475, 41.83283], [-87.625023, 41.832863]], "type": "LineString"}, "properties": {"timestamp": "2023-11-13T18:49:52"}}, {"type": "Feature", "geometry": {"coordinates": [[-87.625023, 41.832863], [-87.626475, 41.83283], [-87.626499, 41.834676], [-87.62663, 41.831006], [-87.631513, 41.830937], [-87.631416, 41.827182], [-87.630921, 41.824538], [-87.630703, 41.812695], [-87.632226, 41.807984], [-87.631696, 41.798939], [-87.631804, 41.794538], [-87.674307, 41.793922], [-87.674409, 41.797576], [-87.675672, 41.797542], [-87.675674, 41.797737]], "type": "LineString"}, "properties": {"timestamp": "2023-11-13T18:49:52"}}, {"type": "Feature", "geometry": {"coordinates": [[-87.675674, 41.797737], [-87.675677, 41.79802], [-87.674422, 41.798037], [-87.674511, 41.801244], [-87.683684, 41.801133], [-87.684021, 41.81444], [-87.684046, 41.815484], [-87.684059, 41.816038], [-87.684139, 41.819343], [-87.68435, 41.826276], [-87.675328, 41.831825], [-87.675396, 41.836727], [-87.667192, 41.837515], [-87.642887, 41.846989], [-87.616851, 41.847976], [-87.612168, 41.84938], [-87.619244, 41.8661], [-87.614041, 41.892878], [-87.619441, 41.900921], [-87.624048, 41.902893], [-87.632152, 41.934381], [-87.644376, 41.950931], [-87.652386, 41.98144], [-87.65229, 41.983909], [-87.666707, 41.983528]], "type": "LineString"}, "properties": {"timestamp": "2023-11-14T16:04:03"}}]}