{"type": "FeatureCollection", "features": [{"type": "Feature", "geometry": {"coordinates": [[-87.655324, 41.987812], [-87.655253, 41.985556], [-87.62421, 41.902733], [-87.614264, 41.892868], [-87.619588, 41.866208], [-87.614728, 41.853242], [-87.614444, 41.848506], [-87.626818, 41.84732], [-87.631727, 41.847855], [-87.631351, 41.843118], [-87.624621, 41.72052], [-87.621065, 41.713653], [-87.600337, 41.713191], [-87.592948, 41.708673], [-87.601728, 41.676933], [-87.589096, 41.660202], [-87.555878, 41.656176], [-87.555649, 41.65737], [-87.553811, 41.65736], [-87.553812, 41.656889]], "type": "LineString"}, "properties": {"timestamp": "2023-03-13T10:43:09"}}, {"type": "Feature", "geometry": {"coordinates": [[-87.553812, 41.656889], [-87.553811, 41.65736], [-87.557102, 41.657281], [-87.585314, 41.660149], [-87.590822, 41.662478], [-87.601403, 41.675885], [-87.601563, 41.685726], [-87.594329, 41.69908], [-87.591535, 41.705863], [-87.595707, 41.711823], [-87.618809, 41.713575], [-87.62372, 41.717096], [-87.625651, 41.769497], [-87.630526, 41.779578], [-87.629968, 41.819951], [-87.629633, 41.823673], [-87.619991, 41.823804], [-87.619964, 41.822908]], "type": "LineString"}, "properties": {"timestamp": "2023-03-13T11:27:20"}}, {"type": "Feature", "geometry": {"coordinates": [[-87.619964, 41.822908], [-87.619991, 41.823804], [-87.604016, 41.824107], [-87.599849, 41.825435], [-87.604294, 41.829367], [-87.607125, 41.833032], [-87.608141, 41.838145], [-87.613467, 41.852437], [-87.618329, 41.862131], [-87.619249, 41.866344], [-87.617003, 41.869799], [-87.617244, 41.880924], [-87.620794, 41.880871], [-87.620609, 41.884517], [-87.624371, 41.884484], [-87.624431, 41.88577], [-87.626286, 41.88576], [-87.627125, 41.888453], [-87.626665, 41.889909]], "type": "LineString"}, "properties": {"timestamp": "2023-03-13T11:27:20"}}, {"type": "Feature", "geometry": {"coordinates": [[-87.626665, 41.889909], [-87.626665, 41.889909]], "type": "LineString"}, "properties": {"timestamp": "2023-03-13T11:44:01"}}, {"type": "Feature", "geometry": {"coordinates": [[-87.626665, 41.889909], [-87.626312, 41.886804], [-87.623818, 41.886817], [-87.620759, 41.886797], [-87.620794, 41.880871], [-87.617506, 41.88092], [-87.619589, 41.866068], [-87.614728, 41.853242], [-87.614444, 41.848506], [-87.626818, 41.84732], [-87.631727, 41.847855], [-87.631351, 41.843118], [-87.631207, 41.779686], [-87.626113, 41.772231], [-87.624621, 41.72052], [-87.621065, 41.713653], [-87.600337, 41.713191], [-87.592948, 41.708673], [-87.592406, 41.703483], [-87.601798, 41.685512], [-87.601728, 41.676933], [-87.589096, 41.660202], [-87.59119, 41.659512], [-87.560717, 41.658851], [-87.555878, 41.656176], [-87.555649, 41.65737], [-87.553811, 41.65736], [-87.553812, 41.656889]], "type": "LineString"}, "properties": {"timestamp": "2023-03-13T11:44:01"}}, {"type": "Feature", "geometry": {"coordinates": [[-87.553812, 41.656889], [-87.553811, 41.65736], [-87.557102, 41.657281], [-87.585314, 41.660149], [-87.590822, 41.662478], [-87.601403, 41.675885], [-87.601563, 41.685726], [-87.594329, 41.69908], [-87.591535, 41.705863], [-87.595707, 41.711823], [-87.618809, 41.713575], [-87.62372, 41.717096], [-87.625651, 41.769497], [-87.630526, 41.779578], [-87.629968, 41.819951], [-87.629633, 41.823673], [-87.619991, 41.823804], [-87.619964, 41.822908]], "type": "LineString"}, "properties": {"timestamp": "2023-03-13T11:57:04"}}, {"type": "Feature", "geometry": {"coordinates": [[-87.619964, 41.822908], [-87.619991, 41.823804], [-87.604016, 41.824107], [-87.599849, 41.825435], [-87.607125, 41.833032], [-87.619224, 41.865968], [-87.617003, 41.869799], [-87.617167, 41.881825], [-87.613645, 41.884762], [-87.614041, 41.892878], [-87.619441, 41.900921], [-87.624048, 41.902893], [-87.631851, 41.928415], [-87.632152, 41.934381], [-87.63676, 41.939073], [-87.638088, 41.940568], [-87.658974, 41.939838], [-87.658824, 41.935883]], "type": "LineString"}, "properties": {"timestamp": "2023-03-13T11:57:04"}}, {"type": "Feature", "geometry": {"coordinates": [[-87.658824, 41.935883], [-87.658713, 41.932557], [-87.648766, 41.925453], [-87.648495, 41.91731]], "type": "LineString"}, "properties": {"timestamp": "2023-03-13T12:12:27"}}, {"type": "Feature", "geometry": {"coordinates": [[-87.648495, 41.91731], [-87.648495, 41.91731]], "type": "LineString"}, "properties": {"timestamp": "2023-03-13T12:12:27"}}, {"type": "Feature", "geometry": {"coordinates": [[-87.648495, 41.91731], [-87.648766, 41.925453], [-87.63067, 41.926223], [-87.631851, 41.928415], [-87.632612, 41.935386], [-87.638833, 41.941219], [-87.644376, 41.950931], [-87.644596, 41.954749], [-87.648738, 41.973046], [-87.652251, 41.981039], [-87.652803, 41.984951], [-87.655253, 41.985556], [-87.655324, 41.987812]], "type": "LineString"}, "properties": {"timestamp": "2023-03-13T16:49:46"}}, {"type": "Feature", "geometry": {"coordinates": [[-87.655324, 41.987812], [-87.655253, 41.985556], [-87.653157, 41.984999], [-87.652706, 41.981232], [-87.649277, 41.973607], [-87.645733, 41.957427], [-87.645546, 41.955777], [-87.645235, 41.954634], [-87.673794, 41.95429], [-87.67359, 41.946929], [-87.680982, 41.946838], [-87.680928, 41.944938]], "type": "LineString"}, "properties": {"timestamp": "2023-03-13T16:49:46"}}, {"type": "Feature", "geometry": {"coordinates": [[-87.680928, 41.944938], [-87.680711, 41.934149], [-87.678134, 41.932278], [-87.677765, 41.92139], [-87.677255, 41.921395], [-87.668918, 41.916326], [-87.661559, 41.906635], [-87.658834, 41.896667], [-87.646614, 41.886973], [-87.644363, 41.857367], [-87.644333, 41.849097], [-87.641933, 41.846546], [-87.616851, 41.847976], [-87.612314, 41.847086], [-87.607188, 41.832576], [-87.58209, 41.803885], [-87.574954, 41.781232], [-87.584175, 41.780203], [-87.586376, 41.776085], [-87.586137, 41.759682], [-87.585114, 41.759693], [-87.585107, 41.759229], [-87.584124, 41.759242]], "type": "LineString"}, "properties": {"timestamp": "2023-03-13T17:15:44"}}, {"type": "Feature", "geometry": {"coordinates": [[-87.584124, 41.759242], [-87.585107, 41.759229], [-87.585114, 41.759693], [-87.585762, 41.759686], [-87.585994, 41.771514], [-87.584175, 41.780203], [-87.574628, 41.780713], [-87.580105, 41.791827], [-87.579065, 41.795899], [-87.581975, 41.803976], [-87.593676, 41.815381], [-87.600955, 41.826403], [-87.606909, 41.832668], [-87.610426, 41.843509], [-87.612641, 41.848604], [-87.630973, 41.847424], [-87.641219, 41.847736], [-87.644555, 41.850742], [-87.644363, 41.8636], [-87.644093, 41.86715], [-87.642187, 41.867183], [-87.642379, 41.872798]], "type": "LineString"}, "properties": {"timestamp": "2023-03-13T17:15:44"}}, {"type": "Feature", "geometry": {"coordinates": [[-87.642379, 41.872798], [-87.642493, 41.876736], [-87.639817, 41.876769], [-87.639823, 41.875803], [-87.641365, 41.875647], [-87.651991, 41.875736], [-87.657603, 41.876197], [-87.688313, 41.875763], [-87.692409, 41.875862], [-87.698604, 41.87596], [-87.698638, 41.877405], [-87.69832, 41.877408]], "type": "LineString"}, "properties": {"timestamp": "2023-03-13T17:41:27"}}, {"type": "Feature", "geometry": {"coordinates": [[-87.69832, 41.877408], [-87.696189, 41.877434], [-87.696127, 41.874902], [-87.695509, 41.874908], [-87.690201, 41.875125], [-87.620619, 41.875815], [-87.620697, 41.878331], [-87.617182, 41.878364], [-87.616996, 41.882205], [-87.613645, 41.884762], [-87.614041, 41.892878], [-87.619441, 41.900921], [-87.622727, 41.90171], [-87.624048, 41.902893], [-87.62589, 41.912141], [-87.628743, 41.918036], [-87.631851, 41.928415], [-87.632152, 41.934381], [-87.633661, 41.936704], [-87.63676, 41.939073], [-87.638088, 41.940568], [-87.639537, 41.940119], [-87.639435, 41.936919]], "type": "LineString"}, "properties": {"timestamp": "2023-03-13T17:41:27"}}, {"type": "Feature", "geometry": {"coordinates": [[-87.639435, 41.936919], [-87.639435, 41.936919]], "type": "LineString"}, "properties": {"timestamp": "2023-03-13T18:23:05"}}, {"type": "Feature", "geometry": {"coordinates": [[-87.639435, 41.936919], [-87.639537, 41.940119], [-87.638088, 41.940568], [-87.644496, 41.951253], [-87.644596, 41.954749], [-87.648738, 41.973046], [-87.652251, 41.981039], [-87.652803, 41.984951], [-87.654178, 41.985586], [-87.662456, 41.985105], [-87.665884, 41.987189], [-87.669585, 41.987146], [-87.669707, 41.988054], [-87.669796, 41.987608], [-87.669769, 41.987519]], "type": "LineString"}, "properties": {"timestamp": "2023-03-13T18:23:05"}}, {"type": "Feature", "geometry": {"coordinates": [[-87.669769, 41.987519], [-87.669343, 41.985953], [-87.669821, 41.985945], [-87.6699, 41.989705], [-87.67531, 41.992132], [-87.675425, 41.994982], [-87.684163, 42.015501], [-87.688534, 42.044191], [-87.690213, 42.044213], [-87.690207, 42.044647]], "type": "LineString"}, "properties": {"timestamp": "2023-03-14T18:45:02"}}]}