{"type": "FeatureCollection", "features": [{"type": "Feature", "geometry": {"coordinates": [[-87.715459, 41.942862], [-87.712582, 41.942239], [-87.712526, 41.940478], [-87.709442, 41.939977], [-87.668499, 41.915851], [-87.661559, 41.906635], [-87.658834, 41.896667], [-87.646614, 41.886973], [-87.64461, 41.864445], [-87.645245, 41.851247], [-87.642429, 41.847384], [-87.634652, 41.845323], [-87.631511, 41.841797], [-87.63168, 41.838241], [-87.626758, 41.838295], [-87.626661, 41.833703]], "type": "LineString"}, "properties": {"timestamp": "2023-08-29T09:08:12"}}, {"type": "Feature", "geometry": {"coordinates": [[-87.626661, 41.833703], [-87.62663, 41.831006], [-87.629817, 41.830961], [-87.629831, 41.831311], [-87.630393, 41.837743], [-87.631001, 41.844069], [-87.63096, 41.845776], [-87.630081, 41.846653], [-87.623841, 41.847827], [-87.616851, 41.847976], [-87.613392, 41.848153], [-87.612168, 41.84938], [-87.617619, 41.860334], [-87.619244, 41.8661], [-87.617003, 41.869799], [-87.617167, 41.881825], [-87.613723, 41.884512], [-87.614006, 41.889097], [-87.613604, 41.890559], [-87.61169, 41.890948], [-87.611597, 41.891968], [-87.612627, 41.891945]], "type": "LineString"}, "properties": {"timestamp": "2023-08-29T10:12:09"}}, {"type": "Feature", "geometry": {"coordinates": [[-87.612627, 41.891945], [-87.614335, 41.8919], [-87.614043, 41.887479], [-87.614074, 41.884717], [-87.617453, 41.881821], [-87.617261, 41.869765], [-87.619588, 41.866208], [-87.618646, 41.862252], [-87.614728, 41.853242], [-87.613506, 41.849799], [-87.614886, 41.848332], [-87.623443, 41.848101], [-87.628154, 41.84709], [-87.632226, 41.847516], [-87.642894, 41.847138], [-87.652077, 41.845194], [-87.666643, 41.838058], [-87.669478, 41.837422], [-87.674176, 41.837483], [-87.675396, 41.8377], [-87.675845, 41.852181], [-87.671409, 41.852248]], "type": "LineString"}, "properties": {"timestamp": "2023-08-29T10:12:09"}}, {"type": "Feature", "geometry": {"coordinates": [[-87.671409, 41.852248], [-87.675845, 41.852181], [-87.675934, 41.855831], [-87.677704, 41.855815]], "type": "LineString"}, "properties": {"timestamp": "2023-08-29T10:38:58"}}, {"type": "Feature", "geometry": {"coordinates": [[-87.677704, 41.855815], [-87.675934, 41.855831], [-87.676418, 41.875016], [-87.676128, 41.875021], [-87.650308, 41.875329], [-87.645452, 41.874563], [-87.64458, 41.876036], [-87.645275, 41.880374], [-87.645355, 41.881847], [-87.645393, 41.882198], [-87.647404, 41.888483], [-87.658783, 41.897251], [-87.661061, 41.906443], [-87.667879, 41.91562], [-87.675191, 41.920831], [-87.677815, 41.922669], [-87.678349, 41.939586], [-87.673369, 41.939644]], "type": "LineString"}, "properties": {"timestamp": "2023-08-29T10:38:58"}}, {"type": "Feature", "geometry": {"coordinates": [[-87.673369, 41.939644], [-87.668609, 41.939697], [-87.658713, 41.932557], [-87.653863, 41.932636], [-87.653802, 41.930826], [-87.653074, 41.930839]], "type": "LineString"}, "properties": {"timestamp": "2023-08-29T10:59:48"}}, {"type": "Feature", "geometry": {"coordinates": [[-87.653074, 41.930839], [-87.653802, 41.930826], [-87.653601, 41.925374], [-87.658464, 41.925291], [-87.658201, 41.917264], [-87.663815, 41.917067], [-87.66782, 41.916129], [-87.66776, 41.910633], [-87.665662, 41.910672], [-87.665325, 41.910236], [-87.661439, 41.906386], [-87.661057, 41.901306], [-87.658834, 41.896667], [-87.6483, 41.889096], [-87.646108, 41.885119], [-87.646413, 41.883144], [-87.641266, 41.883178], [-87.639745, 41.883185], [-87.639953, 41.887994], [-87.640199, 41.88801]], "type": "LineString"}, "properties": {"timestamp": "2023-08-29T10:59:48"}}, {"type": "Feature", "geometry": {"coordinates": [[-87.640199, 41.88801], [-87.639953, 41.887994], [-87.64001, 41.889064], [-87.644337, 41.889054], [-87.647627, 41.891194], [-87.648124, 41.905038], [-87.649202, 41.905042], [-87.653203, 41.909772], [-87.653741, 41.929016], [-87.65652, 41.928972]], "type": "LineString"}, "properties": {"timestamp": "2023-08-29T17:51:23"}}, {"type": "Feature", "geometry": {"coordinates": [[-87.65652, 41.928972], [-87.658589, 41.928939], [-87.658201, 41.917264], [-87.666413, 41.916455], [-87.66216, 41.910715], [-87.665662, 41.910672], [-87.665325, 41.910236], [-87.661559, 41.906635], [-87.661057, 41.901306], [-87.658563, 41.896333], [-87.647099, 41.887778], [-87.646219, 41.885929], [-87.645999, 41.881827], [-87.646134, 41.880956], [-87.64632, 41.87924], [-87.650775, 41.87916], [-87.650741, 41.878179]], "type": "LineString"}, "properties": {"timestamp": "2023-08-29T17:51:23"}}, {"type": "Feature", "geometry": {"coordinates": [[-87.650741, 41.878179], [-87.650741, 41.878179]], "type": "LineString"}, "properties": {"timestamp": "2023-08-29T18:25:11"}}, {"type": "Feature", "geometry": {"coordinates": [[-87.650741, 41.878179], [-87.650731, 41.87789], [-87.645564, 41.877963], [-87.645275, 41.880374], [-87.645355, 41.881847], [-87.645393, 41.882198], [-87.645735, 41.885306], [-87.646457, 41.887151], [-87.648003, 41.8891], [-87.650048, 41.890597], [-87.651108, 41.891699], [-87.650775, 41.89225], [-87.65007, 41.892434], [-87.639284, 41.892486], [-87.63704, 41.892368], [-87.624121, 41.892541], [-87.624162, 41.894143], [-87.62188, 41.894176]], "type": "LineString"}, "properties": {"timestamp": "2023-08-29T18:25:11"}}, {"type": "Feature", "geometry": {"coordinates": [[-87.62188, 41.894176], [-87.620307, 41.894214], [-87.620283, 41.893412], [-87.622735, 41.89336], [-87.62271, 41.892566], [-87.621881, 41.892574]], "type": "LineString"}, "properties": {"timestamp": "2023-08-29T18:52:40"}}, {"type": "Feature", "geometry": {"coordinates": [[-87.621881, 41.892574], [-87.620263, 41.892588], [-87.620387, 41.896781], [-87.616735, 41.89691], [-87.619536, 41.901011], [-87.622727, 41.90171], [-87.624048, 41.902893], [-87.625626, 41.908987], [-87.62589, 41.912141], [-87.628743, 41.918036], [-87.630534, 41.924159], [-87.63067, 41.926223], [-87.634154, 41.925694], [-87.648766, 41.925453], [-87.655107, 41.929995], [-87.655116, 41.93032]], "type": "LineString"}, "properties": {"timestamp": "2023-08-29T18:52:40"}}, {"type": "Feature", "geometry": {"coordinates": [[-87.655116, 41.93032], [-87.655107, 41.929995], [-87.656205, 41.930775], [-87.658651, 41.930741], [-87.658527, 41.927117], [-87.663383, 41.927039], [-87.6632, 41.921626], [-87.664379, 41.921608], [-87.664499, 41.921692]], "type": "LineString"}, "properties": {"timestamp": "2023-08-29T19:22:48"}}, {"type": "Feature", "geometry": {"coordinates": [[-87.664499, 41.921692], [-87.664379, 41.921608], [-87.6632, 41.921626], [-87.66355, 41.932479], [-87.649013, 41.932728], [-87.649228, 41.938193], [-87.649915, 41.939012], [-87.651855, 41.938982]], "type": "LineString"}, "properties": {"timestamp": "2023-08-29T19:22:48"}}, {"type": "Feature", "geometry": {"coordinates": [[-87.651855, 41.938982], [-87.654074, 41.938945], [-87.654106, 41.939918], [-87.668609, 41.939697], [-87.672471, 41.945127], [-87.673616, 41.945115], [-87.67364, 41.945816]], "type": "LineString"}, "properties": {"timestamp": "2023-08-29T19:41:57"}}, {"type": "Feature", "geometry": {"coordinates": [[-87.67364, 41.945816], [-87.673616, 41.945115], [-87.6785, 41.945048], [-87.67855, 41.946869], [-87.705359, 41.94665], [-87.705281, 41.943085]], "type": "LineString"}, "properties": {"timestamp": "2023-08-29T19:41:57"}}, {"type": "Feature", "geometry": {"coordinates": [[-87.705281, 41.943085], [-87.705182, 41.939366], [-87.707702, 41.939339], [-87.707505, 41.930261], [-87.707814, 41.929332], [-87.707541, 41.929168], [-87.707825, 41.928361], [-87.707315, 41.927605], [-87.70705, 41.9174], [-87.705789, 41.917413]], "type": "LineString"}, "properties": {"timestamp": "2023-08-29T20:08:53"}}, {"type": "Feature", "geometry": {"coordinates": [[-87.705789, 41.917413], [-87.671089, 41.917871], [-87.670404, 41.917216], [-87.66811, 41.915355], [-87.664752, 41.909975], [-87.661559, 41.906635], [-87.661057, 41.901306], [-87.658834, 41.896667], [-87.647099, 41.887778], [-87.646219, 41.885929], [-87.645999, 41.881827], [-87.646134, 41.880956], [-87.646145, 41.879569], [-87.646166, 41.878121], [-87.646107, 41.877218], [-87.646972, 41.875597], [-87.645662, 41.872433], [-87.645367, 41.869682], [-87.645153, 41.867243], [-87.656679, 41.867056], [-87.656617, 41.864984]], "type": "LineString"}, "properties": {"timestamp": "2023-08-29T20:08:53"}}, {"type": "Feature", "geometry": {"coordinates": [[-87.656617, 41.864984], [-87.657142, 41.881621], [-87.656689, 41.88163], [-87.656891, 41.888803], [-87.657358, 41.889992], [-87.658969, 41.889978], [-87.65898, 41.890448]], "type": "LineString"}, "properties": {"timestamp": "2023-08-29T20:19:39"}}, {"type": "Feature", "geometry": {"coordinates": [[-87.65898, 41.890448], [-87.659165, 41.890783], [-87.65893, 41.891061], [-87.647627, 41.891194], [-87.647482, 41.885665], [-87.646258, 41.885682], [-87.645922, 41.884746], [-87.645999, 41.881827], [-87.646134, 41.880956], [-87.646145, 41.879569], [-87.646166, 41.878121], [-87.646107, 41.877218], [-87.646063, 41.876551], [-87.646733, 41.875649], [-87.646076, 41.875057], [-87.644423, 41.875457], [-87.633678, 41.875524], [-87.633487, 41.868948]], "type": "LineString"}, "properties": {"timestamp": "2023-08-29T20:19:39"}}, {"type": "Feature", "geometry": {"coordinates": [[-87.633487, 41.868948], [-87.633684, 41.87567], [-87.641651, 41.875644], [-87.646562, 41.876207], [-87.645662, 41.872433], [-87.644363, 41.857367], [-87.645091, 41.850828], [-87.642257, 41.847292], [-87.634652, 41.845323], [-87.632305, 41.843952], [-87.631511, 41.841797], [-87.631593, 41.834597], [-87.628886, 41.834642], [-87.628847, 41.833673]], "type": "LineString"}, "properties": {"timestamp": "2023-08-29T20:36:28"}}, {"type": "Feature", "geometry": {"coordinates": [[-87.628847, 41.833673], [-87.628886, 41.834642], [-87.629907, 41.834623], [-87.6301, 41.841613], [-87.631814, 41.844491], [-87.642036, 41.847354], [-87.644778, 41.850632], [-87.645875, 41.885816], [-87.648003, 41.8891], [-87.6586, 41.897003], [-87.662226, 41.907951], [-87.664445, 41.910674], [-87.66216, 41.910715], [-87.666413, 41.916455], [-87.658201, 41.917264], [-87.658589, 41.928939], [-87.65652, 41.928972]], "type": "LineString"}, "properties": {"timestamp": "2023-08-29T20:36:28"}}, {"type": "Feature", "geometry": {"coordinates": [[-87.65652, 41.928972], [-87.658589, 41.928939], [-87.658201, 41.917264], [-87.658378, 41.917139], [-87.663815, 41.917067], [-87.66782, 41.916129], [-87.66776, 41.910633], [-87.673806, 41.910536], [-87.673782, 41.90961], [-87.673955, 41.909456]], "type": "LineString"}, "properties": {"timestamp": "2023-08-30T17:42:43"}}]}