{"type": "FeatureCollection", "features": [{"type": "Feature", "geometry": {"coordinates": [[-87.657753, 41.940121], [-87.657746, 41.939858], [-87.638796, 41.940268], [-87.638606, 41.939931], [-87.634194, 41.936955], [-87.632527, 41.93482], [-87.632048, 41.928427], [-87.627538, 41.915117], [-87.627206, 41.913042], [-87.628067, 41.912346], [-87.631428, 41.913459], [-87.633196, 41.912907], [-87.632901, 41.900546], [-87.63435, 41.90053], [-87.634269, 41.898205], [-87.634817, 41.898197]], "type": "LineString"}, "properties": {"timestamp": "2023-10-20T19:23:07"}}, {"type": "Feature", "geometry": {"coordinates": [[-87.634817, 41.898197], [-87.634269, 41.898205], [-87.63441, 41.9021], [-87.635771, 41.902081]], "type": "LineString"}, "properties": {"timestamp": "2023-10-20T19:55:26"}}, {"type": "Feature", "geometry": {"coordinates": [[-87.635771, 41.902081], [-87.63739, 41.902067], [-87.637178, 41.896556], [-87.677057, 41.895912], [-87.677009, 41.894261]], "type": "LineString"}, "properties": {"timestamp": "2023-10-20T19:55:26"}}, {"type": "Feature", "geometry": {"coordinates": [[-87.677009, 41.894261], [-87.677009, 41.894261]], "type": "LineString"}, "properties": {"timestamp": "2023-10-20T20:14:43"}}, {"type": "Feature", "geometry": {"coordinates": [[-87.677009, 41.894261], [-87.677057, 41.895912], [-87.631243, 41.896633], [-87.631219, 41.895637], [-87.630373, 41.895653]], "type": "LineString"}, "properties": {"timestamp": "2023-10-20T20:14:43"}}, {"type": "Feature", "geometry": {"coordinates": [[-87.630373, 41.895653], [-87.628179, 41.895692], [-87.628109, 41.893025]], "type": "LineString"}, "properties": {"timestamp": "2023-10-20T20:34:17"}}, {"type": "Feature", "geometry": {"coordinates": [[-87.628109, 41.893025], [-87.628071, 41.891667], [-87.639878, 41.891506], [-87.643004, 41.891239], [-87.659484, 41.891055], [-87.659547, 41.893465], [-87.658764, 41.893479]], "type": "LineString"}, "properties": {"timestamp": "2023-10-20T20:34:17"}}, {"type": "Feature", "geometry": {"coordinates": [[-87.658764, 41.893479], [-87.657432, 41.893502], [-87.65741, 41.892863], [-87.654527, 41.896273], [-87.647675, 41.896405], [-87.648086, 41.903643], [-87.639563, 41.903768], [-87.6404, 41.904375], [-87.64022, 41.904515], [-87.639718, 41.904149]], "type": "LineString"}, "properties": {"timestamp": "2023-10-20T20:56:26"}}, {"type": "Feature", "geometry": {"coordinates": [[-87.639718, 41.904149], [-87.64022, 41.904515], [-87.6404, 41.904375], [-87.639563, 41.903768], [-87.648086, 41.903643], [-87.64782, 41.896403], [-87.654734, 41.896269], [-87.660056, 41.889969], [-87.663487, 41.883985], [-87.666061, 41.881475], [-87.679085, 41.881324], [-87.678236, 41.88126]], "type": "LineString"}, "properties": {"timestamp": "2023-10-20T20:56:26"}}, {"type": "Feature", "geometry": {"coordinates": [[-87.678236, 41.88126], [-87.666737, 41.881465], [-87.666835, 41.884777], [-87.666934, 41.886119], [-87.666648, 41.886122]], "type": "LineString"}, "properties": {"timestamp": "2023-10-20T21:11:44"}}, {"type": "Feature", "geometry": {"coordinates": [[-87.666648, 41.886122], [-87.666934, 41.886119], [-87.667085, 41.890974], [-87.65893, 41.891061], [-87.655717, 41.894874], [-87.657675, 41.89596], [-87.659011, 41.897622], [-87.660805, 41.901753], [-87.661061, 41.906443], [-87.664439, 41.910145], [-87.668091, 41.915886], [-87.670574, 41.91815], [-87.678438, 41.922676], [-87.681513, 41.924733], [-87.681585, 41.924983], [-87.733273, 41.924417]], "type": "LineString"}, "properties": {"timestamp": "2023-10-20T21:11:44"}}, {"type": "Feature", "geometry": {"coordinates": [[-87.733273, 41.924417], [-87.734115, 41.924406], [-87.734008, 41.920736], [-87.736253, 41.920709]], "type": "LineString"}, "properties": {"timestamp": "2023-10-20T21:35:45"}}, {"type": "Feature", "geometry": {"coordinates": [[-87.736253, 41.920709], [-87.736452, 41.920706], [-87.7362, 41.91003], [-87.711889, 41.900057], [-87.702222, 41.896575], [-87.701002, 41.873589]], "type": "LineString"}, "properties": {"timestamp": "2023-10-20T21:35:45"}}, {"type": "Feature", "geometry": {"coordinates": [[-87.701002, 41.873589], [-87.701026, 41.874345], [-87.695509, 41.874908], [-87.690201, 41.875125], [-87.650308, 41.875329], [-87.647601, 41.875302], [-87.645452, 41.874563], [-87.644482, 41.875077], [-87.64458, 41.876036], [-87.645275, 41.880374], [-87.645355, 41.881847], [-87.645393, 41.882198], [-87.64591, 41.885931], [-87.647404, 41.888483], [-87.658783, 41.897251], [-87.660805, 41.901753], [-87.661061, 41.906443], [-87.669227, 41.917096], [-87.702937, 41.93676], [-87.710036, 41.940632], [-87.713979, 41.941793], [-87.715981, 41.943044], [-87.717815, 41.94651], [-87.735605, 41.946271], [-87.737418, 41.947388], [-87.736646, 41.948077], [-87.736648, 41.948162]], "type": "LineString"}, "properties": {"timestamp": "2023-10-21T17:32:13"}}]}