{"type": "FeatureCollection", "features": [{"type": "Feature", "geometry": {"coordinates": [[-87.684471, 41.920667], [-87.68262, 41.920704], [-87.682641, 41.92131], [-87.677255, 41.921395], [-87.676106, 41.920746], [-87.674531, 41.920141], [-87.670155, 41.917456], [-87.668247, 41.915543], [-87.666712, 41.913088], [-87.665662, 41.910672], [-87.643444, 41.910977], [-87.643385, 41.909507]], "type": "LineString"}, "properties": {"timestamp": "2023-12-13T09:08:12"}}, {"type": "Feature", "geometry": {"coordinates": [[-87.643385, 41.909507], [-87.643295, 41.906457], [-87.639563, 41.903768], [-87.637466, 41.903798], [-87.637419, 41.902837], [-87.636893, 41.902843]], "type": "LineString"}, "properties": {"timestamp": "2023-12-13T09:34:59"}}, {"type": "Feature", "geometry": {"coordinates": [[-87.636893, 41.902843], [-87.637419, 41.902837], [-87.637063, 41.893148], [-87.64596, 41.892522], [-87.654266, 41.893661], [-87.655581, 41.892605], [-87.649448, 41.889964], [-87.646219, 41.885929], [-87.644998, 41.850609], [-87.642186, 41.847255], [-87.634652, 41.845323], [-87.63091, 41.84209], [-87.631289, 41.79178], [-87.631532, 41.783322], [-87.63183, 41.779091], [-87.630079, 41.77648], [-87.62995, 41.769082], [-87.645718, 41.768825], [-87.645725, 41.769089]], "type": "LineString"}, "properties": {"timestamp": "2023-12-13T09:34:59"}}, {"type": "Feature", "geometry": {"coordinates": [[-87.645725, 41.769089], [-87.645764, 41.770642], [-87.644554, 41.770659], [-87.644417, 41.765212], [-87.648055, 41.765154], [-87.648073, 41.765894]], "type": "LineString"}, "properties": {"timestamp": "2023-12-13T10:03:49"}}, {"type": "Feature", "geometry": {"coordinates": [[-87.648073, 41.765894], [-87.6481, 41.76697], [-87.64446, 41.767026], [-87.645154, 41.793936], [-87.615669, 41.794482], [-87.611263, 41.793256], [-87.608897, 41.793619], [-87.607389, 41.794958], [-87.589264, 41.794956], [-87.589257, 41.795353], [-87.589668, 41.795517], [-87.591887, 41.79549], [-87.593212, 41.795144]], "type": "LineString"}, "properties": {"timestamp": "2023-12-13T10:03:49"}}, {"type": "Feature", "geometry": {"coordinates": [[-87.593212, 41.795144], [-87.593354, 41.795142], [-87.593329, 41.79508], [-87.592518, 41.795046], [-87.591983, 41.79479], [-87.591623, 41.794763], [-87.589648, 41.794791], [-87.588925, 41.795136], [-87.580853, 41.795264], [-87.58089, 41.796206]], "type": "LineString"}, "properties": {"timestamp": "2023-12-13T10:23:29"}}, {"type": "Feature", "geometry": {"coordinates": [[-87.58089, 41.796206], [-87.580853, 41.795264], [-87.588937, 41.795231], [-87.589583, 41.795509], [-87.590352, 41.795519], [-87.591887, 41.79549], [-87.592671, 41.79515], [-87.594922, 41.795148], [-87.595022, 41.799469], [-87.594608, 41.799473]], "type": "LineString"}, "properties": {"timestamp": "2023-12-13T10:23:29"}}, {"type": "Feature", "geometry": {"coordinates": [[-87.594608, 41.799473], [-87.596645, 41.799453], [-87.596831, 41.809636], [-87.588944, 41.810893], [-87.606909, 41.832668], [-87.610426, 41.843509], [-87.612641, 41.848604], [-87.630973, 41.847424], [-87.641219, 41.847736], [-87.644555, 41.850742], [-87.644517, 41.867845], [-87.644628, 41.873521], [-87.645646, 41.875725], [-87.649223, 41.875863], [-87.688313, 41.875763], [-87.692409, 41.875862], [-87.701067, 41.875937], [-87.702278, 41.902886], [-87.701605, 41.902888]], "type": "LineString"}, "properties": {"timestamp": "2023-12-13T11:31:56"}}, {"type": "Feature", "geometry": {"coordinates": [[-87.701605, 41.902888], [-87.702278, 41.902886], [-87.702431, 41.897899], [-87.701974, 41.891131], [-87.701479, 41.889426], [-87.701026, 41.874345], [-87.69896, 41.874859], [-87.695509, 41.874908], [-87.690201, 41.875125], [-87.659837, 41.87561], [-87.651569, 41.875318], [-87.635788, 41.875572], [-87.634246, 41.875312], [-87.634438, 41.874721], [-87.635124, 41.874834], [-87.635957, 41.875828], [-87.636629, 41.876812], [-87.636803, 41.876812]], "type": "LineString"}, "properties": {"timestamp": "2023-12-13T11:31:56"}}, {"type": "Feature", "geometry": {"coordinates": [[-87.636803, 41.876812], [-87.639817, 41.876769], [-87.64257, 41.875632], [-87.645648, 41.877134], [-87.646457, 41.887151], [-87.651689, 41.891702], [-87.65868, 41.896836], [-87.66137, 41.906646], [-87.670146, 41.917654], [-87.715306, 41.94215], [-87.719592, 41.947613], [-87.746287, 41.963594], [-87.746614, 41.980044], [-87.751348, 41.987222], [-87.748777, 42.008181], [-87.75175, 42.013083], [-87.768078, 42.024765], [-87.768407, 42.033299], [-87.764702, 42.038593], [-87.759717, 42.040844], [-87.688374, 42.041263], [-87.688621, 42.045641], [-87.685025, 42.045599], [-87.685009, 42.046334]], "type": "LineString"}, "properties": {"timestamp": "2023-12-13T15:52:32"}}, {"type": "Feature", "geometry": {"coordinates": [[-87.685009, 42.046334], [-87.685025, 42.045599], [-87.680232, 42.045024], [-87.680565, 42.040143], [-87.678155, 42.027266], [-87.668578, 42.027161], [-87.666902, 42.025972], [-87.665412, 42.023099], [-87.66691, 42.022304], [-87.666595, 42.021131], [-87.660929, 42.005557], [-87.66054, 41.998191], [-87.65567, 41.997897], [-87.655324, 41.987812]], "type": "LineString"}, "properties": {"timestamp": "2023-12-13T15:52:32"}}, {"type": "Feature", "geometry": {"coordinates": [[-87.655324, 41.987812], [-87.655253, 41.985556], [-87.653749, 41.985549], [-87.653157, 41.984999], [-87.652706, 41.981232], [-87.649277, 41.973607], [-87.648547, 41.97096], [-87.648824, 41.969276], [-87.714891, 41.968394]], "type": "LineString"}, "properties": {"timestamp": "2023-12-13T16:20:22"}}, {"type": "Feature", "geometry": {"coordinates": [[-87.714891, 41.968394], [-87.713373, 41.968411], [-87.712908, 41.953809], [-87.709244, 41.953867], [-87.709052, 41.946779], [-87.707815, 41.945936], [-87.707505, 41.930261], [-87.707814, 41.929332], [-87.707541, 41.929168], [-87.706907, 41.910104], [-87.728974, 41.90984], [-87.728962, 41.909346]], "type": "LineString"}, "properties": {"timestamp": "2023-12-13T16:20:22"}}, {"type": "Feature", "geometry": {"coordinates": [[-87.728962, 41.909346], [-87.728941, 41.908661], [-87.730153, 41.908647], [-87.730191, 41.909826], [-87.726341, 41.90987], [-87.72708, 41.92265], [-87.726455, 41.92266], [-87.728031, 41.968251], [-87.714891, 41.968394]], "type": "LineString"}, "properties": {"timestamp": "2023-12-13T16:21:19"}}, {"type": "Feature", "geometry": {"coordinates": [[-87.714891, 41.968394], [-87.713373, 41.968411], [-87.713554, 41.975692], [-87.689151, 41.975899], [-87.68922, 41.977715], [-87.688432, 41.977735], [-87.685014, 41.97925], [-87.679565, 41.982043], [-87.679477, 41.983198], [-87.674607, 41.983365], [-87.674641, 41.98833], [-87.669926, 41.988432], [-87.669796, 41.987608], [-87.669769, 41.987519]], "type": "LineString"}, "properties": {"timestamp": "2023-12-13T16:21:19"}}, {"type": "Feature", "geometry": {"coordinates": [[-87.669769, 41.987519], [-87.669343, 41.985953], [-87.669943, 41.985943], [-87.66911, 41.954302], [-87.688469, 41.954086], [-87.687207, 41.910324], [-87.701875, 41.910165], [-87.702278, 41.902886], [-87.725083, 41.902687], [-87.72502, 41.900672]], "type": "LineString"}, "properties": {"timestamp": "2023-12-13T17:29:17"}}, {"type": "Feature", "geometry": {"coordinates": [[-87.72502, 41.900672], [-87.72497, 41.899037], [-87.726198, 41.899026], [-87.725794, 41.885478], [-87.717348, 41.885001], [-87.716831, 41.884883], [-87.715214, 41.882794], [-87.71591, 41.881139], [-87.714801, 41.844388], [-87.715853, 41.844374]], "type": "LineString"}, "properties": {"timestamp": "2023-12-13T17:29:17"}}, {"type": "Feature", "geometry": {"coordinates": [[-87.715853, 41.844374], [-87.715853, 41.844374]], "type": "LineString"}, "properties": {"timestamp": "2023-12-13T17:58:16"}}, {"type": "Feature", "geometry": {"coordinates": [[-87.715853, 41.844374], [-87.716025, 41.844372], [-87.716226, 41.851656], [-87.718658, 41.85163], [-87.718843, 41.857108], [-87.72241, 41.85707], [-87.722391, 41.856326]], "type": "LineString"}, "properties": {"timestamp": "2023-12-13T17:58:16"}}, {"type": "Feature", "geometry": {"coordinates": [[-87.722391, 41.856326], [-87.722274, 41.851842], [-87.719891, 41.852644], [-87.719647, 41.843584]], "type": "LineString"}, "properties": {"timestamp": "2023-12-13T18:10:39"}}, {"type": "Feature", "geometry": {"coordinates": [[-87.719647, 41.843584], [-87.719458, 41.836977], [-87.704823, 41.837239], [-87.703985, 41.808139], [-87.698362, 41.808225]], "type": "LineString"}, "properties": {"timestamp": "2023-12-13T18:10:39"}}, {"type": "Feature", "geometry": {"coordinates": [[-87.698362, 41.808225], [-87.683875, 41.808416], [-87.684021, 41.81444], [-87.684046, 41.815484], [-87.684059, 41.816038], [-87.684139, 41.819343], [-87.684228, 41.822995], [-87.665338, 41.823146], [-87.665501, 41.830496], [-87.655749, 41.830619], [-87.65591, 41.834289], [-87.656114, 41.834287]], "type": "LineString"}, "properties": {"timestamp": "2023-12-13T18:35:22"}}, {"type": "Feature", "geometry": {"coordinates": [[-87.656114, 41.834287], [-87.656114, 41.834287]], "type": "LineString"}, "properties": {"timestamp": "2023-12-13T18:35:22"}}, {"type": "Feature", "geometry": {"coordinates": [[-87.656114, 41.834287], [-87.65591, 41.834289], [-87.656018, 41.837911], [-87.660661, 41.837842], [-87.662145, 41.839637], [-87.66568, 41.83774], [-87.665955, 41.852337], [-87.661159, 41.852429], [-87.661305, 41.857734], [-87.661146, 41.857883]], "type": "LineString"}, "properties": {"timestamp": "2023-12-13T18:41:23"}}, {"type": "Feature", "geometry": {"coordinates": [[-87.661146, 41.857883], [-87.66131, 41.857881], [-87.66156, 41.866979], [-87.686045, 41.866615], [-87.686165, 41.876094], [-87.701067, 41.875937], [-87.701479, 41.889426], [-87.701974, 41.891131], [-87.702191, 41.895594], [-87.701213, 41.895606]], "type": "LineString"}, "properties": {"timestamp": "2023-12-13T18:41:23"}}, {"type": "Feature", "geometry": {"coordinates": [[-87.701213, 41.895606], [-87.702191, 41.895594], [-87.702311, 41.902777], [-87.701241, 41.907558], [-87.702101, 41.91745], [-87.687413, 41.917587], [-87.688345, 41.949742]], "type": "LineString"}, "properties": {"timestamp": "2023-12-13T19:11:17"}}, {"type": "Feature", "geometry": {"coordinates": [[-87.688345, 41.949742], [-87.688146, 41.939587], [-87.678134, 41.932278], [-87.677112, 41.897728], [-87.675884, 41.897747], [-87.67594, 41.899493]], "type": "LineString"}, "properties": {"timestamp": "2023-12-13T19:11:17"}}, {"type": "Feature", "geometry": {"coordinates": [[-87.67594, 41.899493], [-87.675943, 41.899565], [-87.667339, 41.899713], [-87.667586, 41.90882], [-87.666429, 41.908834], [-87.666435, 41.909028]], "type": "LineString"}, "properties": {"timestamp": "2023-12-13T19:23:56"}}, {"type": "Feature", "geometry": {"coordinates": [[-87.666435, 41.909028], [-87.666509, 41.910658], [-87.665662, 41.910672], [-87.665325, 41.910236], [-87.664532, 41.909379], [-87.662271, 41.907574], [-87.661559, 41.906635], [-87.66114, 41.905221], [-87.661288, 41.902553], [-87.660921, 41.900902], [-87.659049, 41.896968], [-87.658255, 41.896], [-87.657114, 41.895018], [-87.655657, 41.89377], [-87.654831, 41.89226], [-87.653963, 41.891931], [-87.651034, 41.892554], [-87.648079, 41.892372], [-87.632701, 41.89242], [-87.632683, 41.890793], [-87.631404, 41.890812]], "type": "LineString"}, "properties": {"timestamp": "2023-12-13T19:23:56"}}, {"type": "Feature", "geometry": {"coordinates": [[-87.631404, 41.890812], [-87.631109, 41.890814], [-87.631091, 41.890022], [-87.632466, 41.890004], [-87.632605, 41.895614], [-87.630373, 41.895653]], "type": "LineString"}, "properties": {"timestamp": "2023-12-13T19:35:44"}}, {"type": "Feature", "geometry": {"coordinates": [[-87.630373, 41.895653], [-87.629762, 41.895665], [-87.62978, 41.896655], [-87.631243, 41.896633], [-87.630715, 41.875701], [-87.657603, 41.876197], [-87.697235, 41.875658], [-87.708052, 41.874348], [-87.716326, 41.874195], [-87.719801, 41.874461], [-87.720917, 41.885208], [-87.725297, 41.885455], [-87.725796, 41.885541], [-87.726081, 41.89537], [-87.732238, 41.895256], [-87.732295, 41.897099], [-87.73476, 41.897055], [-87.734739, 41.896294]], "type": "LineString"}, "properties": {"timestamp": "2023-12-13T19:35:44"}}, {"type": "Feature", "geometry": {"coordinates": [[-87.734739, 41.896294], [-87.734711, 41.895208], [-87.726081, 41.89537], [-87.726291, 41.902679], [-87.716574, 41.902764], [-87.716622, 41.904574], [-87.715988, 41.90458], [-87.716651, 41.905353], [-87.717134, 41.930091], [-87.718374, 41.930086], [-87.718419, 41.931664]], "type": "LineString"}, "properties": {"timestamp": "2023-12-13T20:27:16"}}, {"type": "Feature", "geometry": {"coordinates": [[-87.718419, 41.931664], [-87.718427, 41.93191], [-87.712293, 41.932003], [-87.700436, 41.924799], [-87.687645, 41.924902], [-87.686972, 41.901212], [-87.682098, 41.901292], [-87.682072, 41.900379], [-87.682861, 41.900367]], "type": "LineString"}, "properties": {"timestamp": "2023-12-13T20:27:16"}}, {"type": "Feature", "geometry": {"coordinates": [[-87.682861, 41.900367], [-87.684508, 41.900342], [-87.684486, 41.89942], [-87.715822, 41.899117]], "type": "LineString"}, "properties": {"timestamp": "2023-12-13T20:38:37"}}, {"type": "Feature", "geometry": {"coordinates": [[-87.715822, 41.899117], [-87.708783, 41.899176], [-87.702222, 41.896575], [-87.702191, 41.895594], [-87.701213, 41.895606]], "type": "LineString"}, "properties": {"timestamp": "2023-12-13T20:38:37"}}, {"type": "Feature", "geometry": {"coordinates": [[-87.701213, 41.895606], [-87.677057, 41.895912], [-87.677009, 41.894261]], "type": "LineString"}, "properties": {"timestamp": "2023-12-13T20:53:49"}}, {"type": "Feature", "geometry": {"coordinates": [[-87.677009, 41.894261], [-87.676555, 41.875016], [-87.676128, 41.875021], [-87.673504, 41.875431], [-87.6605, 41.875604], [-87.651569, 41.875318], [-87.630714, 41.875521], [-87.630281, 41.860127], [-87.628788, 41.860146], [-87.628754, 41.858982], [-87.630263, 41.858965], [-87.630401, 41.867992]], "type": "LineString"}, "properties": {"timestamp": "2023-12-13T20:53:49"}}, {"type": "Feature", "geometry": {"coordinates": [[-87.630401, 41.867992], [-87.630686, 41.874518], [-87.633036, 41.874483], [-87.633082, 41.875667], [-87.641651, 41.875644], [-87.646562, 41.876207], [-87.645662, 41.872433], [-87.644363, 41.857367], [-87.645091, 41.850828], [-87.642257, 41.847292], [-87.634652, 41.845323], [-87.632305, 41.843952], [-87.631511, 41.841797], [-87.631593, 41.834597], [-87.628886, 41.834642], [-87.628847, 41.833673]], "type": "LineString"}, "properties": {"timestamp": "2023-12-13T21:08:56"}}, {"type": "Feature", "geometry": {"coordinates": [[-87.628847, 41.833673], [-87.628886, 41.834642], [-87.629907, 41.834623], [-87.630107, 41.843288], [-87.631622, 41.844715], [-87.631783, 41.845528], [-87.626767, 41.845594], [-87.626821, 41.846791], [-87.626258, 41.84692], [-87.616851, 41.847976], [-87.613392, 41.848153], [-87.612168, 41.84938], [-87.619244, 41.8661], [-87.617003, 41.869799], [-87.617167, 41.881825], [-87.613645, 41.884762], [-87.614003, 41.89273], [-87.619441, 41.900921], [-87.624048, 41.902893], [-87.631851, 41.928415], [-87.632152, 41.934381], [-87.63676, 41.939073], [-87.638088, 41.940568], [-87.638796, 41.940268], [-87.636832, 41.936481]], "type": "LineString"}, "properties": {"timestamp": "2023-12-13T21:08:56"}}, {"type": "Feature", "geometry": {"coordinates": [[-87.636832, 41.936481], [-87.637024, 41.937162], [-87.637291, 41.937761], [-87.637516, 41.938218], [-87.637899, 41.938798], [-87.639495, 41.938773], [-87.639574, 41.941203], [-87.644851, 41.941134]], "type": "LineString"}, "properties": {"timestamp": "2023-12-13T21:25:20"}}, {"type": "Feature", "geometry": {"coordinates": [[-87.644851, 41.941134], [-87.649309, 41.941079], [-87.649275, 41.939973], [-87.638796, 41.940268], [-87.638606, 41.939931], [-87.634194, 41.936955], [-87.632527, 41.93482], [-87.632114, 41.933155], [-87.632048, 41.928427], [-87.629189, 41.918735], [-87.627538, 41.915117], [-87.627206, 41.913042], [-87.628067, 41.912346], [-87.631428, 41.913459], [-87.633196, 41.912907], [-87.633004, 41.903886], [-87.634474, 41.903857], [-87.63441, 41.9021], [-87.635771, 41.902081]], "type": "LineString"}, "properties": {"timestamp": "2023-12-13T21:25:20"}}, {"type": "Feature", "geometry": {"coordinates": [[-87.635771, 41.902081], [-87.63739, 41.902067], [-87.637466, 41.903798]], "type": "LineString"}, "properties": {"timestamp": "2023-12-13T21:35:58"}}, {"type": "Feature", "geometry": {"coordinates": [[-87.637466, 41.903798], [-87.639563, 41.903768], [-87.648257, 41.910013], [-87.648766, 41.925453], [-87.661195, 41.934332], [-87.661241, 41.936537]], "type": "LineString"}, "properties": {"timestamp": "2023-12-13T21:35:58"}}, {"type": "Feature", "geometry": {"coordinates": [[-87.661241, 41.936537], [-87.661294, 41.937989], [-87.663749, 41.937953], [-87.663758, 41.938211]], "type": "LineString"}, "properties": {"timestamp": "2023-12-13T21:52:44"}}, {"type": "Feature", "geometry": {"coordinates": [[-87.663758, 41.938211], [-87.663815, 41.939759], [-87.680774, 41.939554], [-87.680748, 41.938638], [-87.681944, 41.938622]], "type": "LineString"}, "properties": {"timestamp": "2023-12-13T21:52:44"}}, {"type": "Feature", "geometry": {"coordinates": [[-87.681944, 41.938622], [-87.683176, 41.938607], [-87.683157, 41.937703], [-87.688093, 41.937645], [-87.687986, 41.932176], [-87.707434, 41.932039], [-87.707463, 41.930297], [-87.708238, 41.930765]], "type": "LineString"}, "properties": {"timestamp": "2023-12-14T08:57:08"}}]}