{"type": "FeatureCollection", "features": [{"type": "Feature", "geometry": {"coordinates": [[-87.615902, 41.854329], [-87.615604, 41.854397], [-87.616271, 41.855561], [-87.616027, 41.855615], [-87.615619, 41.854301], [-87.615992, 41.85521], [-87.616959, 41.854986], [-87.616876, 41.85573], [-87.616543, 41.856402], [-87.617503, 41.857757], [-87.616068, 41.858122], [-87.61744, 41.859955], [-87.618159, 41.861647], [-87.619244, 41.8661], [-87.619013, 41.86711], [-87.617003, 41.869799], [-87.617244, 41.880924], [-87.620794, 41.880871], [-87.620609, 41.884517], [-87.624371, 41.884484], [-87.624094, 41.891505]], "type": "LineString"}, "properties": {"timestamp": "2023-05-04T18:43:58"}}, {"type": "Feature", "geometry": {"coordinates": [[-87.624094, 41.891505], [-87.624121, 41.892541], [-87.620263, 41.892588], [-87.620762, 41.887855], [-87.615811, 41.887462], [-87.614014, 41.887175], [-87.61394, 41.885118], [-87.614645, 41.884041], [-87.616685, 41.882873], [-87.617453, 41.881821], [-87.617247, 41.869895], [-87.617557, 41.869058], [-87.618862, 41.86764], [-87.624157, 41.867506], [-87.624039, 41.868888]], "type": "LineString"}, "properties": {"timestamp": "2023-05-04T19:11:38"}}, {"type": "Feature", "geometry": {"coordinates": [[-87.624039, 41.868888], [-87.624206, 41.881322], [-87.624508, 41.882115], [-87.639706, 41.881889], [-87.639953, 41.887994], [-87.640199, 41.88801]], "type": "LineString"}, "properties": {"timestamp": "2023-05-04T19:11:38"}}, {"type": "Feature", "geometry": {"coordinates": [[-87.640199, 41.88801], [-87.640199, 41.88801]], "type": "LineString"}, "properties": {"timestamp": "2023-05-04T19:27:25"}}, {"type": "Feature", "geometry": {"coordinates": [[-87.640199, 41.88801], [-87.639953, 41.887994], [-87.64001, 41.889064], [-87.636747, 41.889126], [-87.636764, 41.889943], [-87.636984, 41.889941], [-87.637178, 41.896556], [-87.632635, 41.896613], [-87.632844, 41.90389], [-87.627083, 41.903975]], "type": "LineString"}, "properties": {"timestamp": "2023-05-04T19:27:25"}}, {"type": "Feature", "geometry": {"coordinates": [[-87.627083, 41.903975], [-87.625015, 41.904013], [-87.624221, 41.901451], [-87.624278, 41.900814], [-87.626352, 41.900781]], "type": "LineString"}, "properties": {"timestamp": "2023-05-04T19:47:29"}}, {"type": "Feature", "geometry": {"coordinates": [[-87.626352, 41.900781], [-87.62834, 41.900747], [-87.628335, 41.9006], [-87.632751, 41.900548], [-87.632844, 41.90389], [-87.638347, 41.903783], [-87.638528, 41.909422]], "type": "LineString"}, "properties": {"timestamp": "2023-05-04T19:47:29"}}, {"type": "Feature", "geometry": {"coordinates": [[-87.638528, 41.909422], [-87.638347, 41.903783], [-87.648086, 41.903643], [-87.64782, 41.896403], [-87.662395, 41.896146], [-87.662352, 41.894339], [-87.663988, 41.894312], [-87.664011, 41.895209], [-87.662558, 41.895231]], "type": "LineString"}, "properties": {"timestamp": "2023-05-04T19:56:26"}}, {"type": "Feature", "geometry": {"coordinates": [[-87.662558, 41.895231], [-87.662372, 41.895233], [-87.662524, 41.900824], [-87.667446, 41.903976], [-87.66782, 41.916129], [-87.663815, 41.917067], [-87.658201, 41.917264], [-87.658589, 41.928939], [-87.65652, 41.928972]], "type": "LineString"}, "properties": {"timestamp": "2023-05-04T19:56:26"}}, {"type": "Feature", "geometry": {"coordinates": [[-87.65652, 41.928972], [-87.658589, 41.928939], [-87.658713, 41.932557], [-87.65822, 41.932567]], "type": "LineString"}, "properties": {"timestamp": "2023-05-04T20:47:22"}}, {"type": "Feature", "geometry": {"coordinates": [[-87.65822, 41.932567], [-87.658713, 41.932557], [-87.638503, 41.918106]], "type": "LineString"}, "properties": {"timestamp": "2023-05-04T20:47:22"}}, {"type": "Feature", "geometry": {"coordinates": [[-87.638503, 41.918106], [-87.638808, 41.918322], [-87.638941, 41.921954], [-87.63646, 41.92199], [-87.636586, 41.925658], [-87.63067, 41.926223], [-87.631851, 41.928415], [-87.632612, 41.935386], [-87.638833, 41.941219], [-87.644376, 41.950931], [-87.646094, 41.960253], [-87.645534, 41.962086], [-87.655148, 41.961772], [-87.656894, 41.964503]], "type": "LineString"}, "properties": {"timestamp": "2023-05-12T19:26:47"}}]}