{"type": "FeatureCollection", "features": [{"type": "Feature", "geometry": {"coordinates": [[-87.701567, 41.98246], [-87.701587, 41.983108], [-87.708877, 41.983076], [-87.708631, 41.973924], [-87.710638, 41.973903], [-87.711032, 41.973699], [-87.711024, 41.972061], [-87.712892, 41.972035], [-87.71348, 41.971882], [-87.713255, 41.96472], [-87.715705, 41.964736], [-87.715647, 41.962927], [-87.713522, 41.962954]], "type": "LineString"}, "properties": {"timestamp": "2024-06-19T12:07:41"}}, {"type": "Feature", "geometry": {"coordinates": [[-87.713522, 41.962954], [-87.713199, 41.962957], [-87.713138, 41.961136], [-87.698474, 41.961247], [-87.698335, 41.956867]], "type": "LineString"}, "properties": {"timestamp": "2024-06-19T12:26:09"}}, {"type": "Feature", "geometry": {"coordinates": [[-87.698335, 41.956867], [-87.698254, 41.953982], [-87.709352, 41.953974], [-87.739297, 41.95352], [-87.739316, 41.954118]], "type": "LineString"}, "properties": {"timestamp": "2024-06-19T12:26:09"}}, {"type": "Feature", "geometry": {"coordinates": [[-87.739316, 41.954118], [-87.739297, 41.95352], [-87.740968, 41.953498], [-87.740901, 41.950584], [-87.740099, 41.949043], [-87.740947, 41.949504], [-87.739311, 41.946223], [-87.739705, 41.946218], [-87.739603, 41.942782]], "type": "LineString"}, "properties": {"timestamp": "2024-06-19T13:00:34"}}, {"type": "Feature", "geometry": {"coordinates": [[-87.739603, 41.942782], [-87.739705, 41.946218], [-87.786299, 41.945676], [-87.786046, 41.938315], [-87.817738, 41.937915], [-87.817616, 41.934301], [-87.820654, 41.93424], [-87.82067, 41.934634]], "type": "LineString"}, "properties": {"timestamp": "2024-06-19T13:00:34"}}, {"type": "Feature", "geometry": {"coordinates": [[-87.82067, 41.934634], [-87.820654, 41.93424], [-87.81151, 41.934421], [-87.811185, 41.924776], [-87.803157, 41.923552], [-87.789403, 41.92364], [-87.781551, 41.921645], [-87.753381, 41.916843], [-87.735426, 41.909728], [-87.726341, 41.90987], [-87.72646, 41.913775], [-87.725231, 41.913788]], "type": "LineString"}, "properties": {"timestamp": "2024-06-19T13:36:33"}}, {"type": "Feature", "geometry": {"coordinates": [[-87.725231, 41.913788], [-87.72646, 41.913775], [-87.725794, 41.885478], [-87.720917, 41.885208], [-87.72037, 41.873515], [-87.719121, 41.873525], [-87.697594, 41.875189], [-87.635788, 41.875572], [-87.634246, 41.875312], [-87.634438, 41.874721], [-87.635124, 41.874834], [-87.635957, 41.875828], [-87.636629, 41.876812], [-87.636803, 41.876812]], "type": "LineString"}, "properties": {"timestamp": "2024-06-19T13:36:33"}}, {"type": "Feature", "geometry": {"coordinates": [[-87.636803, 41.876812], [-87.636746, 41.876465], [-87.63607, 41.875762], [-87.635046, 41.874459], [-87.633036, 41.874483], [-87.633067, 41.875517], [-87.631448, 41.875518]], "type": "LineString"}, "properties": {"timestamp": "2024-06-19T14:04:55"}}, {"type": "Feature", "geometry": {"coordinates": [[-87.631448, 41.875518], [-87.62435, 41.875724], [-87.621098, 41.875622], [-87.620605, 41.875386], [-87.620428, 41.867255], [-87.619968, 41.865835], [-87.619558, 41.864987], [-87.613948, 41.865039], [-87.613754, 41.866115], [-87.607423, 41.866198], [-87.607427, 41.866381]], "type": "LineString"}, "properties": {"timestamp": "2024-06-19T14:04:55"}}, {"type": "Feature", "geometry": {"coordinates": [[-87.607427, 41.866381], [-87.613892, 41.866397], [-87.614212, 41.866175], [-87.614089, 41.86504], [-87.619403, 41.864977], [-87.618956, 41.862915], [-87.609757, 41.841157], [-87.609375, 41.839163], [-87.609219, 41.838567], [-87.617481, 41.838418], [-87.617402, 41.834765], [-87.620091, 41.834738]], "type": "LineString"}, "properties": {"timestamp": "2024-06-19T14:20:26"}}, {"type": "Feature", "geometry": {"coordinates": [[-87.620091, 41.834738], [-87.621834, 41.834721], [-87.621916, 41.838364], [-87.623219, 41.838932], [-87.62341, 41.845642], [-87.626767, 41.845594], [-87.626821, 41.846791], [-87.626258, 41.84692], [-87.622663, 41.847885], [-87.616851, 41.847976], [-87.613392, 41.848153], [-87.61216, 41.849538], [-87.617619, 41.860334], [-87.619224, 41.865968], [-87.617003, 41.869799], [-87.617244, 41.880924], [-87.620794, 41.880871], [-87.620609, 41.884517], [-87.624371, 41.884484], [-87.624094, 41.891505]], "type": "LineString"}, "properties": {"timestamp": "2024-06-19T14:20:26"}}, {"type": "Feature", "geometry": {"coordinates": [[-87.624094, 41.891505], [-87.624162, 41.894143], [-87.62188, 41.894176]], "type": "LineString"}, "properties": {"timestamp": "2024-06-19T14:52:02"}}, {"type": "Feature", "geometry": {"coordinates": [[-87.62188, 41.894176], [-87.620307, 41.894214], [-87.620897, 41.881329], [-87.620625, 41.876287], [-87.621081, 41.875931], [-87.626887, 41.875674], [-87.651339, 41.875719], [-87.657603, 41.876197], [-87.688313, 41.875763], [-87.692409, 41.875862], [-87.70598, 41.875891], [-87.705939, 41.874393]], "type": "LineString"}, "properties": {"timestamp": "2024-06-19T14:52:02"}}, {"type": "Feature", "geometry": {"coordinates": [[-87.705939, 41.874393], [-87.705922, 41.87369], [-87.701006, 41.873745], [-87.701026, 41.874345], [-87.695509, 41.874908], [-87.690201, 41.875125], [-87.650308, 41.875329], [-87.647601, 41.875302], [-87.645452, 41.874563], [-87.644482, 41.875077], [-87.64458, 41.876036], [-87.645275, 41.880374], [-87.645355, 41.881847], [-87.645393, 41.882198], [-87.64591, 41.885931], [-87.647404, 41.888483], [-87.658783, 41.897251], [-87.660805, 41.901753], [-87.661061, 41.906443], [-87.664439, 41.910145], [-87.667973, 41.915739], [-87.66968, 41.917898], [-87.667964, 41.917936], [-87.66862, 41.92163], [-87.668327, 41.932402], [-87.65822, 41.932567]], "type": "LineString"}, "properties": {"timestamp": "2024-06-19T16:57:30"}}, {"type": "Feature", "geometry": {"coordinates": [[-87.65822, 41.932567], [-87.63931, 41.932914], [-87.636987, 41.930951], [-87.633621, 41.925745], [-87.631853, 41.926001], [-87.630603, 41.923776], [-87.628851, 41.917816], [-87.626142, 41.912297], [-87.62586, 41.909073], [-87.624861, 41.904908], [-87.624179, 41.901978], [-87.624316, 41.893335], [-87.628116, 41.893279], [-87.628109, 41.893025]], "type": "LineString"}, "properties": {"timestamp": "2024-06-19T16:57:30"}}, {"type": "Feature", "geometry": {"coordinates": [[-87.628109, 41.893025], [-87.628116, 41.893279], [-87.632534, 41.893212], [-87.632582, 41.894813], [-87.632756, 41.894811], [-87.632748, 41.89441], [-87.633021, 41.894407]], "type": "LineString"}, "properties": {"timestamp": "2024-06-19T17:16:47"}}, {"type": "Feature", "geometry": {"coordinates": [[-87.633021, 41.894407], [-87.632748, 41.89441], [-87.632696, 41.891597], [-87.644384, 41.891225], [-87.644242, 41.885699], [-87.645903, 41.885686], [-87.645999, 41.881827], [-87.646134, 41.880956], [-87.646145, 41.879569], [-87.646166, 41.878121], [-87.646815, 41.876334], [-87.647774, 41.87588], [-87.649135, 41.875728], [-87.657603, 41.876197], [-87.673066, 41.8759], [-87.676512, 41.876215], [-87.676638, 41.881323], [-87.679085, 41.881324], [-87.678236, 41.88126]], "type": "LineString"}, "properties": {"timestamp": "2024-06-19T17:16:47"}}, {"type": "Feature", "geometry": {"coordinates": [[-87.678236, 41.88126], [-87.666061, 41.881475], [-87.663241, 41.884284], [-87.661497, 41.887468], [-87.659834, 41.889971], [-87.64876, 41.890082], [-87.648752, 41.889662]], "type": "LineString"}, "properties": {"timestamp": "2024-06-19T17:16:53"}}, {"type": "Feature", "geometry": {"coordinates": [[-87.648752, 41.889662], [-87.648644, 41.885646], [-87.646258, 41.885682], [-87.644363, 41.857367], [-87.645245, 41.851247], [-87.642429, 41.847384], [-87.634652, 41.845323], [-87.632484, 41.844131], [-87.631557, 41.842516], [-87.630789, 41.819121], [-87.631192, 41.816682], [-87.631192, 41.816426], [-87.623022, 41.816544], [-87.623001, 41.815421]], "type": "LineString"}, "properties": {"timestamp": "2024-06-19T17:16:53"}}, {"type": "Feature", "geometry": {"coordinates": [[-87.623001, 41.815421], [-87.622988, 41.814738], [-87.616736, 41.814833], [-87.616636, 41.8112], [-87.615707, 41.811214], [-87.615712, 41.811612]], "type": "LineString"}, "properties": {"timestamp": "2024-06-19T18:00:48"}}, {"type": "Feature", "geometry": {"coordinates": [[-87.615712, 41.811612], [-87.615707, 41.811214], [-87.616636, 41.8112], [-87.617003, 41.823843], [-87.60389, 41.824118], [-87.599849, 41.825435], [-87.604294, 41.829367], [-87.607125, 41.833032], [-87.608141, 41.838145], [-87.613467, 41.852437], [-87.618709, 41.863523], [-87.62045, 41.867696], [-87.620609, 41.884517], [-87.624371, 41.884484], [-87.624431, 41.88577], [-87.626286, 41.88576], [-87.627125, 41.888453], [-87.626665, 41.889909]], "type": "LineString"}, "properties": {"timestamp": "2024-06-19T18:00:48"}}, {"type": "Feature", "geometry": {"coordinates": [[-87.626665, 41.889909], [-87.626657, 41.889438], [-87.627171, 41.888834], [-87.627249, 41.888509], [-87.626374, 41.887032], [-87.626286, 41.88576], [-87.624623, 41.885769], [-87.624571, 41.884489], [-87.624344, 41.884366], [-87.623414, 41.884372], [-87.622907, 41.884293], [-87.621085, 41.884319]], "type": "LineString"}, "properties": {"timestamp": "2024-06-19T18:20:35"}}, {"type": "Feature", "geometry": {"coordinates": [[-87.621085, 41.884319], [-87.620576, 41.884316], [-87.620586, 41.884503], [-87.632402, 41.884474], [-87.632844, 41.90389], [-87.639563, 41.903768], [-87.6404, 41.904375], [-87.64022, 41.904515], [-87.639718, 41.904149]], "type": "LineString"}, "properties": {"timestamp": "2024-06-19T18:20:35"}}, {"type": "Feature", "geometry": {"coordinates": [[-87.639718, 41.904149], [-87.64022, 41.904515], [-87.6404, 41.904375], [-87.639563, 41.903768], [-87.648086, 41.903643], [-87.64782, 41.896403], [-87.701213, 41.895606]], "type": "LineString"}, "properties": {"timestamp": "2024-06-19T18:36:13"}}, {"type": "Feature", "geometry": {"coordinates": [[-87.701213, 41.895606], [-87.681943, 41.895837], [-87.681892, 41.894023], [-87.684163, 41.893977]], "type": "LineString"}, "properties": {"timestamp": "2024-06-19T18:36:13"}}, {"type": "Feature", "geometry": {"coordinates": [[-87.684163, 41.893977], [-87.686781, 41.89393], [-87.688003, 41.939468], [-87.673369, 41.939644]], "type": "LineString"}, "properties": {"timestamp": "2024-06-19T19:43:15"}}, {"type": "Feature", "geometry": {"coordinates": [[-87.673369, 41.939644], [-87.678349, 41.939586], [-87.678308, 41.929922], [-87.677651, 41.918513], [-87.683685, 41.918404]], "type": "LineString"}, "properties": {"timestamp": "2024-06-19T19:43:15"}}, {"type": "Feature", "geometry": {"coordinates": [[-87.683685, 41.918404], [-87.684991, 41.918381], [-87.684926, 41.915233], [-87.677494, 41.910469], [-87.677211, 41.901373], [-87.67415, 41.901415], [-87.67412, 41.90052]], "type": "LineString"}, "properties": {"timestamp": "2024-06-19T19:54:47"}}, {"type": "Feature", "geometry": {"coordinates": [[-87.67412, 41.90052], [-87.674089, 41.899597], [-87.660982, 41.899842], [-87.660843, 41.899711], [-87.657719, 41.895493], [-87.648602, 41.889352], [-87.646614, 41.886973], [-87.64461, 41.864445], [-87.644357, 41.857055], [-87.645245, 41.851247], [-87.642429, 41.847384], [-87.634652, 41.845323], [-87.632305, 41.843952], [-87.631511, 41.841797], [-87.63168, 41.838241], [-87.626758, 41.838295], [-87.626711, 41.836401], [-87.626276, 41.836491]], "type": "LineString"}, "properties": {"timestamp": "2024-06-19T19:54:47"}}, {"type": "Feature", "geometry": {"coordinates": [[-87.626276, 41.836491], [-87.626711, 41.836401], [-87.626674, 41.834684], [-87.640111, 41.834482], [-87.640066, 41.832693]], "type": "LineString"}, "properties": {"timestamp": "2024-06-19T20:21:31"}}, {"type": "Feature", "geometry": {"coordinates": [[-87.640066, 41.832693], [-87.640111, 41.834482], [-87.629907, 41.834623], [-87.6301, 41.841613], [-87.631814, 41.844491], [-87.641891, 41.847286], [-87.644549, 41.850184], [-87.645183, 41.852401], [-87.644172, 41.856638], [-87.644517, 41.867845], [-87.644628, 41.873521], [-87.645646, 41.875725], [-87.649223, 41.875863], [-87.662425, 41.876121], [-87.66659, 41.876357], [-87.666835, 41.884777], [-87.667043, 41.889438]], "type": "LineString"}, "properties": {"timestamp": "2024-06-19T20:21:31"}}, {"type": "Feature", "geometry": {"coordinates": [[-87.667043, 41.889438], [-87.667085, 41.890974], [-87.65893, 41.891061], [-87.654844, 41.895899], [-87.653012, 41.894693], [-87.652616, 41.895022], [-87.650724, 41.89505]], "type": "LineString"}, "properties": {"timestamp": "2024-06-19T20:46:46"}}, {"type": "Feature", "geometry": {"coordinates": [[-87.650724, 41.89505], [-87.65115, 41.895044], [-87.651133, 41.894], [-87.651495, 41.8937], [-87.649183, 41.892223], [-87.650015, 41.892203], [-87.649989, 41.891163], [-87.654625, 41.891105], [-87.654467, 41.885549], [-87.654782, 41.885544]], "type": "LineString"}, "properties": {"timestamp": "2024-06-19T20:46:46"}}, {"type": "Feature", "geometry": {"coordinates": [[-87.654782, 41.885544], [-87.644242, 41.885699], [-87.644184, 41.884425], [-87.646033, 41.884406]], "type": "LineString"}, "properties": {"timestamp": "2024-06-19T20:58:17"}}, {"type": "Feature", "geometry": {"coordinates": [[-87.646033, 41.884406], [-87.647438, 41.884415], [-87.647627, 41.891194], [-87.650448, 41.893035]], "type": "LineString"}, "properties": {"timestamp": "2024-06-19T20:58:17"}}, {"type": "Feature", "geometry": {"coordinates": [[-87.650448, 41.893035], [-87.650448, 41.893035]], "type": "LineString"}, "properties": {"timestamp": "2024-06-19T21:06:14"}}, {"type": "Feature", "geometry": {"coordinates": [[-87.650448, 41.893035], [-87.647627, 41.891194], [-87.647482, 41.885665], [-87.646258, 41.885682], [-87.645922, 41.884746], [-87.645999, 41.881827], [-87.646134, 41.880956], [-87.646145, 41.879569], [-87.646166, 41.878121], [-87.646107, 41.877218], [-87.646972, 41.875597], [-87.645662, 41.872433], [-87.645367, 41.869682], [-87.647045, 41.869671], [-87.646848, 41.864784], [-87.647927, 41.864765]], "type": "LineString"}, "properties": {"timestamp": "2024-06-19T21:06:14"}}, {"type": "Feature", "geometry": {"coordinates": [[-87.647927, 41.864765], [-87.646848, 41.864784], [-87.646884, 41.869551], [-87.644443, 41.869691], [-87.644854, 41.873493], [-87.644167, 41.87559], [-87.645364, 41.877863], [-87.645275, 41.880374], [-87.645355, 41.881847], [-87.645393, 41.882198], [-87.645396, 41.883308], [-87.645365, 41.885689], [-87.648644, 41.885646], [-87.648752, 41.889662]], "type": "LineString"}, "properties": {"timestamp": "2024-06-19T21:23:29"}}, {"type": "Feature", "geometry": {"coordinates": [[-87.648752, 41.889662], [-87.64876, 41.890082], [-87.647611, 41.890088], [-87.648124, 41.905038], [-87.649202, 41.905042], [-87.653203, 41.909772], [-87.653741, 41.929016], [-87.658713, 41.932557], [-87.65822, 41.932567]], "type": "LineString"}, "properties": {"timestamp": "2024-06-19T21:23:29"}}, {"type": "Feature", "geometry": {"coordinates": [[-87.65822, 41.932567], [-87.658713, 41.932557], [-87.663209, 41.935776]], "type": "LineString"}, "properties": {"timestamp": "2024-06-19T21:38:13"}}, {"type": "Feature", "geometry": {"coordinates": [[-87.663209, 41.935776], [-87.663682, 41.936111], [-87.66355, 41.932479], [-87.678134, 41.932278], [-87.677893, 41.925026], [-87.681912, 41.924981], [-87.685177, 41.926707], [-87.709664, 41.940439], [-87.714861, 41.942208], [-87.716273, 41.943331], [-87.718472, 41.946973], [-87.719618, 41.947985], [-87.738838, 41.958569], [-87.741371, 41.960451], [-87.741062, 41.960809]], "type": "LineString"}, "properties": {"timestamp": "2024-06-19T21:38:13"}}, {"type": "Feature", "geometry": {"coordinates": [[-87.741062, 41.960809], [-87.729684, 41.960937], [-87.719156, 41.953712], [-87.656767, 41.95446], [-87.656894, 41.958194]], "type": "LineString"}, "properties": {"timestamp": "2024-06-19T21:49:45"}}, {"type": "Feature", "geometry": {"coordinates": [[-87.656894, 41.958194], [-87.656767, 41.95446], [-87.688469, 41.954086], [-87.688598, 41.958583], [-87.693909, 41.958553], [-87.694067, 41.958567]], "type": "LineString"}, "properties": {"timestamp": "2024-06-19T21:49:45"}}, {"type": "Feature", "geometry": {"coordinates": [[-87.694067, 41.958567], [-87.69172, 41.958571], [-87.691697, 41.957654], [-87.692164, 41.957652], [-87.692062, 41.954062], [-87.694163, 41.954002], [-87.709947, 41.953965]], "type": "LineString"}, "properties": {"timestamp": "2024-06-19T22:04:12"}}, {"type": "Feature", "geometry": {"coordinates": [[-87.709947, 41.953965], [-87.712911, 41.953916], [-87.713554, 41.975692], [-87.708696, 41.975749], [-87.708877, 41.983076], [-87.701587, 41.983108], [-87.701567, 41.98246]], "type": "LineString"}, "properties": {"timestamp": "2024-06-19T22:04:12"}}, {"type": "Feature", "geometry": {"coordinates": [[-87.701567, 41.98246], [-87.701587, 41.983108], [-87.708877, 41.983076], [-87.708251, 41.961195], [-87.703359, 41.961222], [-87.703301, 41.959397], [-87.702918, 41.959389]], "type": "LineString"}, "properties": {"timestamp": "2024-06-19T22:18:39"}}, {"type": "Feature", "geometry": {"coordinates": [[-87.702918, 41.959389], [-87.698419, 41.959417], [-87.697602, 41.932108], [-87.696547, 41.932116], [-87.669746, 41.917124], [-87.661559, 41.906635], [-87.658834, 41.896667], [-87.647099, 41.887778], [-87.644752, 41.867365], [-87.645245, 41.851247], [-87.642429, 41.847384], [-87.634652, 41.845323], [-87.631597, 41.842703], [-87.631069, 41.830548], [-87.631351, 41.823664], [-87.621597, 41.823783], [-87.621608, 41.824244]], "type": "LineString"}, "properties": {"timestamp": "2024-06-19T22:18:39"}}, {"type": "Feature", "geometry": {"coordinates": [[-87.621608, 41.824244], [-87.621656, 41.826518], [-87.623134, 41.8265], [-87.62314, 41.823762], [-87.631351, 41.823664], [-87.631372, 41.823339], [-87.632226, 41.807984], [-87.631154, 41.779333], [-87.626113, 41.772231], [-87.624621, 41.72052], [-87.621065, 41.713653], [-87.600337, 41.713191], [-87.592948, 41.708673], [-87.592406, 41.703483], [-87.601798, 41.685512], [-87.601728, 41.676933], [-87.589096, 41.660202], [-87.59119, 41.659512], [-87.560717, 41.658851], [-87.555878, 41.656176], [-87.555649, 41.65737], [-87.553811, 41.65736], [-87.553812, 41.656889]], "type": "LineString"}, "properties": {"timestamp": "2024-06-19T22:40:39"}}, {"type": "Feature", "geometry": {"coordinates": [[-87.553812, 41.656889], [-87.553811, 41.65736], [-87.557102, 41.657281], [-87.585314, 41.660149], [-87.601403, 41.675885], [-87.594329, 41.69908], [-87.595707, 41.711823], [-87.62372, 41.717096], [-87.625651, 41.769497], [-87.630747, 41.779495], [-87.630667, 41.838631], [-87.644903, 41.850908], [-87.645685, 41.885013], [-87.651689, 41.891702], [-87.670146, 41.917654], [-87.746287, 41.963594], [-87.749057, 42.009149], [-87.768599, 42.026582], [-87.754799, 42.062763], [-87.75864, 42.086787], [-87.78834, 42.138224], [-87.816182, 42.138166], [-87.816216, 42.136308]], "type": "LineString"}, "properties": {"timestamp": "2024-06-19T22:40:39"}}, {"type": "Feature", "geometry": {"coordinates": [[-87.816216, 42.136308], [-87.816182, 42.138166], [-87.790606, 42.137879], [-87.787078, 42.136177], [-87.784412, 42.126982], [-87.758914, 42.087081], [-87.758738, 42.073162], [-87.75495, 42.063156], [-87.761767, 42.05296], [-87.76256, 42.042449], [-87.768058, 42.034858], [-87.768925, 42.027501], [-87.766419, 42.021928], [-87.749252, 42.009007], [-87.751521, 41.987219], [-87.746835, 41.980228], [-87.747223, 41.966563], [-87.745232, 41.962358], [-87.719592, 41.947613], [-87.715306, 41.94215], [-87.670146, 41.917654], [-87.66137, 41.906646], [-87.659246, 41.897685], [-87.646315, 41.886261], [-87.644998, 41.850609], [-87.642186, 41.847255], [-87.634652, 41.845323], [-87.63164, 41.842858], [-87.631163, 41.834246], [-87.631513, 41.830937], [-87.64245, 41.8308], [-87.642419, 41.829256]], "type": "LineString"}, "properties": {"timestamp": "2024-06-20T17:01:31"}}]}