{"type": "FeatureCollection", "features": [{"type": "Feature", "geometry": {"coordinates": [[-87.681258, 42.022132], [-87.680444, 42.022127], [-87.680446, 42.019449], [-87.666039, 42.019248], [-87.660929, 42.005557], [-87.66054, 41.998191], [-87.660132, 41.985467], [-87.653157, 41.984999], [-87.648822, 41.972134], [-87.64469, 41.951193], [-87.639566, 41.942042], [-87.638796, 41.940268], [-87.64439, 41.940035], [-87.644433, 41.94114], [-87.644851, 41.941134]], "type": "LineString"}, "properties": {"timestamp": "2024-04-19T12:32:35"}}, {"type": "Feature", "geometry": {"coordinates": [[-87.644851, 41.941134], [-87.649309, 41.941079], [-87.649275, 41.939973], [-87.663815, 41.939759], [-87.663682, 41.936111], [-87.663209, 41.935776]], "type": "LineString"}, "properties": {"timestamp": "2024-04-19T13:00:53"}}, {"type": "Feature", "geometry": {"coordinates": [[-87.663209, 41.935776], [-87.663682, 41.936111], [-87.66355, 41.932479], [-87.678134, 41.932278], [-87.677893, 41.925026], [-87.681912, 41.924981], [-87.685177, 41.926707], [-87.709664, 41.940439], [-87.714861, 41.942208], [-87.719423, 41.94785], [-87.735617, 41.956778], [-87.738341, 41.958584], [-87.738067, 41.953535], [-87.801121, 41.952761], [-87.800845, 41.945766]], "type": "LineString"}, "properties": {"timestamp": "2024-04-19T13:00:53"}}, {"type": "Feature", "geometry": {"coordinates": [[-87.800845, 41.945766], [-87.80083, 41.945388], [-87.807003, 41.945262], [-87.807255, 41.952771], [-87.81343, 41.952624], [-87.813354, 41.959889], [-87.816427, 41.959803], [-87.816393, 41.963925]], "type": "LineString"}, "properties": {"timestamp": "2024-04-19T13:31:29"}}, {"type": "Feature", "geometry": {"coordinates": [[-87.816393, 41.963925], [-87.81638, 41.967049], [-87.807182, 41.967283], [-87.807176, 41.968273], [-87.778289, 41.96853], [-87.77728, 41.967665], [-87.747723, 41.968033], [-87.747918, 41.972896], [-87.747761, 41.972794], [-87.747223, 41.966563], [-87.745232, 41.962358], [-87.719592, 41.947613], [-87.715306, 41.94215], [-87.709927, 41.940372], [-87.670146, 41.917654], [-87.66137, 41.906646], [-87.659066, 41.897394], [-87.653065, 41.892534], [-87.628093, 41.892476], [-87.628018, 41.890065], [-87.627058, 41.890081]], "type": "LineString"}, "properties": {"timestamp": "2024-04-19T13:31:29"}}, {"type": "Feature", "geometry": {"coordinates": [[-87.627058, 41.890081], [-87.624177, 41.890127], [-87.624567, 41.888229], [-87.615811, 41.887462], [-87.614014, 41.887175], [-87.61394, 41.885118], [-87.617453, 41.881821], [-87.617261, 41.869765], [-87.619589, 41.866068], [-87.614728, 41.853242], [-87.613506, 41.849799], [-87.614444, 41.848506], [-87.623443, 41.848101], [-87.626818, 41.84732], [-87.630758, 41.848155], [-87.631727, 41.847855], [-87.631351, 41.843118], [-87.631163, 41.834246], [-87.631513, 41.830937], [-87.626457, 41.831008], [-87.626475, 41.83283], [-87.625023, 41.832863]], "type": "LineString"}, "properties": {"timestamp": "2024-04-19T14:46:17"}}, {"type": "Feature", "geometry": {"coordinates": [[-87.625023, 41.832863], [-87.626475, 41.83283], [-87.626578, 41.838297], [-87.630021, 41.838265], [-87.6301, 41.841613], [-87.644866, 41.850822], [-87.645685, 41.885013], [-87.651689, 41.891702], [-87.65868, 41.896836], [-87.66137, 41.906646], [-87.670146, 41.917654], [-87.715306, 41.94215], [-87.719592, 41.947613], [-87.746287, 41.963594], [-87.746614, 41.980044], [-87.751348, 41.987222], [-87.749057, 42.009149], [-87.766135, 42.021915], [-87.768599, 42.026582], [-87.761543, 42.052877], [-87.755714, 42.060438], [-87.754815, 42.061803], [-87.730613, 42.062484], [-87.728131, 42.064611], [-87.703442, 42.064377], [-87.703425, 42.062244], [-87.699272, 42.062223]], "type": "LineString"}, "properties": {"timestamp": "2024-04-19T14:46:17"}}, {"type": "Feature", "geometry": {"coordinates": [[-87.699272, 42.062223], [-87.699272, 42.062223]], "type": "LineString"}, "properties": {"timestamp": "2024-04-19T15:28:39"}}, {"type": "Feature", "geometry": {"coordinates": [[-87.699272, 42.062223], [-87.6855, 42.062092], [-87.683746, 42.061705], [-87.677075, 42.06163], [-87.677157, 42.056866]], "type": "LineString"}, "properties": {"timestamp": "2024-04-19T15:28:39"}}, {"type": "Feature", "geometry": {"coordinates": [[-87.677157, 42.056866], [-87.677291, 42.051106]], "type": "LineString"}, "properties": {"timestamp": "2024-04-19T15:35:23"}}, {"type": "Feature", "geometry": {"coordinates": [[-87.677291, 42.051106], [-87.678119, 42.049451], [-87.679708, 42.049881], [-87.68186, 42.050636], [-87.683995, 42.052088], [-87.687872, 42.052166], [-87.688587, 42.049394]], "type": "LineString"}, "properties": {"timestamp": "2024-04-19T15:35:23"}}, {"type": "Feature", "geometry": {"coordinates": [[-87.688587, 42.049394], [-87.688792, 42.048527], [-87.68762, 42.048521], [-87.687621, 42.048596], [-87.687621, 42.048631], [-87.68769, 42.048628], [-87.687692, 42.048837]], "type": "LineString"}, "properties": {"timestamp": "2024-04-19T15:45:15"}}, {"type": "Feature", "geometry": {"coordinates": [[-87.687692, 42.048837], [-87.687692, 42.048837]], "type": "LineString"}, "properties": {"timestamp": "2024-04-19T15:45:15"}}, {"type": "Feature", "geometry": {"coordinates": [[-87.687692, 42.048837], [-87.687695, 42.049121], [-87.688653, 42.049135], [-87.688008, 42.050898], [-87.687872, 42.052166], [-87.687393, 42.053962], [-87.679721, 42.05387], [-87.679677, 42.057045]], "type": "LineString"}, "properties": {"timestamp": "2024-04-19T15:50:55"}}, {"type": "Feature", "geometry": {"coordinates": [[-87.679677, 42.057045], [-87.679721, 42.05387], [-87.687393, 42.053962], [-87.688587, 42.049394]], "type": "LineString"}, "properties": {"timestamp": "2024-04-19T15:50:55"}}, {"type": "Feature", "geometry": {"coordinates": [[-87.688587, 42.049394], [-87.687935, 42.051264], [-87.688061, 42.051664], [-87.688577, 42.052175], [-87.70623, 42.051955], [-87.709225, 42.052495], [-87.710284, 42.050762], [-87.710533, 42.048194], [-87.724487, 42.048046]], "type": "LineString"}, "properties": {"timestamp": "2024-04-19T16:00:54"}}, {"type": "Feature", "geometry": {"coordinates": [[-87.724487, 42.048046], [-87.727689, 42.048014], [-87.728049, 42.033463], [-87.723597, 42.033507]], "type": "LineString"}, "properties": {"timestamp": "2024-04-19T16:00:54"}}, {"type": "Feature", "geometry": {"coordinates": [[-87.723597, 42.033507], [-87.68996, 42.034032], [-87.684048, 42.033982], [-87.684068, 42.033266]], "type": "LineString"}, "properties": {"timestamp": "2024-04-19T16:14:51"}}, {"type": "Feature", "geometry": {"coordinates": [[-87.684068, 42.033266], [-87.684048, 42.033982], [-87.685204, 42.033994], [-87.685009, 42.046334]], "type": "LineString"}, "properties": {"timestamp": "2024-04-19T16:14:51"}}, {"type": "Feature", "geometry": {"coordinates": [[-87.685009, 42.046334], [-87.685009, 42.046334]], "type": "LineString"}, "properties": {"timestamp": "2024-04-19T16:20:37"}}, {"type": "Feature", "geometry": {"coordinates": [[-87.685009, 42.046334], [-87.684986, 42.047061], [-87.68872, 42.047097], [-87.688792, 42.048527], [-87.687935, 42.051264], [-87.688577, 42.052175], [-87.706397, 42.05196], [-87.709225, 42.052495], [-87.714814, 42.055047], [-87.716109, 42.055369], [-87.746933, 42.055335], [-87.746992, 42.049895]], "type": "LineString"}, "properties": {"timestamp": "2024-04-19T16:20:37"}}, {"type": "Feature", "geometry": {"coordinates": [[-87.746992, 42.049895], [-87.746988, 42.049713], [-87.746816, 42.049852], [-87.746694, 42.056878], [-87.748765, 42.056826], [-87.749095, 42.055754], [-87.750689, 42.055778], [-87.750743, 42.058577], [-87.750067, 42.060698], [-87.750019, 42.060853]], "type": "LineString"}, "properties": {"timestamp": "2024-04-19T16:32:00"}}, {"type": "Feature", "geometry": {"coordinates": [[-87.750019, 42.060853], [-87.750177, 42.060796], [-87.750743, 42.058577], [-87.750689, 42.055778], [-87.749095, 42.055754], [-87.749113, 42.055351], [-87.752848, 42.055351], [-87.716109, 42.055369], [-87.709349, 42.052539], [-87.706576, 42.051981], [-87.690075, 42.05225], [-87.68995, 42.039451], [-87.6901, 42.006264], [-87.681335, 42.006428]], "type": "LineString"}, "properties": {"timestamp": "2024-04-19T16:32:00"}}, {"type": "Feature", "geometry": {"coordinates": [[-87.681335, 42.006428], [-87.680726, 42.00644], [-87.67531, 41.992132], [-87.662456, 41.985105], [-87.653157, 41.984999], [-87.648822, 41.972134], [-87.64469, 41.951193], [-87.638957, 41.941067], [-87.632527, 41.93482], [-87.632048, 41.928427], [-87.627538, 41.915117], [-87.627206, 41.913042], [-87.632856, 41.913169], [-87.634358, 41.915623], [-87.634849, 41.915479], [-87.638503, 41.918106]], "type": "LineString"}, "properties": {"timestamp": "2024-04-20T18:12:16"}}]}