{"type": "FeatureCollection", "features": [{"type": "Feature", "geometry": {"coordinates": [[-87.656894, 41.964503], [-87.657469, 41.965401], [-87.646428, 41.965774], [-87.652338, 41.981297], [-87.652927, 41.985125], [-87.654178, 41.985586], [-87.662456, 41.985105], [-87.6699, 41.989705], [-87.670719, 41.998633], [-87.670603, 42.00538], [-87.669957, 42.005389], [-87.670148, 42.011246]], "type": "LineString"}, "properties": {"timestamp": "2024-06-26T14:17:10"}}, {"type": "Feature", "geometry": {"coordinates": [[-87.670148, 42.011246], [-87.670076, 42.009056], [-87.674783, 42.008976], [-87.674708, 42.008667]], "type": "LineString"}, "properties": {"timestamp": "2024-06-26T14:27:57"}}, {"type": "Feature", "geometry": {"coordinates": [[-87.674708, 42.008667], [-87.674487, 42.007763], [-87.670037, 42.007841], [-87.669997, 42.00662], [-87.666119, 42.006694], [-87.666049, 42.006729], [-87.665001, 42.006706], [-87.664995, 42.006518]], "type": "LineString"}, "properties": {"timestamp": "2024-06-26T14:27:57"}}, {"type": "Feature", "geometry": {"coordinates": [[-87.664995, 42.006518], [-87.66496, 42.005482], [-87.683168, 42.005153]], "type": "LineString"}, "properties": {"timestamp": "2024-06-26T14:35:48"}}, {"type": "Feature", "geometry": {"coordinates": [[-87.683168, 42.005153], [-87.680175, 42.005209], [-87.67531, 41.992132], [-87.662456, 41.985105], [-87.653157, 41.984999], [-87.648822, 41.972134], [-87.64469, 41.951193], [-87.638957, 41.941067], [-87.632527, 41.93482], [-87.632048, 41.928427], [-87.627538, 41.915117], [-87.625015, 41.904013], [-87.628691, 41.903945]], "type": "LineString"}, "properties": {"timestamp": "2024-06-26T14:35:48"}}, {"type": "Feature", "geometry": {"coordinates": [[-87.628691, 41.903945], [-87.634474, 41.903857], [-87.634531, 41.905735], [-87.635365, 41.905719]], "type": "LineString"}, "properties": {"timestamp": "2024-06-26T15:01:41"}}, {"type": "Feature", "geometry": {"coordinates": [[-87.635365, 41.905719], [-87.638408, 41.905661], [-87.638347, 41.903783], [-87.648086, 41.903643], [-87.647482, 41.885665], [-87.646258, 41.885682], [-87.645922, 41.884746], [-87.645999, 41.881827], [-87.646134, 41.880956], [-87.646145, 41.879569], [-87.646166, 41.878121], [-87.646107, 41.877218], [-87.646063, 41.876551], [-87.646733, 41.875649], [-87.646076, 41.875057], [-87.644423, 41.875457], [-87.635788, 41.875572], [-87.634246, 41.875312], [-87.634438, 41.874721], [-87.635124, 41.874834], [-87.635957, 41.875828], [-87.636629, 41.876812], [-87.636803, 41.876812]], "type": "LineString"}, "properties": {"timestamp": "2024-06-26T15:01:41"}}, {"type": "Feature", "geometry": {"coordinates": [[-87.636803, 41.876812], [-87.636629, 41.876812], [-87.636848, 41.884617], [-87.63676, 41.885733], [-87.63648, 41.886123], [-87.635439, 41.886768], [-87.634232, 41.886821]], "type": "LineString"}, "properties": {"timestamp": "2024-06-26T15:22:15"}}, {"type": "Feature", "geometry": {"coordinates": [[-87.634232, 41.886821], [-87.633975, 41.886821], [-87.633848, 41.881941], [-87.64573, 41.881801], [-87.645735, 41.885306], [-87.647404, 41.888483], [-87.64861, 41.889615], [-87.657024, 41.895403], [-87.658783, 41.897251], [-87.659164, 41.89954], [-87.659821, 41.899956], [-87.677161, 41.899544], [-87.677186, 41.900454], [-87.682861, 41.900367]], "type": "LineString"}, "properties": {"timestamp": "2024-06-26T15:22:15"}}, {"type": "Feature", "geometry": {"coordinates": [[-87.682861, 41.900367], [-87.684508, 41.900342], [-87.684574, 41.90306], [-87.683843, 41.903042], [-87.682333, 41.90307], [-87.68215, 41.903106], [-87.674833, 41.903226], [-87.674795, 41.902204]], "type": "LineString"}, "properties": {"timestamp": "2024-06-26T15:31:40"}}, {"type": "Feature", "geometry": {"coordinates": [[-87.674795, 41.902204], [-87.674763, 41.901404], [-87.673548, 41.901426], [-87.673606, 41.903247], [-87.667439, 41.903351], [-87.667641, 41.910635], [-87.664445, 41.910674], [-87.668091, 41.915886], [-87.670574, 41.91815], [-87.690595, 41.929581], [-87.694091, 41.931942], [-87.717188, 41.931929], [-87.717101, 41.92898]], "type": "LineString"}, "properties": {"timestamp": "2024-06-26T15:31:40"}}, {"type": "Feature", "geometry": {"coordinates": [[-87.717101, 41.92898], [-87.716768, 41.917289], [-87.710267, 41.917363], [-87.710199, 41.914054]], "type": "LineString"}, "properties": {"timestamp": "2024-06-26T16:34:58"}}, {"type": "Feature", "geometry": {"coordinates": [[-87.710199, 41.914054], [-87.710192, 41.913804], [-87.71013, 41.911905], [-87.711747, 41.911885], [-87.712293, 41.932003], [-87.727246, 41.941155], [-87.727395, 41.946377], [-87.723631, 41.946429], [-87.723636, 41.946606]], "type": "LineString"}, "properties": {"timestamp": "2024-06-26T16:34:58"}}, {"type": "Feature", "geometry": {"coordinates": [[-87.723636, 41.946606], [-87.723683, 41.948247], [-87.723872, 41.948244], [-87.72383, 41.946426], [-87.727395, 41.946377], [-87.727137, 41.93727], [-87.72591, 41.937285], [-87.72492, 41.93668], [-87.724596, 41.936972]], "type": "LineString"}, "properties": {"timestamp": "2024-06-26T16:40:42"}}, {"type": "Feature", "geometry": {"coordinates": [[-87.724596, 41.936972], [-87.722882, 41.938515], [-87.723912, 41.939142], [-87.727187, 41.939096], [-87.727167, 41.938375]], "type": "LineString"}, "properties": {"timestamp": "2024-06-26T16:40:42"}}, {"type": "Feature", "geometry": {"coordinates": [[-87.727167, 41.938375], [-87.726988, 41.931796], [-87.722071, 41.93186], [-87.721999, 41.929231]], "type": "LineString"}, "properties": {"timestamp": "2024-06-26T16:52:26"}}, {"type": "Feature", "geometry": {"coordinates": [[-87.721999, 41.929231], [-87.721971, 41.928206], [-87.71708, 41.928261], [-87.717188, 41.931929], [-87.687832, 41.932179], [-87.688469, 41.953985], [-87.645235, 41.954634], [-87.645016, 41.95271]], "type": "LineString"}, "properties": {"timestamp": "2024-06-26T16:52:26"}}, {"type": "Feature", "geometry": {"coordinates": [[-87.645016, 41.95271], [-87.645235, 41.954634], [-87.644611, 41.950978], [-87.639566, 41.942042], [-87.638796, 41.940268], [-87.639537, 41.940119], [-87.63931, 41.932914], [-87.655177, 41.932615], [-87.655116, 41.93032]], "type": "LineString"}, "properties": {"timestamp": "2024-06-26T17:15:03"}}, {"type": "Feature", "geometry": {"coordinates": [[-87.655116, 41.93032], [-87.655107, 41.929995], [-87.668609, 41.939697], [-87.669543, 41.976174], [-87.674927, 41.976095], [-87.67488, 41.974623]], "type": "LineString"}, "properties": {"timestamp": "2024-06-26T17:15:03"}}, {"type": "Feature", "geometry": {"coordinates": [[-87.67488, 41.974623], [-87.674845, 41.97335], [-87.676325, 41.973309], [-87.676201, 41.968803], [-87.688893, 41.968612], [-87.688686, 41.961319], [-87.714367, 41.961119], [-87.714413, 41.962942], [-87.713522, 41.962954]], "type": "LineString"}, "properties": {"timestamp": "2024-06-26T17:36:54"}}, {"type": "Feature", "geometry": {"coordinates": [[-87.713522, 41.962954], [-87.713199, 41.962957], [-87.712911, 41.953916], [-87.796264, 41.952763], [-87.795245, 41.923598], [-87.79707, 41.923585], [-87.797058, 41.923215]], "type": "LineString"}, "properties": {"timestamp": "2024-06-26T17:36:54"}}, {"type": "Feature", "geometry": {"coordinates": [[-87.797058, 41.923215], [-87.79707, 41.923585], [-87.795245, 41.923598], [-87.795979, 41.945482], [-87.723631, 41.946429], [-87.723636, 41.946606]], "type": "LineString"}, "properties": {"timestamp": "2024-06-26T18:00:02"}}, {"type": "Feature", "geometry": {"coordinates": [[-87.723636, 41.946606], [-87.723695, 41.948712], [-87.720056, 41.946478], [-87.71959, 41.946484], [-87.718156, 41.944989], [-87.715518, 41.942115], [-87.710267, 41.940414], [-87.699724, 41.93423], [-87.697687, 41.932688], [-87.697194, 41.917494], [-87.698589, 41.917481], [-87.698598, 41.91774]], "type": "LineString"}, "properties": {"timestamp": "2024-06-26T18:00:02"}}, {"type": "Feature", "geometry": {"coordinates": [[-87.698598, 41.91774], [-87.698626, 41.91853], [-87.697224, 41.918542], [-87.698335, 41.956867]], "type": "LineString"}, "properties": {"timestamp": "2024-06-26T18:14:38"}}, {"type": "Feature", "geometry": {"coordinates": [[-87.698335, 41.956867], [-87.698254, 41.953982], [-87.678715, 41.954122], [-87.668729, 41.939809], [-87.653741, 41.929016], [-87.647955, 41.929095]], "type": "LineString"}, "properties": {"timestamp": "2024-06-26T18:14:38"}}, {"type": "Feature", "geometry": {"coordinates": [[-87.647955, 41.929095], [-87.648892, 41.929091], [-87.648766, 41.925453], [-87.681912, 41.924981], [-87.685177, 41.926707], [-87.709664, 41.940439], [-87.715161, 41.942387], [-87.716453, 41.943551], [-87.71887, 41.947406], [-87.723791, 41.950079], [-87.727575, 41.952511], [-87.727612, 41.95365], [-87.719156, 41.953712], [-87.718284, 41.953111]], "type": "LineString"}, "properties": {"timestamp": "2024-06-26T18:27:35"}}, {"type": "Feature", "geometry": {"coordinates": [[-87.718284, 41.953111], [-87.719156, 41.953712], [-87.662225, 41.95438], [-87.64652, 41.934837], [-87.644227, 41.934876], [-87.644249, 41.934258], [-87.642085, 41.934296]], "type": "LineString"}, "properties": {"timestamp": "2024-06-26T18:27:35"}}, {"type": "Feature", "geometry": {"coordinates": [[-87.642085, 41.934296], [-87.641783, 41.934301], [-87.641825, 41.935562], [-87.644112, 41.935528], [-87.644365, 41.93558], [-87.647101, 41.935537], [-87.649915, 41.939012], [-87.651855, 41.938982]], "type": "LineString"}, "properties": {"timestamp": "2024-06-26T18:51:35"}}, {"type": "Feature", "geometry": {"coordinates": [[-87.651855, 41.938982], [-87.654074, 41.938945], [-87.654106, 41.939918], [-87.638796, 41.940268], [-87.638606, 41.939931], [-87.634194, 41.936955], [-87.632453, 41.934639], [-87.632048, 41.928427], [-87.629189, 41.918735], [-87.62605, 41.911998], [-87.62421, 41.902733], [-87.62264, 41.901491], [-87.619617, 41.900898], [-87.614907, 41.893955], [-87.614335, 41.8919], [-87.614196, 41.891128], [-87.61158, 41.891141], [-87.611597, 41.891968], [-87.612627, 41.891945]], "type": "LineString"}, "properties": {"timestamp": "2024-06-26T18:51:35"}}, {"type": "Feature", "geometry": {"coordinates": [[-87.612627, 41.891945], [-87.617687, 41.891833], [-87.617676, 41.891456]], "type": "LineString"}, "properties": {"timestamp": "2024-06-26T19:26:23"}}, {"type": "Feature", "geometry": {"coordinates": [[-87.617676, 41.891456], [-87.617714, 41.892632], [-87.614597, 41.892685], [-87.619754, 41.900826], [-87.624042, 41.900824], [-87.623664, 41.902709], [-87.62589, 41.912141], [-87.628743, 41.918036], [-87.631851, 41.928415], [-87.632273, 41.934701], [-87.633661, 41.936704], [-87.638342, 41.94059], [-87.64225, 41.947356], [-87.642515, 41.948658], [-87.643541, 41.95042]], "type": "LineString"}, "properties": {"timestamp": "2024-06-26T19:26:23"}}, {"type": "Feature", "geometry": {"coordinates": [[-87.643541, 41.95042], [-87.644356, 41.952797], [-87.643828, 41.954466], [-87.644162, 41.954667], [-87.644999, 41.956216], [-87.645792, 41.958305], [-87.646256, 41.962081], [-87.647541, 41.967723], [-87.647273, 41.969474], [-87.649644, 41.969172], [-87.654833, 41.969091]], "type": "LineString"}, "properties": {"timestamp": "2024-06-28T15:21:01"}}]}