{"type": "FeatureCollection", "features": [{"type": "Feature", "geometry": {"coordinates": [[-87.669869, 41.900367], [-87.669849, 41.899669], [-87.660982, 41.899842], [-87.660843, 41.899711], [-87.658834, 41.896667], [-87.657114, 41.895018], [-87.655657, 41.89377], [-87.654831, 41.89226], [-87.653963, 41.891931], [-87.651034, 41.892554], [-87.648079, 41.892372], [-87.634077, 41.892404], [-87.634037, 41.890774], [-87.633354, 41.890784]], "type": "LineString"}, "properties": {"timestamp": "2024-03-02T18:19:31"}}, {"type": "Feature", "geometry": {"coordinates": [[-87.633354, 41.890784], [-87.632484, 41.890795], [-87.632605, 41.895614], [-87.630373, 41.895653]], "type": "LineString"}, "properties": {"timestamp": "2024-03-02T18:33:58"}}, {"type": "Feature", "geometry": {"coordinates": [[-87.630373, 41.895653], [-87.624197, 41.895748], [-87.624042, 41.900824], [-87.623664, 41.902709], [-87.62589, 41.912141], [-87.628743, 41.918036], [-87.631851, 41.928415], [-87.632152, 41.934381], [-87.633661, 41.936704], [-87.63676, 41.939073], [-87.638088, 41.940568], [-87.639537, 41.940119], [-87.639435, 41.936919]], "type": "LineString"}, "properties": {"timestamp": "2024-03-02T18:33:58"}}, {"type": "Feature", "geometry": {"coordinates": [[-87.639435, 41.936919], [-87.639495, 41.938773], [-87.644347, 41.938695], [-87.644362, 41.939151]], "type": "LineString"}, "properties": {"timestamp": "2024-03-02T18:52:28"}}, {"type": "Feature", "geometry": {"coordinates": [[-87.644362, 41.939151], [-87.64439, 41.940035], [-87.638796, 41.940268], [-87.638606, 41.939931], [-87.634194, 41.936955], [-87.632453, 41.934639], [-87.632048, 41.928427], [-87.629189, 41.918735], [-87.62605, 41.911998], [-87.624861, 41.904908], [-87.624179, 41.901978], [-87.624316, 41.893335], [-87.629681, 41.893255], [-87.629727, 41.894584]], "type": "LineString"}, "properties": {"timestamp": "2024-03-02T18:52:28"}}, {"type": "Feature", "geometry": {"coordinates": [[-87.629727, 41.894584], [-87.62978, 41.896655], [-87.632635, 41.896613], [-87.632977, 41.907701], [-87.635387, 41.907654]], "type": "LineString"}, "properties": {"timestamp": "2024-03-02T19:04:35"}}, {"type": "Feature", "geometry": {"coordinates": [[-87.635387, 41.907654], [-87.635606, 41.907651], [-87.635693, 41.911201], [-87.664445, 41.910674], [-87.670574, 41.91815], [-87.709664, 41.940439], [-87.714861, 41.942208], [-87.719618, 41.947985], [-87.738838, 41.958569], [-87.741371, 41.960451], [-87.794287, 41.960061], [-87.822074, 41.946631], [-87.821404, 41.937842], [-87.820185, 41.937866], [-87.820102, 41.936076], [-87.820727, 41.936062], [-87.82067, 41.934634]], "type": "LineString"}, "properties": {"timestamp": "2024-03-02T19:04:35"}}, {"type": "Feature", "geometry": {"coordinates": [[-87.82067, 41.934634], [-87.820654, 41.93424], [-87.821275, 41.934229], [-87.821404, 41.937842], [-87.786046, 41.938315], [-87.786299, 41.945676], [-87.766768, 41.945882], [-87.767005, 41.953168], [-87.712908, 41.953809], [-87.713022, 41.957384]], "type": "LineString"}, "properties": {"timestamp": "2024-03-02T19:28:14"}}, {"type": "Feature", "geometry": {"coordinates": [[-87.713022, 41.957384], [-87.712526, 41.940478], [-87.709442, 41.939977], [-87.669746, 41.917124], [-87.664752, 41.909975], [-87.661559, 41.906635], [-87.660921, 41.900902], [-87.659049, 41.896968], [-87.657114, 41.895018], [-87.653963, 41.891931], [-87.651034, 41.892554], [-87.632511, 41.892423], [-87.632605, 41.895614], [-87.630373, 41.895653]], "type": "LineString"}, "properties": {"timestamp": "2024-03-02T19:28:14"}}, {"type": "Feature", "geometry": {"coordinates": [[-87.630373, 41.895653], [-87.628179, 41.895692], [-87.628003, 41.889259], [-87.628704, 41.889251]], "type": "LineString"}, "properties": {"timestamp": "2024-03-02T19:55:17"}}, {"type": "Feature", "geometry": {"coordinates": [[-87.628704, 41.889251], [-87.631063, 41.889218], [-87.630715, 41.875701], [-87.651339, 41.875719], [-87.657603, 41.876197], [-87.688313, 41.875763], [-87.692409, 41.875862], [-87.701067, 41.875937], [-87.701479, 41.889426], [-87.701974, 41.891131], [-87.702191, 41.895594], [-87.701213, 41.895606]], "type": "LineString"}, "properties": {"timestamp": "2024-03-02T19:55:17"}}, {"type": "Feature", "geometry": {"coordinates": [[-87.701213, 41.895606], [-87.702191, 41.895594], [-87.701974, 41.891131], [-87.701479, 41.889426], [-87.701067, 41.875937], [-87.705721, 41.875893], [-87.705737, 41.876665]], "type": "LineString"}, "properties": {"timestamp": "2024-03-02T20:14:38"}}, {"type": "Feature", "geometry": {"coordinates": [[-87.705737, 41.876665], [-87.705721, 41.875893], [-87.70598, 41.875891], [-87.706225, 41.884354], [-87.725794, 41.885478], [-87.738106, 41.886239], [-87.73837, 41.893455], [-87.740706, 41.894697], [-87.740786, 41.895105], [-87.748262, 41.89499], [-87.748282, 41.89594], [-87.750724, 41.89591], [-87.75071, 41.895206]], "type": "LineString"}, "properties": {"timestamp": "2024-03-02T20:14:38"}}, {"type": "Feature", "geometry": {"coordinates": [[-87.75071, 41.895206], [-87.750705, 41.894973], [-87.750942, 41.895028], [-87.755593, 41.894936], [-87.755698, 41.898594], [-87.770378, 41.898428], [-87.770348, 41.89751], [-87.77057, 41.897508]], "type": "LineString"}, "properties": {"timestamp": "2024-03-02T20:36:43"}}, {"type": "Feature", "geometry": {"coordinates": [[-87.77057, 41.897508], [-87.772382, 41.897483], [-87.772411, 41.898401], [-87.765522, 41.898494], [-87.765123, 41.887722], [-87.763296, 41.88773], [-87.763373, 41.887231], [-87.757768, 41.887299], [-87.745503, 41.886622], [-87.745328, 41.881811], [-87.729812, 41.881986]], "type": "LineString"}, "properties": {"timestamp": "2024-03-02T20:36:43"}}, {"type": "Feature", "geometry": {"coordinates": [[-87.729812, 41.881986], [-87.720824, 41.881908], [-87.714285, 41.88123], [-87.711979, 41.881823], [-87.706156, 41.881893], [-87.706225, 41.884354], [-87.701291, 41.884089], [-87.686532, 41.884621], [-87.686881, 41.897571], [-87.684442, 41.89761], [-87.684464, 41.89851], [-87.685574, 41.898492]], "type": "LineString"}, "properties": {"timestamp": "2024-03-02T21:13:59"}}, {"type": "Feature", "geometry": {"coordinates": [[-87.685574, 41.898492], [-87.686903, 41.89847], [-87.686835, 41.89575], [-87.647675, 41.896405], [-87.648086, 41.903643], [-87.638347, 41.903783], [-87.638528, 41.909422]], "type": "LineString"}, "properties": {"timestamp": "2024-03-02T21:13:59"}}, {"type": "Feature", "geometry": {"coordinates": [[-87.638528, 41.909422], [-87.638347, 41.903783], [-87.637466, 41.903798]], "type": "LineString"}, "properties": {"timestamp": "2024-03-02T21:27:07"}}, {"type": "Feature", "geometry": {"coordinates": [[-87.637466, 41.903798], [-87.637063, 41.893148], [-87.638252, 41.89263], [-87.64596, 41.892522], [-87.654266, 41.893661], [-87.655581, 41.892605], [-87.654909, 41.891841], [-87.652492, 41.891714], [-87.649448, 41.889964], [-87.646315, 41.886261], [-87.644538, 41.861936], [-87.644794, 41.857575], [-87.646633, 41.857542], [-87.646649, 41.858102], [-87.657651, 41.857936], [-87.657612, 41.856527]], "type": "LineString"}, "properties": {"timestamp": "2024-03-02T21:27:07"}}, {"type": "Feature", "geometry": {"coordinates": [[-87.657612, 41.856527], [-87.657651, 41.857936], [-87.66163, 41.857876]], "type": "LineString"}, "properties": {"timestamp": "2024-03-02T21:46:25"}}, {"type": "Feature", "geometry": {"coordinates": [[-87.66163, 41.857876], [-87.66163, 41.857876]], "type": "LineString"}, "properties": {"timestamp": "2024-03-02T21:46:25"}}, {"type": "Feature", "geometry": {"coordinates": [[-87.66163, 41.857876], [-87.66163, 41.857876]], "type": "LineString"}, "properties": {"timestamp": "2024-03-02T21:51:54"}}, {"type": "Feature", "geometry": {"coordinates": [[-87.66163, 41.857876], [-87.666087, 41.857803], [-87.66659, 41.876357], [-87.669892, 41.876309], [-87.697949, 41.875633], [-87.70915, 41.874284], [-87.732913, 41.873969], [-87.73998, 41.871903], [-87.767488, 41.871015], [-87.799298, 41.873251], [-87.804441, 41.87368], [-87.806613, 41.934519], [-87.820654, 41.93424], [-87.82067, 41.934634]], "type": "LineString"}, "properties": {"timestamp": "2024-03-02T21:51:54"}}, {"type": "Feature", "geometry": {"coordinates": [[-87.82067, 41.934634], [-87.820654, 41.93424], [-87.81151, 41.934421], [-87.811185, 41.924776], [-87.803157, 41.923552], [-87.789403, 41.92364], [-87.781551, 41.921645], [-87.753381, 41.916843], [-87.735426, 41.909728], [-87.71669, 41.909987], [-87.71676, 41.909085], [-87.712229, 41.909136]], "type": "LineString"}, "properties": {"timestamp": "2024-03-02T22:48:56"}}, {"type": "Feature", "geometry": {"coordinates": [[-87.712229, 41.909136], [-87.711885, 41.90914], [-87.711884, 41.910045], [-87.665662, 41.910672], [-87.665325, 41.910236], [-87.661559, 41.906635], [-87.660921, 41.900902], [-87.659049, 41.896968], [-87.657114, 41.895018], [-87.653963, 41.891931], [-87.651034, 41.892554], [-87.624293, 41.892538], [-87.624246, 41.890945], [-87.621986, 41.890981], [-87.621327, 41.890952]], "type": "LineString"}, "properties": {"timestamp": "2024-03-02T22:48:56"}}, {"type": "Feature", "geometry": {"coordinates": [[-87.621327, 41.890952], [-87.621327, 41.890952]], "type": "LineString"}, "properties": {"timestamp": "2024-03-02T23:21:35"}}, {"type": "Feature", "geometry": {"coordinates": [[-87.621327, 41.890952], [-87.620784, 41.890997], [-87.621649, 41.891015], [-87.621986, 41.890981], [-87.621963, 41.889658], [-87.620395, 41.889573], [-87.620761, 41.887957], [-87.625188, 41.888311], [-87.62718, 41.886918], [-87.635761, 41.886721], [-87.636719, 41.886077], [-87.636963, 41.885505], [-87.636895, 41.878024], [-87.636543, 41.876121], [-87.635908, 41.875927], [-87.634264, 41.876336], [-87.634064, 41.87588], [-87.641651, 41.875644], [-87.643837, 41.875809], [-87.645614, 41.876437], [-87.646562, 41.876207], [-87.646845, 41.87554], [-87.645662, 41.872433], [-87.644752, 41.867365], [-87.644538, 41.861936], [-87.644794, 41.857575], [-87.646633, 41.857542], [-87.646649, 41.858102], [-87.66163, 41.857876]], "type": "LineString"}, "properties": {"timestamp": "2024-03-02T23:21:35"}}, {"type": "Feature", "geometry": {"coordinates": [[-87.66163, 41.857876], [-87.646649, 41.858102], [-87.646633, 41.857542], [-87.63188, 41.85776], [-87.631731, 41.859839], [-87.632052, 41.860175], [-87.633115, 41.860635], [-87.633284, 41.861304]], "type": "LineString"}, "properties": {"timestamp": "2024-03-02T23:34:39"}}, {"type": "Feature", "geometry": {"coordinates": [[-87.633284, 41.861304], [-87.633678, 41.875524], [-87.620619, 41.875815], [-87.620668, 41.886864]], "type": "LineString"}, "properties": {"timestamp": "2024-03-02T23:34:39"}}, {"type": "Feature", "geometry": {"coordinates": [[-87.620668, 41.886864], [-87.620671, 41.887844], [-87.615811, 41.887462], [-87.613913, 41.887569], [-87.613977, 41.889544], [-87.614171, 41.893189], [-87.619441, 41.900921], [-87.624048, 41.902893], [-87.631735, 41.927967], [-87.632402, 41.934989], [-87.638833, 41.941219], [-87.644376, 41.950931], [-87.648738, 41.973046], [-87.652803, 41.984951], [-87.662456, 41.985105], [-87.6699, 41.989705], [-87.670204, 41.996889], [-87.675204, 42.016061], [-87.674345, 42.01647]], "type": "LineString"}, "properties": {"timestamp": "2024-03-05T16:18:31"}}]}