{"type": "FeatureCollection", "features": [{"type": "Feature", "geometry": {"coordinates": [[-87.667647, 41.947197], [-87.667642, 41.947026], [-87.66892, 41.947004], [-87.668122, 41.924216], [-87.668616, 41.921563], [-87.677255, 41.921395], [-87.671115, 41.918139], [-87.668247, 41.915543], [-87.664752, 41.909975], [-87.661559, 41.906635], [-87.661131, 41.901587], [-87.659049, 41.896968], [-87.647531, 41.888343], [-87.646219, 41.885929], [-87.645999, 41.881827], [-87.646134, 41.880956], [-87.646145, 41.879569], [-87.646166, 41.878121], [-87.646107, 41.877218], [-87.646733, 41.875649], [-87.646076, 41.875057], [-87.635788, 41.875572], [-87.634246, 41.875312], [-87.634438, 41.874721], [-87.635124, 41.874834], [-87.635957, 41.875828], [-87.636629, 41.876812], [-87.636803, 41.876812]], "type": "LineString"}, "properties": {"timestamp": "2024-02-21T17:37:04"}}, {"type": "Feature", "geometry": {"coordinates": [[-87.636803, 41.876812], [-87.636629, 41.876812], [-87.636785, 41.881915], [-87.640505, 41.881877]], "type": "LineString"}, "properties": {"timestamp": "2024-02-21T18:10:06"}}, {"type": "Feature", "geometry": {"coordinates": [[-87.640505, 41.881877], [-87.642638, 41.881847], [-87.642764, 41.885711], [-87.644242, 41.885699], [-87.644337, 41.889054], [-87.647627, 41.891194], [-87.648892, 41.929091], [-87.647955, 41.929095]], "type": "LineString"}, "properties": {"timestamp": "2024-02-21T18:10:06"}}, {"type": "Feature", "geometry": {"coordinates": [[-87.647955, 41.929095], [-87.653741, 41.929016], [-87.663682, 41.936111], [-87.663907, 41.943419], [-87.665475, 41.943396]], "type": "LineString"}, "properties": {"timestamp": "2024-02-21T18:44:11"}}, {"type": "Feature", "geometry": {"coordinates": [[-87.665475, 41.943396], [-87.668829, 41.943346], [-87.668616, 41.921563], [-87.677255, 41.921395], [-87.671115, 41.918139], [-87.668499, 41.915851], [-87.664752, 41.909975], [-87.661559, 41.906635], [-87.661057, 41.901306], [-87.658834, 41.896667], [-87.6483, 41.889096], [-87.646108, 41.885119], [-87.646413, 41.883144], [-87.642677, 41.883172], [-87.642712, 41.884435], [-87.646033, 41.884406]], "type": "LineString"}, "properties": {"timestamp": "2024-02-21T18:44:11"}}, {"type": "Feature", "geometry": {"coordinates": [[-87.646033, 41.884406], [-87.647438, 41.884415], [-87.647482, 41.885665], [-87.642764, 41.885711], [-87.642815, 41.887871]], "type": "LineString"}, "properties": {"timestamp": "2024-02-21T19:05:48"}}, {"type": "Feature", "geometry": {"coordinates": [[-87.642815, 41.887871], [-87.642802, 41.886807], [-87.644278, 41.886799], [-87.644242, 41.885699], [-87.645903, 41.885686], [-87.645999, 41.881827], [-87.646134, 41.880956], [-87.646145, 41.879569], [-87.646166, 41.878121], [-87.646315, 41.877031], [-87.646815, 41.876334], [-87.647774, 41.87588], [-87.649135, 41.875728], [-87.653058, 41.875788], [-87.657603, 41.876197], [-87.673066, 41.8759], [-87.676512, 41.876215], [-87.676638, 41.881323], [-87.679085, 41.881324], [-87.678236, 41.88126]], "type": "LineString"}, "properties": {"timestamp": "2024-02-21T19:05:48"}}, {"type": "Feature", "geometry": {"coordinates": [[-87.678236, 41.88126], [-87.676638, 41.881323], [-87.676462, 41.872737], [-87.678616, 41.87092], [-87.680846, 41.869064], [-87.680351, 41.869069], [-87.68031, 41.867711]], "type": "LineString"}, "properties": {"timestamp": "2024-02-22T15:50:23"}}]}