{"type": "FeatureCollection", "features": [{"type": "Feature", "geometry": {"coordinates": [[-87.682247, 42.00895], [-87.681855, 42.008899], [-87.675425, 41.994982], [-87.67531, 41.992132], [-87.669778, 41.989576], [-87.662456, 41.985105], [-87.654178, 41.985586], [-87.653157, 41.984999], [-87.652706, 41.981232], [-87.648822, 41.972134], [-87.644905, 41.955203], [-87.64469, 41.951193], [-87.639566, 41.942042], [-87.638796, 41.940268], [-87.639537, 41.940119], [-87.63931, 41.932914], [-87.653863, 41.932636], [-87.653827, 41.931569]], "type": "LineString"}, "properties": {"timestamp": "2024-09-26T10:04:51"}}, {"type": "Feature", "geometry": {"coordinates": [[-87.653827, 41.931569], [-87.653827, 41.931569]], "type": "LineString"}, "properties": {"timestamp": "2024-09-26T10:38:50"}}, {"type": "Feature", "geometry": {"coordinates": [[-87.653827, 41.931569], [-87.653741, 41.929016], [-87.648766, 41.925453], [-87.648523, 41.918178], [-87.648238, 41.918181]], "type": "LineString"}, "properties": {"timestamp": "2024-09-26T10:38:50"}}, {"type": "Feature", "geometry": {"coordinates": [[-87.648238, 41.918181], [-87.648523, 41.918178], [-87.648495, 41.91731]], "type": "LineString"}, "properties": {"timestamp": "2024-09-26T10:59:02"}}, {"type": "Feature", "geometry": {"coordinates": [[-87.648495, 41.91731], [-87.648257, 41.910013], [-87.639563, 41.903768], [-87.637466, 41.903798]], "type": "LineString"}, "properties": {"timestamp": "2024-09-26T10:59:02"}}, {"type": "Feature", "geometry": {"coordinates": [[-87.637466, 41.903798], [-87.638347, 41.903783], [-87.638583, 41.911164], [-87.641018, 41.911125], [-87.641023, 41.911281]], "type": "LineString"}, "properties": {"timestamp": "2024-09-26T11:09:22"}}, {"type": "Feature", "geometry": {"coordinates": [[-87.641023, 41.911281], [-87.641015, 41.911006], [-87.633071, 41.911172], [-87.633044, 41.912903], [-87.632269, 41.913237], [-87.630561, 41.913114], [-87.628505, 41.912247], [-87.626932, 41.912316], [-87.62645, 41.912166], [-87.626204, 41.911491], [-87.624861, 41.904908], [-87.624179, 41.901978], [-87.624246, 41.890945], [-87.621986, 41.890981], [-87.62164, 41.890945], [-87.624074, 41.890948], [-87.624094, 41.891505]], "type": "LineString"}, "properties": {"timestamp": "2024-09-26T11:09:22"}}, {"type": "Feature", "geometry": {"coordinates": [[-87.624094, 41.891505], [-87.624162, 41.894143], [-87.62188, 41.894176]], "type": "LineString"}, "properties": {"timestamp": "2024-09-26T11:25:14"}}, {"type": "Feature", "geometry": {"coordinates": [[-87.62188, 41.894176], [-87.617775, 41.894255], [-87.617802, 41.895054], [-87.6159, 41.895086], [-87.619828, 41.900878], [-87.620418, 41.900949], [-87.626352, 41.900781]], "type": "LineString"}, "properties": {"timestamp": "2024-09-26T11:25:14"}}, {"type": "Feature", "geometry": {"coordinates": [[-87.626352, 41.900781], [-87.624377, 41.90081], [-87.620418, 41.900949], [-87.61991, 41.900913], [-87.619754, 41.900826], [-87.619639, 41.900677], [-87.618028, 41.89823]], "type": "LineString"}, "properties": {"timestamp": "2024-09-26T11:34:36"}}, {"type": "Feature", "geometry": {"coordinates": [[-87.618028, 41.89823], [-87.617065, 41.89684], [-87.620387, 41.896781], [-87.620625, 41.876287], [-87.626887, 41.875674], [-87.657603, 41.876197], [-87.697235, 41.875658], [-87.706246, 41.87458], [-87.710807, 41.874552], [-87.711442, 41.895505], [-87.712666, 41.895494], [-87.712636, 41.894497]], "type": "LineString"}, "properties": {"timestamp": "2024-09-26T11:34:36"}}, {"type": "Feature", "geometry": {"coordinates": [[-87.712636, 41.894497], [-87.712611, 41.893664], [-87.711387, 41.893676], [-87.711458, 41.896053]], "type": "LineString"}, "properties": {"timestamp": "2024-09-26T11:56:24"}}, {"type": "Feature", "geometry": {"coordinates": [[-87.711458, 41.896053], [-87.710777, 41.873622], [-87.709893, 41.873635], [-87.697594, 41.875189], [-87.650308, 41.875329], [-87.648052, 41.875215], [-87.646014, 41.874037], [-87.644983, 41.869485], [-87.644357, 41.857055], [-87.645374, 41.852823], [-87.644998, 41.850609], [-87.642186, 41.847255], [-87.634652, 41.845323], [-87.632484, 41.844131], [-87.631557, 41.842516], [-87.630789, 41.819121], [-87.631192, 41.816682], [-87.631192, 41.816426], [-87.623022, 41.816544], [-87.623001, 41.815421]], "type": "LineString"}, "properties": {"timestamp": "2024-09-26T11:56:24"}}, {"type": "Feature", "geometry": {"coordinates": [[-87.623001, 41.815421], [-87.622988, 41.814738], [-87.626222, 41.814689], [-87.626265, 41.816493], [-87.629441, 41.816448], [-87.629444, 41.816639], [-87.630393, 41.837743], [-87.631347, 41.844144], [-87.642036, 41.847354], [-87.644778, 41.850632], [-87.645875, 41.885816], [-87.648003, 41.8891], [-87.658783, 41.897251], [-87.659247, 41.899676], [-87.660982, 41.899842], [-87.67369, 41.907965], [-87.6746, 41.907182], [-87.67857, 41.907124]], "type": "LineString"}, "properties": {"timestamp": "2024-09-26T16:24:42"}}, {"type": "Feature", "geometry": {"coordinates": [[-87.67857, 41.907124], [-87.677385, 41.907145], [-87.677057, 41.895912], [-87.686835, 41.89575], [-87.686385, 41.876082], [-87.705721, 41.875893], [-87.705737, 41.876665]], "type": "LineString"}, "properties": {"timestamp": "2024-09-26T16:24:42"}}, {"type": "Feature", "geometry": {"coordinates": [[-87.705737, 41.876665], [-87.705721, 41.875893], [-87.70598, 41.875891], [-87.706651, 41.898325], [-87.711412, 41.900181], [-87.711856, 41.908233], [-87.714298, 41.90821], [-87.714329, 41.909112], [-87.712229, 41.909136]], "type": "LineString"}, "properties": {"timestamp": "2024-09-26T16:30:33"}}, {"type": "Feature", "geometry": {"coordinates": [[-87.712229, 41.909136], [-87.711885, 41.90914], [-87.711884, 41.910045], [-87.665662, 41.910672], [-87.665325, 41.910236], [-87.661559, 41.906635], [-87.66114, 41.905221], [-87.661288, 41.902553], [-87.660921, 41.900902], [-87.659049, 41.896968], [-87.657114, 41.895018], [-87.655657, 41.89377], [-87.654831, 41.89226], [-87.653963, 41.891931], [-87.651034, 41.892554], [-87.63704, 41.892368], [-87.637178, 41.896556], [-87.63421, 41.896586], [-87.634293, 41.898867]], "type": "LineString"}, "properties": {"timestamp": "2024-09-26T16:30:33"}}, {"type": "Feature", "geometry": {"coordinates": [[-87.634293, 41.898867], [-87.634181, 41.895592], [-87.631219, 41.895637], [-87.631182, 41.894036], [-87.629708, 41.894056], [-87.629727, 41.894584]], "type": "LineString"}, "properties": {"timestamp": "2024-09-26T16:59:35"}}, {"type": "Feature", "geometry": {"coordinates": [[-87.629727, 41.894584], [-87.629736, 41.89485], [-87.631201, 41.894831], [-87.631163, 41.893233], [-87.641157, 41.8931], [-87.639878, 41.891506], [-87.643004, 41.891239], [-87.654625, 41.891105], [-87.654546, 41.888297]], "type": "LineString"}, "properties": {"timestamp": "2024-09-26T16:59:35"}}]}