{"type": "FeatureCollection", "features": [{"type": "Feature", "geometry": {"coordinates": [[-87.713522, 41.962954], [-87.713199, 41.962957], [-87.712908, 41.953809], [-87.645235, 41.954634], [-87.644611, 41.950978], [-87.639315, 41.941594], [-87.632453, 41.934639], [-87.632048, 41.928427], [-87.629189, 41.918735], [-87.62605, 41.911998], [-87.62421, 41.902733], [-87.62264, 41.901491], [-87.619617, 41.900898], [-87.614907, 41.893955], [-87.614335, 41.8919], [-87.614196, 41.891128], [-87.61158, 41.891141], [-87.611588, 41.891531]], "type": "LineString"}, "properties": {"timestamp": "2024-05-23T11:56:36"}}, {"type": "Feature", "geometry": {"coordinates": [[-87.611588, 41.891531], [-87.611597, 41.891968], [-87.617687, 41.891833], [-87.617676, 41.891456]], "type": "LineString"}, "properties": {"timestamp": "2024-05-23T12:27:38"}}, {"type": "Feature", "geometry": {"coordinates": [[-87.617676, 41.891456], [-87.617687, 41.891833], [-87.637019, 41.891543], [-87.637056, 41.892795], [-87.64596, 41.892522], [-87.65028, 41.892674], [-87.653268, 41.892622], [-87.658404, 41.896481], [-87.660896, 41.901399], [-87.66137, 41.906646], [-87.670146, 41.917654], [-87.709927, 41.940372], [-87.715306, 41.94215], [-87.719592, 41.947613], [-87.741635, 41.95982], [-87.746287, 41.963594], [-87.747426, 41.975724], [-87.74607, 41.976396], [-87.745776, 41.975364], [-87.747984, 41.975339], [-87.747723, 41.968033], [-87.757623, 41.967938], [-87.758399, 41.968431]], "type": "LineString"}, "properties": {"timestamp": "2024-05-23T12:27:38"}}, {"type": "Feature", "geometry": {"coordinates": [[-87.758399, 41.968431], [-87.758399, 41.968431]], "type": "LineString"}, "properties": {"timestamp": "2024-05-23T12:57:51"}}, {"type": "Feature", "geometry": {"coordinates": [[-87.758399, 41.968431], [-87.757622, 41.967875], [-87.747723, 41.968033], [-87.747918, 41.972896], [-87.747761, 41.972794], [-87.747223, 41.966563], [-87.745232, 41.962358], [-87.719592, 41.947613], [-87.715306, 41.94215], [-87.709927, 41.940372], [-87.670146, 41.917654], [-87.66137, 41.906646], [-87.659066, 41.897394], [-87.653065, 41.892534], [-87.632701, 41.89242], [-87.632564, 41.885741], [-87.632419, 41.886462]], "type": "LineString"}, "properties": {"timestamp": "2024-05-23T12:57:51"}}, {"type": "Feature", "geometry": {"coordinates": [[-87.632419, 41.886462], [-87.632428, 41.886819], [-87.631009, 41.88682], [-87.630986, 41.885747], [-87.630207, 41.885746], [-87.630192, 41.886506]], "type": "LineString"}, "properties": {"timestamp": "2024-05-23T13:15:04"}}, {"type": "Feature", "geometry": {"coordinates": [[-87.630192, 41.886506], [-87.63022, 41.886919], [-87.635269, 41.886908], [-87.636873, 41.88588], [-87.636965, 41.884459], [-87.644184, 41.884425], [-87.644106, 41.881817], [-87.64573, 41.881801], [-87.645735, 41.885306], [-87.646837, 41.887752], [-87.658396, 41.896733], [-87.660726, 41.901461], [-87.661061, 41.906443], [-87.669227, 41.917096], [-87.702937, 41.93676], [-87.710036, 41.940632], [-87.713979, 41.941793], [-87.715981, 41.943044], [-87.717815, 41.94651], [-87.739921, 41.946215]], "type": "LineString"}, "properties": {"timestamp": "2024-05-23T13:15:04"}}, {"type": "Feature", "geometry": {"coordinates": [[-87.739921, 41.946215], [-87.735605, 41.946271], [-87.723912, 41.939142], [-87.654106, 41.939918], [-87.654016, 41.937175], [-87.653552, 41.937186], [-87.65355, 41.937074]], "type": "LineString"}, "properties": {"timestamp": "2024-05-23T14:53:25"}}, {"type": "Feature", "geometry": {"coordinates": [[-87.65355, 41.937074], [-87.653552, 41.937186], [-87.654016, 41.937175], [-87.653863, 41.932636], [-87.678134, 41.932278], [-87.677893, 41.925026], [-87.681912, 41.924981], [-87.685177, 41.926707], [-87.709664, 41.940439], [-87.715161, 41.942387], [-87.716453, 41.943551], [-87.71887, 41.947406], [-87.723791, 41.950079], [-87.727575, 41.952511], [-87.727531, 41.951378], [-87.720007, 41.947686], [-87.718393, 41.945898]], "type": "LineString"}, "properties": {"timestamp": "2024-05-23T14:53:25"}}, {"type": "Feature", "geometry": {"coordinates": [[-87.718393, 41.945898], [-87.715518, 41.942115], [-87.712526, 41.940478], [-87.712571, 41.941642], [-87.715981, 41.943044], [-87.719618, 41.947985], [-87.738838, 41.958569], [-87.741371, 41.960451], [-87.74187, 41.960845], [-87.794287, 41.960061], [-87.822074, 41.946631], [-87.821404, 41.937842], [-87.820185, 41.937866], [-87.820102, 41.936076], [-87.820727, 41.936062], [-87.82067, 41.934634]], "type": "LineString"}, "properties": {"timestamp": "2024-05-23T15:12:21"}}, {"type": "Feature", "geometry": {"coordinates": [[-87.82067, 41.934634], [-87.82067, 41.934634]], "type": "LineString"}, "properties": {"timestamp": "2024-05-23T15:12:21"}}, {"type": "Feature", "geometry": {"coordinates": [[-87.82067, 41.934634], [-87.820654, 41.93424], [-87.81151, 41.934421], [-87.811185, 41.924776], [-87.803157, 41.923552], [-87.789403, 41.92364], [-87.700436, 41.924799], [-87.701488, 41.925445], [-87.70114, 41.925798]], "type": "LineString"}, "properties": {"timestamp": "2024-05-23T16:15:16"}}, {"type": "Feature", "geometry": {"coordinates": [[-87.70114, 41.925798], [-87.701298, 41.932082], [-87.687832, 41.932179], [-87.688469, 41.953985], [-87.668983, 41.954306], [-87.669707, 41.988054], [-87.669796, 41.987608], [-87.669769, 41.987519]], "type": "LineString"}, "properties": {"timestamp": "2024-05-23T16:15:16"}}, {"type": "Feature", "geometry": {"coordinates": [[-87.669769, 41.987519], [-87.669181, 41.985433], [-87.663294, 41.985603], [-87.662456, 41.985105], [-87.660947, 41.985463], [-87.654178, 41.985586], [-87.653214, 41.985103], [-87.652706, 41.981232], [-87.649277, 41.973607], [-87.646868, 41.963721], [-87.647093, 41.962397], [-87.646878, 41.961908], [-87.65234, 41.9618], [-87.652309, 41.960709], [-87.65323, 41.960386]], "type": "LineString"}, "properties": {"timestamp": "2024-05-23T16:54:21"}}, {"type": "Feature", "geometry": {"coordinates": [[-87.65323, 41.960386], [-87.65406, 41.960094], [-87.654742, 41.961156], [-87.654549, 41.954492], [-87.731304, 41.953617], [-87.732489, 41.954216], [-87.732533, 41.955298], [-87.742619, 41.960998], [-87.752403, 41.966033], [-87.75503, 41.967937], [-87.77728, 41.967665], [-87.777158, 41.964842], [-87.777053, 41.96491]], "type": "LineString"}, "properties": {"timestamp": "2024-05-23T16:54:21"}}, {"type": "Feature", "geometry": {"coordinates": [[-87.777053, 41.96491], [-87.777158, 41.964842], [-87.77728, 41.967665], [-87.765021, 41.967822], [-87.761466, 41.967596], [-87.760755, 41.967869], [-87.756709, 41.967916], [-87.753264, 41.966268], [-87.749887, 41.964121], [-87.746242, 41.962708], [-87.74096, 41.959294], [-87.721846, 41.94853], [-87.718984, 41.946493], [-87.708842, 41.946623], [-87.705317, 41.944219], [-87.705221, 41.941057], [-87.704719, 41.941061]], "type": "LineString"}, "properties": {"timestamp": "2024-05-23T19:14:02"}}, {"type": "Feature", "geometry": {"coordinates": [[-87.704719, 41.941061], [-87.702765, 41.941075], [-87.702616, 41.935677], [-87.669746, 41.917124], [-87.664752, 41.909975], [-87.661559, 41.906635], [-87.661131, 41.901587], [-87.659383, 41.897534], [-87.657479, 41.894931], [-87.657374, 41.891076], [-87.648776, 41.891179], [-87.648752, 41.889662]], "type": "LineString"}, "properties": {"timestamp": "2024-05-23T19:14:02"}}, {"type": "Feature", "geometry": {"coordinates": [[-87.648752, 41.889662], [-87.648718, 41.889017], [-87.648612, 41.888979], [-87.645907, 41.889039], [-87.641768, 41.889078], [-87.641668, 41.889054], [-87.641418, 41.888886], [-87.641385, 41.888757], [-87.641357, 41.887052]], "type": "LineString"}, "properties": {"timestamp": "2024-05-23T19:45:58"}}, {"type": "Feature", "geometry": {"coordinates": [[-87.641357, 41.887052], [-87.641369, 41.889103], [-87.644337, 41.889054], [-87.647627, 41.891194], [-87.648124, 41.905038], [-87.649202, 41.905042], [-87.653203, 41.909772], [-87.653741, 41.929016], [-87.65652, 41.928972]], "type": "LineString"}, "properties": {"timestamp": "2024-05-23T19:45:58"}}, {"type": "Feature", "geometry": {"coordinates": [[-87.65652, 41.928972], [-87.645552, 41.929135], [-87.644199, 41.929324], [-87.642943, 41.929694], [-87.64223, 41.928546], [-87.642977, 41.928323]], "type": "LineString"}, "properties": {"timestamp": "2024-05-23T20:12:12"}}, {"type": "Feature", "geometry": {"coordinates": [[-87.642977, 41.928323], [-87.644207, 41.928034], [-87.643933, 41.925527], [-87.681912, 41.924981], [-87.685177, 41.926707], [-87.709664, 41.940439], [-87.715161, 41.942387], [-87.719618, 41.947985], [-87.742619, 41.960998], [-87.74678, 41.965157], [-87.746614, 41.980044], [-87.750967, 41.985896], [-87.751131, 41.99049], [-87.749995, 41.991278], [-87.750346, 41.990201], [-87.753543, 41.991161], [-87.781572, 42.004249], [-87.784689, 42.007276], [-87.781034, 42.009008], [-87.781529, 42.009604], [-87.780629, 42.010028]], "type": "LineString"}, "properties": {"timestamp": "2024-05-23T20:12:12"}}, {"type": "Feature", "geometry": {"coordinates": [[-87.780629, 42.010028], [-87.781529, 42.009604], [-87.781034, 42.009008], [-87.784689, 42.007276], [-87.753476, 41.991079], [-87.746835, 41.980228], [-87.747223, 41.966563], [-87.745232, 41.962358], [-87.719592, 41.947613], [-87.715306, 41.94215], [-87.670146, 41.917654], [-87.66137, 41.906646], [-87.659246, 41.897685], [-87.646315, 41.886261], [-87.644998, 41.850609], [-87.642186, 41.847255], [-87.634652, 41.845323], [-87.631511, 41.841797], [-87.631593, 41.834597], [-87.628886, 41.834642], [-87.628847, 41.833673]], "type": "LineString"}, "properties": {"timestamp": "2024-05-24T16:15:24"}}]}