{"type": "FeatureCollection", "features": [{"type": "Feature", "geometry": {"coordinates": [[-87.656894, 41.964503], [-87.659673, 41.969021], [-87.669348, 41.968877], [-87.669707, 41.988054], [-87.669796, 41.987608], [-87.669769, 41.987519]], "type": "LineString"}, "properties": {"timestamp": "2024-03-16T15:50:05"}}, {"type": "Feature", "geometry": {"coordinates": [[-87.669769, 41.987519], [-87.668766, 41.983497], [-87.679477, 41.983198], [-87.679355, 41.974696], [-87.676798, 41.97474]], "type": "LineString"}, "properties": {"timestamp": "2024-03-16T15:54:47"}}, {"type": "Feature", "geometry": {"coordinates": [[-87.676798, 41.97474], [-87.676368, 41.974747], [-87.676325, 41.973309], [-87.669592, 41.973436], [-87.669477, 41.968876], [-87.648824, 41.969276], [-87.64734, 41.965793], [-87.644611, 41.950978], [-87.638957, 41.941067], [-87.632637, 41.935041], [-87.631858, 41.927741], [-87.631853, 41.926001], [-87.636586, 41.925658], [-87.636391, 41.919706]], "type": "LineString"}, "properties": {"timestamp": "2024-03-16T15:54:47"}}, {"type": "Feature", "geometry": {"coordinates": [[-87.636391, 41.919706], [-87.636415, 41.919243], [-87.6366, 41.919188], [-87.64223, 41.928546], [-87.644207, 41.928034], [-87.644025, 41.927332], [-87.644002, 41.926735], [-87.642974, 41.926753]], "type": "LineString"}, "properties": {"timestamp": "2024-03-16T16:32:29"}}, {"type": "Feature", "geometry": {"coordinates": [[-87.642974, 41.926753], [-87.642153, 41.926767], [-87.641326, 41.927017], [-87.640463, 41.92558], [-87.648766, 41.925453], [-87.651271, 41.927233], [-87.662155, 41.927058], [-87.662162, 41.927255]], "type": "LineString"}, "properties": {"timestamp": "2024-03-16T16:32:29"}}, {"type": "Feature", "geometry": {"coordinates": [[-87.662162, 41.927255], [-87.662155, 41.927058], [-87.663383, 41.927039], [-87.663758, 41.938211]], "type": "LineString"}, "properties": {"timestamp": "2024-03-16T16:46:05"}}, {"type": "Feature", "geometry": {"coordinates": [[-87.663758, 41.938211], [-87.663649, 41.93521], [-87.668549, 41.935144], [-87.668616, 41.921563], [-87.677255, 41.921395], [-87.671115, 41.918139], [-87.668247, 41.915543], [-87.664752, 41.909975], [-87.661559, 41.906635], [-87.661131, 41.901587], [-87.659049, 41.896968], [-87.647531, 41.888343], [-87.646219, 41.885929], [-87.645999, 41.881827], [-87.646134, 41.880956], [-87.646145, 41.879569], [-87.646166, 41.878121], [-87.646107, 41.877218], [-87.646733, 41.875649], [-87.646076, 41.875057], [-87.631448, 41.875518]], "type": "LineString"}, "properties": {"timestamp": "2024-03-16T16:46:05"}}, {"type": "Feature", "geometry": {"coordinates": [[-87.631448, 41.875518], [-87.629223, 41.875546], [-87.629401, 41.881987], [-87.631509, 41.881974], [-87.632365, 41.882009], [-87.632605, 41.895614], [-87.630373, 41.895653]], "type": "LineString"}, "properties": {"timestamp": "2024-03-16T17:30:44"}}, {"type": "Feature", "geometry": {"coordinates": [[-87.630373, 41.895653], [-87.629762, 41.895665], [-87.62978, 41.896655], [-87.632635, 41.896613], [-87.633095, 41.912584], [-87.632796, 41.913071], [-87.636142, 41.918564], [-87.641881, 41.927956]], "type": "LineString"}, "properties": {"timestamp": "2024-03-16T17:30:44"}}, {"type": "Feature", "geometry": {"coordinates": [[-87.641881, 41.927956], [-87.640463, 41.92558], [-87.681912, 41.924981], [-87.685177, 41.926707], [-87.709664, 41.940439], [-87.715981, 41.943044], [-87.717815, 41.94651], [-87.739921, 41.946215]], "type": "LineString"}, "properties": {"timestamp": "2024-03-16T17:53:18"}}, {"type": "Feature", "geometry": {"coordinates": [[-87.739921, 41.946215], [-87.71959, 41.946484], [-87.718156, 41.944989], [-87.715518, 41.942115], [-87.709442, 41.939977], [-87.669746, 41.917124], [-87.664752, 41.909975], [-87.661559, 41.906635], [-87.661057, 41.901306], [-87.658834, 41.896667], [-87.6483, 41.889096], [-87.646108, 41.885119], [-87.646413, 41.883144], [-87.641266, 41.883178], [-87.639745, 41.883185], [-87.636818, 41.883223], [-87.636645, 41.88597], [-87.634232, 41.886821]], "type": "LineString"}, "properties": {"timestamp": "2024-03-16T17:53:18"}}, {"type": "Feature", "geometry": {"coordinates": [[-87.634232, 41.886821], [-87.627383, 41.886809], [-87.624469, 41.888194], [-87.624042, 41.900824], [-87.62589, 41.912141], [-87.631851, 41.928415], [-87.632152, 41.934381], [-87.638833, 41.941219], [-87.644376, 41.950931], [-87.649207, 41.974381], [-87.649649, 41.976812], [-87.679392, 41.976029], [-87.679355, 41.974696], [-87.676798, 41.97474]], "type": "LineString"}, "properties": {"timestamp": "2024-03-16T19:27:59"}}, {"type": "Feature", "geometry": {"coordinates": [[-87.676798, 41.97474], [-87.676368, 41.974747], [-87.676325, 41.973309], [-87.669592, 41.973436], [-87.669477, 41.968876], [-87.648824, 41.969276], [-87.644611, 41.950978], [-87.638957, 41.941067], [-87.632527, 41.93482], [-87.632048, 41.928427], [-87.627538, 41.915117], [-87.627206, 41.913042], [-87.632438, 41.913334], [-87.633223, 41.911171], [-87.648286, 41.910927], [-87.647627, 41.891194], [-87.652288, 41.891135], [-87.652212, 41.888087]], "type": "LineString"}, "properties": {"timestamp": "2024-03-16T19:27:59"}}, {"type": "Feature", "geometry": {"coordinates": [[-87.652212, 41.888087], [-87.652264, 41.890047], [-87.64876, 41.890082], [-87.648718, 41.889017], [-87.648612, 41.888979], [-87.644337, 41.889054], [-87.644242, 41.885699], [-87.643867, 41.885702]], "type": "LineString"}, "properties": {"timestamp": "2024-03-16T19:42:34"}}, {"type": "Feature", "geometry": {"coordinates": [[-87.643867, 41.885702], [-87.644242, 41.885699], [-87.644106, 41.881817], [-87.64573, 41.881801], [-87.645735, 41.885306], [-87.646837, 41.887752], [-87.658396, 41.896733], [-87.660726, 41.901461], [-87.661253, 41.906799], [-87.669547, 41.91737], [-87.704001, 41.937344], [-87.710036, 41.940632], [-87.714861, 41.942208], [-87.719618, 41.947985], [-87.738838, 41.958569], [-87.741371, 41.960451], [-87.74187, 41.960845], [-87.794161, 41.960081], [-87.816945, 41.949144], [-87.816641, 41.941072]], "type": "LineString"}, "properties": {"timestamp": "2024-03-16T19:42:34"}}, {"type": "Feature", "geometry": {"coordinates": [[-87.816641, 41.941072], [-87.816641, 41.941072]], "type": "LineString"}, "properties": {"timestamp": "2024-03-16T20:23:05"}}, {"type": "Feature", "geometry": {"coordinates": [[-87.816641, 41.941072], [-87.816587, 41.939617], [-87.817797, 41.939594], [-87.818384, 41.948419], [-87.797713, 41.958438], [-87.797737, 41.968342], [-87.778289, 41.96853], [-87.77728, 41.967665], [-87.747723, 41.968033], [-87.747918, 41.972896], [-87.747761, 41.972794], [-87.747223, 41.966563], [-87.745232, 41.962358], [-87.719592, 41.947613], [-87.715306, 41.94215], [-87.709927, 41.940372], [-87.670146, 41.917654], [-87.66137, 41.906646], [-87.659066, 41.897394], [-87.653065, 41.892534], [-87.621881, 41.892574]], "type": "LineString"}, "properties": {"timestamp": "2024-03-16T20:23:05"}}, {"type": "Feature", "geometry": {"coordinates": [[-87.621881, 41.892574], [-87.620263, 41.892588], [-87.620283, 41.893412], [-87.622735, 41.89336], [-87.622757, 41.894164], [-87.62188, 41.894176]], "type": "LineString"}, "properties": {"timestamp": "2024-03-16T20:45:51"}}, {"type": "Feature", "geometry": {"coordinates": [[-87.62188, 41.894176], [-87.620307, 41.894214], [-87.620212, 41.890902], [-87.620761, 41.887957], [-87.625188, 41.888311], [-87.62718, 41.886918], [-87.635761, 41.886721], [-87.636719, 41.886077], [-87.636963, 41.885505], [-87.636895, 41.878024], [-87.636543, 41.876121], [-87.635908, 41.875927], [-87.634264, 41.876336], [-87.634064, 41.87588], [-87.643841, 41.875615], [-87.651991, 41.875736], [-87.657603, 41.876197], [-87.680757, 41.875819], [-87.683829, 41.876135], [-87.683728, 41.872192]], "type": "LineString"}, "properties": {"timestamp": "2024-03-16T20:45:51"}}, {"type": "Feature", "geometry": {"coordinates": [[-87.683728, 41.872192], [-87.683708, 41.871373], [-87.686226, 41.871336], [-87.686223, 41.871163], [-87.69479, 41.87108]], "type": "LineString"}, "properties": {"timestamp": "2024-03-16T21:14:03"}}, {"type": "Feature", "geometry": {"coordinates": [[-87.69479, 41.87108], [-87.696029, 41.871066], [-87.696151, 41.875983], [-87.701496, 41.875935], [-87.704533, 41.874828], [-87.708542, 41.874316], [-87.733365, 41.873929], [-87.740374, 41.87187], [-87.759179, 41.871626], [-87.76449, 41.871836], [-87.765779, 41.918746], [-87.771525, 41.91981]], "type": "LineString"}, "properties": {"timestamp": "2024-03-16T21:14:03"}}, {"type": "Feature", "geometry": {"coordinates": [[-87.771525, 41.91981], [-87.753381, 41.916843], [-87.735426, 41.909728], [-87.649501, 41.910903], [-87.649478, 41.909851], [-87.649122, 41.909856]], "type": "LineString"}, "properties": {"timestamp": "2024-03-18T18:52:46"}}]}