{"type": "FeatureCollection", "features": [{"type": "Feature", "geometry": {"coordinates": [[-87.655324, 41.987812], [-87.655253, 41.985556], [-87.653157, 41.984999], [-87.649079, 41.973006], [-87.644611, 41.950978], [-87.638957, 41.941067], [-87.632527, 41.93482], [-87.632048, 41.928427], [-87.627538, 41.915117], [-87.627206, 41.913042], [-87.633196, 41.912907], [-87.632793, 41.89661], [-87.667365, 41.896069], [-87.667248, 41.892436], [-87.671256, 41.892375], [-87.671233, 41.891672]], "type": "LineString"}, "properties": {"timestamp": "2024-02-11T18:11:26"}}, {"type": "Feature", "geometry": {"coordinates": [[-87.671233, 41.891672], [-87.671208, 41.890916], [-87.667085, 41.890974], [-87.667153, 41.893347], [-87.665583, 41.89337], [-87.665559, 41.892616]], "type": "LineString"}, "properties": {"timestamp": "2024-02-11T18:47:38"}}, {"type": "Feature", "geometry": {"coordinates": [[-87.665559, 41.892616], [-87.665555, 41.892458], [-87.662303, 41.89249], [-87.662395, 41.896146], [-87.631243, 41.896633], [-87.631219, 41.895637], [-87.630373, 41.895653]], "type": "LineString"}, "properties": {"timestamp": "2024-02-11T18:47:38"}}, {"type": "Feature", "geometry": {"coordinates": [[-87.630373, 41.895653], [-87.628179, 41.895692], [-87.628003, 41.889259], [-87.628704, 41.889251]], "type": "LineString"}, "properties": {"timestamp": "2024-02-11T18:55:33"}}, {"type": "Feature", "geometry": {"coordinates": [[-87.628704, 41.889251], [-87.631063, 41.889218], [-87.630715, 41.875701], [-87.651339, 41.875719], [-87.657603, 41.876197], [-87.673066, 41.8759], [-87.675741, 41.876224], [-87.681407, 41.876155], [-87.681294, 41.872287]], "type": "LineString"}, "properties": {"timestamp": "2024-02-11T18:55:33"}}, {"type": "Feature", "geometry": {"coordinates": [[-87.681294, 41.872287], [-87.681371, 41.874938], [-87.676128, 41.875021], [-87.6605, 41.875604], [-87.650308, 41.875329], [-87.647601, 41.875302], [-87.645452, 41.874563], [-87.644482, 41.875077], [-87.64458, 41.876036], [-87.645275, 41.880374], [-87.645355, 41.881847], [-87.645393, 41.882198], [-87.64591, 41.885931], [-87.647404, 41.888483], [-87.658783, 41.897251], [-87.660805, 41.901753], [-87.660967, 41.906186], [-87.662226, 41.907951], [-87.664445, 41.910674], [-87.648286, 41.910927], [-87.648495, 41.91731]], "type": "LineString"}, "properties": {"timestamp": "2024-02-11T20:00:14"}}, {"type": "Feature", "geometry": {"coordinates": [[-87.648495, 41.91731], [-87.648892, 41.929091], [-87.645275, 41.929156], [-87.642943, 41.929694], [-87.64223, 41.928546], [-87.642977, 41.928323]], "type": "LineString"}, "properties": {"timestamp": "2024-02-11T20:00:14"}}, {"type": "Feature", "geometry": {"coordinates": [[-87.642977, 41.928323], [-87.644207, 41.928034], [-87.643908, 41.925437], [-87.643665, 41.91825], [-87.648523, 41.918178], [-87.648495, 41.91731]], "type": "LineString"}, "properties": {"timestamp": "2024-02-11T20:27:17"}}, {"type": "Feature", "geometry": {"coordinates": [[-87.648495, 41.91731], [-87.648286, 41.910927], [-87.686002, 41.910344], [-87.685936, 41.907905]], "type": "LineString"}, "properties": {"timestamp": "2024-02-11T20:27:17"}}, {"type": "Feature", "geometry": {"coordinates": [[-87.685936, 41.907905], [-87.685903, 41.906693], [-87.687108, 41.906675], [-87.688345, 41.949742]], "type": "LineString"}, "properties": {"timestamp": "2024-02-11T20:45:41"}}, {"type": "Feature", "geometry": {"coordinates": [[-87.688345, 41.949742], [-87.687207, 41.910324], [-87.701875, 41.910165], [-87.70125, 41.907241], [-87.702278, 41.902886], [-87.701605, 41.902888]], "type": "LineString"}, "properties": {"timestamp": "2024-02-11T20:45:41"}}, {"type": "Feature", "geometry": {"coordinates": [[-87.701605, 41.902888], [-87.687018, 41.903025], [-87.687108, 41.906675], [-87.683473, 41.906728], [-87.683509, 41.908016]], "type": "LineString"}, "properties": {"timestamp": "2024-02-11T20:53:59"}}, {"type": "Feature", "geometry": {"coordinates": [[-87.683509, 41.908016], [-87.683575, 41.910386], [-87.665662, 41.910672], [-87.665325, 41.910236], [-87.661559, 41.906635], [-87.66114, 41.905221], [-87.661288, 41.902553], [-87.660921, 41.900902], [-87.659049, 41.896968], [-87.657114, 41.895018], [-87.655657, 41.89377], [-87.654831, 41.89226], [-87.653963, 41.891931], [-87.651034, 41.892554], [-87.634077, 41.892404], [-87.634037, 41.890774], [-87.633354, 41.890784]], "type": "LineString"}, "properties": {"timestamp": "2024-02-11T20:53:59"}}, {"type": "Feature", "geometry": {"coordinates": [[-87.633354, 41.890784], [-87.632683, 41.890793], [-87.632362, 41.881953], [-87.641227, 41.88187], [-87.640765, 41.868867]], "type": "LineString"}, "properties": {"timestamp": "2024-02-11T21:14:19"}}, {"type": "Feature", "geometry": {"coordinates": [[-87.640765, 41.868867], [-87.64081, 41.869741], [-87.644443, 41.869691], [-87.646327, 41.886906], [-87.648317, 41.889375], [-87.6586, 41.897003], [-87.660805, 41.901753], [-87.661061, 41.906443], [-87.664439, 41.910145], [-87.668478, 41.916334], [-87.67158, 41.918777], [-87.704001, 41.937344], [-87.706803, 41.939132], [-87.721875, 41.939166], [-87.721927, 41.93793], [-87.721857, 41.937887], [-87.723393, 41.936552]], "type": "LineString"}, "properties": {"timestamp": "2024-02-11T21:14:19"}}, {"type": "Feature", "geometry": {"coordinates": [[-87.723393, 41.936552], [-87.724624, 41.935463], [-87.726291, 41.935446], [-87.724596, 41.936972]], "type": "LineString"}, "properties": {"timestamp": "2024-02-11T21:29:56"}}, {"type": "Feature", "geometry": {"coordinates": [[-87.724596, 41.936972], [-87.724596, 41.936972]], "type": "LineString"}, "properties": {"timestamp": "2024-02-11T21:29:56"}}, {"type": "Feature", "geometry": {"coordinates": [[-87.724596, 41.936972], [-87.722882, 41.938515], [-87.717283, 41.935091], [-87.717101, 41.92898]], "type": "LineString"}, "properties": {"timestamp": "2024-02-11T22:07:00"}}, {"type": "Feature", "geometry": {"coordinates": [[-87.717101, 41.92898], [-87.716986, 41.924616], [-87.687645, 41.924902], [-87.687695, 41.926423], [-87.686245, 41.926336]], "type": "LineString"}, "properties": {"timestamp": "2024-02-11T22:07:00"}}, {"type": "Feature", "geometry": {"coordinates": [[-87.686245, 41.926336], [-87.68527, 41.925624], [-87.685228, 41.924938], [-87.682301, 41.924978], [-87.685177, 41.926707], [-87.708002, 41.939496], [-87.712586, 41.942429], [-87.713022, 41.957384]], "type": "LineString"}, "properties": {"timestamp": "2024-02-11T22:13:56"}}, {"type": "Feature", "geometry": {"coordinates": [[-87.713022, 41.957384], [-87.712908, 41.953809], [-87.709244, 41.953867], [-87.709052, 41.946779], [-87.707815, 41.945936], [-87.707505, 41.930261], [-87.707814, 41.929332], [-87.707541, 41.929168], [-87.706677, 41.899192], [-87.696795, 41.899282], [-87.696763, 41.89808], [-87.698012, 41.898067], [-87.698042, 41.899151]], "type": "LineString"}, "properties": {"timestamp": "2024-02-11T22:13:56"}}, {"type": "Feature", "geometry": {"coordinates": [[-87.698042, 41.899151], [-87.698045, 41.899277], [-87.684486, 41.89942], [-87.684442, 41.89761], [-87.684007, 41.897617]], "type": "LineString"}, "properties": {"timestamp": "2024-02-11T22:29:08"}}, {"type": "Feature", "geometry": {"coordinates": [[-87.684007, 41.897617], [-87.681995, 41.897649], [-87.681943, 41.895837], [-87.701213, 41.895606]], "type": "LineString"}, "properties": {"timestamp": "2024-02-11T22:29:08"}}, {"type": "Feature", "geometry": {"coordinates": [[-87.701213, 41.895606], [-87.677057, 41.895912], [-87.677276, 41.903184], [-87.674833, 41.903226], [-87.674795, 41.902204]], "type": "LineString"}, "properties": {"timestamp": "2024-02-11T22:38:42"}}, {"type": "Feature", "geometry": {"coordinates": [[-87.674795, 41.902204], [-87.674763, 41.901404], [-87.673548, 41.901426], [-87.673606, 41.903247], [-87.667439, 41.903351], [-87.667641, 41.910635], [-87.664445, 41.910674], [-87.668091, 41.915886], [-87.670574, 41.91815], [-87.690595, 41.929581], [-87.694122, 41.932133], [-87.687832, 41.932179], [-87.687865, 41.933826], [-87.68671, 41.933841], [-87.68682, 41.933971]], "type": "LineString"}, "properties": {"timestamp": "2024-02-11T22:38:42"}}, {"type": "Feature", "geometry": {"coordinates": [[-87.68682, 41.933971], [-87.68671, 41.933841], [-87.687865, 41.933826], [-87.688089, 41.94311], [-87.68209, 41.943177], [-87.682142, 41.945082]], "type": "LineString"}, "properties": {"timestamp": "2024-02-11T22:48:35"}}, {"type": "Feature", "geometry": {"coordinates": [[-87.682142, 41.945082], [-87.682189, 41.946823], [-87.683404, 41.946807], [-87.683613, 41.954151], [-87.686036, 41.954119], [-87.68616, 41.958428], [-87.686675, 41.958419]], "type": "LineString"}, "properties": {"timestamp": "2024-02-11T22:48:35"}}, {"type": "Feature", "geometry": {"coordinates": [[-87.686675, 41.958419], [-87.68616, 41.958428], [-87.686205, 41.959528], [-87.682553, 41.95958], [-87.669927, 41.941506], [-87.668771, 41.941517], [-87.668729, 41.939809], [-87.668609, 41.939697], [-87.663815, 41.939759], [-87.663758, 41.938211]], "type": "LineString"}, "properties": {"timestamp": "2024-02-11T23:02:38"}}, {"type": "Feature", "geometry": {"coordinates": [[-87.663758, 41.938211], [-87.663815, 41.939759], [-87.658974, 41.939838], [-87.659238, 41.950599], [-87.662225, 41.95438], [-87.654549, 41.954492], [-87.654742, 41.961156], [-87.656894, 41.964503]], "type": "LineString"}, "properties": {"timestamp": "2024-02-11T23:02:38"}}, {"type": "Feature", "geometry": {"coordinates": [[-87.656894, 41.964503], [-87.659673, 41.969021], [-87.682416, 41.968708], [-87.682363, 41.966872], [-87.68398, 41.966846], [-87.684011, 41.967765], [-87.683562, 41.967771]], "type": "LineString"}, "properties": {"timestamp": "2024-02-11T23:20:59"}}, {"type": "Feature", "geometry": {"coordinates": [[-87.683562, 41.967771], [-87.679157, 41.967836], [-87.679185, 41.968753], [-87.674163, 41.968823], [-87.6744, 41.978844], [-87.674163, 41.978847]], "type": "LineString"}, "properties": {"timestamp": "2024-02-11T23:20:59"}}, {"type": "Feature", "geometry": {"coordinates": [[-87.674163, 41.978847], [-87.6744, 41.978844], [-87.674716, 41.990816], [-87.67526, 41.990802], [-87.675425, 41.994982], [-87.679672, 42.004103], [-87.680339, 42.004091], [-87.68034, 42.004141]], "type": "LineString"}, "properties": {"timestamp": "2024-02-11T23:23:27"}}, {"type": "Feature", "geometry": {"coordinates": [[-87.68034, 42.004141], [-87.680339, 42.004091], [-87.679672, 42.004103], [-87.680175, 42.005209], [-87.709343, 42.004672], [-87.709354, 41.997394], [-87.787876, 41.997348], [-87.787492, 41.996914], [-87.788044, 41.964947], [-87.786909, 41.962988], [-87.785272, 41.918227], [-87.786497, 41.918215], [-87.78646, 41.916976]], "type": "LineString"}, "properties": {"timestamp": "2024-02-11T23:23:27"}}, {"type": "Feature", "geometry": {"coordinates": [[-87.78646, 41.916976], [-87.786497, 41.918215], [-87.785272, 41.918227], [-87.785433, 41.923671], [-87.746319, 41.92425], [-87.747627, 41.96438], [-87.745977, 41.964394], [-87.746614, 41.980044], [-87.751348, 41.987222], [-87.748898, 42.00867], [-87.752849, 42.014015], [-87.764685, 42.020691], [-87.768078, 42.024765], [-87.768407, 42.033299], [-87.764702, 42.038593], [-87.759717, 42.040844], [-87.710761, 42.040919], [-87.709225, 42.052495], [-87.694945, 42.059727], [-87.69372, 42.058289], [-87.679659, 42.058405], [-87.679677, 42.057045]], "type": "LineString"}, "properties": {"timestamp": "2024-02-12T17:04:20"}}]}