{"type": "FeatureCollection", "features": [{"type": "Feature", "geometry": {"coordinates": [[-87.655197, 41.983816], [-87.653702, 41.983688], [-87.648822, 41.972134], [-87.644611, 41.950978], [-87.638957, 41.941067], [-87.632527, 41.93482], [-87.632048, 41.928427], [-87.62428, 41.902892], [-87.619617, 41.900898], [-87.614447, 41.893292], [-87.614132, 41.886779], [-87.614444, 41.884515], [-87.627902, 41.884489], [-87.627866, 41.883248], [-87.627421, 41.883251]], "type": "LineString"}, "properties": {"timestamp": "2024-05-03T16:51:30"}}, {"type": "Feature", "geometry": {"coordinates": [[-87.627421, 41.883251], [-87.624233, 41.883257], [-87.624431, 41.88577], [-87.626286, 41.88576], [-87.626374, 41.887032], [-87.626488, 41.887382], [-87.627125, 41.888453], [-87.627082, 41.888758], [-87.626679, 41.889309], [-87.626665, 41.889909]], "type": "LineString"}, "properties": {"timestamp": "2024-05-03T17:15:24"}}, {"type": "Feature", "geometry": {"coordinates": [[-87.626665, 41.889909], [-87.626725, 41.891688], [-87.639878, 41.891506], [-87.644384, 41.891225], [-87.644337, 41.889054], [-87.648718, 41.889017], [-87.648695, 41.887378], [-87.649864, 41.887364], [-87.649838, 41.886778], [-87.649954, 41.886776]], "type": "LineString"}, "properties": {"timestamp": "2024-05-03T17:15:24"}}, {"type": "Feature", "geometry": {"coordinates": [[-87.649954, 41.886776], [-87.651006, 41.88676], [-87.650961, 41.885607], [-87.644242, 41.885699], [-87.644184, 41.884425], [-87.646033, 41.884406]], "type": "LineString"}, "properties": {"timestamp": "2024-05-03T17:28:34"}}, {"type": "Feature", "geometry": {"coordinates": [[-87.646033, 41.884406], [-87.647438, 41.884415], [-87.64736, 41.881782], [-87.64573, 41.881801], [-87.645735, 41.885306], [-87.646327, 41.886906], [-87.647404, 41.888483], [-87.64861, 41.889615], [-87.657024, 41.895403], [-87.658783, 41.897251], [-87.659213, 41.898537], [-87.659164, 41.89954], [-87.659701, 41.899938], [-87.669849, 41.899669], [-87.669869, 41.900367]], "type": "LineString"}, "properties": {"timestamp": "2024-05-03T17:28:34"}}, {"type": "Feature", "geometry": {"coordinates": [[-87.669869, 41.900367], [-87.669955, 41.90331], [-87.667439, 41.903351], [-87.667586, 41.90882], [-87.666429, 41.908834], [-87.666435, 41.909028]], "type": "LineString"}, "properties": {"timestamp": "2024-05-03T17:44:58"}}, {"type": "Feature", "geometry": {"coordinates": [[-87.666435, 41.909028], [-87.666509, 41.910658], [-87.665662, 41.910672], [-87.665325, 41.910236], [-87.661439, 41.906386], [-87.661057, 41.901306], [-87.658834, 41.896667], [-87.648602, 41.889352], [-87.646473, 41.886676], [-87.644363, 41.857367], [-87.645793, 41.852447], [-87.644333, 41.849097], [-87.643981, 41.847746], [-87.644894, 41.846776], [-87.652275, 41.845121], [-87.666643, 41.838058], [-87.669478, 41.837422], [-87.674176, 41.837483], [-87.675521, 41.836888], [-87.675278, 41.830387], [-87.663497, 41.830518]], "type": "LineString"}, "properties": {"timestamp": "2024-05-03T17:44:58"}}, {"type": "Feature", "geometry": {"coordinates": [[-87.663497, 41.830518], [-87.665501, 41.830496], [-87.66568, 41.83774], [-87.644778, 41.848044], [-87.641877, 41.849104], [-87.638494, 41.851096], [-87.638934, 41.857668], [-87.63188, 41.85776], [-87.631765, 41.859918], [-87.633218, 41.860792]], "type": "LineString"}, "properties": {"timestamp": "2024-05-03T18:55:03"}}, {"type": "Feature", "geometry": {"coordinates": [[-87.633218, 41.860792], [-87.631765, 41.859918], [-87.63188, 41.85776], [-87.623921, 41.857891], [-87.624158, 41.867398], [-87.618739, 41.867474], [-87.617003, 41.869799], [-87.617167, 41.881825], [-87.613613, 41.884932], [-87.614003, 41.89273], [-87.619441, 41.900921], [-87.622727, 41.90171], [-87.623983, 41.902767], [-87.62589, 41.912141], [-87.628743, 41.918036], [-87.630534, 41.924159], [-87.63067, 41.926223], [-87.640463, 41.92558], [-87.642943, 41.929694], [-87.647955, 41.929095]], "type": "LineString"}, "properties": {"timestamp": "2024-05-03T18:55:03"}}, {"type": "Feature", "geometry": {"coordinates": [[-87.647955, 41.929095], [-87.651301, 41.929054], [-87.651366, 41.93087], [-87.653074, 41.930839]], "type": "LineString"}, "properties": {"timestamp": "2024-05-03T19:38:55"}}, {"type": "Feature", "geometry": {"coordinates": [[-87.653074, 41.930839], [-87.653802, 41.930826], [-87.653741, 41.929016], [-87.648766, 41.925453], [-87.647611, 41.890088], [-87.64876, 41.890082], [-87.648752, 41.889662]], "type": "LineString"}, "properties": {"timestamp": "2024-05-03T19:38:55"}}, {"type": "Feature", "geometry": {"coordinates": [[-87.648752, 41.889662], [-87.64876, 41.890082], [-87.647611, 41.890088], [-87.648892, 41.929091], [-87.647955, 41.929095]], "type": "LineString"}, "properties": {"timestamp": "2024-05-03T20:31:16"}}, {"type": "Feature", "geometry": {"coordinates": [[-87.647955, 41.929095], [-87.648892, 41.929091], [-87.648124, 41.905038], [-87.649202, 41.905042], [-87.649323, 41.905133]], "type": "LineString"}, "properties": {"timestamp": "2024-05-03T20:31:16"}}, {"type": "Feature", "geometry": {"coordinates": [[-87.649323, 41.905133], [-87.649202, 41.905042], [-87.648124, 41.905038], [-87.648086, 41.903643], [-87.646585, 41.903664], [-87.646541, 41.903555], [-87.645749, 41.90262], [-87.64562, 41.902622], [-87.645648, 41.903236]], "type": "LineString"}, "properties": {"timestamp": "2024-05-03T20:38:34"}}, {"type": "Feature", "geometry": {"coordinates": [[-87.645648, 41.903236], [-87.645649, 41.903265], [-87.646293, 41.903252], [-87.643793, 41.900232], [-87.643088, 41.900414], [-87.642947, 41.896481], [-87.641559, 41.896492], [-87.641445, 41.893453], [-87.639878, 41.891506], [-87.637019, 41.891543], [-87.636943, 41.888771], [-87.63637, 41.887983], [-87.63527, 41.888]], "type": "LineString"}, "properties": {"timestamp": "2024-05-03T20:38:34"}}, {"type": "Feature", "geometry": {"coordinates": [[-87.63527, 41.888], [-87.63637, 41.887983], [-87.636789, 41.888455], [-87.636943, 41.888771], [-87.636984, 41.889941], [-87.631091, 41.890022], [-87.631072, 41.889473]], "type": "LineString"}, "properties": {"timestamp": "2024-05-03T20:48:39"}}, {"type": "Feature", "geometry": {"coordinates": [[-87.631072, 41.889473], [-87.630715, 41.875701], [-87.643841, 41.875615], [-87.646243, 41.87577], [-87.651991, 41.875736], [-87.657268, 41.876192], [-87.662425, 41.876121], [-87.666742, 41.876354], [-87.666599, 41.871628], [-87.662941, 41.871693], [-87.662955, 41.870725]], "type": "LineString"}, "properties": {"timestamp": "2024-05-03T20:48:39"}}, {"type": "Feature", "geometry": {"coordinates": [[-87.662955, 41.870725], [-87.662906, 41.870382], [-87.662838, 41.870481], [-87.662941, 41.871693], [-87.671494, 41.871559], [-87.671566, 41.874114], [-87.676526, 41.874045], [-87.676486, 41.873272], [-87.67764, 41.873257], [-87.677638, 41.873117]], "type": "LineString"}, "properties": {"timestamp": "2024-05-03T21:04:54"}}, {"type": "Feature", "geometry": {"coordinates": [[-87.677638, 41.873117], [-87.676486, 41.873272], [-87.676462, 41.872737], [-87.666718, 41.880897], [-87.666835, 41.884777], [-87.667524, 41.907003], [-87.667605, 41.904597], [-87.668222, 41.904988]], "type": "LineString"}, "properties": {"timestamp": "2024-05-03T21:04:54"}}, {"type": "Feature", "geometry": {"coordinates": [[-87.668222, 41.904988], [-87.667605, 41.904597], [-87.667457, 41.899711], [-87.674089, 41.899597], [-87.67412, 41.90052]], "type": "LineString"}, "properties": {"timestamp": "2024-05-03T21:24:58"}}, {"type": "Feature", "geometry": {"coordinates": [[-87.67412, 41.90052], [-87.674089, 41.899597], [-87.677161, 41.899544], [-87.677057, 41.895912], [-87.686835, 41.89575], [-87.686432, 41.881166], [-87.691073, 41.881122], [-87.69106, 41.880217], [-87.691159, 41.880216], [-87.691131, 41.879071]], "type": "LineString"}, "properties": {"timestamp": "2024-05-03T21:24:58"}}, {"type": "Feature", "geometry": {"coordinates": [[-87.691131, 41.879071], [-87.691159, 41.880216], [-87.69106, 41.880217], [-87.691073, 41.881122], [-87.686432, 41.881166], [-87.686835, 41.89575], [-87.677057, 41.895912], [-87.677161, 41.899544], [-87.674089, 41.899597], [-87.67412, 41.90052]], "type": "LineString"}, "properties": {"timestamp": "2024-05-04T22:06:20"}}]}