{"type": "FeatureCollection", "features": [{"type": "Feature", "geometry": {"coordinates": [[-87.701229, 41.942777], [-87.697932, 41.942795], [-87.698254, 41.953982], [-87.668983, 41.954306], [-87.670138, 41.99639], [-87.673966, 42.008991]], "type": "LineString"}, "properties": {"timestamp": "2024-05-10T17:27:19"}}, {"type": "Feature", "geometry": {"coordinates": [[-87.673966, 42.008991], [-87.673112, 42.005339], [-87.66937, 42.0054], [-87.669283, 42.001929]], "type": "LineString"}, "properties": {"timestamp": "2024-05-10T17:57:41"}}, {"type": "Feature", "geometry": {"coordinates": [[-87.669283, 42.001929], [-87.669283, 42.001929]], "type": "LineString"}, "properties": {"timestamp": "2024-05-10T17:57:41"}}, {"type": "Feature", "geometry": {"coordinates": [[-87.669283, 42.001929], [-87.669277, 42.001742], [-87.668065, 42.00176], [-87.668176, 42.005122]], "type": "LineString"}, "properties": {"timestamp": "2024-05-10T18:17:11"}}, {"type": "Feature", "geometry": {"coordinates": [[-87.668176, 42.005122], [-87.668185, 42.005422], [-87.660929, 42.005557], [-87.66054, 41.998191], [-87.660132, 41.985467], [-87.653995, 41.985582], [-87.653157, 41.984999], [-87.652706, 41.981232], [-87.648822, 41.972134], [-87.644905, 41.955203], [-87.644611, 41.950978], [-87.638957, 41.941067], [-87.632637, 41.935041], [-87.631858, 41.927741], [-87.631853, 41.926001], [-87.648766, 41.925453], [-87.653741, 41.929016], [-87.65652, 41.928972]], "type": "LineString"}, "properties": {"timestamp": "2024-05-10T18:17:11"}}, {"type": "Feature", "geometry": {"coordinates": [[-87.65652, 41.928972], [-87.653741, 41.929016], [-87.653863, 41.932636], [-87.642737, 41.932848], [-87.64278, 41.934284], [-87.642085, 41.934296]], "type": "LineString"}, "properties": {"timestamp": "2024-05-10T18:38:47"}}, {"type": "Feature", "geometry": {"coordinates": [[-87.642085, 41.934296], [-87.641392, 41.934308], [-87.641357, 41.932875], [-87.649013, 41.932728], [-87.648766, 41.925453], [-87.681912, 41.924981], [-87.685177, 41.926707], [-87.709664, 41.940439], [-87.714861, 41.942208], [-87.719618, 41.947985], [-87.738838, 41.958569], [-87.741371, 41.960451], [-87.794287, 41.960061], [-87.822074, 41.946631], [-87.821404, 41.937842], [-87.820185, 41.937866], [-87.820102, 41.936076], [-87.820727, 41.936062], [-87.82067, 41.934634]], "type": "LineString"}, "properties": {"timestamp": "2024-05-10T18:38:47"}}, {"type": "Feature", "geometry": {"coordinates": [[-87.82067, 41.934634], [-87.82067, 41.934634]], "type": "LineString"}, "properties": {"timestamp": "2024-05-10T19:25:49"}}, {"type": "Feature", "geometry": {"coordinates": [[-87.82067, 41.934634], [-87.820654, 41.93424], [-87.821275, 41.934229], [-87.821404, 41.937842], [-87.786046, 41.938315], [-87.786299, 41.945676], [-87.766768, 41.945882], [-87.767005, 41.953168], [-87.701921, 41.953917], [-87.701972, 41.955614]], "type": "LineString"}, "properties": {"timestamp": "2024-05-10T19:25:49"}}, {"type": "Feature", "geometry": {"coordinates": [[-87.701972, 41.955614], [-87.701976, 41.955772], [-87.69831, 41.955792], [-87.697902, 41.941887], [-87.700544, 41.941872], [-87.701556, 41.941084], [-87.702765, 41.941075], [-87.702566, 41.933895], [-87.700481, 41.933907]], "type": "LineString"}, "properties": {"timestamp": "2024-05-10T19:33:05"}}, {"type": "Feature", "geometry": {"coordinates": [[-87.700481, 41.933907], [-87.699706, 41.93391], [-87.6989, 41.933369], [-87.698843, 41.9321], [-87.696547, 41.932116], [-87.669405, 41.916815], [-87.664752, 41.909975], [-87.661559, 41.906635], [-87.660921, 41.900902], [-87.659049, 41.896968], [-87.657114, 41.895018], [-87.653963, 41.891931], [-87.651034, 41.892554], [-87.620263, 41.892588], [-87.620313, 41.894445]], "type": "LineString"}, "properties": {"timestamp": "2024-05-10T19:33:05"}}, {"type": "Feature", "geometry": {"coordinates": [[-87.620313, 41.894445], [-87.620235, 41.891803], [-87.634054, 41.891576], [-87.634001, 41.888149], [-87.63433, 41.887992], [-87.63527, 41.888]], "type": "LineString"}, "properties": {"timestamp": "2024-05-10T19:57:35"}}, {"type": "Feature", "geometry": {"coordinates": [[-87.63527, 41.888], [-87.63637, 41.887983], [-87.636943, 41.888771], [-87.636984, 41.889941], [-87.636764, 41.889943], [-87.636747, 41.889126], [-87.641432, 41.889102], [-87.641308, 41.884445], [-87.645482, 41.884408], [-87.645901, 41.884186], [-87.645999, 41.881827], [-87.646134, 41.880956], [-87.646145, 41.879569], [-87.646166, 41.878121], [-87.646544, 41.876602], [-87.647927, 41.875847], [-87.662425, 41.876121], [-87.666742, 41.876354], [-87.666531, 41.869262], [-87.670488, 41.8692]], "type": "LineString"}, "properties": {"timestamp": "2024-05-10T19:57:35"}}, {"type": "Feature", "geometry": {"coordinates": [[-87.670488, 41.8692], [-87.666399, 41.869264], [-87.666563, 41.875179], [-87.666292, 41.875183], [-87.662662, 41.87557], [-87.6605, 41.875604], [-87.651569, 41.875318], [-87.633678, 41.875524], [-87.633284, 41.861304]], "type": "LineString"}, "properties": {"timestamp": "2024-05-10T20:14:02"}}, {"type": "Feature", "geometry": {"coordinates": [[-87.633284, 41.861304], [-87.633566, 41.872148], [-87.627486, 41.872301], [-87.627503, 41.873099], [-87.617066, 41.873249], [-87.617167, 41.881825], [-87.613613, 41.884932], [-87.614041, 41.892878], [-87.619441, 41.900921], [-87.622727, 41.90171], [-87.623983, 41.902767], [-87.62589, 41.912141], [-87.628743, 41.918036], [-87.630534, 41.924159], [-87.63067, 41.926223], [-87.640463, 41.92558], [-87.641881, 41.927956]], "type": "LineString"}, "properties": {"timestamp": "2024-05-10T20:14:02"}}, {"type": "Feature", "geometry": {"coordinates": [[-87.641881, 41.927956], [-87.641881, 41.927956]], "type": "LineString"}, "properties": {"timestamp": "2024-05-10T20:32:04"}}, {"type": "Feature", "geometry": {"coordinates": [[-87.641881, 41.927956], [-87.640463, 41.92558], [-87.634084, 41.925697], [-87.631853, 41.926001], [-87.630603, 41.923776], [-87.628851, 41.917816], [-87.626142, 41.912297], [-87.62586, 41.909073], [-87.62421, 41.902733], [-87.62264, 41.901491], [-87.619617, 41.900898], [-87.614907, 41.893955], [-87.614335, 41.8919], [-87.614196, 41.891128], [-87.61158, 41.891141], [-87.611588, 41.891531]], "type": "LineString"}, "properties": {"timestamp": "2024-05-10T20:32:04"}}, {"type": "Feature", "geometry": {"coordinates": [[-87.611588, 41.891531], [-87.611597, 41.891968], [-87.617687, 41.891833], [-87.617676, 41.891456]], "type": "LineString"}, "properties": {"timestamp": "2024-05-10T20:53:06"}}, {"type": "Feature", "geometry": {"coordinates": [[-87.617676, 41.891456], [-87.617687, 41.891833], [-87.629638, 41.891644], [-87.62978, 41.896655], [-87.63421, 41.896586], [-87.634293, 41.898867]], "type": "LineString"}, "properties": {"timestamp": "2024-05-10T20:53:06"}}, {"type": "Feature", "geometry": {"coordinates": [[-87.634293, 41.898867], [-87.63435, 41.90053], [-87.632901, 41.900546], [-87.632884, 41.899913]], "type": "LineString"}, "properties": {"timestamp": "2024-05-10T21:02:26"}}, {"type": "Feature", "geometry": {"coordinates": [[-87.632884, 41.899913], [-87.632696, 41.891597], [-87.639878, 41.891506], [-87.644384, 41.891225], [-87.644184, 41.884425], [-87.646033, 41.884406]], "type": "LineString"}, "properties": {"timestamp": "2024-05-10T21:02:26"}}, {"type": "Feature", "geometry": {"coordinates": [[-87.646033, 41.884406], [-87.648607, 41.884393], [-87.648752, 41.889662]], "type": "LineString"}, "properties": {"timestamp": "2024-05-10T21:21:21"}}, {"type": "Feature", "geometry": {"coordinates": [[-87.648752, 41.889662], [-87.648644, 41.885646], [-87.646258, 41.885682], [-87.644363, 41.857367], [-87.645245, 41.851247], [-87.642429, 41.847384], [-87.634652, 41.845323], [-87.632773, 41.844384], [-87.63164, 41.842858], [-87.631163, 41.834246], [-87.631513, 41.830937], [-87.626457, 41.831008], [-87.626475, 41.83283], [-87.625023, 41.832863]], "type": "LineString"}, "properties": {"timestamp": "2024-05-10T21:21:21"}}, {"type": "Feature", "geometry": {"coordinates": [[-87.625023, 41.832863], [-87.626475, 41.83283], [-87.626821, 41.846791], [-87.626258, 41.84692], [-87.622663, 41.847885], [-87.616851, 41.847976], [-87.613276, 41.848193], [-87.612394, 41.848832], [-87.612177, 41.849732], [-87.613531, 41.852962], [-87.615172, 41.85531], [-87.617619, 41.860334], [-87.618518, 41.862767], [-87.619221, 41.866556], [-87.619018, 41.867469], [-87.625221, 41.86749]], "type": "LineString"}, "properties": {"timestamp": "2024-05-10T21:33:10"}}, {"type": "Feature", "geometry": {"coordinates": [[-87.625221, 41.86749], [-87.63923, 41.867316], [-87.639012, 41.860021], [-87.661368, 41.859697], [-87.661353, 41.859221]], "type": "LineString"}, "properties": {"timestamp": "2024-05-10T21:33:10"}}, {"type": "Feature", "geometry": {"coordinates": [[-87.661353, 41.859221], [-87.661305, 41.857734], [-87.664137, 41.854193], [-87.666112, 41.854154], [-87.664826, 41.800728]], "type": "LineString"}, "properties": {"timestamp": "2024-05-10T21:51:43"}}, {"type": "Feature", "geometry": {"coordinates": [[-87.664826, 41.800728], [-87.664794, 41.7995], [-87.6649, 41.808607], [-87.630859, 41.8091], [-87.630418, 41.81002], [-87.630393, 41.837743], [-87.631347, 41.844144], [-87.642036, 41.847354], [-87.644829, 41.85074], [-87.644517, 41.867845], [-87.644628, 41.873521], [-87.645646, 41.875725], [-87.649223, 41.875863], [-87.688313, 41.875763], [-87.692409, 41.875862], [-87.701067, 41.875937], [-87.702278, 41.902886], [-87.701605, 41.902888]], "type": "LineString"}, "properties": {"timestamp": "2024-05-10T21:51:43"}}, {"type": "Feature", "geometry": {"coordinates": [[-87.701605, 41.902888], [-87.701605, 41.902888]], "type": "LineString"}, "properties": {"timestamp": "2024-05-10T22:08:43"}}, {"type": "Feature", "geometry": {"coordinates": [[-87.701605, 41.902888], [-87.701605, 41.902888]], "type": "LineString"}, "properties": {"timestamp": "2024-05-10T22:08:43"}}, {"type": "Feature", "geometry": {"coordinates": [[-87.701605, 41.902888], [-87.731211, 41.902599], [-87.731187, 41.901682], [-87.735584, 41.901613]], "type": "LineString"}, "properties": {"timestamp": "2024-05-10T22:14:56"}}, {"type": "Feature", "geometry": {"coordinates": [[-87.735584, 41.901613], [-87.736118, 41.901604], [-87.736145, 41.902516], [-87.702278, 41.902886], [-87.70125, 41.907241], [-87.701875, 41.910165], [-87.677494, 41.910469], [-87.677591, 41.916239]], "type": "LineString"}, "properties": {"timestamp": "2024-05-10T22:14:56"}}, {"type": "Feature", "geometry": {"coordinates": [[-87.677591, 41.916239], [-87.677893, 41.925026], [-87.681912, 41.924981], [-87.685177, 41.926707], [-87.709664, 41.940439], [-87.714861, 41.942208], [-87.719618, 41.947985], [-87.738838, 41.958569], [-87.741371, 41.960451], [-87.74187, 41.960845], [-87.794161, 41.960081], [-87.816945, 41.949144], [-87.816641, 41.941072]], "type": "LineString"}, "properties": {"timestamp": "2024-05-10T22:33:44"}}, {"type": "Feature", "geometry": {"coordinates": [[-87.816641, 41.941072], [-87.816587, 41.939617], [-87.817797, 41.939594], [-87.818384, 41.948419], [-87.797713, 41.958438], [-87.797737, 41.968342], [-87.778289, 41.96853], [-87.77728, 41.967665], [-87.747723, 41.968033], [-87.747918, 41.972896], [-87.747761, 41.972794], [-87.747223, 41.966563], [-87.745232, 41.962358], [-87.719592, 41.947613], [-87.715306, 41.94215], [-87.709927, 41.940372], [-87.670146, 41.917654], [-87.66137, 41.906646], [-87.659066, 41.897394], [-87.653065, 41.892534], [-87.628093, 41.892476], [-87.628109, 41.893025]], "type": "LineString"}, "properties": {"timestamp": "2024-05-10T22:33:44"}}, {"type": "Feature", "geometry": {"coordinates": [[-87.628109, 41.893025], [-87.628093, 41.892476], [-87.624293, 41.892538], [-87.624246, 41.890945], [-87.621986, 41.890981], [-87.621956, 41.890899], [-87.621861, 41.890848], [-87.621745, 41.890853], [-87.62164, 41.890945], [-87.621649, 41.891015], [-87.621785, 41.891098], [-87.621905, 41.891081], [-87.621986, 41.890981], [-87.624074, 41.890948], [-87.624094, 41.891505]], "type": "LineString"}, "properties": {"timestamp": "2024-05-10T22:49:09"}}, {"type": "Feature", "geometry": {"coordinates": [[-87.624094, 41.891505], [-87.62414, 41.893338], [-87.641157, 41.8931], [-87.639878, 41.891506], [-87.643004, 41.891239], [-87.644384, 41.891225], [-87.644304, 41.887821]], "type": "LineString"}, "properties": {"timestamp": "2024-05-10T22:49:09"}}, {"type": "Feature", "geometry": {"coordinates": [[-87.644304, 41.887821], [-87.644242, 41.885699], [-87.641346, 41.885723], [-87.641184, 41.885683], [-87.640035, 41.885684], [-87.639866, 41.885734], [-87.63676, 41.885733], [-87.636645, 41.88597], [-87.63648, 41.886123], [-87.635439, 41.886768], [-87.635158, 41.886821], [-87.634232, 41.886821]], "type": "LineString"}, "properties": {"timestamp": "2024-05-10T23:03:08"}}, {"type": "Feature", "geometry": {"coordinates": [[-87.634232, 41.886821], [-87.633975, 41.886821], [-87.633848, 41.881941], [-87.64573, 41.881801], [-87.645735, 41.885306], [-87.647404, 41.888483], [-87.64861, 41.889615], [-87.657024, 41.895403], [-87.658783, 41.897251], [-87.660805, 41.901753], [-87.661061, 41.906443], [-87.664439, 41.910145], [-87.667973, 41.915739], [-87.66968, 41.917898], [-87.705789, 41.917413]], "type": "LineString"}, "properties": {"timestamp": "2024-05-10T23:03:08"}}, {"type": "Feature", "geometry": {"coordinates": [[-87.705789, 41.917413], [-87.702101, 41.91745], [-87.701875, 41.910165], [-87.695773, 41.910241], [-87.69582, 41.911942]], "type": "LineString"}, "properties": {"timestamp": "2024-05-11T00:04:24"}}, {"type": "Feature", "geometry": {"coordinates": [[-87.69582, 41.911942], [-87.695823, 41.912067], [-87.694602, 41.912078], [-87.69455, 41.910258], [-87.687207, 41.910324], [-87.686835, 41.89575], [-87.684398, 41.89579], [-87.684402, 41.895962]], "type": "LineString"}, "properties": {"timestamp": "2024-05-11T00:04:24"}}, {"type": "Feature", "geometry": {"coordinates": [[-87.684402, 41.895962], [-87.684398, 41.89579], [-87.677057, 41.895912], [-87.677276, 41.903184], [-87.674833, 41.903226], [-87.674795, 41.902204]], "type": "LineString"}, "properties": {"timestamp": "2024-05-11T00:11:16"}}, {"type": "Feature", "geometry": {"coordinates": [[-87.674795, 41.902204], [-87.674717, 41.899586], [-87.660982, 41.899842], [-87.660843, 41.899711], [-87.657719, 41.895493], [-87.647794, 41.888636], [-87.646614, 41.886973], [-87.646108, 41.885119], [-87.646413, 41.883144], [-87.641266, 41.883178], [-87.639745, 41.883185], [-87.624233, 41.883257], [-87.624344, 41.884366], [-87.623414, 41.884372], [-87.617529, 41.884406], [-87.617418, 41.885524], [-87.616288, 41.885561], [-87.616289, 41.886523], [-87.618715, 41.88653]], "type": "LineString"}, "properties": {"timestamp": "2024-05-11T00:11:16"}}, {"type": "Feature", "geometry": {"coordinates": [[-87.618715, 41.88653], [-87.619106, 41.886506], [-87.6191, 41.885527], [-87.617418, 41.885524], [-87.617389, 41.884538], [-87.624371, 41.884484], [-87.624042, 41.900824], [-87.623664, 41.902709], [-87.62589, 41.912141], [-87.628743, 41.918036], [-87.631417, 41.926949]], "type": "LineString"}, "properties": {"timestamp": "2024-05-11T00:31:26"}}, {"type": "Feature", "geometry": {"coordinates": [[-87.631417, 41.926949], [-87.631907, 41.928725], [-87.631911, 41.933173], [-87.632273, 41.934701], [-87.633661, 41.936704], [-87.63676, 41.939073], [-87.638088, 41.940568], [-87.638796, 41.940268], [-87.638606, 41.939931], [-87.634194, 41.936955], [-87.632527, 41.93482], [-87.632114, 41.933155], [-87.632048, 41.928427], [-87.629189, 41.918735], [-87.627538, 41.915117], [-87.627206, 41.913042], [-87.628067, 41.912346], [-87.631428, 41.913459], [-87.633196, 41.912907], [-87.633004, 41.903886], [-87.637466, 41.903798]], "type": "LineString"}, "properties": {"timestamp": "2024-05-11T00:31:26"}}, {"type": "Feature", "geometry": {"coordinates": [[-87.637466, 41.903798], [-87.634474, 41.903857], [-87.634293, 41.898867]], "type": "LineString"}, "properties": {"timestamp": "2024-05-11T00:48:59"}}, {"type": "Feature", "geometry": {"coordinates": [[-87.634293, 41.898867], [-87.63435, 41.90053], [-87.628335, 41.9006], [-87.62834, 41.900747], [-87.624042, 41.900824], [-87.623664, 41.902709], [-87.62589, 41.912141], [-87.628743, 41.918036], [-87.631851, 41.928415], [-87.632152, 41.934381], [-87.633661, 41.936704], [-87.63676, 41.939073], [-87.638088, 41.940568], [-87.64439, 41.940035], [-87.644433, 41.94114], [-87.644851, 41.941134]], "type": "LineString"}, "properties": {"timestamp": "2024-05-11T00:48:59"}}, {"type": "Feature", "geometry": {"coordinates": [[-87.644851, 41.941134], [-87.644851, 41.941134]], "type": "LineString"}, "properties": {"timestamp": "2024-05-11T01:07:43"}}, {"type": "Feature", "geometry": {"coordinates": [[-87.644851, 41.941134], [-87.649309, 41.941079], [-87.649275, 41.939973], [-87.638796, 41.940268], [-87.638606, 41.939931], [-87.634194, 41.936955], [-87.632453, 41.934639], [-87.632048, 41.928427], [-87.629189, 41.918735], [-87.62605, 41.911998], [-87.62421, 41.902733], [-87.62264, 41.901491], [-87.619617, 41.900898], [-87.614304, 41.892985], [-87.614127, 41.884928], [-87.61714, 41.882436], [-87.617506, 41.88092], [-87.624244, 41.880838], [-87.624206, 41.881322], [-87.624508, 41.882115], [-87.640505, 41.881877]], "type": "LineString"}, "properties": {"timestamp": "2024-05-11T01:07:43"}}, {"type": "Feature", "geometry": {"coordinates": [[-87.640505, 41.881877], [-87.642638, 41.881847], [-87.642764, 41.885711], [-87.644242, 41.885699], [-87.644337, 41.889054], [-87.648718, 41.889017], [-87.648752, 41.889662]], "type": "LineString"}, "properties": {"timestamp": "2024-05-11T01:24:03"}}, {"type": "Feature", "geometry": {"coordinates": [[-87.648752, 41.889662], [-87.64876, 41.890082], [-87.647611, 41.890088], [-87.648086, 41.903643], [-87.638347, 41.903783], [-87.638941, 41.921954], [-87.638269, 41.921963], [-87.641881, 41.927956]], "type": "LineString"}, "properties": {"timestamp": "2024-05-11T01:24:03"}}, {"type": "Feature", "geometry": {"coordinates": [[-87.641881, 41.927956], [-87.640463, 41.92558], [-87.631853, 41.926001], [-87.626142, 41.912297], [-87.62421, 41.902733], [-87.619617, 41.900898], [-87.614264, 41.892868], [-87.614127, 41.884928], [-87.617453, 41.881821], [-87.617261, 41.869765], [-87.619588, 41.866208], [-87.614728, 41.853242], [-87.614444, 41.848506], [-87.626818, 41.84732], [-87.631727, 41.847855], [-87.631351, 41.843118], [-87.631289, 41.79178], [-87.631532, 41.783322], [-87.631833, 41.779372], [-87.632128, 41.779366], [-87.632538, 41.778543]], "type": "LineString"}, "properties": {"timestamp": "2024-05-11T01:49:16"}}, {"type": "Feature", "geometry": {"coordinates": [[-87.632538, 41.778543], [-87.632128, 41.779366], [-87.631833, 41.779372], [-87.631812, 41.778124], [-87.635009, 41.778077], [-87.635057, 41.779907], [-87.630139, 41.779931], [-87.630149, 41.780433], [-87.63142, 41.807989], [-87.629665, 41.812785], [-87.630393, 41.837743], [-87.631347, 41.844144], [-87.642036, 41.847354], [-87.644829, 41.85074], [-87.644517, 41.867845], [-87.644628, 41.873521], [-87.645646, 41.875725], [-87.649223, 41.875863], [-87.697235, 41.875658], [-87.716326, 41.874195], [-87.719801, 41.874461], [-87.720917, 41.885208], [-87.725297, 41.885455], [-87.725796, 41.885541], [-87.726291, 41.902679], [-87.733686, 41.902557], [-87.733699, 41.903012], [-87.733404, 41.903016]], "type": "LineString"}, "properties": {"timestamp": "2024-05-11T01:49:16"}}, {"type": "Feature", "geometry": {"coordinates": [[-87.733404, 41.903016], [-87.733404, 41.903016]], "type": "LineString"}, "properties": {"timestamp": "2024-05-11T02:13:11"}}, {"type": "Feature", "geometry": {"coordinates": [[-87.733404, 41.903016], [-87.733699, 41.903012], [-87.733871, 41.909115], [-87.746005, 41.913935], [-87.747627, 41.96438], [-87.745977, 41.964394], [-87.746614, 41.980044], [-87.751348, 41.987222], [-87.748589, 42.006167], [-87.748003, 42.010101], [-87.747943, 42.011715], [-87.709065, 42.011874], [-87.709304, 42.00568]], "type": "LineString"}, "properties": {"timestamp": "2024-05-11T02:13:11"}}, {"type": "Feature", "geometry": {"coordinates": [[-87.709304, 42.00568], [-87.709354, 41.997394], [-87.748324, 41.997339], [-87.748329, 41.989958], [-87.751817, 41.990525], [-87.751942, 41.991757], [-87.751225, 41.986057], [-87.746835, 41.980228], [-87.747223, 41.966563], [-87.745961, 41.963113], [-87.742125, 41.960129], [-87.719592, 41.947613], [-87.715306, 41.94215], [-87.698173, 41.933659], [-87.687291, 41.927358], [-87.684125, 41.925223], [-87.687645, 41.924902], [-87.687413, 41.917587], [-87.686834, 41.917597], [-87.686552, 41.917281], [-87.686958, 41.916886], [-87.687029, 41.916926], [-87.68709, 41.917217]], "type": "LineString"}, "properties": {"timestamp": "2024-05-11T03:21:15"}}, {"type": "Feature", "geometry": {"coordinates": [[-87.68709, 41.917217], [-87.687403, 41.917196], [-87.688469, 41.953985], [-87.668983, 41.954306], [-87.669707, 41.988054], [-87.669796, 41.987608], [-87.669769, 41.987519]], "type": "LineString"}, "properties": {"timestamp": "2024-05-11T03:21:15"}}, {"type": "Feature", "geometry": {"coordinates": [[-87.669769, 41.987519], [-87.669181, 41.985433], [-87.663294, 41.985603], [-87.662456, 41.985105], [-87.654178, 41.985586], [-87.653157, 41.984999], [-87.652706, 41.981232], [-87.648822, 41.972134], [-87.644905, 41.955203], [-87.644611, 41.950978], [-87.638957, 41.941067], [-87.632637, 41.935041], [-87.631858, 41.927741], [-87.631853, 41.926001], [-87.640463, 41.92558], [-87.641881, 41.927956]], "type": "LineString"}, "properties": {"timestamp": "2024-05-11T03:43:05"}}, {"type": "Feature", "geometry": {"coordinates": [[-87.641881, 41.927956], [-87.640463, 41.92558], [-87.681912, 41.924981], [-87.685177, 41.926707], [-87.709664, 41.940439], [-87.715161, 41.942387], [-87.716453, 41.943551], [-87.71887, 41.947406], [-87.723791, 41.950079], [-87.727575, 41.952511], [-87.727522, 41.950904], [-87.726293, 41.950185], [-87.726221, 41.947929]], "type": "LineString"}, "properties": {"timestamp": "2024-05-11T03:43:05"}}, {"type": "Feature", "geometry": {"coordinates": [[-87.726221, 41.947929], [-87.726178, 41.946394], [-87.727395, 41.946377], [-87.727612, 41.95365], [-87.712908, 41.953809], [-87.713373, 41.968411], [-87.714891, 41.968394]], "type": "LineString"}, "properties": {"timestamp": "2024-05-11T04:04:35"}}, {"type": "Feature", "geometry": {"coordinates": [[-87.714891, 41.968394], [-87.708478, 41.968457], [-87.708877, 41.983076], [-87.69309, 41.983147], [-87.693149, 41.984973], [-87.694356, 41.984966], [-87.69432, 41.983837]], "type": "LineString"}, "properties": {"timestamp": "2024-05-11T04:04:35"}}, {"type": "Feature", "geometry": {"coordinates": [[-87.69432, 41.983837], [-87.694297, 41.983141], [-87.689415, 41.983166], [-87.689669, 41.99044], [-87.67223, 41.990752], [-87.662456, 41.985105], [-87.654178, 41.985586], [-87.653157, 41.984999], [-87.652706, 41.981232], [-87.648822, 41.972134], [-87.644905, 41.955203], [-87.64469, 41.951193], [-87.638957, 41.941067], [-87.632527, 41.93482], [-87.632048, 41.928427], [-87.627538, 41.915117], [-87.627206, 41.913042], [-87.628067, 41.912346], [-87.631075, 41.913404], [-87.632856, 41.913169], [-87.634358, 41.915623], [-87.634849, 41.915479], [-87.638503, 41.918106]], "type": "LineString"}, "properties": {"timestamp": "2024-05-11T04:21:35"}}, {"type": "Feature", "geometry": {"coordinates": [[-87.638503, 41.918106], [-87.638808, 41.918322], [-87.638941, 41.921954], [-87.63646, 41.92199], [-87.636586, 41.925658], [-87.63067, 41.926223], [-87.631851, 41.928415], [-87.632612, 41.935386], [-87.638833, 41.941219], [-87.644376, 41.950931], [-87.646094, 41.960253], [-87.645534, 41.962086], [-87.669185, 41.961593], [-87.669262, 41.96524], [-87.670929, 41.965218], [-87.670902, 41.964075]], "type": "LineString"}, "properties": {"timestamp": "2024-05-11T04:21:35"}}, {"type": "Feature", "geometry": {"coordinates": [[-87.670902, 41.964075], [-87.670887, 41.963394], [-87.674023, 41.963349], [-87.674063, 41.965175], [-87.688959, 41.964873], [-87.713874, 41.964757]], "type": "LineString"}, "properties": {"timestamp": "2024-05-11T04:45:06"}}, {"type": "Feature", "geometry": {"coordinates": [[-87.713874, 41.964757], [-87.713255, 41.96472], [-87.712911, 41.953916], [-87.727612, 41.95365], [-87.727395, 41.946377], [-87.739921, 41.946215]], "type": "LineString"}, "properties": {"timestamp": "2024-05-11T04:45:06"}}, {"type": "Feature", "geometry": {"coordinates": [[-87.739921, 41.946215], [-87.71959, 41.946484], [-87.718156, 41.944989], [-87.715518, 41.942115], [-87.710267, 41.940414], [-87.687291, 41.927358], [-87.683686, 41.924962], [-87.646336, 41.925491], [-87.64637, 41.926694], [-87.641326, 41.927017], [-87.641881, 41.927956]], "type": "LineString"}, "properties": {"timestamp": "2024-05-11T04:50:40"}}, {"type": "Feature", "geometry": {"coordinates": [[-87.641881, 41.927956], [-87.640463, 41.92558], [-87.63067, 41.926223], [-87.631851, 41.928415], [-87.632612, 41.935386], [-87.638833, 41.941219], [-87.644376, 41.950931], [-87.644596, 41.954749], [-87.648738, 41.973046], [-87.652251, 41.981039], [-87.652803, 41.984951], [-87.655253, 41.985556], [-87.655634, 41.997803], [-87.659646, 41.998196], [-87.660644, 41.998874], [-87.660824, 42.003604], [-87.664245, 42.0035], [-87.665668, 42.003481], [-87.665673, 42.003627], [-87.666051, 42.00362]], "type": "LineString"}, "properties": {"timestamp": "2024-05-11T04:50:40"}}, {"type": "Feature", "geometry": {"coordinates": [[-87.666051, 42.00362], [-87.666905, 42.003606], [-87.666741, 41.998129], [-87.67067, 41.998083], [-87.669796, 41.987608], [-87.66966, 41.976173], [-87.674927, 41.976095], [-87.67488, 41.974623]], "type": "LineString"}, "properties": {"timestamp": "2024-05-11T17:53:04"}}]}