<?xml version="1.0" encoding="UTF-8"?>
<gpx xmlns="http://www.topografix.com/GPX/1/1" xmlns:xsi="http://www.w3.org/2001/XMLSchema-instance" xsi:schemaLocation="http://www.topografix.com/GPX/1/1 http://www.topografix.com/GPX/1/1/gpx.xsd" version="1.1" creator="gpx.py -- https://github.com/tkrajina/gpxpy">
  <trk>
    <trkseg>
      <trkpt lat="41.986522" lon="-87.850966">
      </trkpt>
      <trkpt lat="41.988175" lon="-87.852095">
      </trkpt>
      <trkpt lat="41.988287" lon="-87.852779">
      </trkpt>
      <trkpt lat="41.98856" lon="-87.852741">
      </trkpt>
      <trkpt lat="41.984459" lon="-87.823337">
      </trkpt>
      <trkpt lat="41.983191" lon="-87.8235">
      </trkpt>
      <trkpt lat="41.983238" lon="-87.821798">
      </trkpt>
      <trkpt lat="41.982178" lon="-87.812646">
      </trkpt>
      <trkpt lat="41.982055" lon="-87.78387">
      </trkpt>
      <trkpt lat="41.972237" lon="-87.766154">
      </trkpt>
      <trkpt lat="41.970136" lon="-87.76013">
      </trkpt>
      <trkpt lat="41.957103" lon="-87.73715">
      </trkpt>
      <trkpt lat="41.953617" lon="-87.731304">
      </trkpt>
      <trkpt lat="41.954009" lon="-87.69331">
      </trkpt>
      <trkpt lat="41.957652" lon="-87.693338">
      </trkpt>
      <trkpt lat="41.957654" lon="-87.691697">
      </trkpt>
      <trkpt lat="41.958571" lon="-87.69172">
      </trkpt>
      <trkpt lat="41.958553" lon="-87.693909">
      </trkpt>
      <trkpt lat="41.958567" lon="-87.694067">
      </trkpt>
      <trkpt lat="41.958567" lon="-87.694067">
      </trkpt>
      <trkpt lat="41.958571" lon="-87.69172">
      </trkpt>
      <trkpt lat="41.957654" lon="-87.691697">
      </trkpt>
      <trkpt lat="41.957652" lon="-87.692164">
      </trkpt>
      <trkpt lat="41.954062" lon="-87.692062">
      </trkpt>
      <trkpt lat="41.95365" lon="-87.727612">
      </trkpt>
      <trkpt lat="41.946377" lon="-87.727395">
      </trkpt>
      <trkpt lat="41.946122" lon="-87.747072">
      </trkpt>
      <trkpt lat="41.931542" lon="-87.746595">
      </trkpt>
      <trkpt lat="41.93147" lon="-87.751741">
      </trkpt>
      <trkpt lat="41.93147" lon="-87.751741">
      </trkpt>
      <trkpt lat="41.931542" lon="-87.746595">
      </trkpt>
      <trkpt lat="41.96438" lon="-87.747627">
      </trkpt>
      <trkpt lat="41.964394" lon="-87.745977">
      </trkpt>
      <trkpt lat="41.980044" lon="-87.746614">
      </trkpt>
      <trkpt lat="41.987222" lon="-87.751348">
      </trkpt>
      <trkpt lat="42.006167" lon="-87.748589">
      </trkpt>
      <trkpt lat="42.010101" lon="-87.748003">
      </trkpt>
      <trkpt lat="42.019034" lon="-87.747705">
      </trkpt>
      <trkpt lat="42.019432" lon="-87.694891">
      </trkpt>
      <trkpt lat="42.017844" lon="-87.694913">
      </trkpt>
      <trkpt lat="42.017844" lon="-87.694913">
      </trkpt>
      <trkpt lat="42.017624" lon="-87.694916">
      </trkpt>
      <trkpt lat="42.017524" lon="-87.699634">
      </trkpt>
      <trkpt lat="42.004843" lon="-87.699839">
      </trkpt>
      <trkpt lat="41.993982" lon="-87.699516">
      </trkpt>
      <trkpt lat="41.993968" lon="-87.700743">
      </trkpt>
      <trkpt lat="41.993673" lon="-87.700733">
      </trkpt>
      <trkpt lat="41.993673" lon="-87.700733">
      </trkpt>
      <trkpt lat="41.990441" lon="-87.700623">
      </trkpt>
      <trkpt lat="41.990388" lon="-87.70943">
      </trkpt>
      <trkpt lat="41.990388" lon="-87.70943">
      </trkpt>
      <trkpt lat="41.990336" lon="-87.713981">
      </trkpt>
      <trkpt lat="41.957384" lon="-87.713022">
      </trkpt>
      <trkpt lat="41.957384" lon="-87.713022">
      </trkpt>
      <trkpt lat="41.940478" lon="-87.712526">
      </trkpt>
      <trkpt lat="41.939977" lon="-87.709442">
      </trkpt>
      <trkpt lat="41.917124" lon="-87.669746">
      </trkpt>
      <trkpt lat="41.906635" lon="-87.661559">
      </trkpt>
      <trkpt lat="41.896667" lon="-87.658834">
      </trkpt>
      <trkpt lat="41.887778" lon="-87.647099">
      </trkpt>
      <trkpt lat="41.881827" lon="-87.645999">
      </trkpt>
      <trkpt lat="41.880956" lon="-87.646134">
      </trkpt>
      <trkpt lat="41.879569" lon="-87.646145">
      </trkpt>
      <trkpt lat="41.878121" lon="-87.646166">
      </trkpt>
      <trkpt lat="41.876334" lon="-87.646815">
      </trkpt>
      <trkpt lat="41.875728" lon="-87.649135">
      </trkpt>
      <trkpt lat="41.875658" lon="-87.697235">
      </trkpt>
      <trkpt lat="41.874195" lon="-87.716326">
      </trkpt>
      <trkpt lat="41.874358" lon="-87.725442">
      </trkpt>
      <trkpt lat="41.851087" lon="-87.72475">
      </trkpt>
      <trkpt lat="41.848648" lon="-87.73165">
      </trkpt>
      <trkpt lat="41.848648" lon="-87.73165">
      </trkpt>
      <trkpt lat="41.849963" lon="-87.727939">
      </trkpt>
      <trkpt lat="41.851431" lon="-87.727998">
      </trkpt>
      <trkpt lat="41.851487" lon="-87.72476">
      </trkpt>
      <trkpt lat="41.873009" lon="-87.7254">
      </trkpt>
      <trkpt lat="41.871984" lon="-87.729043">
      </trkpt>
      <trkpt lat="41.872955" lon="-87.729071">
      </trkpt>
      <trkpt lat="41.872946" lon="-87.729961">
      </trkpt>
      <trkpt lat="41.872946" lon="-87.729961">
      </trkpt>
      <trkpt lat="41.872942" lon="-87.730294">
      </trkpt>
      <trkpt lat="41.871651" lon="-87.730248">
      </trkpt>
      <trkpt lat="41.868902" lon="-87.740266">
      </trkpt>
      <trkpt lat="41.868502" lon="-87.744836">
      </trkpt>
      <trkpt lat="41.872073" lon="-87.744871">
      </trkpt>
      <trkpt lat="41.872052" lon="-87.746045">
      </trkpt>
      <trkpt lat="41.871025" lon="-87.76928">
      </trkpt>
      <trkpt lat="41.873251" lon="-87.799298">
      </trkpt>
      <trkpt lat="41.87368" lon="-87.804441">
      </trkpt>
      <trkpt lat="41.938002" lon="-87.806735">
      </trkpt>
      <trkpt lat="41.937955" lon="-87.815295">
      </trkpt>
      <trkpt lat="41.94138" lon="-87.815423">
      </trkpt>
      <trkpt lat="41.941356" lon="-87.816652">
      </trkpt>
      <trkpt lat="41.941072" lon="-87.816641">
      </trkpt>
      <trkpt lat="41.941072" lon="-87.816641">
      </trkpt>
      <trkpt lat="41.939617" lon="-87.816587">
      </trkpt>
      <trkpt lat="41.939594" lon="-87.817797">
      </trkpt>
      <trkpt lat="41.948419" lon="-87.818384">
      </trkpt>
      <trkpt lat="41.960061" lon="-87.794287">
      </trkpt>
      <trkpt lat="41.960205" lon="-87.786816">
      </trkpt>
      <trkpt lat="41.962988" lon="-87.786909">
      </trkpt>
      <trkpt lat="41.964947" lon="-87.788044">
      </trkpt>
      <trkpt lat="41.997353" lon="-87.787472">
      </trkpt>
      <trkpt lat="41.997394" lon="-87.709354">
      </trkpt>
      <trkpt lat="42.004672" lon="-87.709343">
      </trkpt>
      <trkpt lat="42.005444" lon="-87.666961">
      </trkpt>
      <trkpt lat="42.001949" lon="-87.666861">
      </trkpt>
      <trkpt lat="42.001949" lon="-87.666861">
      </trkpt>
      <trkpt lat="41.998129" lon="-87.666741">
      </trkpt>
      <trkpt lat="41.998011" lon="-87.655748">
      </trkpt>
      <trkpt lat="41.985556" lon="-87.655253">
      </trkpt>
      <trkpt lat="41.984999" lon="-87.653157">
      </trkpt>
      <trkpt lat="41.973006" lon="-87.649079">
      </trkpt>
      <trkpt lat="41.950978" lon="-87.644611">
      </trkpt>
      <trkpt lat="41.941067" lon="-87.638957">
      </trkpt>
      <trkpt lat="41.934639" lon="-87.632453">
      </trkpt>
      <trkpt lat="41.928427" lon="-87.632048">
      </trkpt>
      <trkpt lat="41.904908" lon="-87.624861">
      </trkpt>
      <trkpt lat="41.901978" lon="-87.624179">
      </trkpt>
      <trkpt lat="41.894143" lon="-87.624336">
      </trkpt>
      <trkpt lat="41.894164" lon="-87.622757">
      </trkpt>
      <trkpt lat="41.893947" lon="-87.622751">
      </trkpt>
      <trkpt lat="41.893947" lon="-87.622751">
      </trkpt>
      <trkpt lat="41.892566" lon="-87.62271">
      </trkpt>
      <trkpt lat="41.892574" lon="-87.621881">
      </trkpt>
      <trkpt lat="41.892574" lon="-87.621881">
      </trkpt>
      <trkpt lat="41.892685" lon="-87.614597">
      </trkpt>
      <trkpt lat="41.893135" lon="-87.61463">
      </trkpt>
      <trkpt lat="41.900826" lon="-87.619754">
      </trkpt>
      <trkpt lat="41.900951" lon="-87.620116">
      </trkpt>
      <trkpt lat="41.90082" lon="-87.624141">
      </trkpt>
      <trkpt lat="41.901687" lon="-87.624024">
      </trkpt>
      <trkpt lat="41.902429" lon="-87.624503">
      </trkpt>
      <trkpt lat="41.904013" lon="-87.625015">
      </trkpt>
      <trkpt lat="41.903798" lon="-87.637466">
      </trkpt>
      <trkpt lat="41.903798" lon="-87.637466">
      </trkpt>
      <trkpt lat="41.903716" lon="-87.643216">
      </trkpt>
      <trkpt lat="41.905061" lon="-87.64326">
      </trkpt>
      <trkpt lat="41.905001" lon="-87.648123">
      </trkpt>
      <trkpt lat="41.905038" lon="-87.648124">
      </trkpt>
      <trkpt lat="41.905042" lon="-87.649202">
      </trkpt>
      <trkpt lat="41.905133" lon="-87.649323">
      </trkpt>
      <trkpt lat="41.905133" lon="-87.649323">
      </trkpt>
      <trkpt lat="41.905042" lon="-87.649202">
      </trkpt>
      <trkpt lat="41.905038" lon="-87.648124">
      </trkpt>
      <trkpt lat="41.896403" lon="-87.64782">
      </trkpt>
      <trkpt lat="41.896737" lon="-87.624345">
      </trkpt>
      <trkpt lat="41.894143" lon="-87.624336">
      </trkpt>
      <trkpt lat="41.894164" lon="-87.622757">
      </trkpt>
      <trkpt lat="41.893947" lon="-87.622751">
      </trkpt>
      <trkpt lat="41.893947" lon="-87.622751">
      </trkpt>
      <trkpt lat="41.893947" lon="-87.622751">
      </trkpt>
      <trkpt lat="41.893947" lon="-87.622751">
      </trkpt>
      <trkpt lat="41.894164" lon="-87.622757">
      </trkpt>
      <trkpt lat="41.894214" lon="-87.620307">
      </trkpt>
      <trkpt lat="41.896781" lon="-87.620387">
      </trkpt>
      <trkpt lat="41.896844" lon="-87.616893">
      </trkpt>
      <trkpt lat="41.892868" lon="-87.614264">
      </trkpt>
      <trkpt lat="41.885247" lon="-87.614081">
      </trkpt>
      <trkpt lat="41.884041" lon="-87.614645">
      </trkpt>
      <trkpt lat="41.881821" lon="-87.617453">
      </trkpt>
      <trkpt lat="41.869765" lon="-87.617261">
      </trkpt>
      <trkpt lat="41.866068" lon="-87.619589">
      </trkpt>
      <trkpt lat="41.853242" lon="-87.614728">
      </trkpt>
      <trkpt lat="41.849799" lon="-87.613506">
      </trkpt>
      <trkpt lat="41.848506" lon="-87.614444">
      </trkpt>
      <trkpt lat="41.848101" lon="-87.623443">
      </trkpt>
      <trkpt lat="41.84732" lon="-87.626818">
      </trkpt>
      <trkpt lat="41.848155" lon="-87.630758">
      </trkpt>
      <trkpt lat="41.847855" lon="-87.631727">
      </trkpt>
      <trkpt lat="41.843118" lon="-87.631351">
      </trkpt>
      <trkpt lat="41.819121" lon="-87.630789">
      </trkpt>
      <trkpt lat="41.816682" lon="-87.631192">
      </trkpt>
      <trkpt lat="41.816426" lon="-87.631192">
      </trkpt>
      <trkpt lat="41.816544" lon="-87.623022">
      </trkpt>
      <trkpt lat="41.815421" lon="-87.623001">
      </trkpt>
      <trkpt lat="41.815421" lon="-87.623001">
      </trkpt>
      <trkpt lat="41.814738" lon="-87.622988">
      </trkpt>
      <trkpt lat="41.814689" lon="-87.626222">
      </trkpt>
      <trkpt lat="41.816493" lon="-87.626265">
      </trkpt>
      <trkpt lat="41.816448" lon="-87.629441">
      </trkpt>
      <trkpt lat="41.816639" lon="-87.629444">
      </trkpt>
      <trkpt lat="41.837743" lon="-87.630393">
      </trkpt>
      <trkpt lat="41.844069" lon="-87.631001">
      </trkpt>
      <trkpt lat="41.845776" lon="-87.63096">
      </trkpt>
      <trkpt lat="41.846653" lon="-87.630081">
      </trkpt>
      <trkpt lat="41.847827" lon="-87.623841">
      </trkpt>
      <trkpt lat="41.847976" lon="-87.616851">
      </trkpt>
      <trkpt lat="41.848193" lon="-87.613276">
      </trkpt>
      <trkpt lat="41.849732" lon="-87.612177">
      </trkpt>
      <trkpt lat="41.863523" lon="-87.618709">
      </trkpt>
      <trkpt lat="41.867696" lon="-87.62045">
      </trkpt>
      <trkpt lat="41.878331" lon="-87.620697">
      </trkpt>
      <trkpt lat="41.878293" lon="-87.624208">
      </trkpt>
      <trkpt lat="41.884366" lon="-87.624344">
      </trkpt>
      <trkpt lat="41.884372" lon="-87.623414">
      </trkpt>
      <trkpt lat="41.884319" lon="-87.621085">
      </trkpt>
      <trkpt lat="41.884319" lon="-87.621085">
      </trkpt>
      <trkpt lat="41.884316" lon="-87.620576">
      </trkpt>
      <trkpt lat="41.884489" lon="-87.624571">
      </trkpt>
      <trkpt lat="41.875724" lon="-87.62435">
      </trkpt>
      <trkpt lat="41.875658" lon="-87.697235">
      </trkpt>
      <trkpt lat="41.871004" lon="-87.768271">
      </trkpt>
      <trkpt lat="41.874235" lon="-87.810299">
      </trkpt>
      <trkpt lat="41.869778" lon="-87.887193">
      </trkpt>
      <trkpt lat="41.873868" lon="-87.903102">
      </trkpt>
      <trkpt lat="41.868556" lon="-87.918965">
      </trkpt>
      <trkpt lat="41.857187" lon="-87.929548">
      </trkpt>
      <trkpt lat="41.845298" lon="-87.946695">
      </trkpt>
      <trkpt lat="41.84403" lon="-87.978457">
      </trkpt>
      <trkpt lat="41.832098" lon="-88.015984">
      </trkpt>
      <trkpt lat="41.827558" lon="-88.021676">
      </trkpt>
      <trkpt lat="41.813668" lon="-88.028569">
      </trkpt>
      <trkpt lat="41.810006" lon="-88.034292">
      </trkpt>
      <trkpt lat="41.810084" lon="-88.073498">
      </trkpt>
      <trkpt lat="41.805662" lon="-88.087614">
      </trkpt>
      <trkpt lat="41.806483" lon="-88.159381">
      </trkpt>
      <trkpt lat="41.807737" lon="-88.164816">
      </trkpt>
      <trkpt lat="41.808158" lon="-88.166633">
      </trkpt>
      <trkpt lat="41.842049" lon="-88.17093">
      </trkpt>
      <trkpt lat="41.856978" lon="-88.160935">
      </trkpt>
      <trkpt lat="41.857012" lon="-88.176889">
      </trkpt>
      <trkpt lat="41.861458" lon="-88.192877">
      </trkpt>
      <trkpt lat="41.863763" lon="-88.19473">
      </trkpt>
      <trkpt lat="41.885083" lon="-88.194407">
      </trkpt>
      <trkpt lat="41.884636" lon="-88.204904">
      </trkpt>
      <trkpt lat="41.884636" lon="-88.204904">
      </trkpt>
      <trkpt lat="41.882" lon="-88.200892">
      </trkpt>
      <trkpt lat="41.882082" lon="-88.194625">
      </trkpt>
      <trkpt lat="41.85856" lon="-88.194851">
      </trkpt>
      <trkpt lat="41.850282" lon="-88.203689">
      </trkpt>
      <trkpt lat="41.830769" lon="-88.201072">
      </trkpt>
      <trkpt lat="41.815559" lon="-88.205031">
      </trkpt>
      <trkpt lat="41.802987" lon="-88.203554">
      </trkpt>
      <trkpt lat="41.806297" lon="-88.170986">
      </trkpt>
      <trkpt lat="41.805456" lon="-88.087366">
      </trkpt>
      <trkpt lat="41.809888" lon="-88.073551">
      </trkpt>
      <trkpt lat="41.809533" lon="-88.035675">
      </trkpt>
      <trkpt lat="41.81336" lon="-88.028541">
      </trkpt>
      <trkpt lat="41.830068" lon="-88.01898">
      </trkpt>
      <trkpt lat="41.836259" lon="-88.000391">
      </trkpt>
      <trkpt lat="41.843825" lon="-87.978408">
      </trkpt>
      <trkpt lat="41.845432" lon="-87.94557">
      </trkpt>
      <trkpt lat="41.853259" lon="-87.932811">
      </trkpt>
      <trkpt lat="41.864502" lon="-87.922937">
      </trkpt>
      <trkpt lat="41.872171" lon="-87.911351">
      </trkpt>
      <trkpt lat="41.873316" lon="-87.901684">
      </trkpt>
      <trkpt lat="41.869444" lon="-87.888177">
      </trkpt>
      <trkpt lat="41.869576" lon="-87.882376">
      </trkpt>
      <trkpt lat="41.874042" lon="-87.810791">
      </trkpt>
      <trkpt lat="41.87064" lon="-87.769061">
      </trkpt>
      <trkpt lat="41.875168" lon="-87.69832">
      </trkpt>
      <trkpt lat="41.875815" lon="-87.620619">
      </trkpt>
      <trkpt lat="41.878331" lon="-87.620697">
      </trkpt>
      <trkpt lat="41.878364" lon="-87.617182">
      </trkpt>
      <trkpt lat="41.884762" lon="-87.613645">
      </trkpt>
      <trkpt lat="41.892878" lon="-87.614041">
      </trkpt>
      <trkpt lat="41.900921" lon="-87.619441">
      </trkpt>
      <trkpt lat="41.902767" lon="-87.623983">
      </trkpt>
      <trkpt lat="41.924159" lon="-87.630534">
      </trkpt>
      <trkpt lat="41.926223" lon="-87.63067">
      </trkpt>
      <trkpt lat="41.92558" lon="-87.640463">
      </trkpt>
      <trkpt lat="41.927956" lon="-87.641881">
      </trkpt>
      <trkpt lat="41.927956" lon="-87.641881">
      </trkpt>
      <trkpt lat="41.92558" lon="-87.640463">
      </trkpt>
      <trkpt lat="41.926001" lon="-87.631853">
      </trkpt>
      <trkpt lat="41.902733" lon="-87.62421">
      </trkpt>
      <trkpt lat="41.900898" lon="-87.619617">
      </trkpt>
      <trkpt lat="41.892868" lon="-87.614264">
      </trkpt>
      <trkpt lat="41.866208" lon="-87.619588">
      </trkpt>
      <trkpt lat="41.853242" lon="-87.614728">
      </trkpt>
      <trkpt lat="41.848506" lon="-87.614444">
      </trkpt>
      <trkpt lat="41.84732" lon="-87.626818">
      </trkpt>
      <trkpt lat="41.847855" lon="-87.631727">
      </trkpt>
      <trkpt lat="41.843118" lon="-87.631351">
      </trkpt>
      <trkpt lat="41.779686" lon="-87.631207">
      </trkpt>
      <trkpt lat="41.772231" lon="-87.626113">
      </trkpt>
      <trkpt lat="41.72052" lon="-87.624621">
      </trkpt>
      <trkpt lat="41.71536" lon="-87.62925">
      </trkpt>
      <trkpt lat="41.714664" lon="-87.648733">
      </trkpt>
      <trkpt lat="41.712423" lon="-87.652734">
      </trkpt>
      <trkpt lat="41.700924" lon="-87.653382">
      </trkpt>
      <trkpt lat="41.696057" lon="-87.658942">
      </trkpt>
      <trkpt lat="41.687822" lon="-87.662025">
      </trkpt>
      <trkpt lat="41.667302" lon="-87.662861">
      </trkpt>
      <trkpt lat="41.657912" lon="-87.662859">
      </trkpt>
      <trkpt lat="41.655615" lon="-87.670277">
      </trkpt>
      <trkpt lat="41.655369" lon="-87.691186">
      </trkpt>
      <trkpt lat="41.649639" lon="-87.691911">
      </trkpt>
      <trkpt lat="41.649436" lon="-87.693784">
      </trkpt>
      <trkpt lat="41.649436" lon="-87.693784">
      </trkpt>
      <trkpt lat="41.649639" lon="-87.691911">
      </trkpt>
      <trkpt lat="41.655369" lon="-87.691186">
      </trkpt>
      <trkpt lat="41.655615" lon="-87.670277">
      </trkpt>
      <trkpt lat="41.658289" lon="-87.661676">
      </trkpt>
      <trkpt lat="41.663542" lon="-87.662153">
      </trkpt>
      <trkpt lat="41.6876" lon="-87.661702">
      </trkpt>
      <trkpt lat="41.695796" lon="-87.658693">
      </trkpt>
      <trkpt lat="41.700714" lon="-87.653084">
      </trkpt>
      <trkpt lat="41.712012" lon="-87.652574">
      </trkpt>
      <trkpt lat="41.714432" lon="-87.648322">
      </trkpt>
      <trkpt lat="41.714662" lon="-87.632642">
      </trkpt>
      <trkpt lat="41.715693" lon="-87.627057">
      </trkpt>
      <trkpt lat="41.719562" lon="-87.624177">
      </trkpt>
      <trkpt lat="41.769497" lon="-87.625651">
      </trkpt>
      <trkpt lat="41.779495" lon="-87.630747">
      </trkpt>
      <trkpt lat="41.838631" lon="-87.630667">
      </trkpt>
      <trkpt lat="41.844069" lon="-87.631001">
      </trkpt>
      <trkpt lat="41.846653" lon="-87.630081">
      </trkpt>
      <trkpt lat="41.847976" lon="-87.616851">
      </trkpt>
      <trkpt lat="41.84938" lon="-87.612168">
      </trkpt>
      <trkpt lat="41.8661" lon="-87.619244">
      </trkpt>
      <trkpt lat="41.89273" lon="-87.614003">
      </trkpt>
      <trkpt lat="41.900921" lon="-87.619441">
      </trkpt>
      <trkpt lat="41.902767" lon="-87.623983">
      </trkpt>
      <trkpt lat="41.924159" lon="-87.630534">
      </trkpt>
      <trkpt lat="41.926223" lon="-87.63067">
      </trkpt>
      <trkpt lat="41.92558" lon="-87.640463">
      </trkpt>
      <trkpt lat="41.928546" lon="-87.64223">
      </trkpt>
      <trkpt lat="41.928323" lon="-87.642977">
      </trkpt>
      <trkpt lat="41.928323" lon="-87.642977">
      </trkpt>
      <trkpt lat="41.928034" lon="-87.644207">
      </trkpt>
      <trkpt lat="41.925527" lon="-87.643933">
      </trkpt>
      <trkpt lat="41.926001" lon="-87.631853">
      </trkpt>
      <trkpt lat="41.912297" lon="-87.626142">
      </trkpt>
      <trkpt lat="41.902733" lon="-87.62421">
      </trkpt>
      <trkpt lat="41.900898" lon="-87.619617">
      </trkpt>
      <trkpt lat="41.892868" lon="-87.614264">
      </trkpt>
      <trkpt lat="41.884928" lon="-87.614127">
      </trkpt>
      <trkpt lat="41.881821" lon="-87.617453">
      </trkpt>
      <trkpt lat="41.869765" lon="-87.617261">
      </trkpt>
      <trkpt lat="41.866208" lon="-87.619588">
      </trkpt>
      <trkpt lat="41.853242" lon="-87.614728">
      </trkpt>
      <trkpt lat="41.848506" lon="-87.614444">
      </trkpt>
      <trkpt lat="41.84732" lon="-87.626818">
      </trkpt>
      <trkpt lat="41.847855" lon="-87.631727">
      </trkpt>
      <trkpt lat="41.843118" lon="-87.631351">
      </trkpt>
      <trkpt lat="41.819121" lon="-87.630789">
      </trkpt>
      <trkpt lat="41.816682" lon="-87.631192">
      </trkpt>
      <trkpt lat="41.816426" lon="-87.631192">
      </trkpt>
      <trkpt lat="41.816544" lon="-87.623022">
      </trkpt>
      <trkpt lat="41.815421" lon="-87.623001">
      </trkpt>
      <trkpt lat="41.815421" lon="-87.623001">
      </trkpt>
      <trkpt lat="41.814738" lon="-87.622988">
      </trkpt>
      <trkpt lat="41.814689" lon="-87.626222">
      </trkpt>
      <trkpt lat="41.83283" lon="-87.626475">
      </trkpt>
      <trkpt lat="41.832863" lon="-87.625023">
      </trkpt>
      <trkpt lat="41.832863" lon="-87.625023">
      </trkpt>
      <trkpt lat="41.83283" lon="-87.626475">
      </trkpt>
      <trkpt lat="41.846791" lon="-87.626821">
      </trkpt>
      <trkpt lat="41.84692" lon="-87.626258">
      </trkpt>
      <trkpt lat="41.847885" lon="-87.622663">
      </trkpt>
      <trkpt lat="41.847976" lon="-87.616851">
      </trkpt>
      <trkpt lat="41.848153" lon="-87.613392">
      </trkpt>
      <trkpt lat="41.84938" lon="-87.612168">
      </trkpt>
      <trkpt lat="41.860334" lon="-87.617619">
      </trkpt>
      <trkpt lat="41.8661" lon="-87.619244">
      </trkpt>
      <trkpt lat="41.869799" lon="-87.617003">
      </trkpt>
      <trkpt lat="41.881825" lon="-87.617167">
      </trkpt>
      <trkpt lat="41.884512" lon="-87.613723">
      </trkpt>
      <trkpt lat="41.889097" lon="-87.614006">
      </trkpt>
      <trkpt lat="41.890559" lon="-87.613604">
      </trkpt>
      <trkpt lat="41.890948" lon="-87.61169">
      </trkpt>
      <trkpt lat="41.891968" lon="-87.611597">
      </trkpt>
      <trkpt lat="41.891751" lon="-87.622685">
      </trkpt>
      <trkpt lat="41.893947" lon="-87.622751">
      </trkpt>
      <trkpt lat="41.893947" lon="-87.622751">
      </trkpt>
      <trkpt lat="41.894975" lon="-87.62278">
      </trkpt>
      <trkpt lat="41.89495" lon="-87.624182">
      </trkpt>
      <trkpt lat="41.900824" lon="-87.624042">
      </trkpt>
      <trkpt lat="41.902709" lon="-87.623664">
      </trkpt>
      <trkpt lat="41.912141" lon="-87.62589">
      </trkpt>
      <trkpt lat="41.918036" lon="-87.628743">
      </trkpt>
      <trkpt lat="41.928415" lon="-87.631851">
      </trkpt>
      <trkpt lat="41.934381" lon="-87.632152">
      </trkpt>
      <trkpt lat="41.936704" lon="-87.633661">
      </trkpt>
      <trkpt lat="41.939073" lon="-87.63676">
      </trkpt>
      <trkpt lat="41.940568" lon="-87.638088">
      </trkpt>
      <trkpt lat="41.940119" lon="-87.639537">
      </trkpt>
      <trkpt lat="41.939633" lon="-87.674298">
      </trkpt>
      <trkpt lat="41.937203" lon="-87.674221">
      </trkpt>
      <trkpt lat="41.937203" lon="-87.674221">
      </trkpt>
      <trkpt lat="41.935982" lon="-87.674183">
      </trkpt>
      <trkpt lat="41.936057" lon="-87.668463">
      </trkpt>
      <trkpt lat="41.961593" lon="-87.669185">
      </trkpt>
      <trkpt lat="41.961772" lon="-87.655148">
      </trkpt>
      <trkpt lat="41.964503" lon="-87.656894">
      </trkpt>
      <trkpt lat="41.964503" lon="-87.656894">
      </trkpt>
      <trkpt lat="41.961772" lon="-87.655148">
      </trkpt>
      <trkpt lat="41.961908" lon="-87.646878">
      </trkpt>
      <trkpt lat="41.955203" lon="-87.644905">
      </trkpt>
      <trkpt lat="41.950978" lon="-87.644611">
      </trkpt>
      <trkpt lat="41.942042" lon="-87.639566">
      </trkpt>
      <trkpt lat="41.940268" lon="-87.638796">
      </trkpt>
      <trkpt lat="41.940035" lon="-87.64439">
      </trkpt>
      <trkpt lat="41.934258" lon="-87.644249">
      </trkpt>
      <trkpt lat="41.934296" lon="-87.642085">
      </trkpt>
      <trkpt lat="41.934296" lon="-87.642085">
      </trkpt>
      <trkpt lat="41.934344" lon="-87.639351">
      </trkpt>
      <trkpt lat="41.932914" lon="-87.63931">
      </trkpt>
      <trkpt lat="41.930951" lon="-87.636987">
      </trkpt>
      <trkpt lat="41.925745" lon="-87.633621">
      </trkpt>
      <trkpt lat="41.926001" lon="-87.631853">
      </trkpt>
      <trkpt lat="41.912297" lon="-87.626142">
      </trkpt>
      <trkpt lat="41.902733" lon="-87.62421">
      </trkpt>
      <trkpt lat="41.901491" lon="-87.62264">
      </trkpt>
      <trkpt lat="41.900898" lon="-87.619617">
      </trkpt>
      <trkpt lat="41.892868" lon="-87.614264">
      </trkpt>
      <trkpt lat="41.884928" lon="-87.614127">
      </trkpt>
      <trkpt lat="41.882167" lon="-87.617321">
      </trkpt>
      <trkpt lat="41.878363" lon="-87.617442">
      </trkpt>
      <trkpt lat="41.878331" lon="-87.620697">
      </trkpt>
      <trkpt lat="41.876287" lon="-87.620625">
      </trkpt>
      <trkpt lat="41.875674" lon="-87.626887">
      </trkpt>
      <trkpt lat="41.876197" lon="-87.657603">
      </trkpt>
      <trkpt lat="41.875763" lon="-87.688313">
      </trkpt>
      <trkpt lat="41.875862" lon="-87.692409">
      </trkpt>
      <trkpt lat="41.875983" lon="-87.696151">
      </trkpt>
      <trkpt lat="41.877434" lon="-87.696189">
      </trkpt>
      <trkpt lat="41.877461" lon="-87.693785">
      </trkpt>
      <trkpt lat="41.878371" lon="-87.693796">
      </trkpt>
      <trkpt lat="41.878346" lon="-87.696046">
      </trkpt>
      <trkpt lat="41.878346" lon="-87.696046">
      </trkpt>
      <trkpt lat="41.878344" lon="-87.696214">
      </trkpt>
      <trkpt lat="41.877434" lon="-87.696189">
      </trkpt>
      <trkpt lat="41.877461" lon="-87.693785">
      </trkpt>
      <trkpt lat="41.876006" lon="-87.693713">
      </trkpt>
      <trkpt lat="41.875985" lon="-87.695752">
      </trkpt>
      <trkpt lat="41.875985" lon="-87.695752">
      </trkpt>
      <trkpt lat="41.875983" lon="-87.696151">
      </trkpt>
      <trkpt lat="41.874902" lon="-87.696127">
      </trkpt>
      <trkpt lat="41.874908" lon="-87.695509">
      </trkpt>
      <trkpt lat="41.875125" lon="-87.690201">
      </trkpt>
      <trkpt lat="41.875329" lon="-87.650308">
      </trkpt>
      <trkpt lat="41.875215" lon="-87.648052">
      </trkpt>
      <trkpt lat="41.869485" lon="-87.644983">
      </trkpt>
      <trkpt lat="41.850609" lon="-87.644998">
      </trkpt>
      <trkpt lat="41.847255" lon="-87.642186">
      </trkpt>
      <trkpt lat="41.845323" lon="-87.634652">
      </trkpt>
      <trkpt lat="41.84209" lon="-87.63091">
      </trkpt>
      <trkpt lat="41.779686" lon="-87.631207">
      </trkpt>
      <trkpt lat="41.772231" lon="-87.626113">
      </trkpt>
      <trkpt lat="41.72052" lon="-87.624621">
      </trkpt>
      <trkpt lat="41.715903" lon="-87.627884">
      </trkpt>
      <trkpt lat="41.714895" lon="-87.636193">
      </trkpt>
      <trkpt lat="41.715137" lon="-87.643112">
      </trkpt>
      <trkpt lat="41.708733" lon="-87.642939">
      </trkpt>
      <trkpt lat="41.708702" lon="-87.646527">
      </trkpt>
      <trkpt lat="41.707837" lon="-87.646505">
      </trkpt>
      <trkpt lat="41.707837" lon="-87.646505">
      </trkpt>
      <trkpt lat="41.708702" lon="-87.646527">
      </trkpt>
      <trkpt lat="41.708735" lon="-87.642815">
      </trkpt>
      <trkpt lat="41.714216" lon="-87.642939">
      </trkpt>
      <trkpt lat="41.714223" lon="-87.642306">
      </trkpt>
      <trkpt lat="41.714662" lon="-87.632642">
      </trkpt>
      <trkpt lat="41.714824" lon="-87.629577">
      </trkpt>
      <trkpt lat="41.715693" lon="-87.627057">
      </trkpt>
      <trkpt lat="41.717268" lon="-87.625154">
      </trkpt>
      <trkpt lat="41.719562" lon="-87.624177">
      </trkpt>
      <trkpt lat="41.759009" lon="-87.625379">
      </trkpt>
      <trkpt lat="41.761615" lon="-87.625189">
      </trkpt>
      <trkpt lat="41.765537" lon="-87.624903">
      </trkpt>
      <trkpt lat="41.765212" lon="-87.644417">
      </trkpt>
      <trkpt lat="41.766001" lon="-87.644436">
      </trkpt>
      <trkpt lat="41.766001" lon="-87.644436">
      </trkpt>
      <trkpt lat="41.765212" lon="-87.644417">
      </trkpt>
      <trkpt lat="41.765368" lon="-87.624899">
      </trkpt>
      <trkpt lat="41.765772" lon="-87.624908">
      </trkpt>
      <trkpt lat="41.769557" lon="-87.62543">
      </trkpt>
      <trkpt lat="41.779578" lon="-87.630526">
      </trkpt>
      <trkpt lat="41.837743" lon="-87.630393">
      </trkpt>
      <trkpt lat="41.844144" lon="-87.631347">
      </trkpt>
      <trkpt lat="41.847354" lon="-87.642036">
      </trkpt>
      <trkpt lat="41.850632" lon="-87.644778">
      </trkpt>
      <trkpt lat="41.885931" lon="-87.64591">
      </trkpt>
      <trkpt lat="41.897003" lon="-87.6586">
      </trkpt>
      <trkpt lat="41.906443" lon="-87.661061">
      </trkpt>
      <trkpt lat="41.916334" lon="-87.668478">
      </trkpt>
      <trkpt lat="41.942387" lon="-87.715161">
      </trkpt>
      <trkpt lat="41.947985" lon="-87.719618">
      </trkpt>
      <trkpt lat="41.958569" lon="-87.738838">
      </trkpt>
      <trkpt lat="41.960451" lon="-87.741371">
      </trkpt>
      <trkpt lat="41.960809" lon="-87.741062">
      </trkpt>
      <trkpt lat="41.960809" lon="-87.741062">
      </trkpt>
      <trkpt lat="41.961222" lon="-87.703359">
      </trkpt>
      <trkpt lat="41.959397" lon="-87.703301">
      </trkpt>
      <trkpt lat="41.959389" lon="-87.702918">
      </trkpt>
      <trkpt lat="41.959389" lon="-87.702918">
      </trkpt>
      <trkpt lat="41.959394" lon="-87.702085">
      </trkpt>
      <trkpt lat="41.961228" lon="-87.702141">
      </trkpt>
      <trkpt lat="41.961593" lon="-87.669185">
      </trkpt>
      <trkpt lat="41.976174" lon="-87.669543">
      </trkpt>
      <trkpt lat="41.976324" lon="-87.659864">
      </trkpt>
      <trkpt lat="41.981805" lon="-87.660018">
      </trkpt>
      <trkpt lat="41.981785" lon="-87.661293">
      </trkpt>
      <trkpt lat="41.980907" lon="-87.661271">
      </trkpt>
      <trkpt lat="41.980907" lon="-87.661271">
      </trkpt>
      <trkpt lat="41.979959" lon="-87.661247">
      </trkpt>
      <trkpt lat="41.979979" lon="-87.659972">
      </trkpt>
      <trkpt lat="41.972678" lon="-87.659771">
      </trkpt>
      <trkpt lat="41.972674" lon="-87.660107">
      </trkpt>
      <trkpt lat="41.972674" lon="-87.660107">
      </trkpt>
      <trkpt lat="41.972678" lon="-87.659771">
      </trkpt>
      <trkpt lat="41.969021" lon="-87.659673">
      </trkpt>
      <trkpt lat="41.968394" lon="-87.714891">
      </trkpt>
      <trkpt lat="41.968394" lon="-87.714891">
      </trkpt>
      <trkpt lat="41.968411" lon="-87.713373">
      </trkpt>
      <trkpt lat="41.939288" lon="-87.712487">
      </trkpt>
      <trkpt lat="41.939221" lon="-87.717392">
      </trkpt>
      <trkpt lat="41.931929" lon="-87.717188">
      </trkpt>
      <trkpt lat="41.931892" lon="-87.719631">
      </trkpt>
      <trkpt lat="41.931377" lon="-87.719618">
      </trkpt>
    </trkseg>
  </trk>
</gpx>