<?xml version="1.0" encoding="UTF-8"?>
<gpx xmlns="http://www.topografix.com/GPX/1/1" xmlns:xsi="http://www.w3.org/2001/XMLSchema-instance" xsi:schemaLocation="http://www.topografix.com/GPX/1/1 http://www.topografix.com/GPX/1/1/gpx.xsd" version="1.1" creator="gpx.py -- https://github.com/tkrajina/gpxpy">
  <trk>
    <trkseg>
      <trkpt lat="41.935976" lon="-87.674697">
      </trkpt>
      <trkpt lat="41.936022" lon="-87.670952">
      </trkpt>
      <trkpt lat="41.93237" lon="-87.670818">
      </trkpt>
      <trkpt lat="41.932278" lon="-87.678134">
      </trkpt>
      <trkpt lat="41.92139" lon="-87.677765">
      </trkpt>
      <trkpt lat="41.921395" lon="-87.677255">
      </trkpt>
      <trkpt lat="41.916815" lon="-87.669405">
      </trkpt>
      <trkpt lat="41.909975" lon="-87.664752">
      </trkpt>
      <trkpt lat="41.90696" lon="-87.661748">
      </trkpt>
      <trkpt lat="41.901587" lon="-87.661131">
      </trkpt>
      <trkpt lat="41.897534" lon="-87.659383">
      </trkpt>
      <trkpt lat="41.895016" lon="-87.657508">
      </trkpt>
      <trkpt lat="41.893069" lon="-87.657416">
      </trkpt>
      <trkpt lat="41.892238" lon="-87.658135">
      </trkpt>
      <trkpt lat="41.892238" lon="-87.658135">
      </trkpt>
      <trkpt lat="41.891818" lon="-87.658511">
      </trkpt>
      <trkpt lat="41.891822" lon="-87.658299">
      </trkpt>
      <trkpt lat="41.895899" lon="-87.654844">
      </trkpt>
      <trkpt lat="41.898273" lon="-87.658551">
      </trkpt>
      <trkpt lat="41.898613" lon="-87.658562">
      </trkpt>
      <trkpt lat="41.898613" lon="-87.658562">
      </trkpt>
      <trkpt lat="41.898273" lon="-87.658551">
      </trkpt>
      <trkpt lat="41.899842" lon="-87.660982">
      </trkpt>
      <trkpt lat="41.899711" lon="-87.660843">
      </trkpt>
      <trkpt lat="41.895493" lon="-87.657719">
      </trkpt>
      <trkpt lat="41.888343" lon="-87.647531">
      </trkpt>
      <trkpt lat="41.885929" lon="-87.646219">
      </trkpt>
      <trkpt lat="41.881827" lon="-87.645999">
      </trkpt>
      <trkpt lat="41.880956" lon="-87.646134">
      </trkpt>
      <trkpt lat="41.879569" lon="-87.646145">
      </trkpt>
      <trkpt lat="41.878121" lon="-87.646166">
      </trkpt>
      <trkpt lat="41.876334" lon="-87.646815">
      </trkpt>
      <trkpt lat="41.875728" lon="-87.649135">
      </trkpt>
      <trkpt lat="41.876197" lon="-87.657603">
      </trkpt>
      <trkpt lat="41.875633" lon="-87.697949">
      </trkpt>
      <trkpt lat="41.874284" lon="-87.70915">
      </trkpt>
      <trkpt lat="41.873967" lon="-87.732948">
      </trkpt>
      <trkpt lat="41.87187" lon="-87.740374">
      </trkpt>
      <trkpt lat="41.871028" lon="-87.766962">
      </trkpt>
      <trkpt lat="41.871119" lon="-87.774317">
      </trkpt>
      <trkpt lat="41.841712" lon="-87.773478">
      </trkpt>
      <trkpt lat="41.841692" lon="-87.774711">
      </trkpt>
      <trkpt lat="41.843001" lon="-87.774745">
      </trkpt>
      <trkpt lat="41.843001" lon="-87.774745">
      </trkpt>
      <trkpt lat="41.843518" lon="-87.77476">
      </trkpt>
      <trkpt lat="41.843185" lon="-87.798435">
      </trkpt>
      <trkpt lat="41.842526" lon="-87.799614">
      </trkpt>
      <trkpt lat="41.842186" lon="-87.799883">
      </trkpt>
      <trkpt lat="41.842186" lon="-87.799883">
      </trkpt>
      <trkpt lat="41.843185" lon="-87.798435">
      </trkpt>
      <trkpt lat="41.843086" lon="-87.803315">
      </trkpt>
      <trkpt lat="41.873604" lon="-87.804443">
      </trkpt>
      <trkpt lat="41.87064" lon="-87.769061">
      </trkpt>
      <trkpt lat="41.871594" lon="-87.739969">
      </trkpt>
      <trkpt lat="41.87362" lon="-87.733001">
      </trkpt>
      <trkpt lat="41.875168" lon="-87.69832">
      </trkpt>
      <trkpt lat="41.875329" lon="-87.650308">
      </trkpt>
      <trkpt lat="41.874563" lon="-87.645452">
      </trkpt>
      <trkpt lat="41.876036" lon="-87.64458">
      </trkpt>
      <trkpt lat="41.880374" lon="-87.645275">
      </trkpt>
      <trkpt lat="41.881847" lon="-87.645355">
      </trkpt>
      <trkpt lat="41.882198" lon="-87.645393">
      </trkpt>
      <trkpt lat="41.888483" lon="-87.647404">
      </trkpt>
      <trkpt lat="41.897251" lon="-87.658783">
      </trkpt>
      <trkpt lat="41.906443" lon="-87.661061">
      </trkpt>
      <trkpt lat="41.915886" lon="-87.668091">
      </trkpt>
      <trkpt lat="41.922676" lon="-87.678438">
      </trkpt>
      <trkpt lat="41.924733" lon="-87.681513">
      </trkpt>
      <trkpt lat="41.924878" lon="-87.690086">
      </trkpt>
      <trkpt lat="41.925214" lon="-87.690094">
      </trkpt>
      <trkpt lat="41.925214" lon="-87.690094">
      </trkpt>
      <trkpt lat="41.926696" lon="-87.690149">
      </trkpt>
      <trkpt lat="41.926718" lon="-87.687704">
      </trkpt>
      <trkpt lat="41.917587" lon="-87.687413">
      </trkpt>
      <trkpt lat="41.917494" lon="-87.697194">
      </trkpt>
      <trkpt lat="41.912372" lon="-87.697059">
      </trkpt>
      <trkpt lat="41.912356" lon="-87.698734">
      </trkpt>
      <trkpt lat="41.912356" lon="-87.698734">
      </trkpt>
      <trkpt lat="41.91233" lon="-87.701498">
      </trkpt>
      <trkpt lat="41.912147" lon="-87.701932">
      </trkpt>
      <trkpt lat="41.909559" lon="-87.701837">
      </trkpt>
      <trkpt lat="41.908237" lon="-87.701353">
      </trkpt>
      <trkpt lat="41.907279" lon="-87.701248">
      </trkpt>
      <trkpt lat="41.902886" lon="-87.702278">
      </trkpt>
      <trkpt lat="41.902715" lon="-87.721433">
      </trkpt>
      <trkpt lat="41.9009" lon="-87.72138">
      </trkpt>
      <trkpt lat="41.900912" lon="-87.720148">
      </trkpt>
      <trkpt lat="41.902469" lon="-87.720195">
      </trkpt>
      <trkpt lat="41.902469" lon="-87.720195">
      </trkpt>
      <trkpt lat="41.902727" lon="-87.720203">
      </trkpt>
      <trkpt lat="41.902833" lon="-87.706787">
      </trkpt>
      <trkpt lat="41.927966" lon="-87.70699">
      </trkpt>
      <trkpt lat="41.928471" lon="-87.697517">
      </trkpt>
      <trkpt lat="41.956867" lon="-87.698335">
      </trkpt>
      <trkpt lat="41.956867" lon="-87.698335">
      </trkpt>
      <trkpt lat="41.946686" lon="-87.698037">
      </trkpt>
      <trkpt lat="41.946565" lon="-87.712704">
      </trkpt>
      <trkpt lat="41.939288" lon="-87.712487">
      </trkpt>
      <trkpt lat="41.939221" lon="-87.717392">
      </trkpt>
      <trkpt lat="41.92898" lon="-87.717101">
      </trkpt>
      <trkpt lat="41.92898" lon="-87.717101">
      </trkpt>
      <trkpt lat="41.935091" lon="-87.717283">
      </trkpt>
      <trkpt lat="41.939142" lon="-87.723912">
      </trkpt>
      <trkpt lat="41.937915" lon="-87.817738">
      </trkpt>
      <trkpt lat="41.934301" lon="-87.817616">
      </trkpt>
      <trkpt lat="41.93424" lon="-87.820654">
      </trkpt>
      <trkpt lat="41.934634" lon="-87.82067">
      </trkpt>
      <trkpt lat="41.934634" lon="-87.82067">
      </trkpt>
      <trkpt lat="41.93424" lon="-87.820654">
      </trkpt>
      <trkpt lat="41.934229" lon="-87.821275">
      </trkpt>
      <trkpt lat="41.937842" lon="-87.821404">
      </trkpt>
      <trkpt lat="41.938162" lon="-87.795699">
      </trkpt>
      <trkpt lat="41.945482" lon="-87.795979">
      </trkpt>
      <trkpt lat="41.945578" lon="-87.791262">
      </trkpt>
      <trkpt lat="41.946512" lon="-87.7913">
      </trkpt>
      <trkpt lat="41.946512" lon="-87.7913">
      </trkpt>
      <trkpt lat="41.945578" lon="-87.791262">
      </trkpt>
      <trkpt lat="41.946271" lon="-87.735605">
      </trkpt>
      <trkpt lat="41.941155" lon="-87.727246">
      </trkpt>
      <trkpt lat="41.931796" lon="-87.726988">
      </trkpt>
      <trkpt lat="41.931892" lon="-87.719631">
      </trkpt>
      <trkpt lat="41.931377" lon="-87.719618">
      </trkpt>
      <trkpt lat="41.931377" lon="-87.719618">
      </trkpt>
      <trkpt lat="41.93007" lon="-87.719583">
      </trkpt>
      <trkpt lat="41.930057" lon="-87.720801">
      </trkpt>
      <trkpt lat="41.931876" lon="-87.720852">
      </trkpt>
      <trkpt lat="41.932179" lon="-87.687832">
      </trkpt>
      <trkpt lat="41.953985" lon="-87.688469">
      </trkpt>
      <trkpt lat="41.954667" lon="-87.644162">
      </trkpt>
      <trkpt lat="41.958653" lon="-87.64588">
      </trkpt>
      <trkpt lat="41.973046" lon="-87.648738">
      </trkpt>
      <trkpt lat="41.981039" lon="-87.652251">
      </trkpt>
      <trkpt lat="41.984951" lon="-87.652803">
      </trkpt>
      <trkpt lat="41.985569" lon="-87.653847">
      </trkpt>
      <trkpt lat="41.985487" lon="-87.658072">
      </trkpt>
      <trkpt lat="41.984272" lon="-87.658038">
      </trkpt>
      <trkpt lat="41.984272" lon="-87.658038">
      </trkpt>
      <trkpt lat="41.983669" lon="-87.658021">
      </trkpt>
      <trkpt lat="41.983631" lon="-87.660074">
      </trkpt>
      <trkpt lat="41.984436" lon="-87.661365">
      </trkpt>
      <trkpt lat="41.98905" lon="-87.661524">
      </trkpt>
      <trkpt lat="41.989059" lon="-87.660666">
      </trkpt>
      <trkpt lat="41.989059" lon="-87.660666">
      </trkpt>
      <trkpt lat="41.989063" lon="-87.660248">
      </trkpt>
      <trkpt lat="41.978152" lon="-87.659914">
      </trkpt>
      <trkpt lat="41.978117" lon="-87.662403">
      </trkpt>
      <trkpt lat="41.980082" lon="-87.662454">
      </trkpt>
      <trkpt lat="41.980082" lon="-87.662454">
      </trkpt>
      <trkpt lat="41.981766" lon="-87.662499">
      </trkpt>
      <trkpt lat="41.981748" lon="-87.663707">
      </trkpt>
      <trkpt lat="41.976265" lon="-87.66355">
      </trkpt>
      <trkpt lat="41.976173" lon="-87.66966">
      </trkpt>
      <trkpt lat="41.954302" lon="-87.66911">
      </trkpt>
      <trkpt lat="41.954086" lon="-87.688469">
      </trkpt>
      <trkpt lat="41.920607" lon="-87.687508">
      </trkpt>
      <trkpt lat="41.920667" lon="-87.684471">
      </trkpt>
    </trkseg>
  </trk>
</gpx>