<?xml version="1.0" encoding="UTF-8"?>
<gpx xmlns="http://www.topografix.com/GPX/1/1" xmlns:xsi="http://www.w3.org/2001/XMLSchema-instance" xsi:schemaLocation="http://www.topografix.com/GPX/1/1 http://www.topografix.com/GPX/1/1/gpx.xsd" version="1.1" creator="gpx.py -- https://github.com/tkrajina/gpxpy">
  <trk>
    <trkseg>
      <trkpt lat="41.987812" lon="-87.655324">
      </trkpt>
      <trkpt lat="41.985556" lon="-87.655253">
      </trkpt>
      <trkpt lat="41.902733" lon="-87.62421">
      </trkpt>
      <trkpt lat="41.892868" lon="-87.614264">
      </trkpt>
      <trkpt lat="41.866208" lon="-87.619588">
      </trkpt>
      <trkpt lat="41.853242" lon="-87.614728">
      </trkpt>
      <trkpt lat="41.848506" lon="-87.614444">
      </trkpt>
      <trkpt lat="41.84732" lon="-87.626818">
      </trkpt>
      <trkpt lat="41.847855" lon="-87.631727">
      </trkpt>
      <trkpt lat="41.843118" lon="-87.631351">
      </trkpt>
      <trkpt lat="41.72052" lon="-87.624621">
      </trkpt>
      <trkpt lat="41.713653" lon="-87.621065">
      </trkpt>
      <trkpt lat="41.713191" lon="-87.600337">
      </trkpt>
      <trkpt lat="41.708673" lon="-87.592948">
      </trkpt>
      <trkpt lat="41.676933" lon="-87.601728">
      </trkpt>
      <trkpt lat="41.660202" lon="-87.589096">
      </trkpt>
      <trkpt lat="41.656176" lon="-87.555878">
      </trkpt>
      <trkpt lat="41.65737" lon="-87.555649">
      </trkpt>
      <trkpt lat="41.65736" lon="-87.553811">
      </trkpt>
      <trkpt lat="41.656889" lon="-87.553812">
      </trkpt>
      <trkpt lat="41.656889" lon="-87.553812">
      </trkpt>
      <trkpt lat="41.65736" lon="-87.553811">
      </trkpt>
      <trkpt lat="41.657281" lon="-87.557102">
      </trkpt>
      <trkpt lat="41.660149" lon="-87.585314">
      </trkpt>
      <trkpt lat="41.662478" lon="-87.590822">
      </trkpt>
      <trkpt lat="41.675885" lon="-87.601403">
      </trkpt>
      <trkpt lat="41.685726" lon="-87.601563">
      </trkpt>
      <trkpt lat="41.69908" lon="-87.594329">
      </trkpt>
      <trkpt lat="41.705863" lon="-87.591535">
      </trkpt>
      <trkpt lat="41.711823" lon="-87.595707">
      </trkpt>
      <trkpt lat="41.713575" lon="-87.618809">
      </trkpt>
      <trkpt lat="41.717096" lon="-87.62372">
      </trkpt>
      <trkpt lat="41.769497" lon="-87.625651">
      </trkpt>
      <trkpt lat="41.779578" lon="-87.630526">
      </trkpt>
      <trkpt lat="41.819951" lon="-87.629968">
      </trkpt>
      <trkpt lat="41.823673" lon="-87.629633">
      </trkpt>
      <trkpt lat="41.823804" lon="-87.619991">
      </trkpt>
      <trkpt lat="41.822908" lon="-87.619964">
      </trkpt>
      <trkpt lat="41.822908" lon="-87.619964">
      </trkpt>
      <trkpt lat="41.823804" lon="-87.619991">
      </trkpt>
      <trkpt lat="41.824107" lon="-87.604016">
      </trkpt>
      <trkpt lat="41.825435" lon="-87.599849">
      </trkpt>
      <trkpt lat="41.829367" lon="-87.604294">
      </trkpt>
      <trkpt lat="41.833032" lon="-87.607125">
      </trkpt>
      <trkpt lat="41.838145" lon="-87.608141">
      </trkpt>
      <trkpt lat="41.852437" lon="-87.613467">
      </trkpt>
      <trkpt lat="41.862131" lon="-87.618329">
      </trkpt>
      <trkpt lat="41.866344" lon="-87.619249">
      </trkpt>
      <trkpt lat="41.869799" lon="-87.617003">
      </trkpt>
      <trkpt lat="41.880924" lon="-87.617244">
      </trkpt>
      <trkpt lat="41.880871" lon="-87.620794">
      </trkpt>
      <trkpt lat="41.884517" lon="-87.620609">
      </trkpt>
      <trkpt lat="41.884484" lon="-87.624371">
      </trkpt>
      <trkpt lat="41.88577" lon="-87.624431">
      </trkpt>
      <trkpt lat="41.88576" lon="-87.626286">
      </trkpt>
      <trkpt lat="41.888453" lon="-87.627125">
      </trkpt>
      <trkpt lat="41.889909" lon="-87.626665">
      </trkpt>
      <trkpt lat="41.889909" lon="-87.626665">
      </trkpt>
      <trkpt lat="41.889909" lon="-87.626665">
      </trkpt>
      <trkpt lat="41.889909" lon="-87.626665">
      </trkpt>
      <trkpt lat="41.886804" lon="-87.626312">
      </trkpt>
      <trkpt lat="41.886817" lon="-87.623818">
      </trkpt>
      <trkpt lat="41.886797" lon="-87.620759">
      </trkpt>
      <trkpt lat="41.880871" lon="-87.620794">
      </trkpt>
      <trkpt lat="41.88092" lon="-87.617506">
      </trkpt>
      <trkpt lat="41.866068" lon="-87.619589">
      </trkpt>
      <trkpt lat="41.853242" lon="-87.614728">
      </trkpt>
      <trkpt lat="41.848506" lon="-87.614444">
      </trkpt>
      <trkpt lat="41.84732" lon="-87.626818">
      </trkpt>
      <trkpt lat="41.847855" lon="-87.631727">
      </trkpt>
      <trkpt lat="41.843118" lon="-87.631351">
      </trkpt>
      <trkpt lat="41.779686" lon="-87.631207">
      </trkpt>
      <trkpt lat="41.772231" lon="-87.626113">
      </trkpt>
      <trkpt lat="41.72052" lon="-87.624621">
      </trkpt>
      <trkpt lat="41.713653" lon="-87.621065">
      </trkpt>
      <trkpt lat="41.713191" lon="-87.600337">
      </trkpt>
      <trkpt lat="41.708673" lon="-87.592948">
      </trkpt>
      <trkpt lat="41.703483" lon="-87.592406">
      </trkpt>
      <trkpt lat="41.685512" lon="-87.601798">
      </trkpt>
      <trkpt lat="41.676933" lon="-87.601728">
      </trkpt>
      <trkpt lat="41.660202" lon="-87.589096">
      </trkpt>
      <trkpt lat="41.659512" lon="-87.59119">
      </trkpt>
      <trkpt lat="41.658851" lon="-87.560717">
      </trkpt>
      <trkpt lat="41.656176" lon="-87.555878">
      </trkpt>
      <trkpt lat="41.65737" lon="-87.555649">
      </trkpt>
      <trkpt lat="41.65736" lon="-87.553811">
      </trkpt>
      <trkpt lat="41.656889" lon="-87.553812">
      </trkpt>
      <trkpt lat="41.656889" lon="-87.553812">
      </trkpt>
      <trkpt lat="41.65736" lon="-87.553811">
      </trkpt>
      <trkpt lat="41.657281" lon="-87.557102">
      </trkpt>
      <trkpt lat="41.660149" lon="-87.585314">
      </trkpt>
      <trkpt lat="41.662478" lon="-87.590822">
      </trkpt>
      <trkpt lat="41.675885" lon="-87.601403">
      </trkpt>
      <trkpt lat="41.685726" lon="-87.601563">
      </trkpt>
      <trkpt lat="41.69908" lon="-87.594329">
      </trkpt>
      <trkpt lat="41.705863" lon="-87.591535">
      </trkpt>
      <trkpt lat="41.711823" lon="-87.595707">
      </trkpt>
      <trkpt lat="41.713575" lon="-87.618809">
      </trkpt>
      <trkpt lat="41.717096" lon="-87.62372">
      </trkpt>
      <trkpt lat="41.769497" lon="-87.625651">
      </trkpt>
      <trkpt lat="41.779578" lon="-87.630526">
      </trkpt>
      <trkpt lat="41.819951" lon="-87.629968">
      </trkpt>
      <trkpt lat="41.823673" lon="-87.629633">
      </trkpt>
      <trkpt lat="41.823804" lon="-87.619991">
      </trkpt>
      <trkpt lat="41.822908" lon="-87.619964">
      </trkpt>
      <trkpt lat="41.822908" lon="-87.619964">
      </trkpt>
      <trkpt lat="41.823804" lon="-87.619991">
      </trkpt>
      <trkpt lat="41.824107" lon="-87.604016">
      </trkpt>
      <trkpt lat="41.825435" lon="-87.599849">
      </trkpt>
      <trkpt lat="41.833032" lon="-87.607125">
      </trkpt>
      <trkpt lat="41.865968" lon="-87.619224">
      </trkpt>
      <trkpt lat="41.869799" lon="-87.617003">
      </trkpt>
      <trkpt lat="41.881825" lon="-87.617167">
      </trkpt>
      <trkpt lat="41.884762" lon="-87.613645">
      </trkpt>
      <trkpt lat="41.892878" lon="-87.614041">
      </trkpt>
      <trkpt lat="41.900921" lon="-87.619441">
      </trkpt>
      <trkpt lat="41.902893" lon="-87.624048">
      </trkpt>
      <trkpt lat="41.928415" lon="-87.631851">
      </trkpt>
      <trkpt lat="41.934381" lon="-87.632152">
      </trkpt>
      <trkpt lat="41.939073" lon="-87.63676">
      </trkpt>
      <trkpt lat="41.940568" lon="-87.638088">
      </trkpt>
      <trkpt lat="41.939838" lon="-87.658974">
      </trkpt>
      <trkpt lat="41.935883" lon="-87.658824">
      </trkpt>
      <trkpt lat="41.935883" lon="-87.658824">
      </trkpt>
      <trkpt lat="41.932557" lon="-87.658713">
      </trkpt>
      <trkpt lat="41.925453" lon="-87.648766">
      </trkpt>
      <trkpt lat="41.91731" lon="-87.648495">
      </trkpt>
      <trkpt lat="41.91731" lon="-87.648495">
      </trkpt>
      <trkpt lat="41.91731" lon="-87.648495">
      </trkpt>
      <trkpt lat="41.91731" lon="-87.648495">
      </trkpt>
      <trkpt lat="41.925453" lon="-87.648766">
      </trkpt>
      <trkpt lat="41.926223" lon="-87.63067">
      </trkpt>
      <trkpt lat="41.928415" lon="-87.631851">
      </trkpt>
      <trkpt lat="41.935386" lon="-87.632612">
      </trkpt>
      <trkpt lat="41.941219" lon="-87.638833">
      </trkpt>
      <trkpt lat="41.950931" lon="-87.644376">
      </trkpt>
      <trkpt lat="41.954749" lon="-87.644596">
      </trkpt>
      <trkpt lat="41.973046" lon="-87.648738">
      </trkpt>
      <trkpt lat="41.981039" lon="-87.652251">
      </trkpt>
      <trkpt lat="41.984951" lon="-87.652803">
      </trkpt>
      <trkpt lat="41.985556" lon="-87.655253">
      </trkpt>
      <trkpt lat="41.987812" lon="-87.655324">
      </trkpt>
      <trkpt lat="41.987812" lon="-87.655324">
      </trkpt>
      <trkpt lat="41.985556" lon="-87.655253">
      </trkpt>
      <trkpt lat="41.984999" lon="-87.653157">
      </trkpt>
      <trkpt lat="41.981232" lon="-87.652706">
      </trkpt>
      <trkpt lat="41.973607" lon="-87.649277">
      </trkpt>
      <trkpt lat="41.957427" lon="-87.645733">
      </trkpt>
      <trkpt lat="41.955777" lon="-87.645546">
      </trkpt>
      <trkpt lat="41.954634" lon="-87.645235">
      </trkpt>
      <trkpt lat="41.95429" lon="-87.673794">
      </trkpt>
      <trkpt lat="41.946929" lon="-87.67359">
      </trkpt>
      <trkpt lat="41.946838" lon="-87.680982">
      </trkpt>
      <trkpt lat="41.944938" lon="-87.680928">
      </trkpt>
      <trkpt lat="41.944938" lon="-87.680928">
      </trkpt>
      <trkpt lat="41.934149" lon="-87.680711">
      </trkpt>
      <trkpt lat="41.932278" lon="-87.678134">
      </trkpt>
      <trkpt lat="41.92139" lon="-87.677765">
      </trkpt>
      <trkpt lat="41.921395" lon="-87.677255">
      </trkpt>
      <trkpt lat="41.916326" lon="-87.668918">
      </trkpt>
      <trkpt lat="41.906635" lon="-87.661559">
      </trkpt>
      <trkpt lat="41.896667" lon="-87.658834">
      </trkpt>
      <trkpt lat="41.886973" lon="-87.646614">
      </trkpt>
      <trkpt lat="41.857367" lon="-87.644363">
      </trkpt>
      <trkpt lat="41.849097" lon="-87.644333">
      </trkpt>
      <trkpt lat="41.846546" lon="-87.641933">
      </trkpt>
      <trkpt lat="41.847976" lon="-87.616851">
      </trkpt>
      <trkpt lat="41.847086" lon="-87.612314">
      </trkpt>
      <trkpt lat="41.832576" lon="-87.607188">
      </trkpt>
      <trkpt lat="41.803885" lon="-87.58209">
      </trkpt>
      <trkpt lat="41.781232" lon="-87.574954">
      </trkpt>
      <trkpt lat="41.780203" lon="-87.584175">
      </trkpt>
      <trkpt lat="41.776085" lon="-87.586376">
      </trkpt>
      <trkpt lat="41.759682" lon="-87.586137">
      </trkpt>
      <trkpt lat="41.759693" lon="-87.585114">
      </trkpt>
      <trkpt lat="41.759229" lon="-87.585107">
      </trkpt>
      <trkpt lat="41.759242" lon="-87.584124">
      </trkpt>
      <trkpt lat="41.759242" lon="-87.584124">
      </trkpt>
      <trkpt lat="41.759229" lon="-87.585107">
      </trkpt>
      <trkpt lat="41.759693" lon="-87.585114">
      </trkpt>
      <trkpt lat="41.759686" lon="-87.585762">
      </trkpt>
      <trkpt lat="41.771514" lon="-87.585994">
      </trkpt>
      <trkpt lat="41.780203" lon="-87.584175">
      </trkpt>
      <trkpt lat="41.780713" lon="-87.574628">
      </trkpt>
      <trkpt lat="41.791827" lon="-87.580105">
      </trkpt>
      <trkpt lat="41.795899" lon="-87.579065">
      </trkpt>
      <trkpt lat="41.803976" lon="-87.581975">
      </trkpt>
      <trkpt lat="41.815381" lon="-87.593676">
      </trkpt>
      <trkpt lat="41.826403" lon="-87.600955">
      </trkpt>
      <trkpt lat="41.832668" lon="-87.606909">
      </trkpt>
      <trkpt lat="41.843509" lon="-87.610426">
      </trkpt>
      <trkpt lat="41.848604" lon="-87.612641">
      </trkpt>
      <trkpt lat="41.847424" lon="-87.630973">
      </trkpt>
      <trkpt lat="41.847736" lon="-87.641219">
      </trkpt>
      <trkpt lat="41.850742" lon="-87.644555">
      </trkpt>
      <trkpt lat="41.8636" lon="-87.644363">
      </trkpt>
      <trkpt lat="41.86715" lon="-87.644093">
      </trkpt>
      <trkpt lat="41.867183" lon="-87.642187">
      </trkpt>
      <trkpt lat="41.872798" lon="-87.642379">
      </trkpt>
      <trkpt lat="41.872798" lon="-87.642379">
      </trkpt>
      <trkpt lat="41.876736" lon="-87.642493">
      </trkpt>
      <trkpt lat="41.876769" lon="-87.639817">
      </trkpt>
      <trkpt lat="41.875803" lon="-87.639823">
      </trkpt>
      <trkpt lat="41.875647" lon="-87.641365">
      </trkpt>
      <trkpt lat="41.875736" lon="-87.651991">
      </trkpt>
      <trkpt lat="41.876197" lon="-87.657603">
      </trkpt>
      <trkpt lat="41.875763" lon="-87.688313">
      </trkpt>
      <trkpt lat="41.875862" lon="-87.692409">
      </trkpt>
      <trkpt lat="41.87596" lon="-87.698604">
      </trkpt>
      <trkpt lat="41.877405" lon="-87.698638">
      </trkpt>
      <trkpt lat="41.877408" lon="-87.69832">
      </trkpt>
      <trkpt lat="41.877408" lon="-87.69832">
      </trkpt>
      <trkpt lat="41.877434" lon="-87.696189">
      </trkpt>
      <trkpt lat="41.874902" lon="-87.696127">
      </trkpt>
      <trkpt lat="41.874908" lon="-87.695509">
      </trkpt>
      <trkpt lat="41.875125" lon="-87.690201">
      </trkpt>
      <trkpt lat="41.875815" lon="-87.620619">
      </trkpt>
      <trkpt lat="41.878331" lon="-87.620697">
      </trkpt>
      <trkpt lat="41.878364" lon="-87.617182">
      </trkpt>
      <trkpt lat="41.882205" lon="-87.616996">
      </trkpt>
      <trkpt lat="41.884762" lon="-87.613645">
      </trkpt>
      <trkpt lat="41.892878" lon="-87.614041">
      </trkpt>
      <trkpt lat="41.900921" lon="-87.619441">
      </trkpt>
      <trkpt lat="41.90171" lon="-87.622727">
      </trkpt>
      <trkpt lat="41.902893" lon="-87.624048">
      </trkpt>
      <trkpt lat="41.912141" lon="-87.62589">
      </trkpt>
      <trkpt lat="41.918036" lon="-87.628743">
      </trkpt>
      <trkpt lat="41.928415" lon="-87.631851">
      </trkpt>
      <trkpt lat="41.934381" lon="-87.632152">
      </trkpt>
      <trkpt lat="41.936704" lon="-87.633661">
      </trkpt>
      <trkpt lat="41.939073" lon="-87.63676">
      </trkpt>
      <trkpt lat="41.940568" lon="-87.638088">
      </trkpt>
      <trkpt lat="41.940119" lon="-87.639537">
      </trkpt>
      <trkpt lat="41.936919" lon="-87.639435">
      </trkpt>
      <trkpt lat="41.936919" lon="-87.639435">
      </trkpt>
      <trkpt lat="41.936919" lon="-87.639435">
      </trkpt>
      <trkpt lat="41.936919" lon="-87.639435">
      </trkpt>
      <trkpt lat="41.940119" lon="-87.639537">
      </trkpt>
      <trkpt lat="41.940568" lon="-87.638088">
      </trkpt>
      <trkpt lat="41.951253" lon="-87.644496">
      </trkpt>
      <trkpt lat="41.954749" lon="-87.644596">
      </trkpt>
      <trkpt lat="41.973046" lon="-87.648738">
      </trkpt>
      <trkpt lat="41.981039" lon="-87.652251">
      </trkpt>
      <trkpt lat="41.984951" lon="-87.652803">
      </trkpt>
      <trkpt lat="41.985586" lon="-87.654178">
      </trkpt>
      <trkpt lat="41.985105" lon="-87.662456">
      </trkpt>
      <trkpt lat="41.987189" lon="-87.665884">
      </trkpt>
      <trkpt lat="41.987146" lon="-87.669585">
      </trkpt>
      <trkpt lat="41.988054" lon="-87.669707">
      </trkpt>
      <trkpt lat="41.987608" lon="-87.669796">
      </trkpt>
      <trkpt lat="41.987519" lon="-87.669769">
      </trkpt>
      <trkpt lat="41.987519" lon="-87.669769">
      </trkpt>
      <trkpt lat="41.985953" lon="-87.669343">
      </trkpt>
      <trkpt lat="41.985945" lon="-87.669821">
      </trkpt>
      <trkpt lat="41.989705" lon="-87.6699">
      </trkpt>
      <trkpt lat="41.992132" lon="-87.67531">
      </trkpt>
      <trkpt lat="41.994982" lon="-87.675425">
      </trkpt>
      <trkpt lat="42.015501" lon="-87.684163">
      </trkpt>
      <trkpt lat="42.044191" lon="-87.688534">
      </trkpt>
      <trkpt lat="42.044213" lon="-87.690213">
      </trkpt>
      <trkpt lat="42.044647" lon="-87.690207">
      </trkpt>
    </trkseg>
  </trk>
</gpx>