<?xml version="1.0" encoding="UTF-8"?>
<gpx xmlns="http://www.topografix.com/GPX/1/1" xmlns:xsi="http://www.w3.org/2001/XMLSchema-instance" xsi:schemaLocation="http://www.topografix.com/GPX/1/1 http://www.topografix.com/GPX/1/1/gpx.xsd" version="1.1" creator="gpx.py -- https://github.com/tkrajina/gpxpy">
  <trk>
    <trkseg>
      <trkpt lat="41.930765" lon="-87.708238">
      </trkpt>
      <trkpt lat="41.930297" lon="-87.707463">
      </trkpt>
      <trkpt lat="41.930261" lon="-87.707505">
      </trkpt>
      <trkpt lat="41.929332" lon="-87.707814">
      </trkpt>
      <trkpt lat="41.929168" lon="-87.707541">
      </trkpt>
      <trkpt lat="41.928361" lon="-87.707825">
      </trkpt>
      <trkpt lat="41.927157" lon="-87.707297">
      </trkpt>
      <trkpt lat="41.89556" lon="-87.706541">
      </trkpt>
      <trkpt lat="41.894964" lon="-87.751931">
      </trkpt>
      <trkpt lat="41.898397" lon="-87.752005">
      </trkpt>
      <trkpt lat="41.898397" lon="-87.752005">
      </trkpt>
      <trkpt lat="41.898631" lon="-87.75201">
      </trkpt>
      <trkpt lat="41.8989" lon="-87.733586">
      </trkpt>
      <trkpt lat="41.899819" lon="-87.733611">
      </trkpt>
      <trkpt lat="41.899795" lon="-87.735367">
      </trkpt>
      <trkpt lat="41.899795" lon="-87.735367">
      </trkpt>
      <trkpt lat="41.899785" lon="-87.736064">
      </trkpt>
      <trkpt lat="41.902516" lon="-87.736145">
      </trkpt>
      <trkpt lat="41.902357" lon="-87.745973">
      </trkpt>
      <trkpt lat="41.909683" lon="-87.746129">
      </trkpt>
      <trkpt lat="41.90959" lon="-87.749173">
      </trkpt>
      <trkpt lat="41.909507" lon="-87.755785">
      </trkpt>
      <trkpt lat="41.931408" lon="-87.756422">
      </trkpt>
      <trkpt lat="41.931344" lon="-87.761321">
      </trkpt>
      <trkpt lat="41.931863" lon="-87.76134">
      </trkpt>
      <trkpt lat="41.931863" lon="-87.76134">
      </trkpt>
      <trkpt lat="41.93864" lon="-87.761578">
      </trkpt>
      <trkpt lat="41.938879" lon="-87.743881">
      </trkpt>
      <trkpt lat="41.939556" lon="-87.743909">
      </trkpt>
      <trkpt lat="41.939556" lon="-87.743909">
      </trkpt>
      <trkpt lat="41.942524" lon="-87.744004">
      </trkpt>
      <trkpt lat="41.942483" lon="-87.746971">
      </trkpt>
      <trkpt lat="41.92425" lon="-87.746319">
      </trkpt>
      <trkpt lat="41.923987" lon="-87.765997">
      </trkpt>
      <trkpt lat="41.909384" lon="-87.765733">
      </trkpt>
      <trkpt lat="41.908935" lon="-87.805768">
      </trkpt>
      <trkpt lat="41.894231" lon="-87.805238">
      </trkpt>
      <trkpt lat="41.894215" lon="-87.805109">
      </trkpt>
      <trkpt lat="41.894215" lon="-87.805109">
      </trkpt>
      <trkpt lat="41.894715" lon="-87.775128">
      </trkpt>
      <trkpt lat="41.896532" lon="-87.775187">
      </trkpt>
      <trkpt lat="41.896604" lon="-87.770319">
      </trkpt>
      <trkpt lat="41.89594" lon="-87.770298">
      </trkpt>
      <trkpt lat="41.89594" lon="-87.770298">
      </trkpt>
      <trkpt lat="41.894781" lon="-87.7702">
      </trkpt>
      <trkpt lat="41.894854" lon="-87.765388">
      </trkpt>
      <trkpt lat="41.902145" lon="-87.765658">
      </trkpt>
      <trkpt lat="41.90224" lon="-87.757004">
      </trkpt>
      <trkpt lat="41.902105" lon="-87.757001">
      </trkpt>
      <trkpt lat="41.902105" lon="-87.757001">
      </trkpt>
      <trkpt lat="41.902105" lon="-87.757001">
      </trkpt>
      <trkpt lat="41.902105" lon="-87.757001">
      </trkpt>
      <trkpt lat="41.902105" lon="-87.757001">
      </trkpt>
      <trkpt lat="41.902105" lon="-87.757001">
      </trkpt>
      <trkpt lat="41.900406" lon="-87.756961">
      </trkpt>
      <trkpt lat="41.900393" lon="-87.758199">
      </trkpt>
      <trkpt lat="41.902229" lon="-87.758251">
      </trkpt>
      <trkpt lat="41.902145" lon="-87.765658">
      </trkpt>
      <trkpt lat="41.909384" lon="-87.765733">
      </trkpt>
      <trkpt lat="41.908935" lon="-87.805768">
      </trkpt>
      <trkpt lat="41.938002" lon="-87.806735">
      </trkpt>
      <trkpt lat="41.937955" lon="-87.815295">
      </trkpt>
      <trkpt lat="41.94138" lon="-87.815423">
      </trkpt>
      <trkpt lat="41.941356" lon="-87.816652">
      </trkpt>
      <trkpt lat="41.941072" lon="-87.816641">
      </trkpt>
      <trkpt lat="41.941072" lon="-87.816641">
      </trkpt>
      <trkpt lat="41.939617" lon="-87.816587">
      </trkpt>
      <trkpt lat="41.939641" lon="-87.815358">
      </trkpt>
      <trkpt lat="41.945096" lon="-87.815563">
      </trkpt>
      <trkpt lat="41.946271" lon="-87.735605">
      </trkpt>
      <trkpt lat="41.939142" lon="-87.723912">
      </trkpt>
      <trkpt lat="41.939885" lon="-87.656082">
      </trkpt>
      <trkpt lat="41.939885" lon="-87.656082">
      </trkpt>
      <trkpt lat="41.939142" lon="-87.723912">
      </trkpt>
      <trkpt lat="41.946271" lon="-87.735605">
      </trkpt>
      <trkpt lat="41.946215" lon="-87.739921">
      </trkpt>
      <trkpt lat="41.946215" lon="-87.739921">
      </trkpt>
      <trkpt lat="41.946484" lon="-87.71959">
      </trkpt>
      <trkpt lat="41.944989" lon="-87.718156">
      </trkpt>
      <trkpt lat="41.942115" lon="-87.715518">
      </trkpt>
      <trkpt lat="41.939977" lon="-87.709442">
      </trkpt>
      <trkpt lat="41.917124" lon="-87.669746">
      </trkpt>
      <trkpt lat="41.909975" lon="-87.664752">
      </trkpt>
      <trkpt lat="41.906635" lon="-87.661559">
      </trkpt>
      <trkpt lat="41.901306" lon="-87.661057">
      </trkpt>
      <trkpt lat="41.896667" lon="-87.658834">
      </trkpt>
      <trkpt lat="41.889352" lon="-87.648602">
      </trkpt>
      <trkpt lat="41.886261" lon="-87.646315">
      </trkpt>
      <trkpt lat="41.884406" lon="-87.646574">
      </trkpt>
      <trkpt lat="41.884373" lon="-87.64978">
      </trkpt>
      <trkpt lat="41.886778" lon="-87.649838">
      </trkpt>
      <trkpt lat="41.886776" lon="-87.649954">
      </trkpt>
      <trkpt lat="41.886776" lon="-87.649954">
      </trkpt>
      <trkpt lat="41.886776" lon="-87.649954">
      </trkpt>
      <trkpt lat="41.886776" lon="-87.649954">
      </trkpt>
      <trkpt lat="41.88676" lon="-87.651006">
      </trkpt>
      <trkpt lat="41.885607" lon="-87.650961">
      </trkpt>
      <trkpt lat="41.885682" lon="-87.646258">
      </trkpt>
      <trkpt lat="41.857367" lon="-87.644363">
      </trkpt>
      <trkpt lat="41.851247" lon="-87.645245">
      </trkpt>
      <trkpt lat="41.847384" lon="-87.642429">
      </trkpt>
      <trkpt lat="41.845323" lon="-87.634652">
      </trkpt>
      <trkpt lat="41.843952" lon="-87.632305">
      </trkpt>
      <trkpt lat="41.841797" lon="-87.631511">
      </trkpt>
      <trkpt lat="41.834597" lon="-87.631593">
      </trkpt>
      <trkpt lat="41.834642" lon="-87.628886">
      </trkpt>
      <trkpt lat="41.833673" lon="-87.628847">
      </trkpt>
      <trkpt lat="41.833673" lon="-87.628847">
      </trkpt>
      <trkpt lat="41.834642" lon="-87.628886">
      </trkpt>
      <trkpt lat="41.834623" lon="-87.629907">
      </trkpt>
      <trkpt lat="41.841613" lon="-87.6301">
      </trkpt>
      <trkpt lat="41.844491" lon="-87.631814">
      </trkpt>
      <trkpt lat="41.847286" lon="-87.641891">
      </trkpt>
      <trkpt lat="41.850184" lon="-87.644549">
      </trkpt>
      <trkpt lat="41.852401" lon="-87.645183">
      </trkpt>
      <trkpt lat="41.856638" lon="-87.644172">
      </trkpt>
      <trkpt lat="41.867845" lon="-87.644517">
      </trkpt>
      <trkpt lat="41.873521" lon="-87.644628">
      </trkpt>
      <trkpt lat="41.875312" lon="-87.643707">
      </trkpt>
      <trkpt lat="41.875572" lon="-87.635788">
      </trkpt>
      <trkpt lat="41.875312" lon="-87.634246">
      </trkpt>
      <trkpt lat="41.874721" lon="-87.634438">
      </trkpt>
      <trkpt lat="41.874834" lon="-87.635124">
      </trkpt>
      <trkpt lat="41.876431" lon="-87.635189">
      </trkpt>
      <trkpt lat="41.88065" lon="-87.635307">
      </trkpt>
      <trkpt lat="41.880685" lon="-87.632331">
      </trkpt>
      <trkpt lat="41.882302" lon="-87.632377">
      </trkpt>
      <trkpt lat="41.882302" lon="-87.632377">
      </trkpt>
      <trkpt lat="41.881953" lon="-87.632362">
      </trkpt>
      <trkpt lat="41.881889" lon="-87.639706">
      </trkpt>
      <trkpt lat="41.885734" lon="-87.639866">
      </trkpt>
      <trkpt lat="41.886808" lon="-87.641353">
      </trkpt>
      <trkpt lat="41.889103" lon="-87.641369">
      </trkpt>
      <trkpt lat="41.889017" lon="-87.648718">
      </trkpt>
      <trkpt lat="41.889662" lon="-87.648752">
      </trkpt>
      <trkpt lat="41.889662" lon="-87.648752">
      </trkpt>
      <trkpt lat="41.890082" lon="-87.64876">
      </trkpt>
      <trkpt lat="41.889894" lon="-87.667177">
      </trkpt>
      <trkpt lat="41.886928" lon="-87.667087">
      </trkpt>
      <trkpt lat="41.886827" lon="-87.673532">
      </trkpt>
      <trkpt lat="41.886827" lon="-87.673532">
      </trkpt>
      <trkpt lat="41.886929" lon="-87.666966">
      </trkpt>
      <trkpt lat="41.890974" lon="-87.667085">
      </trkpt>
      <trkpt lat="41.891061" lon="-87.65893">
      </trkpt>
      <trkpt lat="41.894874" lon="-87.655717">
      </trkpt>
      <trkpt lat="41.89596" lon="-87.657675">
      </trkpt>
      <trkpt lat="41.898217" lon="-87.65932">
      </trkpt>
      <trkpt lat="41.901753" lon="-87.660805">
      </trkpt>
      <trkpt lat="41.906799" lon="-87.661253">
      </trkpt>
      <trkpt lat="41.91766" lon="-87.669906">
      </trkpt>
      <trkpt lat="41.940439" lon="-87.709664">
      </trkpt>
      <trkpt lat="41.942208" lon="-87.714861">
      </trkpt>
      <trkpt lat="41.947985" lon="-87.719618">
      </trkpt>
      <trkpt lat="41.958569" lon="-87.738838">
      </trkpt>
      <trkpt lat="41.960451" lon="-87.741371">
      </trkpt>
      <trkpt lat="41.960845" lon="-87.74187">
      </trkpt>
      <trkpt lat="41.960081" lon="-87.794161">
      </trkpt>
      <trkpt lat="41.949144" lon="-87.816945">
      </trkpt>
      <trkpt lat="41.941072" lon="-87.816641">
      </trkpt>
      <trkpt lat="41.941072" lon="-87.816641">
      </trkpt>
      <trkpt lat="41.939617" lon="-87.816587">
      </trkpt>
      <trkpt lat="41.939594" lon="-87.817797">
      </trkpt>
      <trkpt lat="41.948419" lon="-87.818384">
      </trkpt>
      <trkpt lat="41.958438" lon="-87.797713">
      </trkpt>
      <trkpt lat="41.968342" lon="-87.797737">
      </trkpt>
      <trkpt lat="41.96853" lon="-87.778289">
      </trkpt>
      <trkpt lat="41.967665" lon="-87.77728">
      </trkpt>
      <trkpt lat="41.968033" lon="-87.747723">
      </trkpt>
      <trkpt lat="41.972896" lon="-87.747918">
      </trkpt>
      <trkpt lat="41.972794" lon="-87.747761">
      </trkpt>
      <trkpt lat="41.966563" lon="-87.747223">
      </trkpt>
      <trkpt lat="41.963113" lon="-87.745961">
      </trkpt>
      <trkpt lat="41.960129" lon="-87.742125">
      </trkpt>
      <trkpt lat="41.947613" lon="-87.719592">
      </trkpt>
      <trkpt lat="41.94215" lon="-87.715306">
      </trkpt>
      <trkpt lat="41.940524" lon="-87.710219">
      </trkpt>
      <trkpt lat="41.933659" lon="-87.698173">
      </trkpt>
      <trkpt lat="41.919706" lon="-87.673831">
      </trkpt>
      <trkpt lat="41.918264" lon="-87.671882">
      </trkpt>
      <trkpt lat="41.918151" lon="-87.671723">
      </trkpt>
      <trkpt lat="41.91793" lon="-87.667505">
      </trkpt>
      <trkpt lat="41.916455" lon="-87.666413">
      </trkpt>
      <trkpt lat="41.917067" lon="-87.663815">
      </trkpt>
      <trkpt lat="41.917139" lon="-87.658378">
      </trkpt>
      <trkpt lat="41.918041" lon="-87.658214">
      </trkpt>
      <trkpt lat="41.918178" lon="-87.648523">
      </trkpt>
      <trkpt lat="41.91731" lon="-87.648495">
      </trkpt>
      <trkpt lat="41.91731" lon="-87.648495">
      </trkpt>
      <trkpt lat="41.925453" lon="-87.648766">
      </trkpt>
      <trkpt lat="41.926223" lon="-87.63067">
      </trkpt>
      <trkpt lat="41.935386" lon="-87.632612">
      </trkpt>
      <trkpt lat="41.941219" lon="-87.638833">
      </trkpt>
      <trkpt lat="41.950931" lon="-87.644376">
      </trkpt>
      <trkpt lat="41.973046" lon="-87.648738">
      </trkpt>
      <trkpt lat="41.984951" lon="-87.652803">
      </trkpt>
      <trkpt lat="41.985556" lon="-87.655253">
      </trkpt>
      <trkpt lat="41.997803" lon="-87.655634">
      </trkpt>
      <trkpt lat="41.998196" lon="-87.659646">
      </trkpt>
      <trkpt lat="42.026154" lon="-87.666866">
      </trkpt>
      <trkpt lat="42.027161" lon="-87.668578">
      </trkpt>
      <trkpt lat="42.027266" lon="-87.678155">
      </trkpt>
      <trkpt lat="42.041201" lon="-87.680569">
      </trkpt>
      <trkpt lat="42.041208" lon="-87.681375">
      </trkpt>
      <trkpt lat="42.043758" lon="-87.68191">
      </trkpt>
      <trkpt lat="42.043758" lon="-87.68191">
      </trkpt>
      <trkpt lat="42.044102" lon="-87.681904">
      </trkpt>
      <trkpt lat="42.044191" lon="-87.688534">
      </trkpt>
      <trkpt lat="42.048527" lon="-87.688792">
      </trkpt>
      <trkpt lat="42.049394" lon="-87.688587">
      </trkpt>
      <trkpt lat="42.049394" lon="-87.688587">
      </trkpt>
      <trkpt lat="42.051264" lon="-87.687935">
      </trkpt>
      <trkpt lat="42.052175" lon="-87.688577">
      </trkpt>
      <trkpt lat="42.055271" lon="-87.740001">
      </trkpt>
      <trkpt lat="42.041109" lon="-87.756258">
      </trkpt>
      <trkpt lat="42.040938" lon="-87.763691">
      </trkpt>
      <trkpt lat="42.03371" lon="-87.768504">
      </trkpt>
      <trkpt lat="42.026512" lon="-87.768822">
      </trkpt>
      <trkpt lat="42.021309" lon="-87.765749">
      </trkpt>
      <trkpt lat="42.009007" lon="-87.749252">
      </trkpt>
      <trkpt lat="41.987219" lon="-87.751521">
      </trkpt>
      <trkpt lat="41.980228" lon="-87.746835">
      </trkpt>
      <trkpt lat="41.966563" lon="-87.747223">
      </trkpt>
      <trkpt lat="41.962358" lon="-87.745232">
      </trkpt>
      <trkpt lat="41.947613" lon="-87.719592">
      </trkpt>
      <trkpt lat="41.94215" lon="-87.715306">
      </trkpt>
      <trkpt lat="41.917654" lon="-87.670146">
      </trkpt>
      <trkpt lat="41.906646" lon="-87.66137">
      </trkpt>
      <trkpt lat="41.897685" lon="-87.659246">
      </trkpt>
      <trkpt lat="41.886676" lon="-87.646473">
      </trkpt>
      <trkpt lat="41.861936" lon="-87.644538">
      </trkpt>
      <trkpt lat="41.855528" lon="-87.645083">
      </trkpt>
      <trkpt lat="41.854689" lon="-87.64655">
      </trkpt>
      <trkpt lat="41.838041" lon="-87.646268">
      </trkpt>
      <trkpt lat="41.837977" lon="-87.651151">
      </trkpt>
      <trkpt lat="41.835279" lon="-87.651081">
      </trkpt>
      <trkpt lat="41.835257" lon="-87.652291">
      </trkpt>
      <trkpt lat="41.833573" lon="-87.652247">
      </trkpt>
      <trkpt lat="41.833573" lon="-87.652247">
      </trkpt>
      <trkpt lat="41.835257" lon="-87.652291">
      </trkpt>
      <trkpt lat="41.835234" lon="-87.653501">
      </trkpt>
      <trkpt lat="41.837946" lon="-87.653576">
      </trkpt>
      <trkpt lat="41.837842" lon="-87.660661">
      </trkpt>
      <trkpt lat="41.839637" lon="-87.662145">
      </trkpt>
      <trkpt lat="41.83774" lon="-87.66568">
      </trkpt>
      <trkpt lat="41.852337" lon="-87.665955">
      </trkpt>
      <trkpt lat="41.852181" lon="-87.675845">
      </trkpt>
      <trkpt lat="41.855831" lon="-87.675934">
      </trkpt>
      <trkpt lat="41.855815" lon="-87.677704">
      </trkpt>
      <trkpt lat="41.855815" lon="-87.677704">
      </trkpt>
      <trkpt lat="41.855831" lon="-87.675934">
      </trkpt>
      <trkpt lat="41.875016" lon="-87.676418">
      </trkpt>
      <trkpt lat="41.875021" lon="-87.676128">
      </trkpt>
      <trkpt lat="41.875329" lon="-87.650308">
      </trkpt>
      <trkpt lat="41.874563" lon="-87.645452">
      </trkpt>
      <trkpt lat="41.876036" lon="-87.64458">
      </trkpt>
      <trkpt lat="41.880374" lon="-87.645275">
      </trkpt>
      <trkpt lat="41.881847" lon="-87.645355">
      </trkpt>
      <trkpt lat="41.882198" lon="-87.645393">
      </trkpt>
      <trkpt lat="41.888483" lon="-87.647404">
      </trkpt>
      <trkpt lat="41.897251" lon="-87.658783">
      </trkpt>
      <trkpt lat="41.906443" lon="-87.661061">
      </trkpt>
      <trkpt lat="41.91737" lon="-87.669547">
      </trkpt>
      <trkpt lat="41.937344" lon="-87.704001">
      </trkpt>
      <trkpt lat="41.942208" lon="-87.714861">
      </trkpt>
      <trkpt lat="41.947985" lon="-87.719618">
      </trkpt>
      <trkpt lat="41.958569" lon="-87.738838">
      </trkpt>
      <trkpt lat="41.960451" lon="-87.741371">
      </trkpt>
      <trkpt lat="41.960724" lon="-87.747538">
      </trkpt>
      <trkpt lat="41.947676" lon="-87.747132">
      </trkpt>
      <trkpt lat="41.947676" lon="-87.747132">
      </trkpt>
      <trkpt lat="41.946122" lon="-87.747072">
      </trkpt>
      <trkpt lat="41.946429" lon="-87.723631">
      </trkpt>
      <trkpt lat="41.946606" lon="-87.723636">
      </trkpt>
      <trkpt lat="41.946606" lon="-87.723636">
      </trkpt>
      <trkpt lat="41.948712" lon="-87.723695">
      </trkpt>
      <trkpt lat="41.946669" lon="-87.720091">
      </trkpt>
      <trkpt lat="41.946478" lon="-87.720056">
      </trkpt>
      <trkpt lat="41.946484" lon="-87.71959">
      </trkpt>
      <trkpt lat="41.945881" lon="-87.718735">
      </trkpt>
      <trkpt lat="41.944989" lon="-87.718156">
      </trkpt>
      <trkpt lat="41.94468" lon="-87.718165">
      </trkpt>
      <trkpt lat="41.943897" lon="-87.71756">
      </trkpt>
      <trkpt lat="41.931929" lon="-87.717188">
      </trkpt>
      <trkpt lat="41.931892" lon="-87.719631">
      </trkpt>
      <trkpt lat="41.931377" lon="-87.719618">
      </trkpt>
      <trkpt lat="41.931377" lon="-87.719618">
      </trkpt>
      <trkpt lat="41.928233" lon="-87.719534">
      </trkpt>
      <trkpt lat="41.928261" lon="-87.71708">
      </trkpt>
      <trkpt lat="41.92898" lon="-87.717101">
      </trkpt>
      <trkpt lat="41.92898" lon="-87.717101">
      </trkpt>
      <trkpt lat="41.931929" lon="-87.717188">
      </trkpt>
      <trkpt lat="41.932116" lon="-87.696547">
      </trkpt>
      <trkpt lat="41.916815" lon="-87.669405">
      </trkpt>
      <trkpt lat="41.909975" lon="-87.664752">
      </trkpt>
      <trkpt lat="41.906635" lon="-87.661559">
      </trkpt>
      <trkpt lat="41.900902" lon="-87.660921">
      </trkpt>
      <trkpt lat="41.896968" lon="-87.659049">
      </trkpt>
      <trkpt lat="41.895018" lon="-87.657114">
      </trkpt>
      <trkpt lat="41.891931" lon="-87.653963">
      </trkpt>
      <trkpt lat="41.892554" lon="-87.651034">
      </trkpt>
      <trkpt lat="41.892538" lon="-87.624293">
      </trkpt>
      <trkpt lat="41.890945" lon="-87.624246">
      </trkpt>
      <trkpt lat="41.890981" lon="-87.621986">
      </trkpt>
      <trkpt lat="41.890948" lon="-87.624074">
      </trkpt>
      <trkpt lat="41.891505" lon="-87.624094">
      </trkpt>
      <trkpt lat="41.891505" lon="-87.624094">
      </trkpt>
      <trkpt lat="41.892541" lon="-87.624121">
      </trkpt>
      <trkpt lat="41.892588" lon="-87.620263">
      </trkpt>
      <trkpt lat="41.887855" lon="-87.620762">
      </trkpt>
      <trkpt lat="41.887462" lon="-87.615811">
      </trkpt>
      <trkpt lat="41.887175" lon="-87.614014">
      </trkpt>
      <trkpt lat="41.885118" lon="-87.61394">
      </trkpt>
      <trkpt lat="41.881821" lon="-87.617453">
      </trkpt>
      <trkpt lat="41.869765" lon="-87.617261">
      </trkpt>
      <trkpt lat="41.866068" lon="-87.619589">
      </trkpt>
      <trkpt lat="41.853242" lon="-87.614728">
      </trkpt>
      <trkpt lat="41.848506" lon="-87.614444">
      </trkpt>
      <trkpt lat="41.84732" lon="-87.626818">
      </trkpt>
      <trkpt lat="41.847855" lon="-87.631727">
      </trkpt>
      <trkpt lat="41.843118" lon="-87.631351">
      </trkpt>
      <trkpt lat="41.79178" lon="-87.631289">
      </trkpt>
      <trkpt lat="41.783322" lon="-87.631532">
      </trkpt>
      <trkpt lat="41.779372" lon="-87.631833">
      </trkpt>
      <trkpt lat="41.779366" lon="-87.632128">
      </trkpt>
      <trkpt lat="41.778543" lon="-87.632538">
      </trkpt>
      <trkpt lat="41.778543" lon="-87.632538">
      </trkpt>
      <trkpt lat="41.779366" lon="-87.632128">
      </trkpt>
      <trkpt lat="41.779372" lon="-87.631833">
      </trkpt>
      <trkpt lat="41.778124" lon="-87.631812">
      </trkpt>
      <trkpt lat="41.778077" lon="-87.635009">
      </trkpt>
      <trkpt lat="41.779907" lon="-87.635057">
      </trkpt>
      <trkpt lat="41.779931" lon="-87.630139">
      </trkpt>
      <trkpt lat="41.780433" lon="-87.630149">
      </trkpt>
      <trkpt lat="41.807989" lon="-87.63142">
      </trkpt>
      <trkpt lat="41.812785" lon="-87.629665">
      </trkpt>
      <trkpt lat="41.837743" lon="-87.630393">
      </trkpt>
      <trkpt lat="41.844144" lon="-87.631347">
      </trkpt>
      <trkpt lat="41.847354" lon="-87.642036">
      </trkpt>
      <trkpt lat="41.850632" lon="-87.644778">
      </trkpt>
      <trkpt lat="41.885931" lon="-87.64591">
      </trkpt>
      <trkpt lat="41.889375" lon="-87.648317">
      </trkpt>
      <trkpt lat="41.896124" lon="-87.65785">
      </trkpt>
      <trkpt lat="41.900116" lon="-87.660194">
      </trkpt>
      <trkpt lat="41.90345" lon="-87.660665">
      </trkpt>
      <trkpt lat="41.903492" lon="-87.658338">
      </trkpt>
      <trkpt lat="41.908679" lon="-87.660908">
      </trkpt>
      <trkpt lat="41.908679" lon="-87.660908">
      </trkpt>
      <trkpt lat="41.907139" lon="-87.659943">
      </trkpt>
      <trkpt lat="41.904628" lon="-87.659432">
      </trkpt>
      <trkpt lat="41.904243" lon="-87.659164">
      </trkpt>
      <trkpt lat="41.903492" lon="-87.658338">
      </trkpt>
      <trkpt lat="41.903534" lon="-87.655448">
      </trkpt>
      <trkpt lat="41.904795" lon="-87.656534">
      </trkpt>
      <trkpt lat="41.907144" lon="-87.656617">
      </trkpt>
      <trkpt lat="41.907157" lon="-87.655968">
      </trkpt>
      <trkpt lat="41.907157" lon="-87.655968">
      </trkpt>
      <trkpt lat="41.907144" lon="-87.656617">
      </trkpt>
      <trkpt lat="41.903534" lon="-87.655448">
      </trkpt>
      <trkpt lat="41.903435" lon="-87.661667">
      </trkpt>
      <trkpt lat="41.896333" lon="-87.658563">
      </trkpt>
      <trkpt lat="41.889352" lon="-87.648602">
      </trkpt>
      <trkpt lat="41.886261" lon="-87.646315">
      </trkpt>
      <trkpt lat="41.857367" lon="-87.644363">
      </trkpt>
      <trkpt lat="41.852447" lon="-87.645793">
      </trkpt>
      <trkpt lat="41.849097" lon="-87.644333">
      </trkpt>
      <trkpt lat="41.846776" lon="-87.644894">
      </trkpt>
      <trkpt lat="41.844955" lon="-87.652708">
      </trkpt>
      <trkpt lat="41.837772" lon="-87.66744">
      </trkpt>
      <trkpt lat="41.836863" lon="-87.680834">
      </trkpt>
      <trkpt lat="41.796778" lon="-87.808237">
      </trkpt>
      <trkpt lat="41.796664" lon="-87.81334">
      </trkpt>
      <trkpt lat="41.796227" lon="-87.817561">
      </trkpt>
      <trkpt lat="41.796432" lon="-87.82855">
      </trkpt>
      <trkpt lat="41.798453" lon="-87.832286">
      </trkpt>
      <trkpt lat="41.802" lon="-87.833265">
      </trkpt>
      <trkpt lat="41.805866" lon="-87.832418">
      </trkpt>
      <trkpt lat="41.804439" lon="-87.898468">
      </trkpt>
      <trkpt lat="41.809443" lon="-87.898647">
      </trkpt>
      <trkpt lat="41.80982" lon="-87.896902">
      </trkpt>
      <trkpt lat="41.80982" lon="-87.896902">
      </trkpt>
      <trkpt lat="41.809443" lon="-87.898647">
      </trkpt>
      <trkpt lat="41.820622" lon="-87.899084">
      </trkpt>
      <trkpt lat="41.824706" lon="-87.900167">
      </trkpt>
      <trkpt lat="41.833598" lon="-87.900599">
      </trkpt>
      <trkpt lat="41.834592" lon="-87.861578">
      </trkpt>
      <trkpt lat="41.828453" lon="-87.852788">
      </trkpt>
      <trkpt lat="41.828453" lon="-87.852788">
      </trkpt>
      <trkpt lat="41.829318" lon="-87.854022">
      </trkpt>
      <trkpt lat="41.829395" lon="-87.851586">
      </trkpt>
      <trkpt lat="41.834856" lon="-87.851812">
      </trkpt>
      <trkpt lat="41.835271" lon="-87.833527">
      </trkpt>
      <trkpt lat="41.839018" lon="-87.833403">
      </trkpt>
      <trkpt lat="41.842604" lon="-87.83259">
      </trkpt>
      <trkpt lat="41.843157" lon="-87.800539">
      </trkpt>
      <trkpt lat="41.850552" lon="-87.790671">
      </trkpt>
      <trkpt lat="41.850936" lon="-87.765152">
      </trkpt>
      <trkpt lat="41.854512" lon="-87.765244">
      </trkpt>
      <trkpt lat="41.854512" lon="-87.765244">
      </trkpt>
      <trkpt lat="41.854628" lon="-87.765247">
      </trkpt>
      <trkpt lat="41.854645" lon="-87.764002">
      </trkpt>
      <trkpt lat="41.843689" lon="-87.763707">
      </trkpt>
      <trkpt lat="41.843881" lon="-87.7514">
      </trkpt>
      <trkpt lat="41.84468" lon="-87.748961">
      </trkpt>
      <trkpt lat="41.844793" lon="-87.744322">
      </trkpt>
      <trkpt lat="41.845201" lon="-87.742475">
      </trkpt>
      <trkpt lat="41.845022" lon="-87.742059">
      </trkpt>
      <trkpt lat="41.844186" lon="-87.741576">
      </trkpt>
      <trkpt lat="41.843979" lon="-87.740985">
      </trkpt>
      <trkpt lat="41.844188" lon="-87.729417">
      </trkpt>
      <trkpt lat="41.840507" lon="-87.729309">
      </trkpt>
      <trkpt lat="41.840493" lon="-87.730524">
      </trkpt>
      <trkpt lat="41.840618" lon="-87.730527">
      </trkpt>
      <trkpt lat="41.840618" lon="-87.730527">
      </trkpt>
      <trkpt lat="41.844172" lon="-87.730628">
      </trkpt>
      <trkpt lat="41.844122" lon="-87.73427">
      </trkpt>
      <trkpt lat="41.872889" lon="-87.735214">
      </trkpt>
      <trkpt lat="41.873657" lon="-87.731862">
      </trkpt>
      <trkpt lat="41.873948" lon="-87.708909">
      </trkpt>
      <trkpt lat="41.874481" lon="-87.704448">
      </trkpt>
      <trkpt lat="41.874345" lon="-87.701026">
      </trkpt>
      <trkpt lat="41.895594" lon="-87.702191">
      </trkpt>
      <trkpt lat="41.895606" lon="-87.701213">
      </trkpt>
      <trkpt lat="41.895606" lon="-87.701213">
      </trkpt>
      <trkpt lat="41.895594" lon="-87.702191">
      </trkpt>
      <trkpt lat="41.896575" lon="-87.702222">
      </trkpt>
      <trkpt lat="41.900143" lon="-87.711243">
      </trkpt>
      <trkpt lat="41.900057" lon="-87.711889">
      </trkpt>
      <trkpt lat="41.900725" lon="-87.712727">
      </trkpt>
      <trkpt lat="41.902232" lon="-87.716556">
      </trkpt>
      <trkpt lat="41.904574" lon="-87.716622">
      </trkpt>
      <trkpt lat="41.90458" lon="-87.715988">
      </trkpt>
      <trkpt lat="41.905353" lon="-87.716651">
      </trkpt>
      <trkpt lat="41.930091" lon="-87.717134">
      </trkpt>
      <trkpt lat="41.930086" lon="-87.718374">
      </trkpt>
      <trkpt lat="41.931664" lon="-87.718419">
      </trkpt>
      <trkpt lat="41.931664" lon="-87.718419">
      </trkpt>
      <trkpt lat="41.93191" lon="-87.718427">
      </trkpt>
      <trkpt lat="41.931929" lon="-87.717188">
      </trkpt>
      <trkpt lat="41.909987" lon="-87.71669">
      </trkpt>
      <trkpt lat="41.909928" lon="-87.721646">
      </trkpt>
      <trkpt lat="41.886818" lon="-87.720964">
      </trkpt>
      <trkpt lat="41.886809" lon="-87.721861">
      </trkpt>
      <trkpt lat="41.886809" lon="-87.721861">
      </trkpt>
      <trkpt lat="41.886818" lon="-87.720964">
      </trkpt>
      <trkpt lat="41.885208" lon="-87.720917">
      </trkpt>
      <trkpt lat="41.884089" lon="-87.701291">
      </trkpt>
      <trkpt lat="41.88498" lon="-87.676739">
      </trkpt>
      <trkpt lat="41.886776" lon="-87.676791">
      </trkpt>
      <trkpt lat="41.886827" lon="-87.673532">
      </trkpt>
      <trkpt lat="41.886827" lon="-87.673532">
      </trkpt>
      <trkpt lat="41.886827" lon="-87.673532">
      </trkpt>
      <trkpt lat="41.886827" lon="-87.673532">
      </trkpt>
      <trkpt lat="41.886776" lon="-87.676791">
      </trkpt>
      <trkpt lat="41.88498" lon="-87.676739">
      </trkpt>
      <trkpt lat="41.884621" lon="-87.686532">
      </trkpt>
      <trkpt lat="41.881166" lon="-87.686432">
      </trkpt>
      <trkpt lat="41.881077" lon="-87.696286">
      </trkpt>
      <trkpt lat="41.880169" lon="-87.696261">
      </trkpt>
      <trkpt lat="41.880173" lon="-87.695733">
      </trkpt>
      <trkpt lat="41.880173" lon="-87.695733">
      </trkpt>
      <trkpt lat="41.880169" lon="-87.696261">
      </trkpt>
      <trkpt lat="41.884255" lon="-87.69636">
      </trkpt>
      <trkpt lat="41.884091" lon="-87.701426">
      </trkpt>
      <trkpt lat="41.885478" lon="-87.725794">
      </trkpt>
      <trkpt lat="41.887387" lon="-87.757813">
      </trkpt>
      <trkpt lat="41.887338" lon="-87.762446">
      </trkpt>
      <trkpt lat="41.887349" lon="-87.76325">
      </trkpt>
      <trkpt lat="41.88773" lon="-87.763296">
      </trkpt>
      <trkpt lat="41.887722" lon="-87.765123">
      </trkpt>
      <trkpt lat="41.898494" lon="-87.765522">
      </trkpt>
      <trkpt lat="41.898428" lon="-87.770378">
      </trkpt>
      <trkpt lat="41.89751" lon="-87.770348">
      </trkpt>
      <trkpt lat="41.897508" lon="-87.77057">
      </trkpt>
      <trkpt lat="41.897508" lon="-87.77057">
      </trkpt>
      <trkpt lat="41.897483" lon="-87.772382">
      </trkpt>
      <trkpt lat="41.898401" lon="-87.772411">
      </trkpt>
      <trkpt lat="41.898494" lon="-87.765522">
      </trkpt>
      <trkpt lat="41.902145" lon="-87.765658">
      </trkpt>
      <trkpt lat="41.902833" lon="-87.706787">
      </trkpt>
      <trkpt lat="41.915578" lon="-87.706867">
      </trkpt>
      <trkpt lat="41.915612" lon="-87.703717">
      </trkpt>
      <trkpt lat="41.915612" lon="-87.703717">
      </trkpt>
      <trkpt lat="41.915629" lon="-87.702035">
      </trkpt>
      <trkpt lat="41.91745" lon="-87.702101">
      </trkpt>
      <trkpt lat="41.917587" lon="-87.687413">
      </trkpt>
      <trkpt lat="41.951293" lon="-87.688393">
      </trkpt>
      <trkpt lat="41.951275" lon="-87.689719">
      </trkpt>
      <trkpt lat="41.951275" lon="-87.689719">
      </trkpt>
      <trkpt lat="41.951293" lon="-87.688393">
      </trkpt>
      <trkpt lat="41.949742" lon="-87.688345">
      </trkpt>
      <trkpt lat="41.949742" lon="-87.688345">
      </trkpt>
      <trkpt lat="41.946744" lon="-87.688245">
      </trkpt>
      <trkpt lat="41.945882" lon="-87.766768">
      </trkpt>
      <trkpt lat="41.93858" lon="-87.76649">
      </trkpt>
      <trkpt lat="41.938501" lon="-87.772556">
      </trkpt>
      <trkpt lat="41.934843" lon="-87.772439">
      </trkpt>
      <trkpt lat="41.934821" lon="-87.774011">
      </trkpt>
      <trkpt lat="41.934821" lon="-87.774011">
      </trkpt>
      <trkpt lat="41.934826" lon="-87.773657">
      </trkpt>
      <trkpt lat="41.938486" lon="-87.773785">
      </trkpt>
      <trkpt lat="41.93884" lon="-87.746879">
      </trkpt>
      <trkpt lat="41.96438" lon="-87.747627">
      </trkpt>
      <trkpt lat="41.964394" lon="-87.745977">
      </trkpt>
      <trkpt lat="41.980044" lon="-87.746614">
      </trkpt>
      <trkpt lat="41.987222" lon="-87.751348">
      </trkpt>
      <trkpt lat="42.00867" lon="-87.748898">
      </trkpt>
      <trkpt lat="42.014015" lon="-87.752849">
      </trkpt>
      <trkpt lat="42.020691" lon="-87.764685">
      </trkpt>
      <trkpt lat="42.024765" lon="-87.768078">
      </trkpt>
      <trkpt lat="42.033299" lon="-87.768407">
      </trkpt>
      <trkpt lat="42.038593" lon="-87.764702">
      </trkpt>
      <trkpt lat="42.040844" lon="-87.759717">
      </trkpt>
      <trkpt lat="42.040827" lon="-87.720086">
      </trkpt>
      <trkpt lat="42.048153" lon="-87.714181">
      </trkpt>
      <trkpt lat="42.048504" lon="-87.685633">
      </trkpt>
      <trkpt lat="42.048465" lon="-87.685471">
      </trkpt>
      <trkpt lat="42.047061" lon="-87.684986">
      </trkpt>
      <trkpt lat="42.047071" lon="-87.685699">
      </trkpt>
    </trkseg>
  </trk>
</gpx>