<?xml version="1.0" encoding="UTF-8"?>
<gpx xmlns="http://www.topografix.com/GPX/1/1" xmlns:xsi="http://www.w3.org/2001/XMLSchema-instance" xsi:schemaLocation="http://www.topografix.com/GPX/1/1 http://www.topografix.com/GPX/1/1/gpx.xsd" version="1.1" creator="gpx.py -- https://github.com/tkrajina/gpxpy">
  <trk>
    <trkseg>
      <trkpt lat="41.948162" lon="-87.736648">
      </trkpt>
      <trkpt lat="41.949925" lon="-87.736694">
      </trkpt>
      <trkpt lat="41.949908" lon="-87.738048">
      </trkpt>
      <trkpt lat="41.948431" lon="-87.738018">
      </trkpt>
      <trkpt lat="41.948006" lon="-87.73847">
      </trkpt>
      <trkpt lat="41.946271" lon="-87.735605">
      </trkpt>
      <trkpt lat="41.946122" lon="-87.747072">
      </trkpt>
      <trkpt lat="41.931542" lon="-87.746595">
      </trkpt>
      <trkpt lat="41.93147" lon="-87.751741">
      </trkpt>
      <trkpt lat="41.93147" lon="-87.751741">
      </trkpt>
      <trkpt lat="41.931542" lon="-87.746595">
      </trkpt>
      <trkpt lat="41.929301" lon="-87.74658">
      </trkpt>
      <trkpt lat="41.929238" lon="-87.746494">
      </trkpt>
      <trkpt lat="41.92425" lon="-87.746319">
      </trkpt>
      <trkpt lat="41.924417" lon="-87.733273">
      </trkpt>
      <trkpt lat="41.924417" lon="-87.733273">
      </trkpt>
      <trkpt lat="41.924902" lon="-87.687645">
      </trkpt>
      <trkpt lat="41.919088" lon="-87.68746">
      </trkpt>
      <trkpt lat="41.91918" lon="-87.682568">
      </trkpt>
      <trkpt lat="41.918425" lon="-87.682542">
      </trkpt>
      <trkpt lat="41.918404" lon="-87.683685">
      </trkpt>
      <trkpt lat="41.918404" lon="-87.683685">
      </trkpt>
      <trkpt lat="41.918381" lon="-87.684991">
      </trkpt>
      <trkpt lat="41.91763" lon="-87.684968">
      </trkpt>
      <trkpt lat="41.917824" lon="-87.673991">
      </trkpt>
      <trkpt lat="41.90961" lon="-87.673782">
      </trkpt>
      <trkpt lat="41.909456" lon="-87.673955">
      </trkpt>
      <trkpt lat="41.909456" lon="-87.673955">
      </trkpt>
      <trkpt lat="41.90961" lon="-87.673782">
      </trkpt>
      <trkpt lat="41.916014" lon="-87.673945">
      </trkpt>
      <trkpt lat="41.916129" lon="-87.66782">
      </trkpt>
      <trkpt lat="41.917067" lon="-87.663815">
      </trkpt>
      <trkpt lat="41.917114" lon="-87.66003">
      </trkpt>
      <trkpt lat="41.919363" lon="-87.663134">
      </trkpt>
      <trkpt lat="41.920731" lon="-87.663168">
      </trkpt>
      <trkpt lat="41.921692" lon="-87.664499">
      </trkpt>
      <trkpt lat="41.921692" lon="-87.664499">
      </trkpt>
      <trkpt lat="41.921608" lon="-87.664379">
      </trkpt>
      <trkpt lat="41.921626" lon="-87.6632">
      </trkpt>
      <trkpt lat="41.934302" lon="-87.663616">
      </trkpt>
      <trkpt lat="41.934287" lon="-87.664529">
      </trkpt>
      <trkpt lat="41.934287" lon="-87.664529">
      </trkpt>
      <trkpt lat="41.934262" lon="-87.666043">
      </trkpt>
      <trkpt lat="41.933349" lon="-87.66601">
      </trkpt>
      <trkpt lat="41.933309" lon="-87.668485">
      </trkpt>
      <trkpt lat="41.924169" lon="-87.668122">
      </trkpt>
      <trkpt lat="41.921563" lon="-87.668616">
      </trkpt>
      <trkpt lat="41.921395" lon="-87.677255">
      </trkpt>
      <trkpt lat="41.918587" lon="-87.671848">
      </trkpt>
      <trkpt lat="41.916815" lon="-87.669405">
      </trkpt>
      <trkpt lat="41.915202" lon="-87.667999">
      </trkpt>
      <trkpt lat="41.909975" lon="-87.664752">
      </trkpt>
      <trkpt lat="41.90696" lon="-87.661748">
      </trkpt>
      <trkpt lat="41.905495" lon="-87.661171">
      </trkpt>
      <trkpt lat="41.901587" lon="-87.661131">
      </trkpt>
      <trkpt lat="41.897534" lon="-87.659383">
      </trkpt>
      <trkpt lat="41.896502" lon="-87.658904">
      </trkpt>
      <trkpt lat="41.895016" lon="-87.657508">
      </trkpt>
      <trkpt lat="41.893502" lon="-87.657432">
      </trkpt>
      <trkpt lat="41.893479" lon="-87.658764">
      </trkpt>
      <trkpt lat="41.893479" lon="-87.658764">
      </trkpt>
      <trkpt lat="41.893417" lon="-87.66233">
      </trkpt>
      <trkpt lat="41.891027" lon="-87.662267">
      </trkpt>
      <trkpt lat="41.890657" lon="-87.687437">
      </trkpt>
      <trkpt lat="41.895625" lon="-87.699899">
      </trkpt>
      <trkpt lat="41.895594" lon="-87.702191">
      </trkpt>
      <trkpt lat="41.893559" lon="-87.70214">
      </trkpt>
      <trkpt lat="41.893207" lon="-87.700875">
      </trkpt>
      <trkpt lat="41.890806" lon="-87.695059">
      </trkpt>
      <trkpt lat="41.891316" lon="-87.694676">
      </trkpt>
      <trkpt lat="41.89119" lon="-87.694237">
      </trkpt>
      <trkpt lat="41.89119" lon="-87.694237">
      </trkpt>
      <trkpt lat="41.890806" lon="-87.695059">
      </trkpt>
      <trkpt lat="41.893559" lon="-87.70214">
      </trkpt>
      <trkpt lat="41.874345" lon="-87.701026">
      </trkpt>
      <trkpt lat="41.874908" lon="-87.695509">
      </trkpt>
      <trkpt lat="41.875125" lon="-87.690201">
      </trkpt>
      <trkpt lat="41.875329" lon="-87.650308">
      </trkpt>
      <trkpt lat="41.875215" lon="-87.648052">
      </trkpt>
      <trkpt lat="41.874037" lon="-87.646014">
      </trkpt>
      <trkpt lat="41.869485" lon="-87.644983">
      </trkpt>
      <trkpt lat="41.850609" lon="-87.644998">
      </trkpt>
      <trkpt lat="41.847255" lon="-87.642186">
      </trkpt>
      <trkpt lat="41.845323" lon="-87.634652">
      </trkpt>
      <trkpt lat="41.84209" lon="-87.63091">
      </trkpt>
      <trkpt lat="41.79178" lon="-87.631289">
      </trkpt>
      <trkpt lat="41.778978" lon="-87.631289">
      </trkpt>
      <trkpt lat="41.773198" lon="-87.626564">
      </trkpt>
      <trkpt lat="41.768925" lon="-87.626239">
      </trkpt>
      <trkpt lat="41.766175" lon="-87.626556">
      </trkpt>
      <trkpt lat="41.7655" lon="-87.626545">
      </trkpt>
      <trkpt lat="41.764986" lon="-87.658969">
      </trkpt>
      <trkpt lat="41.761357" lon="-87.658872">
      </trkpt>
      <trkpt lat="41.761357" lon="-87.658872">
      </trkpt>
      <trkpt lat="41.764986" lon="-87.658969">
      </trkpt>
      <trkpt lat="41.765061" lon="-87.654113">
      </trkpt>
      <trkpt lat="41.808751" lon="-87.655253">
      </trkpt>
      <trkpt lat="41.808882" lon="-87.645541">
      </trkpt>
      <trkpt lat="41.818634" lon="-87.645788">
      </trkpt>
      <trkpt lat="41.818747" lon="-87.648779">
      </trkpt>
      <trkpt lat="41.819697" lon="-87.648815">
      </trkpt>
      <trkpt lat="41.819697" lon="-87.648815">
      </trkpt>
      <trkpt lat="41.818747" lon="-87.648779">
      </trkpt>
      <trkpt lat="41.818606" lon="-87.65541">
      </trkpt>
      <trkpt lat="41.815987" lon="-87.655335">
      </trkpt>
      <trkpt lat="41.815875" lon="-87.664428">
      </trkpt>
      <trkpt lat="41.815401" lon="-87.664845">
      </trkpt>
      <trkpt lat="41.815399" lon="-87.665068">
      </trkpt>
      <trkpt lat="41.815874" lon="-87.665079">
      </trkpt>
      <trkpt lat="41.815705" lon="-87.684051">
      </trkpt>
      <trkpt lat="41.815484" lon="-87.684046">
      </trkpt>
      <trkpt lat="41.813884" lon="-87.684007">
      </trkpt>
      <trkpt lat="41.808416" lon="-87.683875">
      </trkpt>
      <trkpt lat="41.808006" lon="-87.714276">
      </trkpt>
      <trkpt lat="41.801549" lon="-87.724727">
      </trkpt>
      <trkpt lat="41.798665" lon="-87.743005">
      </trkpt>
      <trkpt lat="41.797609" lon="-87.742983">
      </trkpt>
      <trkpt lat="41.797604" lon="-87.743235">
      </trkpt>
      <trkpt lat="41.795686" lon="-87.743185">
      </trkpt>
      <trkpt lat="41.795505" lon="-87.747745">
      </trkpt>
      <trkpt lat="41.795505" lon="-87.747745">
      </trkpt>
      <trkpt lat="41.795686" lon="-87.743185">
      </trkpt>
      <trkpt lat="41.797604" lon="-87.743235">
      </trkpt>
      <trkpt lat="41.797609" lon="-87.742983">
      </trkpt>
      <trkpt lat="41.79668" lon="-87.742962">
      </trkpt>
      <trkpt lat="41.816777" lon="-87.743306">
      </trkpt>
      <trkpt lat="41.836711" lon="-87.680385">
      </trkpt>
      <trkpt lat="41.837594" lon="-87.667241">
      </trkpt>
      <trkpt lat="41.845157" lon="-87.651015">
      </trkpt>
      <trkpt lat="41.847117" lon="-87.641938">
      </trkpt>
      <trkpt lat="41.847976" lon="-87.616851">
      </trkpt>
      <trkpt lat="41.848153" lon="-87.613392">
      </trkpt>
      <trkpt lat="41.84938" lon="-87.612168">
      </trkpt>
      <trkpt lat="41.8661" lon="-87.619244">
      </trkpt>
      <trkpt lat="41.869799" lon="-87.617003">
      </trkpt>
      <trkpt lat="41.881825" lon="-87.617167">
      </trkpt>
      <trkpt lat="41.884762" lon="-87.613645">
      </trkpt>
      <trkpt lat="41.89273" lon="-87.614003">
      </trkpt>
      <trkpt lat="41.900921" lon="-87.619441">
      </trkpt>
      <trkpt lat="41.902893" lon="-87.624048">
      </trkpt>
      <trkpt lat="41.928415" lon="-87.631851">
      </trkpt>
      <trkpt lat="41.934381" lon="-87.632152">
      </trkpt>
      <trkpt lat="41.939073" lon="-87.63676">
      </trkpt>
      <trkpt lat="41.940568" lon="-87.638088">
      </trkpt>
      <trkpt lat="41.939973" lon="-87.649275">
      </trkpt>
      <trkpt lat="41.936386" lon="-87.64915">
      </trkpt>
      <trkpt lat="41.936331" lon="-87.651561">
      </trkpt>
      <trkpt lat="41.935872" lon="-87.651544">
      </trkpt>
      <trkpt lat="41.935843" lon="-87.652867">
      </trkpt>
      <trkpt lat="41.935843" lon="-87.652867">
      </trkpt>
      <trkpt lat="41.935872" lon="-87.651544">
      </trkpt>
      <trkpt lat="41.936331" lon="-87.651561">
      </trkpt>
      <trkpt lat="41.936386" lon="-87.64915">
      </trkpt>
      <trkpt lat="41.939973" lon="-87.649275">
      </trkpt>
      <trkpt lat="41.940268" lon="-87.638796">
      </trkpt>
      <trkpt lat="41.939931" lon="-87.638606">
      </trkpt>
      <trkpt lat="41.934639" lon="-87.632453">
      </trkpt>
      <trkpt lat="41.928427" lon="-87.632048">
      </trkpt>
      <trkpt lat="41.902733" lon="-87.62421">
      </trkpt>
      <trkpt lat="41.900898" lon="-87.619617">
      </trkpt>
      <trkpt lat="41.892868" lon="-87.614264">
      </trkpt>
      <trkpt lat="41.884928" lon="-87.614127">
      </trkpt>
      <trkpt lat="41.881821" lon="-87.617453">
      </trkpt>
      <trkpt lat="41.869765" lon="-87.617261">
      </trkpt>
      <trkpt lat="41.866208" lon="-87.619588">
      </trkpt>
      <trkpt lat="41.853242" lon="-87.614728">
      </trkpt>
      <trkpt lat="41.848506" lon="-87.614444">
      </trkpt>
      <trkpt lat="41.84732" lon="-87.626818">
      </trkpt>
      <trkpt lat="41.847855" lon="-87.631727">
      </trkpt>
      <trkpt lat="41.843118" lon="-87.631351">
      </trkpt>
      <trkpt lat="41.834246" lon="-87.631163">
      </trkpt>
      <trkpt lat="41.830937" lon="-87.631513">
      </trkpt>
      <trkpt lat="41.830973" lon="-87.628964">
      </trkpt>
      <trkpt lat="41.830427" lon="-87.628906">
      </trkpt>
      <trkpt lat="41.830427" lon="-87.628906">
      </trkpt>
      <trkpt lat="41.830973" lon="-87.628964">
      </trkpt>
      <trkpt lat="41.830961" lon="-87.629817">
      </trkpt>
      <trkpt lat="41.831311" lon="-87.629831">
      </trkpt>
      <trkpt lat="41.837743" lon="-87.630393">
      </trkpt>
      <trkpt lat="41.842376" lon="-87.630317">
      </trkpt>
      <trkpt lat="41.844144" lon="-87.631347">
      </trkpt>
      <trkpt lat="41.84523" lon="-87.633465">
      </trkpt>
      <trkpt lat="41.847354" lon="-87.642036">
      </trkpt>
      <trkpt lat="41.850632" lon="-87.644778">
      </trkpt>
      <trkpt lat="41.865222" lon="-87.644396">
      </trkpt>
      <trkpt lat="41.885931" lon="-87.64591">
      </trkpt>
      <trkpt lat="41.889375" lon="-87.648317">
      </trkpt>
      <trkpt lat="41.896124" lon="-87.65785">
      </trkpt>
      <trkpt lat="41.900116" lon="-87.660194">
      </trkpt>
      <trkpt lat="41.90345" lon="-87.660665">
      </trkpt>
      <trkpt lat="41.903374" lon="-87.665045">
      </trkpt>
      <trkpt lat="41.903929" lon="-87.665061">
      </trkpt>
      <trkpt lat="41.903929" lon="-87.665061">
      </trkpt>
      <trkpt lat="41.907034" lon="-87.665154">
      </trkpt>
      <trkpt lat="41.907003" lon="-87.667524">
      </trkpt>
      <trkpt lat="41.916129" lon="-87.66782">
      </trkpt>
      <trkpt lat="41.917067" lon="-87.663815">
      </trkpt>
      <trkpt lat="41.917264" lon="-87.658201">
      </trkpt>
      <trkpt lat="41.934372" lon="-87.65877">
      </trkpt>
      <trkpt lat="41.934416" lon="-87.65635">
      </trkpt>
      <trkpt lat="41.935584" lon="-87.656389">
      </trkpt>
      <trkpt lat="41.935584" lon="-87.656389">
      </trkpt>
      <trkpt lat="41.93624" lon="-87.656415">
      </trkpt>
      <trkpt lat="41.936284" lon="-87.653987">
      </trkpt>
      <trkpt lat="41.929016" lon="-87.653741">
      </trkpt>
      <trkpt lat="41.918106" lon="-87.638503">
      </trkpt>
      <trkpt lat="41.918106" lon="-87.638503">
      </trkpt>
      <trkpt lat="41.918322" lon="-87.638808">
      </trkpt>
      <trkpt lat="41.918041" lon="-87.658214">
      </trkpt>
      <trkpt lat="41.917139" lon="-87.658378">
      </trkpt>
      <trkpt lat="41.917067" lon="-87.663815">
      </trkpt>
      <trkpt lat="41.916455" lon="-87.666413">
      </trkpt>
      <trkpt lat="41.918441" lon="-87.667946">
      </trkpt>
      <trkpt lat="41.921495" lon="-87.672314">
      </trkpt>
      <trkpt lat="41.92139" lon="-87.677765">
      </trkpt>
      <trkpt lat="41.920058" lon="-87.677716">
      </trkpt>
      <trkpt lat="41.91991" lon="-87.685039">
      </trkpt>
      <trkpt lat="41.920656" lon="-87.685062">
      </trkpt>
      <trkpt lat="41.920667" lon="-87.684471">
      </trkpt>
      <trkpt lat="41.920667" lon="-87.684471">
      </trkpt>
      <trkpt lat="41.920683" lon="-87.683659">
      </trkpt>
      <trkpt lat="41.921904" lon="-87.683684">
      </trkpt>
      <trkpt lat="41.921892" lon="-87.684684">
      </trkpt>
      <trkpt lat="41.922659" lon="-87.684702">
      </trkpt>
      <trkpt lat="41.922653" lon="-87.685139">
      </trkpt>
      <trkpt lat="41.924938" lon="-87.685228">
      </trkpt>
      <trkpt lat="41.924978" lon="-87.682301">
      </trkpt>
      <trkpt lat="41.926707" lon="-87.685177">
      </trkpt>
      <trkpt lat="41.940439" lon="-87.709664">
      </trkpt>
      <trkpt lat="41.942208" lon="-87.714861">
      </trkpt>
      <trkpt lat="41.947985" lon="-87.719618">
      </trkpt>
      <trkpt lat="41.958569" lon="-87.738838">
      </trkpt>
      <trkpt lat="41.960451" lon="-87.741371">
      </trkpt>
      <trkpt lat="41.960845" lon="-87.74187">
      </trkpt>
      <trkpt lat="41.960061" lon="-87.794287">
      </trkpt>
      <trkpt lat="41.946631" lon="-87.822074">
      </trkpt>
      <trkpt lat="41.937842" lon="-87.821404">
      </trkpt>
      <trkpt lat="41.937866" lon="-87.820185">
      </trkpt>
      <trkpt lat="41.936076" lon="-87.820102">
      </trkpt>
      <trkpt lat="41.936062" lon="-87.820727">
      </trkpt>
      <trkpt lat="41.934634" lon="-87.82067">
      </trkpt>
      <trkpt lat="41.934634" lon="-87.82067">
      </trkpt>
      <trkpt lat="41.93424" lon="-87.820654">
      </trkpt>
      <trkpt lat="41.934229" lon="-87.821275">
      </trkpt>
      <trkpt lat="41.937842" lon="-87.821404">
      </trkpt>
      <trkpt lat="41.938315" lon="-87.786046">
      </trkpt>
      <trkpt lat="41.945676" lon="-87.786299">
      </trkpt>
      <trkpt lat="41.946484" lon="-87.71959">
      </trkpt>
      <trkpt lat="41.944989" lon="-87.718156">
      </trkpt>
      <trkpt lat="41.942115" lon="-87.715518">
      </trkpt>
      <trkpt lat="41.939977" lon="-87.709442">
      </trkpt>
      <trkpt lat="41.919706" lon="-87.673831">
      </trkpt>
      <trkpt lat="41.918264" lon="-87.671882">
      </trkpt>
      <trkpt lat="41.918151" lon="-87.671723">
      </trkpt>
      <trkpt lat="41.91793" lon="-87.667505">
      </trkpt>
      <trkpt lat="41.916455" lon="-87.666413">
      </trkpt>
      <trkpt lat="41.917067" lon="-87.663815">
      </trkpt>
      <trkpt lat="41.917139" lon="-87.658378">
      </trkpt>
      <trkpt lat="41.918041" lon="-87.658214">
      </trkpt>
      <trkpt lat="41.918178" lon="-87.648523">
      </trkpt>
      <trkpt lat="41.91731" lon="-87.648495">
      </trkpt>
      <trkpt lat="41.91731" lon="-87.648495">
      </trkpt>
      <trkpt lat="41.910927" lon="-87.648286">
      </trkpt>
      <trkpt lat="41.910674" lon="-87.664445">
      </trkpt>
      <trkpt lat="41.960998" lon="-87.742619">
      </trkpt>
      <trkpt lat="41.996518" lon="-87.875224">
      </trkpt>
      <trkpt lat="42.250248" lon="-88.962426">
      </trkpt>
      <trkpt lat="42.800369" lon="-89.00473">
      </trkpt>
      <trkpt lat="42.963464" lon="-89.100992">
      </trkpt>
      <trkpt lat="43.041959" lon="-89.276344">
      </trkpt>
      <trkpt lat="43.480461" lon="-89.491922">
      </trkpt>
      <trkpt lat="43.573096" lon="-89.798511">
      </trkpt>
      <trkpt lat="43.664753" lon="-89.81449">
      </trkpt>
      <trkpt lat="43.872521" lon="-90.127193">
      </trkpt>
      <trkpt lat="43.985602" lon="-90.437988">
      </trkpt>
      <trkpt lat="44.152935" lon="-90.553299">
      </trkpt>
      <trkpt lat="44.842595" lon="-91.602716">
      </trkpt>
      <trkpt lat="44.948638" lon="-92.947487">
      </trkpt>
      <trkpt lat="44.948848" lon="-92.953496">
      </trkpt>
      <trkpt lat="45.030851" lon="-92.963262">
      </trkpt>
      <trkpt lat="45.035526" lon="-93.084967">
      </trkpt>
      <trkpt lat="45.060551" lon="-93.150813">
      </trkpt>
      <trkpt lat="45.069923" lon="-93.292644">
      </trkpt>
      <trkpt lat="45.091311" lon="-93.441139">
      </trkpt>
      <trkpt lat="45.251164" lon="-93.689692">
      </trkpt>
      <trkpt lat="45.60774" lon="-94.403694">
      </trkpt>
      <trkpt lat="45.668524" lon="-94.820979">
      </trkpt>
      <trkpt lat="46.040179" lon="-95.841379">
      </trkpt>
      <trkpt lat="46.844449" lon="-96.635923">
      </trkpt>
      <trkpt lat="46.920606" lon="-97.928509">
      </trkpt>
      <trkpt lat="46.825873" lon="-100.851812">
      </trkpt>
      <trkpt lat="46.931886" lon="-104.003375">
      </trkpt>
      <trkpt lat="46.933025" lon="-104.007687">
      </trkpt>
      <trkpt lat="46.920303" lon="-104.007713">
      </trkpt>
      <trkpt lat="46.920452" lon="-104.004333">
      </trkpt>
      <trkpt lat="46.921109" lon="-104.00434">
      </trkpt>
      <trkpt lat="46.921111" lon="-104.004008">
      </trkpt>
      <trkpt lat="46.921111" lon="-104.004008">
      </trkpt>
      <trkpt lat="46.921109" lon="-104.00434">
      </trkpt>
      <trkpt lat="46.920452" lon="-104.004333">
      </trkpt>
      <trkpt lat="46.920303" lon="-104.007713">
      </trkpt>
      <trkpt lat="46.930549" lon="-104.007714">
      </trkpt>
      <trkpt lat="46.821412" lon="-100.845376">
      </trkpt>
      <trkpt lat="46.920377" lon="-97.929326">
      </trkpt>
      <trkpt lat="46.84431" lon="-96.636364">
      </trkpt>
      <trkpt lat="46.040006" lon="-95.841668">
      </trkpt>
      <trkpt lat="45.668414" lon="-94.821253">
      </trkpt>
      <trkpt lat="45.58718" lon="-94.366407">
      </trkpt>
      <trkpt lat="45.094797" lon="-93.449505">
      </trkpt>
      <trkpt lat="45.073368" lon="-93.316321">
      </trkpt>
      <trkpt lat="45.066504" lon="-93.169383">
      </trkpt>
      <trkpt lat="45.037751" lon="-93.092006">
      </trkpt>
      <trkpt lat="44.95846" lon="-93.090897">
      </trkpt>
      <trkpt lat="44.956612" lon="-93.091165">
      </trkpt>
      <trkpt lat="44.95415" lon="-93.090566">
      </trkpt>
      <trkpt lat="44.951923" lon="-93.08647">
      </trkpt>
      <trkpt lat="44.952011" lon="-93.049411">
      </trkpt>
      <trkpt lat="44.901086" lon="-91.765715">
      </trkpt>
      <trkpt lat="44.764039" lon="-91.405786">
      </trkpt>
      <trkpt lat="44.414986" lon="-91.048032">
      </trkpt>
      <trkpt lat="44.150471" lon="-90.551556">
      </trkpt>
      <trkpt lat="43.999682" lon="-90.475118">
      </trkpt>
      <trkpt lat="43.87412" lon="-90.130566">
      </trkpt>
      <trkpt lat="43.663734" lon="-89.814688">
      </trkpt>
      <trkpt lat="43.572688" lon="-89.798572">
      </trkpt>
      <trkpt lat="43.496166" lon="-89.498273">
      </trkpt>
      <trkpt lat="43.110058" lon="-89.285769">
      </trkpt>
      <trkpt lat="42.799124" lon="-89.005142">
      </trkpt>
      <trkpt lat="42.250536" lon="-88.963349">
      </trkpt>
      <trkpt lat="42.1691" lon="-88.593791">
      </trkpt>
      <trkpt lat="42.05976" lon="-88.046926">
      </trkpt>
      <trkpt lat="42.058411" lon="-88.037467">
      </trkpt>
      <trkpt lat="42.056556" lon="-88.03194">
      </trkpt>
      <trkpt lat="42.04186" lon="-88.030904">
      </trkpt>
      <trkpt lat="41.972392" lon="-88.024834">
      </trkpt>
      <trkpt lat="41.873463" lon="-87.90956">
      </trkpt>
      <trkpt lat="41.873744" lon="-87.724981">
      </trkpt>
      <trkpt lat="41.873568" lon="-87.715656">
      </trkpt>
      <trkpt lat="41.849851" lon="-87.714953">
      </trkpt>
      <trkpt lat="41.849837" lon="-87.716176">
      </trkpt>
      <trkpt lat="41.849994" lon="-87.71618">
      </trkpt>
      <trkpt lat="41.849994" lon="-87.71618">
      </trkpt>
      <trkpt lat="41.851656" lon="-87.716226">
      </trkpt>
      <trkpt lat="41.851938" lon="-87.711165">
      </trkpt>
      <trkpt lat="41.851661" lon="-87.710877">
      </trkpt>
      <trkpt lat="41.852039" lon="-87.685627">
      </trkpt>
      <trkpt lat="41.85724" lon="-87.6858">
      </trkpt>
      <trkpt lat="41.857567" lon="-87.684175">
      </trkpt>
      <trkpt lat="41.857876" lon="-87.66163">
      </trkpt>
      <trkpt lat="41.857876" lon="-87.66163">
      </trkpt>
      <trkpt lat="41.857883" lon="-87.661146">
      </trkpt>
      <trkpt lat="41.867014" lon="-87.653364">
      </trkpt>
      <trkpt lat="41.86712" lon="-87.646914">
      </trkpt>
      <trkpt lat="41.869551" lon="-87.646884">
      </trkpt>
      <trkpt lat="41.869691" lon="-87.644443">
      </trkpt>
      <trkpt lat="41.873493" lon="-87.644854">
      </trkpt>
      <trkpt lat="41.87559" lon="-87.644167">
      </trkpt>
      <trkpt lat="41.877863" lon="-87.645364">
      </trkpt>
      <trkpt lat="41.880374" lon="-87.645275">
      </trkpt>
      <trkpt lat="41.881847" lon="-87.645355">
      </trkpt>
      <trkpt lat="41.883151" lon="-87.645213">
      </trkpt>
      <trkpt lat="41.883178" lon="-87.641266">
      </trkpt>
      <trkpt lat="41.883185" lon="-87.639745">
      </trkpt>
      <trkpt lat="41.883246" lon="-87.631699">
      </trkpt>
      <trkpt lat="41.883184" lon="-87.630932">
      </trkpt>
      <trkpt lat="41.882086" lon="-87.63088">
      </trkpt>
      <trkpt lat="41.882086" lon="-87.63088">
      </trkpt>
      <trkpt lat="41.881984" lon="-87.630875">
      </trkpt>
      <trkpt lat="41.881974" lon="-87.631509">
      </trkpt>
      <trkpt lat="41.882009" lon="-87.632365">
      </trkpt>
      <trkpt lat="41.883243" lon="-87.632417">
      </trkpt>
      <trkpt lat="41.883235" lon="-87.629431">
      </trkpt>
      <trkpt lat="41.894584" lon="-87.629727">
      </trkpt>
      <trkpt lat="41.894584" lon="-87.629727">
      </trkpt>
      <trkpt lat="41.89485" lon="-87.629736">
      </trkpt>
      <trkpt lat="41.894831" lon="-87.631201">
      </trkpt>
      <trkpt lat="41.884477" lon="-87.630953">
      </trkpt>
      <trkpt lat="41.884465" lon="-87.635401">
      </trkpt>
      <trkpt lat="41.885733" lon="-87.635419">
      </trkpt>
      <trkpt lat="41.885735" lon="-87.634134">
      </trkpt>
      <trkpt lat="41.885735" lon="-87.634134">
      </trkpt>
      <trkpt lat="41.885735" lon="-87.633948">
      </trkpt>
      <trkpt lat="41.881941" lon="-87.633848">
      </trkpt>
      <trkpt lat="41.881801" lon="-87.64573">
      </trkpt>
      <trkpt lat="41.885306" lon="-87.645735">
      </trkpt>
      <trkpt lat="41.886906" lon="-87.646327">
      </trkpt>
      <trkpt lat="41.888483" lon="-87.647404">
      </trkpt>
      <trkpt lat="41.889615" lon="-87.64861">
      </trkpt>
      <trkpt lat="41.895403" lon="-87.657024">
      </trkpt>
      <trkpt lat="41.897251" lon="-87.658783">
      </trkpt>
      <trkpt lat="41.898537" lon="-87.659213">
      </trkpt>
      <trkpt lat="41.89954" lon="-87.659164">
      </trkpt>
      <trkpt lat="41.899938" lon="-87.659701">
      </trkpt>
      <trkpt lat="41.899597" lon="-87.674089">
      </trkpt>
      <trkpt lat="41.90052" lon="-87.67412">
      </trkpt>
      <trkpt lat="41.90052" lon="-87.67412">
      </trkpt>
      <trkpt lat="41.899597" lon="-87.674089">
      </trkpt>
      <trkpt lat="41.899544" lon="-87.677161">
      </trkpt>
      <trkpt lat="41.895912" lon="-87.677057">
      </trkpt>
      <trkpt lat="41.895606" lon="-87.701213">
      </trkpt>
      <trkpt lat="41.895606" lon="-87.701213">
      </trkpt>
      <trkpt lat="41.896633" lon="-87.631243">
      </trkpt>
      <trkpt lat="41.895637" lon="-87.631219">
      </trkpt>
      <trkpt lat="41.895653" lon="-87.630373">
      </trkpt>
      <trkpt lat="41.895653" lon="-87.630373">
      </trkpt>
      <trkpt lat="41.895665" lon="-87.629762">
      </trkpt>
      <trkpt lat="41.896655" lon="-87.62978">
      </trkpt>
      <trkpt lat="41.896633" lon="-87.631243">
      </trkpt>
      <trkpt lat="41.875701" lon="-87.630715">
      </trkpt>
      <trkpt lat="41.875719" lon="-87.651339">
      </trkpt>
      <trkpt lat="41.876197" lon="-87.657603">
      </trkpt>
      <trkpt lat="41.875763" lon="-87.688313">
      </trkpt>
      <trkpt lat="41.875862" lon="-87.692409">
      </trkpt>
      <trkpt lat="41.875985" lon="-87.695752">
      </trkpt>
      <trkpt lat="41.875985" lon="-87.695752">
      </trkpt>
      <trkpt lat="41.875983" lon="-87.696151">
      </trkpt>
      <trkpt lat="41.874902" lon="-87.696127">
      </trkpt>
      <trkpt lat="41.874908" lon="-87.695509">
      </trkpt>
      <trkpt lat="41.875125" lon="-87.690201">
      </trkpt>
      <trkpt lat="41.875578" lon="-87.662068">
      </trkpt>
      <trkpt lat="41.875346" lon="-87.656893">
      </trkpt>
      <trkpt lat="41.877789" lon="-87.657028">
      </trkpt>
      <trkpt lat="41.877909" lon="-87.64957">
      </trkpt>
      <trkpt lat="41.878315" lon="-87.649583">
      </trkpt>
      <trkpt lat="41.878315" lon="-87.649583">
      </trkpt>
      <trkpt lat="41.881744" lon="-87.649697">
      </trkpt>
      <trkpt lat="41.8818" lon="-87.645827">
      </trkpt>
      <trkpt lat="41.877697" lon="-87.645988">
      </trkpt>
      <trkpt lat="41.867365" lon="-87.644752">
      </trkpt>
      <trkpt lat="41.857367" lon="-87.644363">
      </trkpt>
      <trkpt lat="41.852447" lon="-87.645793">
      </trkpt>
      <trkpt lat="41.849097" lon="-87.644333">
      </trkpt>
      <trkpt lat="41.847022" lon="-87.643039">
      </trkpt>
      <trkpt lat="41.846546" lon="-87.641933">
      </trkpt>
      <trkpt lat="41.847063" lon="-87.638623">
      </trkpt>
      <trkpt lat="41.847079" lon="-87.636332">
      </trkpt>
      <trkpt lat="41.84669" lon="-87.634629">
      </trkpt>
      <trkpt lat="41.847362" lon="-87.632091">
      </trkpt>
      <trkpt lat="41.846918" lon="-87.628234">
      </trkpt>
      <trkpt lat="41.847737" lon="-87.624498">
      </trkpt>
      <trkpt lat="41.847894" lon="-87.622076">
      </trkpt>
      <trkpt lat="41.847688" lon="-87.619892">
      </trkpt>
      <trkpt lat="41.847696" lon="-87.618334">
      </trkpt>
      <trkpt lat="41.848104" lon="-87.618041">
      </trkpt>
      <trkpt lat="41.848483" lon="-87.618375">
      </trkpt>
      <trkpt lat="41.848423" lon="-87.623694">
      </trkpt>
      <trkpt lat="41.852795" lon="-87.623807">
      </trkpt>
      <trkpt lat="41.85281" lon="-87.622709">
      </trkpt>
      <trkpt lat="41.85281" lon="-87.622709">
      </trkpt>
      <trkpt lat="41.852813" lon="-87.622234">
      </trkpt>
      <trkpt lat="41.848387" lon="-87.622136">
      </trkpt>
      <trkpt lat="41.848481" lon="-87.622953">
      </trkpt>
      <trkpt lat="41.848314" lon="-87.624768">
      </trkpt>
      <trkpt lat="41.847768" lon="-87.626571">
      </trkpt>
      <trkpt lat="41.847047" lon="-87.626637">
      </trkpt>
      <trkpt lat="41.846884" lon="-87.626399">
      </trkpt>
      <trkpt lat="41.84692" lon="-87.626258">
      </trkpt>
      <trkpt lat="41.847492" lon="-87.624884">
      </trkpt>
      <trkpt lat="41.847885" lon="-87.622663">
      </trkpt>
      <trkpt lat="41.847976" lon="-87.616851">
      </trkpt>
      <trkpt lat="41.848153" lon="-87.613392">
      </trkpt>
      <trkpt lat="41.848702" lon="-87.612502">
      </trkpt>
      <trkpt lat="41.84938" lon="-87.612168">
      </trkpt>
      <trkpt lat="41.849917" lon="-87.612223">
      </trkpt>
      <trkpt lat="41.852962" lon="-87.613531">
      </trkpt>
      <trkpt lat="41.855833" lon="-87.615427">
      </trkpt>
      <trkpt lat="41.858122" lon="-87.616068">
      </trkpt>
      <trkpt lat="41.857825" lon="-87.617238">
      </trkpt>
      <trkpt lat="41.856365" lon="-87.616421">
      </trkpt>
      <trkpt lat="41.854301" lon="-87.615619">
      </trkpt>
      <trkpt lat="41.855615" lon="-87.616027">
      </trkpt>
      <trkpt lat="41.855561" lon="-87.616271">
      </trkpt>
      <trkpt lat="41.854397" lon="-87.615604">
      </trkpt>
      <trkpt lat="41.854329" lon="-87.615902">
      </trkpt>
      <trkpt lat="41.854329" lon="-87.615902">
      </trkpt>
      <trkpt lat="41.854397" lon="-87.615604">
      </trkpt>
      <trkpt lat="41.855561" lon="-87.616271">
      </trkpt>
      <trkpt lat="41.855615" lon="-87.616027">
      </trkpt>
      <trkpt lat="41.854301" lon="-87.615619">
      </trkpt>
      <trkpt lat="41.85521" lon="-87.615992">
      </trkpt>
      <trkpt lat="41.854986" lon="-87.616959">
      </trkpt>
      <trkpt lat="41.85573" lon="-87.616876">
      </trkpt>
      <trkpt lat="41.856402" lon="-87.616543">
      </trkpt>
      <trkpt lat="41.857757" lon="-87.617503">
      </trkpt>
      <trkpt lat="41.858122" lon="-87.616068">
      </trkpt>
      <trkpt lat="41.859955" lon="-87.61744">
      </trkpt>
      <trkpt lat="41.863523" lon="-87.618709">
      </trkpt>
      <trkpt lat="41.867696" lon="-87.62045">
      </trkpt>
      <trkpt lat="41.875872" lon="-87.62062">
      </trkpt>
      <trkpt lat="41.875872" lon="-87.62062">
      </trkpt>
      <trkpt lat="41.878331" lon="-87.620697">
      </trkpt>
      <trkpt lat="41.878293" lon="-87.624208">
      </trkpt>
      <trkpt lat="41.880103" lon="-87.624303">
      </trkpt>
      <trkpt lat="41.88245" lon="-87.624209">
      </trkpt>
      <trkpt lat="41.884366" lon="-87.624344">
      </trkpt>
      <trkpt lat="41.884372" lon="-87.623414">
      </trkpt>
      <trkpt lat="41.884293" lon="-87.622907">
      </trkpt>
      <trkpt lat="41.884324" lon="-87.620237">
      </trkpt>
      <trkpt lat="41.884399" lon="-87.617593">
      </trkpt>
      <trkpt lat="41.884426" lon="-87.617441">
      </trkpt>
      <trkpt lat="41.884538" lon="-87.617389">
      </trkpt>
      <trkpt lat="41.884596" lon="-87.615772">
      </trkpt>
      <trkpt lat="41.885979" lon="-87.615797">
      </trkpt>
      <trkpt lat="41.885979" lon="-87.615797">
      </trkpt>
      <trkpt lat="41.884562" lon="-87.615832">
      </trkpt>
      <trkpt lat="41.884489" lon="-87.627902">
      </trkpt>
      <trkpt lat="41.882046" lon="-87.627799">
      </trkpt>
      <trkpt lat="41.881984" lon="-87.630875">
      </trkpt>
      <trkpt lat="41.876886" lon="-87.630743">
      </trkpt>
      <trkpt lat="41.876853" lon="-87.633707">
      </trkpt>
      <trkpt lat="41.87567" lon="-87.633684">
      </trkpt>
      <trkpt lat="41.875644" lon="-87.641651">
      </trkpt>
      <trkpt lat="41.875809" lon="-87.643837">
      </trkpt>
      <trkpt lat="41.876437" lon="-87.645614">
      </trkpt>
      <trkpt lat="41.876207" lon="-87.646562">
      </trkpt>
      <trkpt lat="41.87554" lon="-87.646845">
      </trkpt>
      <trkpt lat="41.872433" lon="-87.645662">
      </trkpt>
      <trkpt lat="41.867365" lon="-87.644752">
      </trkpt>
      <trkpt lat="41.861936" lon="-87.644538">
      </trkpt>
      <trkpt lat="41.857575" lon="-87.644794">
      </trkpt>
      <trkpt lat="41.857542" lon="-87.646633">
      </trkpt>
      <trkpt lat="41.858102" lon="-87.646649">
      </trkpt>
      <trkpt lat="41.857876" lon="-87.66163">
      </trkpt>
      <trkpt lat="41.857876" lon="-87.66163">
      </trkpt>
      <trkpt lat="41.857883" lon="-87.661146">
      </trkpt>
      <trkpt lat="41.862517" lon="-87.657196">
      </trkpt>
      <trkpt lat="41.862587" lon="-87.651784">
      </trkpt>
      <trkpt lat="41.862292" lon="-87.650889">
      </trkpt>
      <trkpt lat="41.863505" lon="-87.650938">
      </trkpt>
      <trkpt lat="41.863458" lon="-87.653231">
      </trkpt>
      <trkpt lat="41.863051" lon="-87.653216">
      </trkpt>
      <trkpt lat="41.863051" lon="-87.653216">
      </trkpt>
      <trkpt lat="41.863458" lon="-87.653231">
      </trkpt>
      <trkpt lat="41.863505" lon="-87.650938">
      </trkpt>
      <trkpt lat="41.867054" lon="-87.651046">
      </trkpt>
      <trkpt lat="41.867138" lon="-87.645128">
      </trkpt>
      <trkpt lat="41.866852" lon="-87.645098">
      </trkpt>
      <trkpt lat="41.857055" lon="-87.644357">
      </trkpt>
      <trkpt lat="41.852823" lon="-87.645374">
      </trkpt>
      <trkpt lat="41.850609" lon="-87.644998">
      </trkpt>
      <trkpt lat="41.847255" lon="-87.642186">
      </trkpt>
      <trkpt lat="41.845323" lon="-87.634652">
      </trkpt>
      <trkpt lat="41.844384" lon="-87.632773">
      </trkpt>
      <trkpt lat="41.842703" lon="-87.631597">
      </trkpt>
      <trkpt lat="41.830548" lon="-87.631069">
      </trkpt>
      <trkpt lat="41.823664" lon="-87.631351">
      </trkpt>
      <trkpt lat="41.823804" lon="-87.619991">
      </trkpt>
      <trkpt lat="41.822908" lon="-87.619964">
      </trkpt>
      <trkpt lat="41.822908" lon="-87.619964">
      </trkpt>
      <trkpt lat="41.823804" lon="-87.619991">
      </trkpt>
      <trkpt lat="41.823876" lon="-87.606897">
      </trkpt>
      <trkpt lat="41.824296" lon="-87.605315">
      </trkpt>
      <trkpt lat="41.824107" lon="-87.604016">
      </trkpt>
      <trkpt lat="41.825435" lon="-87.599849">
      </trkpt>
      <trkpt lat="41.826609" lon="-87.600748">
      </trkpt>
      <trkpt lat="41.829367" lon="-87.604294">
      </trkpt>
      <trkpt lat="41.833032" lon="-87.607125">
      </trkpt>
      <trkpt lat="41.838145" lon="-87.608141">
      </trkpt>
      <trkpt lat="41.845693" lon="-87.611271">
      </trkpt>
      <trkpt lat="41.852437" lon="-87.613467">
      </trkpt>
      <trkpt lat="41.855833" lon="-87.615427">
      </trkpt>
      <trkpt lat="41.858122" lon="-87.616068">
      </trkpt>
      <trkpt lat="41.857825" lon="-87.617238">
      </trkpt>
      <trkpt lat="41.854301" lon="-87.615619">
      </trkpt>
      <trkpt lat="41.855615" lon="-87.616027">
      </trkpt>
      <trkpt lat="41.855561" lon="-87.616271">
      </trkpt>
      <trkpt lat="41.854397" lon="-87.615604">
      </trkpt>
      <trkpt lat="41.854329" lon="-87.615902">
      </trkpt>
      <trkpt lat="41.854329" lon="-87.615902">
      </trkpt>
      <trkpt lat="41.854397" lon="-87.615604">
      </trkpt>
      <trkpt lat="41.855561" lon="-87.616271">
      </trkpt>
      <trkpt lat="41.855615" lon="-87.616027">
      </trkpt>
      <trkpt lat="41.854301" lon="-87.615619">
      </trkpt>
      <trkpt lat="41.85521" lon="-87.615992">
      </trkpt>
      <trkpt lat="41.854986" lon="-87.616959">
      </trkpt>
      <trkpt lat="41.85573" lon="-87.616876">
      </trkpt>
      <trkpt lat="41.856402" lon="-87.616543">
      </trkpt>
      <trkpt lat="41.857757" lon="-87.617503">
      </trkpt>
      <trkpt lat="41.858122" lon="-87.616068">
      </trkpt>
      <trkpt lat="41.859955" lon="-87.61744">
      </trkpt>
      <trkpt lat="41.861647" lon="-87.618159">
      </trkpt>
      <trkpt lat="41.866344" lon="-87.619249">
      </trkpt>
      <trkpt lat="41.869799" lon="-87.617003">
      </trkpt>
      <trkpt lat="41.881825" lon="-87.617167">
      </trkpt>
      <trkpt lat="41.882664" lon="-87.61661">
      </trkpt>
      <trkpt lat="41.883639" lon="-87.614476">
      </trkpt>
      <trkpt lat="41.884512" lon="-87.613723">
      </trkpt>
      <trkpt lat="41.889097" lon="-87.614006">
      </trkpt>
      <trkpt lat="41.890559" lon="-87.613604">
      </trkpt>
      <trkpt lat="41.890879" lon="-87.613057">
      </trkpt>
      <trkpt lat="41.890948" lon="-87.61169">
      </trkpt>
      <trkpt lat="41.891968" lon="-87.611597">
      </trkpt>
      <trkpt lat="41.891667" lon="-87.628071">
      </trkpt>
      <trkpt lat="41.893025" lon="-87.628109">
      </trkpt>
      <trkpt lat="41.893025" lon="-87.628109">
      </trkpt>
      <trkpt lat="41.891667" lon="-87.628071">
      </trkpt>
      <trkpt lat="41.891621" lon="-87.631127">
      </trkpt>
      <trkpt lat="41.889473" lon="-87.631072">
      </trkpt>
      <trkpt lat="41.889473" lon="-87.631072">
      </trkpt>
      <trkpt lat="41.889218" lon="-87.631063">
      </trkpt>
      <trkpt lat="41.889054" lon="-87.644337">
      </trkpt>
      <trkpt lat="41.903364" lon="-87.666488">
      </trkpt>
      <trkpt lat="41.903268" lon="-87.67239">
      </trkpt>
      <trkpt lat="41.903498" lon="-87.672395">
      </trkpt>
      <trkpt lat="41.903498" lon="-87.672395">
      </trkpt>
      <trkpt lat="41.903268" lon="-87.67239">
      </trkpt>
      <trkpt lat="41.903351" lon="-87.667439">
      </trkpt>
      <trkpt lat="41.910635" lon="-87.667641">
      </trkpt>
      <trkpt lat="41.910674" lon="-87.664445">
      </trkpt>
      <trkpt lat="41.915886" lon="-87.668091">
      </trkpt>
      <trkpt lat="41.91815" lon="-87.670574">
      </trkpt>
      <trkpt lat="41.940439" lon="-87.709664">
      </trkpt>
      <trkpt lat="41.942208" lon="-87.714861">
      </trkpt>
      <trkpt lat="41.947985" lon="-87.719618">
      </trkpt>
      <trkpt lat="41.958569" lon="-87.738838">
      </trkpt>
      <trkpt lat="41.960451" lon="-87.741371">
      </trkpt>
      <trkpt lat="41.960918" lon="-87.731425">
      </trkpt>
      <trkpt lat="41.962417" lon="-87.733603">
      </trkpt>
    </trkseg>
  </trk>
</gpx>