<?xml version="1.0" encoding="UTF-8"?>
<gpx xmlns="http://www.topografix.com/GPX/1/1" xmlns:xsi="http://www.w3.org/2001/XMLSchema-instance" xsi:schemaLocation="http://www.topografix.com/GPX/1/1 http://www.topografix.com/GPX/1/1/gpx.xsd" version="1.1" creator="gpx.py -- https://github.com/tkrajina/gpxpy">
  <trk>
    <trkseg>
      <trkpt lat="41.938375" lon="-87.727167">
      </trkpt>
      <trkpt lat="41.939096" lon="-87.727187">
      </trkpt>
      <trkpt lat="41.939973" lon="-87.649275">
      </trkpt>
      <trkpt lat="41.941802" lon="-87.649331">
      </trkpt>
      <trkpt lat="41.941839" lon="-87.646384">
      </trkpt>
      <trkpt lat="41.941839" lon="-87.646384">
      </trkpt>
      <trkpt lat="41.941865" lon="-87.644463">
      </trkpt>
      <trkpt lat="41.94114" lon="-87.644433">
      </trkpt>
      <trkpt lat="41.941079" lon="-87.649309">
      </trkpt>
      <trkpt lat="41.938193" lon="-87.649228">
      </trkpt>
      <trkpt lat="41.938097" lon="-87.654046">
      </trkpt>
      <trkpt lat="41.937175" lon="-87.654016">
      </trkpt>
      <trkpt lat="41.937186" lon="-87.653552">
      </trkpt>
      <trkpt lat="41.937074" lon="-87.65355">
      </trkpt>
      <trkpt lat="41.937074" lon="-87.65355">
      </trkpt>
      <trkpt lat="41.937186" lon="-87.653552">
      </trkpt>
      <trkpt lat="41.937175" lon="-87.654016">
      </trkpt>
      <trkpt lat="41.939918" lon="-87.654106">
      </trkpt>
      <trkpt lat="41.939697" lon="-87.668609">
      </trkpt>
      <trkpt lat="41.954216" lon="-87.678771">
      </trkpt>
      <trkpt lat="41.953982" lon="-87.698254">
      </trkpt>
      <trkpt lat="41.956867" lon="-87.698335">
      </trkpt>
      <trkpt lat="41.956867" lon="-87.698335">
      </trkpt>
      <trkpt lat="41.941887" lon="-87.697902">
      </trkpt>
      <trkpt lat="41.941872" lon="-87.700544">
      </trkpt>
      <trkpt lat="41.941084" lon="-87.701556">
      </trkpt>
      <trkpt lat="41.941075" lon="-87.702765">
      </trkpt>
      <trkpt lat="41.915629" lon="-87.702035">
      </trkpt>
      <trkpt lat="41.915612" lon="-87.703717">
      </trkpt>
      <trkpt lat="41.915612" lon="-87.703717">
      </trkpt>
      <trkpt lat="41.915577" lon="-87.706989">
      </trkpt>
      <trkpt lat="41.89556" lon="-87.706541">
      </trkpt>
      <trkpt lat="41.89537" lon="-87.726081">
      </trkpt>
      <trkpt lat="41.884689" lon="-87.725773">
      </trkpt>
      <trkpt lat="41.88463" lon="-87.730682">
      </trkpt>
      <trkpt lat="41.883568" lon="-87.730649">
      </trkpt>
      <trkpt lat="41.883568" lon="-87.730649">
      </trkpt>
      <trkpt lat="41.883305" lon="-87.730641">
      </trkpt>
      <trkpt lat="41.883366" lon="-87.725734">
      </trkpt>
      <trkpt lat="41.900855" lon="-87.726246">
      </trkpt>
      <trkpt lat="41.900866" lon="-87.725027">
      </trkpt>
      <trkpt lat="41.900672" lon="-87.72502">
      </trkpt>
      <trkpt lat="41.900672" lon="-87.72502">
      </trkpt>
      <trkpt lat="41.899037" lon="-87.72497">
      </trkpt>
      <trkpt lat="41.89907" lon="-87.721326">
      </trkpt>
      <trkpt lat="41.9009" lon="-87.72138">
      </trkpt>
      <trkpt lat="41.900912" lon="-87.720148">
      </trkpt>
      <trkpt lat="41.902469" lon="-87.720195">
      </trkpt>
      <trkpt lat="41.902469" lon="-87.720195">
      </trkpt>
      <trkpt lat="41.902727" lon="-87.720203">
      </trkpt>
      <trkpt lat="41.902754" lon="-87.717777">
      </trkpt>
      <trkpt lat="41.900725" lon="-87.712727">
      </trkpt>
      <trkpt lat="41.899784" lon="-87.711571">
      </trkpt>
      <trkpt lat="41.895505" lon="-87.711442">
      </trkpt>
      <trkpt lat="41.895471" lon="-87.715092">
      </trkpt>
      <trkpt lat="41.894531" lon="-87.715059">
      </trkpt>
      <trkpt lat="41.894531" lon="-87.715059">
      </trkpt>
      <trkpt lat="41.894531" lon="-87.715059">
      </trkpt>
      <trkpt lat="41.894531" lon="-87.715059">
      </trkpt>
      <trkpt lat="41.895471" lon="-87.715092">
      </trkpt>
      <trkpt lat="41.895594" lon="-87.702191">
      </trkpt>
      <trkpt lat="41.891131" lon="-87.701974">
      </trkpt>
      <trkpt lat="41.889682" lon="-87.701505">
      </trkpt>
      <trkpt lat="41.889684" lon="-87.701392">
      </trkpt>
      <trkpt lat="41.890236" lon="-87.701483">
      </trkpt>
      <trkpt lat="41.890236" lon="-87.701483">
      </trkpt>
      <trkpt lat="41.891963" lon="-87.701635">
      </trkpt>
      <trkpt lat="41.891959" lon="-87.701987">
      </trkpt>
      <trkpt lat="41.90245" lon="-87.702329">
      </trkpt>
      <trkpt lat="41.907558" lon="-87.701241">
      </trkpt>
      <trkpt lat="41.909737" lon="-87.701859">
      </trkpt>
      <trkpt lat="41.924778" lon="-87.702313">
      </trkpt>
      <trkpt lat="41.924878" lon="-87.690086">
      </trkpt>
      <trkpt lat="41.925214" lon="-87.690094">
      </trkpt>
      <trkpt lat="41.925214" lon="-87.690094">
      </trkpt>
      <trkpt lat="41.928523" lon="-87.690204">
      </trkpt>
      <trkpt lat="41.928366" lon="-87.689255">
      </trkpt>
      <trkpt lat="41.928661" lon="-87.687706">
      </trkpt>
      <trkpt lat="41.953985" lon="-87.688469">
      </trkpt>
      <trkpt lat="41.95446" lon="-87.656767">
      </trkpt>
      <trkpt lat="41.958194" lon="-87.656894">
      </trkpt>
      <trkpt lat="41.958194" lon="-87.656894">
      </trkpt>
      <trkpt lat="41.95446" lon="-87.656767">
      </trkpt>
      <trkpt lat="41.95438" lon="-87.662225">
      </trkpt>
      <trkpt lat="41.950599" lon="-87.659238">
      </trkpt>
      <trkpt lat="41.921676" lon="-87.65834">
      </trkpt>
      <trkpt lat="41.921657" lon="-87.659737">
      </trkpt>
      <trkpt lat="41.921657" lon="-87.659737">
      </trkpt>
      <trkpt lat="41.921676" lon="-87.65834">
      </trkpt>
      <trkpt lat="41.932557" lon="-87.658713">
      </trkpt>
      <trkpt lat="41.934332" lon="-87.661195">
      </trkpt>
      <trkpt lat="41.936537" lon="-87.661241">
      </trkpt>
      <trkpt lat="41.936537" lon="-87.661241">
      </trkpt>
      <trkpt lat="41.932518" lon="-87.661134">
      </trkpt>
      <trkpt lat="41.9324" lon="-87.668452">
      </trkpt>
      <trkpt lat="41.921563" lon="-87.668616">
      </trkpt>
      <trkpt lat="41.921395" lon="-87.677255">
      </trkpt>
      <trkpt lat="41.916326" lon="-87.668918">
      </trkpt>
      <trkpt lat="41.906635" lon="-87.661559">
      </trkpt>
      <trkpt lat="41.896667" lon="-87.658834">
      </trkpt>
      <trkpt lat="41.886973" lon="-87.646614">
      </trkpt>
      <trkpt lat="41.851247" lon="-87.645245">
      </trkpt>
      <trkpt lat="41.847384" lon="-87.642429">
      </trkpt>
      <trkpt lat="41.845323" lon="-87.634652">
      </trkpt>
      <trkpt lat="41.84209" lon="-87.63091">
      </trkpt>
      <trkpt lat="41.79178" lon="-87.631289">
      </trkpt>
      <trkpt lat="41.778978" lon="-87.631289">
      </trkpt>
      <trkpt lat="41.773198" lon="-87.626564">
      </trkpt>
      <trkpt lat="41.768925" lon="-87.626239">
      </trkpt>
      <trkpt lat="41.766175" lon="-87.626556">
      </trkpt>
      <trkpt lat="41.7655" lon="-87.626545">
      </trkpt>
      <trkpt lat="41.764986" lon="-87.658969">
      </trkpt>
      <trkpt lat="41.761357" lon="-87.658872">
      </trkpt>
      <trkpt lat="41.761357" lon="-87.658872">
      </trkpt>
      <trkpt lat="41.764986" lon="-87.658969">
      </trkpt>
      <trkpt lat="41.765368" lon="-87.624899">
      </trkpt>
      <trkpt lat="41.765772" lon="-87.624908">
      </trkpt>
      <trkpt lat="41.769557" lon="-87.62543">
      </trkpt>
      <trkpt lat="41.779578" lon="-87.630526">
      </trkpt>
      <trkpt lat="41.837743" lon="-87.630393">
      </trkpt>
      <trkpt lat="41.844144" lon="-87.631347">
      </trkpt>
      <trkpt lat="41.847448" lon="-87.642221">
      </trkpt>
      <trkpt lat="41.851145" lon="-87.644991">
      </trkpt>
      <trkpt lat="41.888098" lon="-87.647091">
      </trkpt>
      <trkpt lat="41.896733" lon="-87.658396">
      </trkpt>
      <trkpt lat="41.906443" lon="-87.661061">
      </trkpt>
      <trkpt lat="41.917096" lon="-87.669227">
      </trkpt>
      <trkpt lat="41.937344" lon="-87.704001">
      </trkpt>
      <trkpt lat="41.939132" lon="-87.706803">
      </trkpt>
      <trkpt lat="41.938593" lon="-87.765269">
      </trkpt>
      <trkpt lat="41.933109" lon="-87.765094">
      </trkpt>
      <trkpt lat="41.933115" lon="-87.764637">
      </trkpt>
    </trkseg>
  </trk>
</gpx>