<?xml version="1.0" encoding="UTF-8"?>
<gpx xmlns="http://www.topografix.com/GPX/1/1" xmlns:xsi="http://www.w3.org/2001/XMLSchema-instance" xsi:schemaLocation="http://www.topografix.com/GPX/1/1 http://www.topografix.com/GPX/1/1/gpx.xsd" version="1.1" creator="gpx.py -- https://github.com/tkrajina/gpxpy">
  <trk>
    <trkseg>
      <trkpt lat="41.962417" lon="-87.733603">
      </trkpt>
      <trkpt lat="41.962997" lon="-87.734437">
      </trkpt>
      <trkpt lat="41.963642" lon="-87.733633">
      </trkpt>
      <trkpt lat="41.972794" lon="-87.747761">
      </trkpt>
      <trkpt lat="41.966563" lon="-87.747223">
      </trkpt>
      <trkpt lat="41.963113" lon="-87.745961">
      </trkpt>
      <trkpt lat="41.960129" lon="-87.742125">
      </trkpt>
      <trkpt lat="41.947613" lon="-87.719592">
      </trkpt>
      <trkpt lat="41.94215" lon="-87.715306">
      </trkpt>
      <trkpt lat="41.940524" lon="-87.710219">
      </trkpt>
      <trkpt lat="41.933659" lon="-87.698173">
      </trkpt>
      <trkpt lat="41.927358" lon="-87.687291">
      </trkpt>
      <trkpt lat="41.924962" lon="-87.683686">
      </trkpt>
      <trkpt lat="41.925054" lon="-87.675327">
      </trkpt>
      <trkpt lat="41.923476" lon="-87.675137">
      </trkpt>
      <trkpt lat="41.921495" lon="-87.672314">
      </trkpt>
      <trkpt lat="41.921592" lon="-87.666431">
      </trkpt>
      <trkpt lat="41.920728" lon="-87.665717">
      </trkpt>
      <trkpt lat="41.920733" lon="-87.664662">
      </trkpt>
      <trkpt lat="41.920733" lon="-87.664662">
      </trkpt>
      <trkpt lat="41.920731" lon="-87.663168">
      </trkpt>
      <trkpt lat="41.921626" lon="-87.6632">
      </trkpt>
      <trkpt lat="41.921657" lon="-87.659737">
      </trkpt>
      <trkpt lat="41.921657" lon="-87.659737">
      </trkpt>
      <trkpt lat="41.921676" lon="-87.65834">
      </trkpt>
      <trkpt lat="41.917139" lon="-87.658378">
      </trkpt>
      <trkpt lat="41.917067" lon="-87.663815">
      </trkpt>
      <trkpt lat="41.916129" lon="-87.66782">
      </trkpt>
      <trkpt lat="41.896069" lon="-87.667365">
      </trkpt>
      <trkpt lat="41.895706" lon="-87.691761">
      </trkpt>
      <trkpt lat="41.895973" lon="-87.691768">
      </trkpt>
      <trkpt lat="41.895973" lon="-87.691768">
      </trkpt>
      <trkpt lat="41.897514" lon="-87.691808">
      </trkpt>
      <trkpt lat="41.897571" lon="-87.686881">
      </trkpt>
      <trkpt lat="41.949742" lon="-87.688345">
      </trkpt>
      <trkpt lat="41.949742" lon="-87.688345">
      </trkpt>
      <trkpt lat="41.939587" lon="-87.688146">
      </trkpt>
      <trkpt lat="41.935872" lon="-87.683107">
      </trkpt>
      <trkpt lat="41.934076" lon="-87.682973">
      </trkpt>
      <trkpt lat="41.932431" lon="-87.680779">
      </trkpt>
      <trkpt lat="41.932073" lon="-87.680658">
      </trkpt>
      <trkpt lat="41.932073" lon="-87.680658">
      </trkpt>
      <trkpt lat="41.932257" lon="-87.680713">
      </trkpt>
      <trkpt lat="41.932557" lon="-87.658713">
      </trkpt>
      <trkpt lat="41.930775" lon="-87.656205">
      </trkpt>
      <trkpt lat="41.928978" lon="-87.65616">
      </trkpt>
      <trkpt lat="41.928972" lon="-87.65652">
      </trkpt>
      <trkpt lat="41.928972" lon="-87.65652">
      </trkpt>
      <trkpt lat="41.928939" lon="-87.658589">
      </trkpt>
      <trkpt lat="41.917264" lon="-87.658201">
      </trkpt>
      <trkpt lat="41.916455" lon="-87.666413">
      </trkpt>
      <trkpt lat="41.910715" lon="-87.66216">
      </trkpt>
      <trkpt lat="41.910672" lon="-87.665662">
      </trkpt>
      <trkpt lat="41.910236" lon="-87.665325">
      </trkpt>
      <trkpt lat="41.906386" lon="-87.661439">
      </trkpt>
      <trkpt lat="41.896667" lon="-87.658834">
      </trkpt>
      <trkpt lat="41.889352" lon="-87.648602">
      </trkpt>
      <trkpt lat="41.886261" lon="-87.646315">
      </trkpt>
      <trkpt lat="41.850609" lon="-87.644998">
      </trkpt>
      <trkpt lat="41.847255" lon="-87.642186">
      </trkpt>
      <trkpt lat="41.845323" lon="-87.634652">
      </trkpt>
      <trkpt lat="41.84209" lon="-87.63091">
      </trkpt>
      <trkpt lat="41.79178" lon="-87.631289">
      </trkpt>
      <trkpt lat="41.783322" lon="-87.631532">
      </trkpt>
      <trkpt lat="41.779985" lon="-87.631839">
      </trkpt>
      <trkpt lat="41.779303" lon="-87.675127">
      </trkpt>
      <trkpt lat="41.777388" lon="-87.675081">
      </trkpt>
      <trkpt lat="41.777388" lon="-87.675081">
      </trkpt>
      <trkpt lat="41.775694" lon="-87.675036">
      </trkpt>
      <trkpt lat="41.775709" lon="-87.67382">
      </trkpt>
      <trkpt lat="41.78298" lon="-87.673999">
      </trkpt>
      <trkpt lat="41.783016" lon="-87.671588">
      </trkpt>
      <trkpt lat="41.786209" lon="-87.671669">
      </trkpt>
      <trkpt lat="41.786209" lon="-87.671669">
      </trkpt>
      <trkpt lat="41.786658" lon="-87.67168">
      </trkpt>
      <trkpt lat="41.786756" lon="-87.664331">
      </trkpt>
      <trkpt lat="41.83774" lon="-87.66568">
      </trkpt>
      <trkpt lat="41.843501" lon="-87.65413">
      </trkpt>
      <trkpt lat="41.845542" lon="-87.6559">
      </trkpt>
      <trkpt lat="41.846601" lon="-87.653697">
      </trkpt>
      <trkpt lat="41.846762" lon="-87.65443">
      </trkpt>
      <trkpt lat="41.846762" lon="-87.65443">
      </trkpt>
      <trkpt lat="41.846482" lon="-87.656838">
      </trkpt>
      <trkpt lat="41.844657" lon="-87.660138">
      </trkpt>
      <trkpt lat="41.841793" lon="-87.657685">
      </trkpt>
      <trkpt lat="41.83774" lon="-87.66568">
      </trkpt>
      <trkpt lat="41.859626" lon="-87.666149">
      </trkpt>
      <trkpt lat="41.859517" lon="-87.673612">
      </trkpt>
      <trkpt lat="41.859517" lon="-87.673612">
      </trkpt>
      <trkpt lat="41.859553" lon="-87.671143">
      </trkpt>
      <trkpt lat="41.861408" lon="-87.671155">
      </trkpt>
      <trkpt lat="41.861473" lon="-87.666188">
      </trkpt>
      <trkpt lat="41.875179" lon="-87.666563">
      </trkpt>
      <trkpt lat="41.875183" lon="-87.666292">
      </trkpt>
      <trkpt lat="41.87557" lon="-87.662662">
      </trkpt>
      <trkpt lat="41.875604" lon="-87.6605">
      </trkpt>
      <trkpt lat="41.875318" lon="-87.651569">
      </trkpt>
      <trkpt lat="41.875524" lon="-87.633678">
      </trkpt>
      <trkpt lat="41.868948" lon="-87.633487">
      </trkpt>
      <trkpt lat="41.868948" lon="-87.633487">
      </trkpt>
      <trkpt lat="41.872148" lon="-87.633566">
      </trkpt>
      <trkpt lat="41.872252" lon="-87.63061">
      </trkpt>
      <trkpt lat="41.852946" lon="-87.630071">
      </trkpt>
      <trkpt lat="41.852935" lon="-87.631144">
      </trkpt>
      <trkpt lat="41.850453" lon="-87.631153">
      </trkpt>
      <trkpt lat="41.843118" lon="-87.631351">
      </trkpt>
      <trkpt lat="41.834246" lon="-87.631163">
      </trkpt>
      <trkpt lat="41.830937" lon="-87.631513">
      </trkpt>
      <trkpt lat="41.831008" lon="-87.626457">
      </trkpt>
      <trkpt lat="41.83283" lon="-87.626475">
      </trkpt>
      <trkpt lat="41.832863" lon="-87.625023">
      </trkpt>
      <trkpt lat="41.832863" lon="-87.625023">
      </trkpt>
      <trkpt lat="41.83283" lon="-87.626475">
      </trkpt>
      <trkpt lat="41.834676" lon="-87.626499">
      </trkpt>
      <trkpt lat="41.831006" lon="-87.62663">
      </trkpt>
      <trkpt lat="41.830937" lon="-87.631513">
      </trkpt>
      <trkpt lat="41.827182" lon="-87.631416">
      </trkpt>
      <trkpt lat="41.824538" lon="-87.630921">
      </trkpt>
      <trkpt lat="41.812695" lon="-87.630703">
      </trkpt>
      <trkpt lat="41.807984" lon="-87.632226">
      </trkpt>
      <trkpt lat="41.798939" lon="-87.631696">
      </trkpt>
      <trkpt lat="41.794538" lon="-87.631804">
      </trkpt>
      <trkpt lat="41.793922" lon="-87.674307">
      </trkpt>
      <trkpt lat="41.797576" lon="-87.674409">
      </trkpt>
      <trkpt lat="41.797542" lon="-87.675672">
      </trkpt>
      <trkpt lat="41.797737" lon="-87.675674">
      </trkpt>
      <trkpt lat="41.797737" lon="-87.675674">
      </trkpt>
      <trkpt lat="41.79802" lon="-87.675677">
      </trkpt>
      <trkpt lat="41.798037" lon="-87.674422">
      </trkpt>
      <trkpt lat="41.801244" lon="-87.674511">
      </trkpt>
      <trkpt lat="41.801133" lon="-87.683684">
      </trkpt>
      <trkpt lat="41.81444" lon="-87.684021">
      </trkpt>
      <trkpt lat="41.815484" lon="-87.684046">
      </trkpt>
      <trkpt lat="41.816038" lon="-87.684059">
      </trkpt>
      <trkpt lat="41.819343" lon="-87.684139">
      </trkpt>
      <trkpt lat="41.826276" lon="-87.68435">
      </trkpt>
      <trkpt lat="41.831825" lon="-87.675328">
      </trkpt>
      <trkpt lat="41.836727" lon="-87.675396">
      </trkpt>
      <trkpt lat="41.837515" lon="-87.667192">
      </trkpt>
      <trkpt lat="41.846989" lon="-87.642887">
      </trkpt>
      <trkpt lat="41.847976" lon="-87.616851">
      </trkpt>
      <trkpt lat="41.84938" lon="-87.612168">
      </trkpt>
      <trkpt lat="41.8661" lon="-87.619244">
      </trkpt>
      <trkpt lat="41.892878" lon="-87.614041">
      </trkpt>
      <trkpt lat="41.900921" lon="-87.619441">
      </trkpt>
      <trkpt lat="41.902893" lon="-87.624048">
      </trkpt>
      <trkpt lat="41.934381" lon="-87.632152">
      </trkpt>
      <trkpt lat="41.950931" lon="-87.644376">
      </trkpt>
      <trkpt lat="41.98144" lon="-87.652386">
      </trkpt>
      <trkpt lat="41.983909" lon="-87.65229">
      </trkpt>
      <trkpt lat="41.983528" lon="-87.666707">
      </trkpt>
    </trkseg>
  </trk>
</gpx>