<?xml version="1.0" encoding="UTF-8"?>
<gpx xmlns="http://www.topografix.com/GPX/1/1" xmlns:xsi="http://www.w3.org/2001/XMLSchema-instance" xsi:schemaLocation="http://www.topografix.com/GPX/1/1 http://www.topografix.com/GPX/1/1/gpx.xsd" version="1.1" creator="gpx.py -- https://github.com/tkrajina/gpxpy">
  <trk>
    <trkseg>
      <trkpt lat="41.920667" lon="-87.684471">
      </trkpt>
      <trkpt lat="41.920683" lon="-87.683659">
      </trkpt>
      <trkpt lat="41.921904" lon="-87.683684">
      </trkpt>
      <trkpt lat="41.921892" lon="-87.684684">
      </trkpt>
      <trkpt lat="41.922659" lon="-87.684702">
      </trkpt>
      <trkpt lat="41.92262" lon="-87.687572">
      </trkpt>
      <trkpt lat="41.924902" lon="-87.687645">
      </trkpt>
      <trkpt lat="41.924417" lon="-87.733273">
      </trkpt>
      <trkpt lat="41.924417" lon="-87.733273">
      </trkpt>
      <trkpt lat="41.924377" lon="-87.736573">
      </trkpt>
      <trkpt lat="41.938973" lon="-87.737024">
      </trkpt>
      <trkpt lat="41.938879" lon="-87.743881">
      </trkpt>
      <trkpt lat="41.939556" lon="-87.743909">
      </trkpt>
      <trkpt lat="41.939556" lon="-87.743909">
      </trkpt>
      <trkpt lat="41.942524" lon="-87.744004">
      </trkpt>
      <trkpt lat="41.942526" lon="-87.743881">
      </trkpt>
      <trkpt lat="41.946162" lon="-87.743983">
      </trkpt>
      <trkpt lat="41.946484" lon="-87.71959">
      </trkpt>
      <trkpt lat="41.944989" lon="-87.718156">
      </trkpt>
      <trkpt lat="41.942115" lon="-87.715518">
      </trkpt>
      <trkpt lat="41.940414" lon="-87.710267">
      </trkpt>
      <trkpt lat="41.927358" lon="-87.687291">
      </trkpt>
      <trkpt lat="41.924962" lon="-87.683686">
      </trkpt>
      <trkpt lat="41.925453" lon="-87.648766">
      </trkpt>
      <trkpt lat="41.924054" lon="-87.646788">
      </trkpt>
      <trkpt lat="41.924054" lon="-87.646788">
      </trkpt>
      <trkpt lat="41.925453" lon="-87.648766">
      </trkpt>
      <trkpt lat="41.925477" lon="-87.647269">
      </trkpt>
      <trkpt lat="41.925402" lon="-87.647263">
      </trkpt>
      <trkpt lat="41.925188" lon="-87.646985">
      </trkpt>
      <trkpt lat="41.925188" lon="-87.646985">
      </trkpt>
      <trkpt lat="41.925477" lon="-87.647269">
      </trkpt>
      <trkpt lat="41.925453" lon="-87.648766">
      </trkpt>
      <trkpt lat="41.936111" lon="-87.663682">
      </trkpt>
      <trkpt lat="41.938211" lon="-87.663758">
      </trkpt>
      <trkpt lat="41.938211" lon="-87.663758">
      </trkpt>
      <trkpt lat="41.939759" lon="-87.663815">
      </trkpt>
      <trkpt lat="41.939644" lon="-87.673369">
      </trkpt>
      <trkpt lat="41.939644" lon="-87.673369">
      </trkpt>
      <trkpt lat="41.939467" lon="-87.688141">
      </trkpt>
      <trkpt lat="41.910324" lon="-87.687207">
      </trkpt>
      <trkpt lat="41.910165" lon="-87.701875">
      </trkpt>
      <trkpt lat="41.907241" lon="-87.70125">
      </trkpt>
      <trkpt lat="41.902886" lon="-87.702278">
      </trkpt>
      <trkpt lat="41.902557" lon="-87.733686">
      </trkpt>
      <trkpt lat="41.903012" lon="-87.733699">
      </trkpt>
      <trkpt lat="41.903016" lon="-87.733404">
      </trkpt>
      <trkpt lat="41.903016" lon="-87.733404">
      </trkpt>
      <trkpt lat="41.903016" lon="-87.733404">
      </trkpt>
      <trkpt lat="41.903016" lon="-87.733404">
      </trkpt>
      <trkpt lat="41.903046" lon="-87.731223">
      </trkpt>
      <trkpt lat="41.902599" lon="-87.731211">
      </trkpt>
      <trkpt lat="41.902754" lon="-87.717777">
      </trkpt>
      <trkpt lat="41.900725" lon="-87.712727">
      </trkpt>
      <trkpt lat="41.900057" lon="-87.711889">
      </trkpt>
      <trkpt lat="41.900143" lon="-87.711243">
      </trkpt>
      <trkpt lat="41.896575" lon="-87.702222">
      </trkpt>
      <trkpt lat="41.891131" lon="-87.701974">
      </trkpt>
      <trkpt lat="41.889426" lon="-87.701479">
      </trkpt>
      <trkpt lat="41.881942" lon="-87.701237">
      </trkpt>
      <trkpt lat="41.881992" lon="-87.696313">
      </trkpt>
      <trkpt lat="41.880169" lon="-87.696261">
      </trkpt>
      <trkpt lat="41.880173" lon="-87.695733">
      </trkpt>
      <trkpt lat="41.880173" lon="-87.695733">
      </trkpt>
      <trkpt lat="41.880169" lon="-87.696261">
      </trkpt>
      <trkpt lat="41.875983" lon="-87.696151">
      </trkpt>
      <trkpt lat="41.875935" lon="-87.701496">
      </trkpt>
      <trkpt lat="41.87509" lon="-87.703443">
      </trkpt>
      <trkpt lat="41.874433" lon="-87.707254">
      </trkpt>
      <trkpt lat="41.874195" lon="-87.716326">
      </trkpt>
      <trkpt lat="41.874474" lon="-87.719239">
      </trkpt>
      <trkpt lat="41.874358" lon="-87.725442">
      </trkpt>
      <trkpt lat="41.851087" lon="-87.72475">
      </trkpt>
      <trkpt lat="41.848648" lon="-87.73165">
      </trkpt>
      <trkpt lat="41.848648" lon="-87.73165">
      </trkpt>
      <trkpt lat="41.847679" lon="-87.734395">
      </trkpt>
      <trkpt lat="41.872889" lon="-87.735214">
      </trkpt>
      <trkpt lat="41.873657" lon="-87.731862">
      </trkpt>
      <trkpt lat="41.873948" lon="-87.708909">
      </trkpt>
      <trkpt lat="41.875189" lon="-87.697594">
      </trkpt>
      <trkpt lat="41.875329" lon="-87.650308">
      </trkpt>
      <trkpt lat="41.875302" lon="-87.647601">
      </trkpt>
      <trkpt lat="41.874563" lon="-87.645452">
      </trkpt>
      <trkpt lat="41.875077" lon="-87.644482">
      </trkpt>
      <trkpt lat="41.876036" lon="-87.64458">
      </trkpt>
      <trkpt lat="41.880374" lon="-87.645275">
      </trkpt>
      <trkpt lat="41.881847" lon="-87.645355">
      </trkpt>
      <trkpt lat="41.882198" lon="-87.645393">
      </trkpt>
      <trkpt lat="41.885931" lon="-87.64591">
      </trkpt>
      <trkpt lat="41.888483" lon="-87.647404">
      </trkpt>
      <trkpt lat="41.89596" lon="-87.657675">
      </trkpt>
      <trkpt lat="41.900116" lon="-87.660194">
      </trkpt>
      <trkpt lat="41.90345" lon="-87.660665">
      </trkpt>
      <trkpt lat="41.903492" lon="-87.658338">
      </trkpt>
      <trkpt lat="41.908679" lon="-87.660908">
      </trkpt>
      <trkpt lat="41.908679" lon="-87.660908">
      </trkpt>
      <trkpt lat="41.907139" lon="-87.659943">
      </trkpt>
      <trkpt lat="41.904542" lon="-87.659389">
      </trkpt>
      <trkpt lat="41.903014" lon="-87.657866">
      </trkpt>
      <trkpt lat="41.901311" lon="-87.6567">
      </trkpt>
      <trkpt lat="41.896984" lon="-87.656554">
      </trkpt>
      <trkpt lat="41.899842" lon="-87.660982">
      </trkpt>
      <trkpt lat="41.899796" lon="-87.66251">
      </trkpt>
      <trkpt lat="41.899631" lon="-87.662504">
      </trkpt>
      <trkpt lat="41.899631" lon="-87.662504">
      </trkpt>
      <trkpt lat="41.899796" lon="-87.66251">
      </trkpt>
      <trkpt lat="41.899842" lon="-87.660982">
      </trkpt>
      <trkpt lat="41.899711" lon="-87.660843">
      </trkpt>
      <trkpt lat="41.896667" lon="-87.658834">
      </trkpt>
      <trkpt lat="41.895018" lon="-87.657114">
      </trkpt>
      <trkpt lat="41.89377" lon="-87.655657">
      </trkpt>
      <trkpt lat="41.89226" lon="-87.654831">
      </trkpt>
      <trkpt lat="41.891931" lon="-87.653963">
      </trkpt>
      <trkpt lat="41.892554" lon="-87.651034">
      </trkpt>
      <trkpt lat="41.892372" lon="-87.648079">
      </trkpt>
      <trkpt lat="41.892541" lon="-87.624121">
      </trkpt>
      <trkpt lat="41.895748" lon="-87.624197">
      </trkpt>
      <trkpt lat="41.895768" lon="-87.622402">
      </trkpt>
      <trkpt lat="41.895768" lon="-87.622402">
      </trkpt>
      <trkpt lat="41.895808" lon="-87.620354">
      </trkpt>
      <trkpt lat="41.89501" lon="-87.620329">
      </trkpt>
      <trkpt lat="41.894971" lon="-87.623046">
      </trkpt>
      <trkpt lat="41.894971" lon="-87.623046">
      </trkpt>
      <trkpt lat="41.894946" lon="-87.624357">
      </trkpt>
      <trkpt lat="41.889927" lon="-87.624211">
      </trkpt>
      <trkpt lat="41.88832" lon="-87.624581">
      </trkpt>
      <trkpt lat="41.888239" lon="-87.625491">
      </trkpt>
      <trkpt lat="41.886971" lon="-87.627041">
      </trkpt>
      <trkpt lat="41.886949" lon="-87.631015">
      </trkpt>
      <trkpt lat="41.875701" lon="-87.630715">
      </trkpt>
      <trkpt lat="41.875719" lon="-87.651339">
      </trkpt>
      <trkpt lat="41.876197" lon="-87.657603">
      </trkpt>
      <trkpt lat="41.875763" lon="-87.688313">
      </trkpt>
      <trkpt lat="41.875862" lon="-87.692409">
      </trkpt>
      <trkpt lat="41.87596" lon="-87.698604">
      </trkpt>
      <trkpt lat="41.877405" lon="-87.698638">
      </trkpt>
      <trkpt lat="41.877408" lon="-87.69832">
      </trkpt>
      <trkpt lat="41.877408" lon="-87.69832">
      </trkpt>
      <trkpt lat="41.877434" lon="-87.696189">
      </trkpt>
      <trkpt lat="41.874902" lon="-87.696127">
      </trkpt>
      <trkpt lat="41.874908" lon="-87.695509">
      </trkpt>
      <trkpt lat="41.875125" lon="-87.690201">
      </trkpt>
      <trkpt lat="41.87561" lon="-87.659837">
      </trkpt>
      <trkpt lat="41.875329" lon="-87.650308">
      </trkpt>
      <trkpt lat="41.875302" lon="-87.647601">
      </trkpt>
      <trkpt lat="41.874563" lon="-87.645452">
      </trkpt>
      <trkpt lat="41.875077" lon="-87.644482">
      </trkpt>
      <trkpt lat="41.876036" lon="-87.64458">
      </trkpt>
      <trkpt lat="41.877925" lon="-87.64558">
      </trkpt>
      <trkpt lat="41.884644" lon="-87.645654">
      </trkpt>
      <trkpt lat="41.886212" lon="-87.646015">
      </trkpt>
      <trkpt lat="41.88874" lon="-87.647638">
      </trkpt>
      <trkpt lat="41.890597" lon="-87.650048">
      </trkpt>
      <trkpt lat="41.891699" lon="-87.651108">
      </trkpt>
      <trkpt lat="41.892164" lon="-87.650896">
      </trkpt>
      <trkpt lat="41.89242" lon="-87.65026">
      </trkpt>
      <trkpt lat="41.892457" lon="-87.62966">
      </trkpt>
      <trkpt lat="41.899859" lon="-87.62986">
      </trkpt>
      <trkpt lat="41.899807" lon="-87.630601">
      </trkpt>
      <trkpt lat="41.899807" lon="-87.630601">
      </trkpt>
      <trkpt lat="41.899794" lon="-87.631337">
      </trkpt>
      <trkpt lat="41.901459" lon="-87.631382">
      </trkpt>
      <trkpt lat="41.901459" lon="-87.631382">
      </trkpt>
      <trkpt lat="41.896633" lon="-87.631243">
      </trkpt>
      <trkpt lat="41.896146" lon="-87.662395">
      </trkpt>
      <trkpt lat="41.894339" lon="-87.662352">
      </trkpt>
      <trkpt lat="41.894312" lon="-87.663988">
      </trkpt>
      <trkpt lat="41.895209" lon="-87.664011">
      </trkpt>
      <trkpt lat="41.895231" lon="-87.662558">
      </trkpt>
      <trkpt lat="41.895231" lon="-87.662558">
      </trkpt>
      <trkpt lat="41.895233" lon="-87.662372">
      </trkpt>
      <trkpt lat="41.900824" lon="-87.662524">
      </trkpt>
      <trkpt lat="41.903976" lon="-87.667446">
      </trkpt>
      <trkpt lat="41.916129" lon="-87.66782">
      </trkpt>
      <trkpt lat="41.917067" lon="-87.663815">
      </trkpt>
      <trkpt lat="41.917114" lon="-87.66003">
      </trkpt>
      <trkpt lat="41.917518" lon="-87.660585">
      </trkpt>
      <trkpt lat="41.918398" lon="-87.65947">
      </trkpt>
      <trkpt lat="41.921659" lon="-87.65956">
      </trkpt>
      <trkpt lat="41.921657" lon="-87.659737">
      </trkpt>
      <trkpt lat="41.921657" lon="-87.659737">
      </trkpt>
      <trkpt lat="41.921676" lon="-87.65834">
      </trkpt>
      <trkpt lat="41.917139" lon="-87.658378">
      </trkpt>
      <trkpt lat="41.917067" lon="-87.663815">
      </trkpt>
      <trkpt lat="41.916455" lon="-87.666413">
      </trkpt>
      <trkpt lat="41.910715" lon="-87.66216">
      </trkpt>
      <trkpt lat="41.910672" lon="-87.665662">
      </trkpt>
      <trkpt lat="41.910236" lon="-87.665325">
      </trkpt>
      <trkpt lat="41.906635" lon="-87.661559">
      </trkpt>
      <trkpt lat="41.901306" lon="-87.661057">
      </trkpt>
      <trkpt lat="41.896333" lon="-87.658563">
      </trkpt>
      <trkpt lat="41.887778" lon="-87.647099">
      </trkpt>
      <trkpt lat="41.885929" lon="-87.646219">
      </trkpt>
      <trkpt lat="41.881827" lon="-87.645999">
      </trkpt>
      <trkpt lat="41.880956" lon="-87.646134">
      </trkpt>
      <trkpt lat="41.879569" lon="-87.646145">
      </trkpt>
      <trkpt lat="41.878121" lon="-87.646166">
      </trkpt>
      <trkpt lat="41.877218" lon="-87.646107">
      </trkpt>
      <trkpt lat="41.875649" lon="-87.646733">
      </trkpt>
      <trkpt lat="41.875057" lon="-87.646076">
      </trkpt>
      <trkpt lat="41.875572" lon="-87.635788">
      </trkpt>
      <trkpt lat="41.875312" lon="-87.634246">
      </trkpt>
      <trkpt lat="41.874721" lon="-87.634438">
      </trkpt>
      <trkpt lat="41.874834" lon="-87.635124">
      </trkpt>
      <trkpt lat="41.875828" lon="-87.635957">
      </trkpt>
      <trkpt lat="41.876812" lon="-87.636629">
      </trkpt>
      <trkpt lat="41.876812" lon="-87.636803">
      </trkpt>
    </trkseg>
  </trk>
</gpx>