<?xml version="1.0" encoding="UTF-8"?>
<gpx xmlns="http://www.topografix.com/GPX/1/1" xmlns:xsi="http://www.w3.org/2001/XMLSchema-instance" xsi:schemaLocation="http://www.topografix.com/GPX/1/1 http://www.topografix.com/GPX/1/1/gpx.xsd" version="1.1" creator="gpx.py -- https://github.com/tkrajina/gpxpy">
  <trk>
    <trkseg>
      <trkpt lat="41.915612" lon="-87.703717">
      </trkpt>
      <trkpt lat="41.915629" lon="-87.702035">
      </trkpt>
      <trkpt lat="41.909737" lon="-87.701859">
      </trkpt>
      <trkpt lat="41.907558" lon="-87.701241">
      </trkpt>
      <trkpt lat="41.902886" lon="-87.702278">
      </trkpt>
      <trkpt lat="41.90331" lon="-87.669955">
      </trkpt>
      <trkpt lat="41.900367" lon="-87.669869">
      </trkpt>
      <trkpt lat="41.900367" lon="-87.669869">
      </trkpt>
      <trkpt lat="41.899669" lon="-87.669849">
      </trkpt>
      <trkpt lat="41.899544" lon="-87.677161">
      </trkpt>
      <trkpt lat="41.894261" lon="-87.677009">
      </trkpt>
      <trkpt lat="41.894261" lon="-87.677009">
      </trkpt>
      <trkpt lat="41.925026" lon="-87.677893">
      </trkpt>
      <trkpt lat="41.924981" lon="-87.681912">
      </trkpt>
      <trkpt lat="41.926707" lon="-87.685177">
      </trkpt>
      <trkpt lat="41.940439" lon="-87.709664">
      </trkpt>
      <trkpt lat="41.943044" lon="-87.715981">
      </trkpt>
      <trkpt lat="41.94651" lon="-87.717815">
      </trkpt>
      <trkpt lat="41.945829" lon="-87.771621">
      </trkpt>
      <trkpt lat="41.942171" lon="-87.771486">
      </trkpt>
      <trkpt lat="41.942196" lon="-87.769562">
      </trkpt>
      <trkpt lat="41.942196" lon="-87.769562">
      </trkpt>
      <trkpt lat="41.942233" lon="-87.766631">
      </trkpt>
      <trkpt lat="41.945882" lon="-87.766768">
      </trkpt>
      <trkpt lat="41.946271" lon="-87.735605">
      </trkpt>
      <trkpt lat="41.9457" lon="-87.734699">
      </trkpt>
      <trkpt lat="41.941726" lon="-87.734646">
      </trkpt>
      <trkpt lat="41.941742" lon="-87.733458">
      </trkpt>
      <trkpt lat="41.941742" lon="-87.733458">
      </trkpt>
      <trkpt lat="41.941774" lon="-87.729709">
      </trkpt>
      <trkpt lat="41.939065" lon="-87.729641">
      </trkpt>
      <trkpt lat="41.939096" lon="-87.727187">
      </trkpt>
      <trkpt lat="41.92266" lon="-87.726455">
      </trkpt>
      <trkpt lat="41.92265" lon="-87.72708">
      </trkpt>
      <trkpt lat="41.900855" lon="-87.726246">
      </trkpt>
      <trkpt lat="41.900866" lon="-87.725027">
      </trkpt>
      <trkpt lat="41.900672" lon="-87.72502">
      </trkpt>
      <trkpt lat="41.900672" lon="-87.72502">
      </trkpt>
      <trkpt lat="41.899037" lon="-87.72497">
      </trkpt>
      <trkpt lat="41.899026" lon="-87.726198">
      </trkpt>
      <trkpt lat="41.921568" lon="-87.726704">
      </trkpt>
      <trkpt lat="41.92265" lon="-87.72708">
      </trkpt>
      <trkpt lat="41.92266" lon="-87.726455">
      </trkpt>
      <trkpt lat="41.931796" lon="-87.726988">
      </trkpt>
      <trkpt lat="41.931811" lon="-87.725764">
      </trkpt>
      <trkpt lat="41.93226" lon="-87.725778">
      </trkpt>
      <trkpt lat="41.932277" lon="-87.724539">
      </trkpt>
      <trkpt lat="41.93209" lon="-87.724532">
      </trkpt>
      <trkpt lat="41.93209" lon="-87.724532">
      </trkpt>
      <trkpt lat="41.931828" lon="-87.724523">
      </trkpt>
      <trkpt lat="41.931796" lon="-87.726988">
      </trkpt>
      <trkpt lat="41.939096" lon="-87.727187">
      </trkpt>
      <trkpt lat="41.938939" lon="-87.739491">
      </trkpt>
      <trkpt lat="41.942782" lon="-87.739603">
      </trkpt>
      <trkpt lat="41.942782" lon="-87.739603">
      </trkpt>
      <trkpt lat="41.938939" lon="-87.739491">
      </trkpt>
      <trkpt lat="41.93884" lon="-87.746879">
      </trkpt>
      <trkpt lat="41.910996" lon="-87.745886">
      </trkpt>
      <trkpt lat="41.907811" lon="-87.746089">
      </trkpt>
      <trkpt lat="41.907693" lon="-87.755482">
      </trkpt>
      <trkpt lat="41.907693" lon="-87.755482">
      </trkpt>
      <trkpt lat="41.907687" lon="-87.755899">
      </trkpt>
      <trkpt lat="41.909507" lon="-87.755785">
      </trkpt>
      <trkpt lat="41.908935" lon="-87.805768">
      </trkpt>
      <trkpt lat="41.960057" lon="-87.807225">
      </trkpt>
      <trkpt lat="41.959803" lon="-87.816427">
      </trkpt>
      <trkpt lat="41.963925" lon="-87.816393">
      </trkpt>
      <trkpt lat="41.963925" lon="-87.816393">
      </trkpt>
      <trkpt lat="41.959803" lon="-87.816427">
      </trkpt>
      <trkpt lat="41.960057" lon="-87.807225">
      </trkpt>
      <trkpt lat="41.952771" lon="-87.807255">
      </trkpt>
      <trkpt lat="41.952763" lon="-87.796264">
      </trkpt>
      <trkpt lat="41.923598" lon="-87.795245">
      </trkpt>
      <trkpt lat="41.92364" lon="-87.789403">
      </trkpt>
      <trkpt lat="41.921645" lon="-87.781551">
      </trkpt>
      <trkpt lat="41.916843" lon="-87.753381">
      </trkpt>
      <trkpt lat="41.909728" lon="-87.735426">
      </trkpt>
      <trkpt lat="41.909964" lon="-87.718643">
      </trkpt>
      <trkpt lat="41.909964" lon="-87.718643">
      </trkpt>
      <trkpt lat="41.911172" lon="-87.633071">
      </trkpt>
      <trkpt lat="41.912903" lon="-87.633044">
      </trkpt>
      <trkpt lat="41.913237" lon="-87.632269">
      </trkpt>
      <trkpt lat="41.912247" lon="-87.628505">
      </trkpt>
      <trkpt lat="41.912316" lon="-87.626932">
      </trkpt>
      <trkpt lat="41.904908" lon="-87.624861">
      </trkpt>
      <trkpt lat="41.901978" lon="-87.624179">
      </trkpt>
      <trkpt lat="41.900814" lon="-87.624278">
      </trkpt>
      <trkpt lat="41.900933" lon="-87.619988">
      </trkpt>
      <trkpt lat="41.900095" lon="-87.619261">
      </trkpt>
      <trkpt lat="41.900042" lon="-87.622108">
      </trkpt>
      <trkpt lat="41.900042" lon="-87.622108">
      </trkpt>
      <trkpt lat="41.900014" lon="-87.624077">
      </trkpt>
      <trkpt lat="41.900824" lon="-87.624042">
      </trkpt>
      <trkpt lat="41.902709" lon="-87.623664">
      </trkpt>
      <trkpt lat="41.912141" lon="-87.62589">
      </trkpt>
      <trkpt lat="41.918036" lon="-87.628743">
      </trkpt>
      <trkpt lat="41.928415" lon="-87.631851">
      </trkpt>
      <trkpt lat="41.934381" lon="-87.632152">
      </trkpt>
      <trkpt lat="41.936704" lon="-87.633661">
      </trkpt>
      <trkpt lat="41.941219" lon="-87.638833">
      </trkpt>
      <trkpt lat="41.950931" lon="-87.644376">
      </trkpt>
      <trkpt lat="41.967723" lon="-87.647541">
      </trkpt>
      <trkpt lat="41.969474" lon="-87.647273">
      </trkpt>
      <trkpt lat="41.968384" lon="-87.715821">
      </trkpt>
      <trkpt lat="41.966567" lon="-87.715763">
      </trkpt>
      <trkpt lat="41.966563" lon="-87.716128">
      </trkpt>
      <trkpt lat="41.966563" lon="-87.716128">
      </trkpt>
      <trkpt lat="41.966593" lon="-87.713315">
      </trkpt>
      <trkpt lat="41.968411" lon="-87.713373">
      </trkpt>
      <trkpt lat="41.969276" lon="-87.648824">
      </trkpt>
      <trkpt lat="41.965793" lon="-87.64734">
      </trkpt>
      <trkpt lat="41.950978" lon="-87.644611">
      </trkpt>
      <trkpt lat="41.941067" lon="-87.638957">
      </trkpt>
      <trkpt lat="41.935041" lon="-87.632637">
      </trkpt>
      <trkpt lat="41.927741" lon="-87.631858">
      </trkpt>
      <trkpt lat="41.926001" lon="-87.631853">
      </trkpt>
      <trkpt lat="41.92558" lon="-87.640463">
      </trkpt>
      <trkpt lat="41.927956" lon="-87.641881">
      </trkpt>
      <trkpt lat="41.927956" lon="-87.641881">
      </trkpt>
      <trkpt lat="41.92963" lon="-87.642875">
      </trkpt>
      <trkpt lat="41.93012" lon="-87.643564">
      </trkpt>
      <trkpt lat="41.931849" lon="-87.644577">
      </trkpt>
      <trkpt lat="41.932979" lon="-87.645015">
      </trkpt>
      <trkpt lat="41.936435" lon="-87.647811">
      </trkpt>
      <trkpt lat="41.936197" lon="-87.658837">
      </trkpt>
      <trkpt lat="41.935883" lon="-87.658824">
      </trkpt>
      <trkpt lat="41.935883" lon="-87.658824">
      </trkpt>
      <trkpt lat="41.917264" lon="-87.658201">
      </trkpt>
      <trkpt lat="41.916455" lon="-87.666413">
      </trkpt>
      <trkpt lat="41.907139" lon="-87.659943">
      </trkpt>
      <trkpt lat="41.904459" lon="-87.659338">
      </trkpt>
      <trkpt lat="41.901378" lon="-87.656728">
      </trkpt>
      <trkpt lat="41.896984" lon="-87.656554">
      </trkpt>
      <trkpt lat="41.891194" lon="-87.647627">
      </trkpt>
      <trkpt lat="41.890088" lon="-87.647611">
      </trkpt>
      <trkpt lat="41.890082" lon="-87.64876">
      </trkpt>
      <trkpt lat="41.887378" lon="-87.648695">
      </trkpt>
      <trkpt lat="41.887364" lon="-87.649864">
      </trkpt>
      <trkpt lat="41.886778" lon="-87.649838">
      </trkpt>
      <trkpt lat="41.886776" lon="-87.649954">
      </trkpt>
      <trkpt lat="41.886776" lon="-87.649954">
      </trkpt>
      <trkpt lat="41.88676" lon="-87.651006">
      </trkpt>
      <trkpt lat="41.885607" lon="-87.650961">
      </trkpt>
      <trkpt lat="41.885682" lon="-87.646258">
      </trkpt>
      <trkpt lat="41.884746" lon="-87.645922">
      </trkpt>
      <trkpt lat="41.881827" lon="-87.645999">
      </trkpt>
      <trkpt lat="41.880956" lon="-87.646134">
      </trkpt>
      <trkpt lat="41.879569" lon="-87.646145">
      </trkpt>
      <trkpt lat="41.878121" lon="-87.646166">
      </trkpt>
      <trkpt lat="41.876334" lon="-87.646815">
      </trkpt>
      <trkpt lat="41.87588" lon="-87.647774">
      </trkpt>
      <trkpt lat="41.875728" lon="-87.649135">
      </trkpt>
      <trkpt lat="41.876197" lon="-87.657603">
      </trkpt>
      <trkpt lat="41.875763" lon="-87.688313">
      </trkpt>
      <trkpt lat="41.875862" lon="-87.692409">
      </trkpt>
      <trkpt lat="41.875983" lon="-87.696151">
      </trkpt>
      <trkpt lat="41.880169" lon="-87.696261">
      </trkpt>
      <trkpt lat="41.880173" lon="-87.695733">
      </trkpt>
      <trkpt lat="41.880173" lon="-87.695733">
      </trkpt>
      <trkpt lat="41.880169" lon="-87.696261">
      </trkpt>
      <trkpt lat="41.874902" lon="-87.696127">
      </trkpt>
      <trkpt lat="41.874908" lon="-87.695509">
      </trkpt>
      <trkpt lat="41.875125" lon="-87.690201">
      </trkpt>
      <trkpt lat="41.875815" lon="-87.620619">
      </trkpt>
      <trkpt lat="41.878331" lon="-87.620697">
      </trkpt>
      <trkpt lat="41.878364" lon="-87.617182">
      </trkpt>
      <trkpt lat="41.882205" lon="-87.616996">
      </trkpt>
      <trkpt lat="41.884762" lon="-87.613645">
      </trkpt>
      <trkpt lat="41.892878" lon="-87.614041">
      </trkpt>
      <trkpt lat="41.900921" lon="-87.619441">
      </trkpt>
      <trkpt lat="41.902893" lon="-87.624048">
      </trkpt>
      <trkpt lat="41.928415" lon="-87.631851">
      </trkpt>
      <trkpt lat="41.934381" lon="-87.632152">
      </trkpt>
      <trkpt lat="41.941219" lon="-87.638833">
      </trkpt>
      <trkpt lat="41.950931" lon="-87.644376">
      </trkpt>
      <trkpt lat="41.967723" lon="-87.647541">
      </trkpt>
      <trkpt lat="41.969474" lon="-87.647273">
      </trkpt>
      <trkpt lat="41.969172" lon="-87.649644">
      </trkpt>
      <trkpt lat="41.971665" lon="-87.650432">
      </trkpt>
      <trkpt lat="41.971632" lon="-87.654022">
      </trkpt>
      <trkpt lat="41.972395" lon="-87.65406">
      </trkpt>
      <trkpt lat="41.972454" lon="-87.652985">
      </trkpt>
      <trkpt lat="41.972454" lon="-87.652985">
      </trkpt>
      <trkpt lat="41.972498" lon="-87.650724">
      </trkpt>
      <trkpt lat="41.969172" lon="-87.649644">
      </trkpt>
      <trkpt lat="41.968394" lon="-87.714891">
      </trkpt>
      <trkpt lat="41.968394" lon="-87.714891">
      </trkpt>
      <trkpt lat="41.968033" lon="-87.747723">
      </trkpt>
      <trkpt lat="41.962872" lon="-87.747013">
      </trkpt>
      <trkpt lat="41.960724" lon="-87.747538">
      </trkpt>
      <trkpt lat="41.960081" lon="-87.794161">
      </trkpt>
      <trkpt lat="41.950132" lon="-87.814913">
      </trkpt>
      <trkpt lat="41.943301" lon="-87.814266">
      </trkpt>
      <trkpt lat="41.943277" lon="-87.815494">
      </trkpt>
      <trkpt lat="41.943421" lon="-87.815499">
      </trkpt>
      <trkpt lat="41.943421" lon="-87.815499">
      </trkpt>
      <trkpt lat="41.945096" lon="-87.815563">
      </trkpt>
      <trkpt lat="41.945482" lon="-87.795979">
      </trkpt>
      <trkpt lat="41.949455" lon="-87.796135">
      </trkpt>
      <trkpt lat="41.94949" lon="-87.794775">
      </trkpt>
      <trkpt lat="41.94949" lon="-87.794775">
      </trkpt>
      <trkpt lat="41.949455" lon="-87.796135">
      </trkpt>
      <trkpt lat="41.952763" lon="-87.796264">
      </trkpt>
      <trkpt lat="41.954634" lon="-87.645235">
      </trkpt>
      <trkpt lat="41.950978" lon="-87.644611">
      </trkpt>
      <trkpt lat="41.942042" lon="-87.639566">
      </trkpt>
      <trkpt lat="41.936481" lon="-87.636832">
      </trkpt>
      <trkpt lat="41.936481" lon="-87.636832">
      </trkpt>
      <trkpt lat="41.935621" lon="-87.636768">
      </trkpt>
      <trkpt lat="41.935537" lon="-87.647101">
      </trkpt>
      <trkpt lat="41.93561" lon="-87.647163">
      </trkpt>
      <trkpt lat="41.935583" lon="-87.649124">
      </trkpt>
      <trkpt lat="41.935467" lon="-87.649119">
      </trkpt>
      <trkpt lat="41.935378" lon="-87.65295">
      </trkpt>
      <trkpt lat="41.935378" lon="-87.65295">
      </trkpt>
      <trkpt lat="41.935355" lon="-87.653955">
      </trkpt>
      <trkpt lat="41.929016" lon="-87.653741">
      </trkpt>
      <trkpt lat="41.925453" lon="-87.648766">
      </trkpt>
      <trkpt lat="41.919998" lon="-87.648584">
      </trkpt>
      <trkpt lat="41.92" lon="-87.64738">
      </trkpt>
      <trkpt lat="41.919908" lon="-87.647358">
      </trkpt>
      <trkpt lat="41.919908" lon="-87.647358">
      </trkpt>
      <trkpt lat="41.919908" lon="-87.647358">
      </trkpt>
      <trkpt lat="41.919908" lon="-87.647358">
      </trkpt>
      <trkpt lat="41.919998" lon="-87.648584">
      </trkpt>
      <trkpt lat="41.896403" lon="-87.64782">
      </trkpt>
      <trkpt lat="41.896269" lon="-87.654734">
      </trkpt>
      <trkpt lat="41.889969" lon="-87.660056">
      </trkpt>
      <trkpt lat="41.883985" lon="-87.663487">
      </trkpt>
      <trkpt lat="41.881475" lon="-87.666061">
      </trkpt>
      <trkpt lat="41.881324" lon="-87.679085">
      </trkpt>
      <trkpt lat="41.88126" lon="-87.678236">
      </trkpt>
      <trkpt lat="41.88126" lon="-87.678236">
      </trkpt>
      <trkpt lat="41.881323" lon="-87.676638">
      </trkpt>
      <trkpt lat="41.883149" lon="-87.676683">
      </trkpt>
      <trkpt lat="41.883003" lon="-87.686477">
      </trkpt>
      <trkpt lat="41.921862" lon="-87.687548">
      </trkpt>
      <trkpt lat="41.921868" lon="-87.686959">
      </trkpt>
    </trkseg>
  </trk>
</gpx>