<?xml version="1.0" encoding="UTF-8"?>
<gpx xmlns="http://www.topografix.com/GPX/1/1" xmlns:xsi="http://www.w3.org/2001/XMLSchema-instance" xsi:schemaLocation="http://www.topografix.com/GPX/1/1 http://www.topografix.com/GPX/1/1/gpx.xsd" version="1.1" creator="gpx.py -- https://github.com/tkrajina/gpxpy">
  <trk>
    <trkseg>
      <trkpt lat="41.948162" lon="-87.736648">
      </trkpt>
      <trkpt lat="41.953551" lon="-87.736807">
      </trkpt>
      <trkpt lat="41.953617" lon="-87.731304">
      </trkpt>
      <trkpt lat="41.947499" lon="-87.719717">
      </trkpt>
      <trkpt lat="41.942115" lon="-87.715518">
      </trkpt>
      <trkpt lat="41.939977" lon="-87.709442">
      </trkpt>
      <trkpt lat="41.917456" lon="-87.670155">
      </trkpt>
      <trkpt lat="41.906635" lon="-87.661559">
      </trkpt>
      <trkpt lat="41.900902" lon="-87.660921">
      </trkpt>
      <trkpt lat="41.896968" lon="-87.659049">
      </trkpt>
      <trkpt lat="41.895018" lon="-87.657114">
      </trkpt>
      <trkpt lat="41.891931" lon="-87.653963">
      </trkpt>
      <trkpt lat="41.892554" lon="-87.651034">
      </trkpt>
      <trkpt lat="41.89242" lon="-87.632701">
      </trkpt>
      <trkpt lat="41.882849" lon="-87.6324">
      </trkpt>
      <trkpt lat="41.882849" lon="-87.6324">
      </trkpt>
      <trkpt lat="41.883243" lon="-87.632417">
      </trkpt>
      <trkpt lat="41.883235" lon="-87.629431">
      </trkpt>
      <trkpt lat="41.894584" lon="-87.629727">
      </trkpt>
      <trkpt lat="41.894584" lon="-87.629727">
      </trkpt>
      <trkpt lat="41.89485" lon="-87.629736">
      </trkpt>
      <trkpt lat="41.894831" lon="-87.631201">
      </trkpt>
      <trkpt lat="41.893233" lon="-87.631163">
      </trkpt>
      <trkpt lat="41.893148" lon="-87.637063">
      </trkpt>
      <trkpt lat="41.892522" lon="-87.64596">
      </trkpt>
      <trkpt lat="41.892674" lon="-87.65028">
      </trkpt>
      <trkpt lat="41.892622" lon="-87.653268">
      </trkpt>
      <trkpt lat="41.896481" lon="-87.658404">
      </trkpt>
      <trkpt lat="41.901399" lon="-87.660896">
      </trkpt>
      <trkpt lat="41.906646" lon="-87.66137">
      </trkpt>
      <trkpt lat="41.917654" lon="-87.670146">
      </trkpt>
      <trkpt lat="41.940372" lon="-87.709927">
      </trkpt>
      <trkpt lat="41.94215" lon="-87.715306">
      </trkpt>
      <trkpt lat="41.947613" lon="-87.719592">
      </trkpt>
      <trkpt lat="41.95982" lon="-87.741635">
      </trkpt>
      <trkpt lat="41.963594" lon="-87.746287">
      </trkpt>
      <trkpt lat="41.975724" lon="-87.747426">
      </trkpt>
      <trkpt lat="41.976396" lon="-87.74607">
      </trkpt>
      <trkpt lat="41.975364" lon="-87.745776">
      </trkpt>
      <trkpt lat="41.975122" lon="-87.765782">
      </trkpt>
      <trkpt lat="41.975691" lon="-87.766315">
      </trkpt>
      <trkpt lat="41.975715" lon="-87.771273">
      </trkpt>
      <trkpt lat="41.982513" lon="-87.784738">
      </trkpt>
      <trkpt lat="41.982443" lon="-87.812691">
      </trkpt>
      <trkpt lat="41.984517" lon="-87.826001">
      </trkpt>
      <trkpt lat="41.984836" lon="-87.831845">
      </trkpt>
      <trkpt lat="41.984644" lon="-87.836934">
      </trkpt>
      <trkpt lat="41.984101" lon="-87.847951">
      </trkpt>
      <trkpt lat="41.98434" lon="-87.869867">
      </trkpt>
      <trkpt lat="41.982187" lon="-87.876278">
      </trkpt>
      <trkpt lat="41.989209" lon="-87.879427">
      </trkpt>
      <trkpt lat="41.992283" lon="-87.883479">
      </trkpt>
      <trkpt lat="41.994995" lon="-87.88441">
      </trkpt>
      <trkpt lat="41.991428" lon="-87.882827">
      </trkpt>
      <trkpt lat="41.991428" lon="-87.882827">
      </trkpt>
      <trkpt lat="41.98845" lon="-87.879243">
      </trkpt>
      <trkpt lat="41.980047" lon="-87.879094">
      </trkpt>
      <trkpt lat="41.979344" lon="-87.880655">
      </trkpt>
      <trkpt lat="41.982537" lon="-87.874663">
      </trkpt>
      <trkpt lat="41.983195" lon="-87.869231">
      </trkpt>
      <trkpt lat="41.981951" lon="-87.868748">
      </trkpt>
      <trkpt lat="41.984496" lon="-87.869207">
      </trkpt>
      <trkpt lat="41.996472" lon="-87.865494">
      </trkpt>
      <trkpt lat="42.005309" lon="-87.868334">
      </trkpt>
      <trkpt lat="42.013682" lon="-87.868234">
      </trkpt>
      <trkpt lat="42.021071" lon="-87.865444">
      </trkpt>
      <trkpt lat="42.029611" lon="-87.865405">
      </trkpt>
      <trkpt lat="42.036181" lon="-87.867423">
      </trkpt>
      <trkpt lat="42.038274" lon="-87.867474">
      </trkpt>
      <trkpt lat="42.039097" lon="-87.865583">
      </trkpt>
      <trkpt lat="42.040191" lon="-87.830561">
      </trkpt>
      <trkpt lat="42.040784" lon="-87.799043">
      </trkpt>
      <trkpt lat="42.055172" lon="-87.799415">
      </trkpt>
      <trkpt lat="42.05538" lon="-87.716446">
      </trkpt>
      <trkpt lat="42.05196" lon="-87.706397">
      </trkpt>
      <trkpt lat="42.052194" lon="-87.688763">
      </trkpt>
      <trkpt lat="42.049394" lon="-87.688587">
      </trkpt>
      <trkpt lat="42.049394" lon="-87.688587">
      </trkpt>
      <trkpt lat="42.051264" lon="-87.687935">
      </trkpt>
      <trkpt lat="42.052175" lon="-87.688577">
      </trkpt>
      <trkpt lat="42.05196" lon="-87.706397">
      </trkpt>
      <trkpt lat="42.055334" lon="-87.715818">
      </trkpt>
      <trkpt lat="42.055257" lon="-87.727398">
      </trkpt>
      <trkpt lat="42.062542" lon="-87.727298">
      </trkpt>
      <trkpt lat="42.062561" lon="-87.753215">
      </trkpt>
      <trkpt lat="42.062909" lon="-87.754516">
      </trkpt>
      <trkpt lat="42.072988" lon="-87.758492">
      </trkpt>
      <trkpt lat="42.088109" lon="-87.759076">
      </trkpt>
      <trkpt lat="42.126781" lon="-87.784082">
      </trkpt>
      <trkpt lat="42.138224" lon="-87.78834">
      </trkpt>
      <trkpt lat="42.139175" lon="-87.788146">
      </trkpt>
      <trkpt lat="42.138526" lon="-87.786696">
      </trkpt>
      <trkpt lat="42.138325" lon="-87.848428">
      </trkpt>
      <trkpt lat="42.12662" lon="-87.848668">
      </trkpt>
      <trkpt lat="42.12662" lon="-87.848668">
      </trkpt>
      <trkpt lat="42.122705" lon="-87.848737">
      </trkpt>
      <trkpt lat="42.120862" lon="-87.84887">
      </trkpt>
      <trkpt lat="42.120129" lon="-87.848792">
      </trkpt>
      <trkpt lat="42.116587" lon="-87.848855">
      </trkpt>
      <trkpt lat="42.116566" lon="-87.843551">
      </trkpt>
      <trkpt lat="42.116566" lon="-87.843551">
      </trkpt>
      <trkpt lat="42.116463" lon="-87.82935">
      </trkpt>
      <trkpt lat="42.116351" lon="-87.829418">
      </trkpt>
      <trkpt lat="42.113112" lon="-87.829438">
      </trkpt>
      <trkpt lat="42.113114" lon="-87.829293">
      </trkpt>
      <trkpt lat="42.113521" lon="-87.829289">
      </trkpt>
      <trkpt lat="42.113521" lon="-87.829289">
      </trkpt>
      <trkpt lat="42.116463" lon="-87.82935">
      </trkpt>
      <trkpt lat="42.116566" lon="-87.843551">
      </trkpt>
      <trkpt lat="42.116566" lon="-87.843551">
      </trkpt>
      <trkpt lat="42.116463" lon="-87.82935">
      </trkpt>
      <trkpt lat="42.116351" lon="-87.829418">
      </trkpt>
      <trkpt lat="42.113112" lon="-87.829438">
      </trkpt>
      <trkpt lat="42.113114" lon="-87.829293">
      </trkpt>
      <trkpt lat="42.113521" lon="-87.829289">
      </trkpt>
      <trkpt lat="42.113521" lon="-87.829289">
      </trkpt>
      <trkpt lat="42.113862" lon="-87.829285">
      </trkpt>
      <trkpt lat="42.105555" lon="-87.82946">
      </trkpt>
      <trkpt lat="42.105216" lon="-87.787555">
      </trkpt>
      <trkpt lat="42.101596" lon="-87.781421">
      </trkpt>
      <trkpt lat="42.101376" lon="-87.769209">
      </trkpt>
      <trkpt lat="42.087684" lon="-87.759119">
      </trkpt>
      <trkpt lat="42.073162" lon="-87.758738">
      </trkpt>
      <trkpt lat="42.064039" lon="-87.754905">
      </trkpt>
      <trkpt lat="42.05296" lon="-87.761767">
      </trkpt>
      <trkpt lat="42.026512" lon="-87.768822">
      </trkpt>
      <trkpt lat="42.021309" lon="-87.765749">
      </trkpt>
      <trkpt lat="42.009007" lon="-87.749252">
      </trkpt>
      <trkpt lat="41.987219" lon="-87.751521">
      </trkpt>
      <trkpt lat="41.980228" lon="-87.746835">
      </trkpt>
      <trkpt lat="41.966563" lon="-87.747223">
      </trkpt>
      <trkpt lat="41.962358" lon="-87.745232">
      </trkpt>
      <trkpt lat="41.947613" lon="-87.719592">
      </trkpt>
      <trkpt lat="41.94215" lon="-87.715306">
      </trkpt>
      <trkpt lat="41.917654" lon="-87.670146">
      </trkpt>
      <trkpt lat="41.906646" lon="-87.66137">
      </trkpt>
      <trkpt lat="41.897685" lon="-87.659246">
      </trkpt>
      <trkpt lat="41.888343" lon="-87.647531">
      </trkpt>
      <trkpt lat="41.881827" lon="-87.645999">
      </trkpt>
      <trkpt lat="41.880956" lon="-87.646134">
      </trkpt>
      <trkpt lat="41.879569" lon="-87.646145">
      </trkpt>
      <trkpt lat="41.878121" lon="-87.646166">
      </trkpt>
      <trkpt lat="41.875728" lon="-87.649135">
      </trkpt>
      <trkpt lat="41.875763" lon="-87.688313">
      </trkpt>
      <trkpt lat="41.875862" lon="-87.692409">
      </trkpt>
      <trkpt lat="41.875983" lon="-87.696151">
      </trkpt>
      <trkpt lat="41.873794" lon="-87.696098">
      </trkpt>
      <trkpt lat="41.873784" lon="-87.697016">
      </trkpt>
      <trkpt lat="41.873784" lon="-87.697016">
      </trkpt>
      <trkpt lat="41.873794" lon="-87.696098">
      </trkpt>
      <trkpt lat="41.874902" lon="-87.696127">
      </trkpt>
      <trkpt lat="41.874908" lon="-87.695509">
      </trkpt>
      <trkpt lat="41.875125" lon="-87.690201">
      </trkpt>
      <trkpt lat="41.87561" lon="-87.659837">
      </trkpt>
      <trkpt lat="41.875329" lon="-87.650308">
      </trkpt>
      <trkpt lat="41.875302" lon="-87.647601">
      </trkpt>
      <trkpt lat="41.874563" lon="-87.645452">
      </trkpt>
      <trkpt lat="41.875077" lon="-87.644482">
      </trkpt>
      <trkpt lat="41.876036" lon="-87.64458">
      </trkpt>
      <trkpt lat="41.877863" lon="-87.645364">
      </trkpt>
      <trkpt lat="41.880374" lon="-87.645275">
      </trkpt>
      <trkpt lat="41.881847" lon="-87.645355">
      </trkpt>
      <trkpt lat="41.882198" lon="-87.645393">
      </trkpt>
      <trkpt lat="41.883308" lon="-87.645396">
      </trkpt>
      <trkpt lat="41.885689" lon="-87.645365">
      </trkpt>
      <trkpt lat="41.885711" lon="-87.642764">
      </trkpt>
      <trkpt lat="41.887871" lon="-87.642815">
      </trkpt>
      <trkpt lat="41.887871" lon="-87.642815">
      </trkpt>
      <trkpt lat="41.887871" lon="-87.642815">
      </trkpt>
      <trkpt lat="41.887871" lon="-87.642815">
      </trkpt>
      <trkpt lat="41.886807" lon="-87.642802">
      </trkpt>
      <trkpt lat="41.886799" lon="-87.644278">
      </trkpt>
      <trkpt lat="41.889054" lon="-87.644337">
      </trkpt>
      <trkpt lat="41.891194" lon="-87.647627">
      </trkpt>
      <trkpt lat="41.903643" lon="-87.648086">
      </trkpt>
      <trkpt lat="41.903783" lon="-87.638347">
      </trkpt>
      <trkpt lat="41.921954" lon="-87.638941">
      </trkpt>
      <trkpt lat="41.921963" lon="-87.638269">
      </trkpt>
      <trkpt lat="41.927956" lon="-87.641881">
      </trkpt>
      <trkpt lat="41.927956" lon="-87.641881">
      </trkpt>
      <trkpt lat="41.929694" lon="-87.642943">
      </trkpt>
      <trkpt lat="41.929324" lon="-87.644199">
      </trkpt>
      <trkpt lat="41.929135" lon="-87.645552">
      </trkpt>
      <trkpt lat="41.929016" lon="-87.653741">
      </trkpt>
      <trkpt lat="41.936111" lon="-87.663682">
      </trkpt>
      <trkpt lat="41.938211" lon="-87.663758">
      </trkpt>
      <trkpt lat="41.938211" lon="-87.663758">
      </trkpt>
      <trkpt lat="41.919363" lon="-87.663134">
      </trkpt>
      <trkpt lat="41.917114" lon="-87.66003">
      </trkpt>
      <trkpt lat="41.917067" lon="-87.663815">
      </trkpt>
      <trkpt lat="41.916455" lon="-87.666413">
      </trkpt>
      <trkpt lat="41.908679" lon="-87.660908">
      </trkpt>
      <trkpt lat="41.908679" lon="-87.660908">
      </trkpt>
      <trkpt lat="41.907139" lon="-87.659943">
      </trkpt>
      <trkpt lat="41.904542" lon="-87.659389">
      </trkpt>
      <trkpt lat="41.903014" lon="-87.657866">
      </trkpt>
      <trkpt lat="41.901311" lon="-87.6567">
      </trkpt>
      <trkpt lat="41.896984" lon="-87.656554">
      </trkpt>
      <trkpt lat="41.895983" lon="-87.654976">
      </trkpt>
      <trkpt lat="41.891059" lon="-87.659133">
      </trkpt>
      <trkpt lat="41.891061" lon="-87.65893">
      </trkpt>
      <trkpt lat="41.891345" lon="-87.658694">
      </trkpt>
      <trkpt lat="41.891345" lon="-87.658694">
      </trkpt>
      <trkpt lat="41.891822" lon="-87.658299">
      </trkpt>
      <trkpt lat="41.891837" lon="-87.657392">
      </trkpt>
      <trkpt lat="41.891076" lon="-87.657374">
      </trkpt>
      <trkpt lat="41.891194" lon="-87.647627">
      </trkpt>
      <trkpt lat="41.885665" lon="-87.647482">
      </trkpt>
      <trkpt lat="41.885682" lon="-87.646258">
      </trkpt>
      <trkpt lat="41.857367" lon="-87.644363">
      </trkpt>
      <trkpt lat="41.852447" lon="-87.645793">
      </trkpt>
      <trkpt lat="41.849097" lon="-87.644333">
      </trkpt>
      <trkpt lat="41.846776" lon="-87.644894">
      </trkpt>
      <trkpt lat="41.844955" lon="-87.652708">
      </trkpt>
      <trkpt lat="41.837772" lon="-87.66744">
      </trkpt>
      <trkpt lat="41.836863" lon="-87.680834">
      </trkpt>
      <trkpt lat="41.818901" lon="-87.737915">
      </trkpt>
      <trkpt lat="41.817821" lon="-87.743523">
      </trkpt>
      <trkpt lat="41.784351" lon="-87.741532">
      </trkpt>
      <trkpt lat="41.78485" lon="-87.742426">
      </trkpt>
      <trkpt lat="41.78386" lon="-87.743755">
      </trkpt>
      <trkpt lat="41.786276" lon="-87.746931">
      </trkpt>
      <trkpt lat="41.788347" lon="-87.750906">
      </trkpt>
      <trkpt lat="41.788347" lon="-87.750906">
      </trkpt>
      <trkpt lat="41.786276" lon="-87.746931">
      </trkpt>
      <trkpt lat="41.78386" lon="-87.743755">
      </trkpt>
      <trkpt lat="41.78485" lon="-87.742426">
      </trkpt>
      <trkpt lat="41.784351" lon="-87.741532">
      </trkpt>
      <trkpt lat="41.782119" lon="-87.742487">
      </trkpt>
      <trkpt lat="41.705577" lon="-87.740263">
      </trkpt>
      <trkpt lat="41.705726" lon="-87.731788">
      </trkpt>
      <trkpt lat="41.705408" lon="-87.731779">
      </trkpt>
      <trkpt lat="41.705408" lon="-87.731779">
      </trkpt>
      <trkpt lat="41.705726" lon="-87.731788">
      </trkpt>
      <trkpt lat="41.705577" lon="-87.740263">
      </trkpt>
      <trkpt lat="41.682787" lon="-87.739424">
      </trkpt>
      <trkpt lat="41.677673" lon="-87.738779">
      </trkpt>
      <trkpt lat="41.675523" lon="-87.739117">
      </trkpt>
      <trkpt lat="41.671435" lon="-87.738977">
      </trkpt>
      <trkpt lat="41.671496" lon="-87.735361">
      </trkpt>
      <trkpt lat="41.670466" lon="-87.735326">
      </trkpt>
      <trkpt lat="41.670466" lon="-87.735326">
      </trkpt>
      <trkpt lat="41.66911" lon="-87.735279">
      </trkpt>
      <trkpt lat="41.66966" lon="-87.70004">
      </trkpt>
      <trkpt lat="41.665997" lon="-87.699901">
      </trkpt>
      <trkpt lat="41.665997" lon="-87.699901">
      </trkpt>
      <trkpt lat="41.676981" lon="-87.700281">
      </trkpt>
      <trkpt lat="41.677536" lon="-87.661368">
      </trkpt>
      <trkpt lat="41.67848" lon="-87.661398">
      </trkpt>
      <trkpt lat="41.688215" lon="-87.661551">
      </trkpt>
      <trkpt lat="41.695796" lon="-87.658693">
      </trkpt>
      <trkpt lat="41.700714" lon="-87.653084">
      </trkpt>
      <trkpt lat="41.712247" lon="-87.652438">
      </trkpt>
      <trkpt lat="41.714432" lon="-87.648322">
      </trkpt>
      <trkpt lat="41.714662" lon="-87.632642">
      </trkpt>
      <trkpt lat="41.715693" lon="-87.627057">
      </trkpt>
      <trkpt lat="41.719562" lon="-87.624177">
      </trkpt>
      <trkpt lat="41.769497" lon="-87.625651">
      </trkpt>
      <trkpt lat="41.779495" lon="-87.630747">
      </trkpt>
      <trkpt lat="41.838631" lon="-87.630667">
      </trkpt>
      <trkpt lat="41.844225" lon="-87.63193">
      </trkpt>
      <trkpt lat="41.847354" lon="-87.642036">
      </trkpt>
      <trkpt lat="41.850632" lon="-87.644778">
      </trkpt>
      <trkpt lat="41.867845" lon="-87.644517">
      </trkpt>
      <trkpt lat="41.873521" lon="-87.644628">
      </trkpt>
      <trkpt lat="41.875355" lon="-87.643468">
      </trkpt>
      <trkpt lat="41.875518" lon="-87.631448">
      </trkpt>
    </trkseg>
  </trk>
</gpx>