<?xml version="1.0" encoding="UTF-8"?>
<gpx xmlns="http://www.topografix.com/GPX/1/1" xmlns:xsi="http://www.w3.org/2001/XMLSchema-instance" xsi:schemaLocation="http://www.topografix.com/GPX/1/1 http://www.topografix.com/GPX/1/1/gpx.xsd" version="1.1" creator="gpx.py -- https://github.com/tkrajina/gpxpy">
  <trk>
    <trkseg>
      <trkpt lat="41.936919" lon="-87.639435">
      </trkpt>
      <trkpt lat="41.932914" lon="-87.63931">
      </trkpt>
      <trkpt lat="41.932479" lon="-87.66355">
      </trkpt>
      <trkpt lat="41.921626" lon="-87.6632">
      </trkpt>
      <trkpt lat="41.921608" lon="-87.664379">
      </trkpt>
      <trkpt lat="41.921692" lon="-87.664499">
      </trkpt>
      <trkpt lat="41.921692" lon="-87.664499">
      </trkpt>
      <trkpt lat="41.921608" lon="-87.664379">
      </trkpt>
      <trkpt lat="41.921563" lon="-87.668616">
      </trkpt>
      <trkpt lat="41.917197" lon="-87.667771">
      </trkpt>
      <trkpt lat="41.901054" lon="-87.667495">
      </trkpt>
      <trkpt lat="41.901009" lon="-87.669888">
      </trkpt>
      <trkpt lat="41.900367" lon="-87.669869">
      </trkpt>
      <trkpt lat="41.900367" lon="-87.669869">
      </trkpt>
      <trkpt lat="41.899669" lon="-87.669849">
      </trkpt>
      <trkpt lat="41.899842" lon="-87.660982">
      </trkpt>
      <trkpt lat="41.899711" lon="-87.660843">
      </trkpt>
      <trkpt lat="41.896667" lon="-87.658834">
      </trkpt>
      <trkpt lat="41.895018" lon="-87.657114">
      </trkpt>
      <trkpt lat="41.89377" lon="-87.655657">
      </trkpt>
      <trkpt lat="41.89226" lon="-87.654831">
      </trkpt>
      <trkpt lat="41.891931" lon="-87.653963">
      </trkpt>
      <trkpt lat="41.892554" lon="-87.651034">
      </trkpt>
      <trkpt lat="41.892376" lon="-87.648515">
      </trkpt>
      <trkpt lat="41.892486" lon="-87.639284">
      </trkpt>
      <trkpt lat="41.892368" lon="-87.63704">
      </trkpt>
      <trkpt lat="41.888771" lon="-87.636943">
      </trkpt>
      <trkpt lat="41.887983" lon="-87.63637">
      </trkpt>
      <trkpt lat="41.888" lon="-87.63527">
      </trkpt>
      <trkpt lat="41.888" lon="-87.63527">
      </trkpt>
      <trkpt lat="41.887983" lon="-87.63637">
      </trkpt>
      <trkpt lat="41.888455" lon="-87.636789">
      </trkpt>
      <trkpt lat="41.888771" lon="-87.636943">
      </trkpt>
      <trkpt lat="41.892368" lon="-87.63704">
      </trkpt>
      <trkpt lat="41.892457" lon="-87.62966">
      </trkpt>
      <trkpt lat="41.894584" lon="-87.629727">
      </trkpt>
      <trkpt lat="41.894584" lon="-87.629727">
      </trkpt>
      <trkpt lat="41.896655" lon="-87.62978">
      </trkpt>
      <trkpt lat="41.896844" lon="-87.616893">
      </trkpt>
      <trkpt lat="41.892868" lon="-87.614264">
      </trkpt>
      <trkpt lat="41.885247" lon="-87.614081">
      </trkpt>
      <trkpt lat="41.884041" lon="-87.614645">
      </trkpt>
      <trkpt lat="41.881821" lon="-87.617453">
      </trkpt>
      <trkpt lat="41.869765" lon="-87.617261">
      </trkpt>
      <trkpt lat="41.866068" lon="-87.619589">
      </trkpt>
      <trkpt lat="41.853242" lon="-87.614728">
      </trkpt>
      <trkpt lat="41.849799" lon="-87.613506">
      </trkpt>
      <trkpt lat="41.848506" lon="-87.614444">
      </trkpt>
      <trkpt lat="41.848101" lon="-87.623443">
      </trkpt>
      <trkpt lat="41.84732" lon="-87.626818">
      </trkpt>
      <trkpt lat="41.848155" lon="-87.630758">
      </trkpt>
      <trkpt lat="41.847855" lon="-87.631727">
      </trkpt>
      <trkpt lat="41.843118" lon="-87.631351">
      </trkpt>
      <trkpt lat="41.834246" lon="-87.631163">
      </trkpt>
      <trkpt lat="41.830937" lon="-87.631513">
      </trkpt>
      <trkpt lat="41.831008" lon="-87.626457">
      </trkpt>
      <trkpt lat="41.83283" lon="-87.626475">
      </trkpt>
      <trkpt lat="41.832863" lon="-87.625023">
      </trkpt>
      <trkpt lat="41.832863" lon="-87.625023">
      </trkpt>
      <trkpt lat="41.83283" lon="-87.626475">
      </trkpt>
      <trkpt lat="41.834676" lon="-87.626499">
      </trkpt>
      <trkpt lat="41.834684" lon="-87.626674">
      </trkpt>
      <trkpt lat="41.831006" lon="-87.62663">
      </trkpt>
      <trkpt lat="41.830937" lon="-87.631513">
      </trkpt>
      <trkpt lat="41.819145" lon="-87.631268">
      </trkpt>
      <trkpt lat="41.818987" lon="-87.64093">
      </trkpt>
      <trkpt lat="41.816722" lon="-87.640874">
      </trkpt>
      <trkpt lat="41.816684" lon="-87.642841">
      </trkpt>
      <trkpt lat="41.816684" lon="-87.642841">
      </trkpt>
      <trkpt lat="41.816698" lon="-87.642091">
      </trkpt>
      <trkpt lat="41.816246" lon="-87.64208">
      </trkpt>
      <trkpt lat="41.816426" lon="-87.631192">
      </trkpt>
      <trkpt lat="41.816105" lon="-87.631174">
      </trkpt>
      <trkpt lat="41.812287" lon="-87.630735">
      </trkpt>
      <trkpt lat="41.807383" lon="-87.63223">
      </trkpt>
      <trkpt lat="41.778978" lon="-87.631289">
      </trkpt>
      <trkpt lat="41.773198" lon="-87.626564">
      </trkpt>
      <trkpt lat="41.768925" lon="-87.626239">
      </trkpt>
      <trkpt lat="41.766175" lon="-87.626556">
      </trkpt>
      <trkpt lat="41.765349" lon="-87.626539">
      </trkpt>
      <trkpt lat="41.765964" lon="-87.58632">
      </trkpt>
      <trkpt lat="41.759682" lon="-87.586137">
      </trkpt>
      <trkpt lat="41.759693" lon="-87.585114">
      </trkpt>
      <trkpt lat="41.759229" lon="-87.585107">
      </trkpt>
      <trkpt lat="41.759242" lon="-87.584124">
      </trkpt>
      <trkpt lat="41.759242" lon="-87.584124">
      </trkpt>
      <trkpt lat="41.759229" lon="-87.585107">
      </trkpt>
      <trkpt lat="41.759693" lon="-87.585114">
      </trkpt>
      <trkpt lat="41.759686" lon="-87.585762">
      </trkpt>
      <trkpt lat="41.771514" lon="-87.585994">
      </trkpt>
      <trkpt lat="41.780203" lon="-87.584175">
      </trkpt>
      <trkpt lat="41.780713" lon="-87.574628">
      </trkpt>
      <trkpt lat="41.803976" lon="-87.581975">
      </trkpt>
      <trkpt lat="41.832668" lon="-87.606909">
      </trkpt>
      <trkpt lat="41.843509" lon="-87.610426">
      </trkpt>
      <trkpt lat="41.848604" lon="-87.612641">
      </trkpt>
      <trkpt lat="41.847424" lon="-87.630973">
      </trkpt>
      <trkpt lat="41.847736" lon="-87.641219">
      </trkpt>
      <trkpt lat="41.850742" lon="-87.644555">
      </trkpt>
      <trkpt lat="41.885931" lon="-87.64591">
      </trkpt>
      <trkpt lat="41.897003" lon="-87.6586">
      </trkpt>
      <trkpt lat="41.906443" lon="-87.661061">
      </trkpt>
      <trkpt lat="41.916334" lon="-87.668478">
      </trkpt>
      <trkpt lat="41.942387" lon="-87.715161">
      </trkpt>
      <trkpt lat="41.947985" lon="-87.719618">
      </trkpt>
      <trkpt lat="41.960998" lon="-87.742619">
      </trkpt>
      <trkpt lat="41.966033" lon="-87.752403">
      </trkpt>
      <trkpt lat="41.967937" lon="-87.75503">
      </trkpt>
      <trkpt lat="41.967938" lon="-87.757623">
      </trkpt>
      <trkpt lat="41.968431" lon="-87.758399">
      </trkpt>
      <trkpt lat="41.968431" lon="-87.758399">
      </trkpt>
      <trkpt lat="41.967875" lon="-87.757622">
      </trkpt>
      <trkpt lat="41.968033" lon="-87.747723">
      </trkpt>
      <trkpt lat="41.972896" lon="-87.747918">
      </trkpt>
      <trkpt lat="41.972794" lon="-87.747761">
      </trkpt>
      <trkpt lat="41.966563" lon="-87.747223">
      </trkpt>
      <trkpt lat="41.963113" lon="-87.745961">
      </trkpt>
      <trkpt lat="41.960129" lon="-87.742125">
      </trkpt>
      <trkpt lat="41.947613" lon="-87.719592">
      </trkpt>
      <trkpt lat="41.94215" lon="-87.715306">
      </trkpt>
      <trkpt lat="41.940524" lon="-87.710219">
      </trkpt>
      <trkpt lat="41.933659" lon="-87.698173">
      </trkpt>
      <trkpt lat="41.927358" lon="-87.687291">
      </trkpt>
      <trkpt lat="41.924962" lon="-87.683686">
      </trkpt>
      <trkpt lat="41.925472" lon="-87.647534">
      </trkpt>
      <trkpt lat="41.925472" lon="-87.647534">
      </trkpt>
      <trkpt lat="41.925687" lon="-87.63436">
      </trkpt>
      <trkpt lat="41.926001" lon="-87.631853">
      </trkpt>
      <trkpt lat="41.923776" lon="-87.630603">
      </trkpt>
      <trkpt lat="41.918735" lon="-87.629189">
      </trkpt>
      <trkpt lat="41.915117" lon="-87.627538">
      </trkpt>
      <trkpt lat="41.912316" lon="-87.626932">
      </trkpt>
      <trkpt lat="41.912316" lon="-87.626932">
      </trkpt>
      <trkpt lat="41.912538" lon="-87.627054">
      </trkpt>
      <trkpt lat="41.912414" lon="-87.628511">
      </trkpt>
      <trkpt lat="41.913459" lon="-87.631428">
      </trkpt>
      <trkpt lat="41.91325" lon="-87.632669">
      </trkpt>
      <trkpt lat="41.912793" lon="-87.633227">
      </trkpt>
      <trkpt lat="41.891597" lon="-87.632696">
      </trkpt>
      <trkpt lat="41.891576" lon="-87.634054">
      </trkpt>
      <trkpt lat="41.890774" lon="-87.634037">
      </trkpt>
      <trkpt lat="41.890784" lon="-87.633354">
      </trkpt>
      <trkpt lat="41.890784" lon="-87.633354">
      </trkpt>
      <trkpt lat="41.89093" lon="-87.624208">
      </trkpt>
      <trkpt lat="41.888229" lon="-87.624567">
      </trkpt>
      <trkpt lat="41.887462" lon="-87.615811">
      </trkpt>
      <trkpt lat="41.887175" lon="-87.614014">
      </trkpt>
      <trkpt lat="41.885118" lon="-87.61394">
      </trkpt>
      <trkpt lat="41.881821" lon="-87.617453">
      </trkpt>
      <trkpt lat="41.869765" lon="-87.617261">
      </trkpt>
      <trkpt lat="41.865851" lon="-87.619563">
      </trkpt>
      <trkpt lat="41.833588" lon="-87.607689">
      </trkpt>
      <trkpt lat="41.815295" lon="-87.593977">
      </trkpt>
      <trkpt lat="41.803885" lon="-87.58209">
      </trkpt>
      <trkpt lat="41.796009" lon="-87.57922">
      </trkpt>
      <trkpt lat="41.791662" lon="-87.58022">
      </trkpt>
      <trkpt lat="41.781232" lon="-87.574954">
      </trkpt>
      <trkpt lat="41.779846" lon="-87.579216">
      </trkpt>
      <trkpt lat="41.780203" lon="-87.584175">
      </trkpt>
      <trkpt lat="41.776085" lon="-87.586376">
      </trkpt>
      <trkpt lat="41.759682" lon="-87.586137">
      </trkpt>
      <trkpt lat="41.759693" lon="-87.585114">
      </trkpt>
      <trkpt lat="41.759229" lon="-87.585107">
      </trkpt>
      <trkpt lat="41.759242" lon="-87.584124">
      </trkpt>
      <trkpt lat="41.759242" lon="-87.584124">
      </trkpt>
      <trkpt lat="41.759229" lon="-87.585107">
      </trkpt>
      <trkpt lat="41.759693" lon="-87.585114">
      </trkpt>
      <trkpt lat="41.759686" lon="-87.585762">
      </trkpt>
      <trkpt lat="41.771514" lon="-87.585994">
      </trkpt>
      <trkpt lat="41.774909" lon="-87.584919">
      </trkpt>
      <trkpt lat="41.778263" lon="-87.585166">
      </trkpt>
      <trkpt lat="41.780203" lon="-87.584175">
      </trkpt>
      <trkpt lat="41.77981" lon="-87.57958">
      </trkpt>
      <trkpt lat="41.780713" lon="-87.574628">
      </trkpt>
      <trkpt lat="41.785263" lon="-87.577194">
      </trkpt>
      <trkpt lat="41.789105" lon="-87.577988">
      </trkpt>
      <trkpt lat="41.791827" lon="-87.580105">
      </trkpt>
      <trkpt lat="41.795899" lon="-87.579065">
      </trkpt>
      <trkpt lat="41.799076" lon="-87.5812">
      </trkpt>
      <trkpt lat="41.803976" lon="-87.581975">
      </trkpt>
      <trkpt lat="41.815381" lon="-87.593676">
      </trkpt>
      <trkpt lat="41.823136" lon="-87.599195">
      </trkpt>
      <trkpt lat="41.825435" lon="-87.599849">
      </trkpt>
      <trkpt lat="41.824226" lon="-87.604296">
      </trkpt>
      <trkpt lat="41.823783" lon="-87.621597">
      </trkpt>
      <trkpt lat="41.824244" lon="-87.621608">
      </trkpt>
      <trkpt lat="41.824244" lon="-87.621608">
      </trkpt>
      <trkpt lat="41.826518" lon="-87.621656">
      </trkpt>
      <trkpt lat="41.8265" lon="-87.623134">
      </trkpt>
      <trkpt lat="41.823762" lon="-87.62314">
      </trkpt>
      <trkpt lat="41.823664" lon="-87.631351">
      </trkpt>
      <trkpt lat="41.823339" lon="-87.631372">
      </trkpt>
      <trkpt lat="41.807984" lon="-87.632226">
      </trkpt>
      <trkpt lat="41.779333" lon="-87.631154">
      </trkpt>
      <trkpt lat="41.772231" lon="-87.626113">
      </trkpt>
      <trkpt lat="41.72052" lon="-87.624621">
      </trkpt>
      <trkpt lat="41.713653" lon="-87.621065">
      </trkpt>
      <trkpt lat="41.713191" lon="-87.600337">
      </trkpt>
      <trkpt lat="41.708673" lon="-87.592948">
      </trkpt>
      <trkpt lat="41.703483" lon="-87.592406">
      </trkpt>
      <trkpt lat="41.685512" lon="-87.601798">
      </trkpt>
      <trkpt lat="41.676933" lon="-87.601728">
      </trkpt>
      <trkpt lat="41.660202" lon="-87.589096">
      </trkpt>
      <trkpt lat="41.659512" lon="-87.59119">
      </trkpt>
      <trkpt lat="41.658851" lon="-87.560717">
      </trkpt>
      <trkpt lat="41.656176" lon="-87.555878">
      </trkpt>
      <trkpt lat="41.65737" lon="-87.555649">
      </trkpt>
      <trkpt lat="41.65736" lon="-87.553811">
      </trkpt>
      <trkpt lat="41.656889" lon="-87.553812">
      </trkpt>
      <trkpt lat="41.656889" lon="-87.553812">
      </trkpt>
      <trkpt lat="41.65736" lon="-87.553811">
      </trkpt>
      <trkpt lat="41.657281" lon="-87.557102">
      </trkpt>
      <trkpt lat="41.660149" lon="-87.585314">
      </trkpt>
      <trkpt lat="41.662478" lon="-87.590822">
      </trkpt>
      <trkpt lat="41.675885" lon="-87.601403">
      </trkpt>
      <trkpt lat="41.685726" lon="-87.601563">
      </trkpt>
      <trkpt lat="41.69908" lon="-87.594329">
      </trkpt>
      <trkpt lat="41.705863" lon="-87.591535">
      </trkpt>
      <trkpt lat="41.711823" lon="-87.595707">
      </trkpt>
      <trkpt lat="41.713575" lon="-87.618809">
      </trkpt>
      <trkpt lat="41.717096" lon="-87.62372">
      </trkpt>
      <trkpt lat="41.769497" lon="-87.625651">
      </trkpt>
      <trkpt lat="41.779495" lon="-87.630747">
      </trkpt>
      <trkpt lat="41.838631" lon="-87.630667">
      </trkpt>
      <trkpt lat="41.844225" lon="-87.63193">
      </trkpt>
      <trkpt lat="41.847448" lon="-87.642221">
      </trkpt>
      <trkpt lat="41.850908" lon="-87.644903">
      </trkpt>
      <trkpt lat="41.873493" lon="-87.644854">
      </trkpt>
      <trkpt lat="41.880374" lon="-87.645275">
      </trkpt>
      <trkpt lat="41.881847" lon="-87.645355">
      </trkpt>
      <trkpt lat="41.882198" lon="-87.645393">
      </trkpt>
      <trkpt lat="41.883308" lon="-87.645396">
      </trkpt>
      <trkpt lat="41.885689" lon="-87.645365">
      </trkpt>
      <trkpt lat="41.885646" lon="-87.648644">
      </trkpt>
      <trkpt lat="41.889662" lon="-87.648752">
      </trkpt>
      <trkpt lat="41.889662" lon="-87.648752">
      </trkpt>
      <trkpt lat="41.889017" lon="-87.648718">
      </trkpt>
      <trkpt lat="41.889054" lon="-87.644337">
      </trkpt>
      <trkpt lat="41.884425" lon="-87.644184">
      </trkpt>
      <trkpt lat="41.884406" lon="-87.646033">
      </trkpt>
      <trkpt lat="41.884406" lon="-87.646033">
      </trkpt>
      <trkpt lat="41.884415" lon="-87.647438">
      </trkpt>
      <trkpt lat="41.881782" lon="-87.64736">
      </trkpt>
      <trkpt lat="41.881801" lon="-87.64573">
      </trkpt>
      <trkpt lat="41.885306" lon="-87.645735">
      </trkpt>
      <trkpt lat="41.888483" lon="-87.647404">
      </trkpt>
      <trkpt lat="41.897251" lon="-87.658783">
      </trkpt>
      <trkpt lat="41.901753" lon="-87.660805">
      </trkpt>
      <trkpt lat="41.906443" lon="-87.661061">
      </trkpt>
      <trkpt lat="41.910145" lon="-87.664439">
      </trkpt>
      <trkpt lat="41.915739" lon="-87.667973">
      </trkpt>
      <trkpt lat="41.917898" lon="-87.66968">
      </trkpt>
      <trkpt lat="41.917936" lon="-87.667964">
      </trkpt>
      <trkpt lat="41.92163" lon="-87.66862">
      </trkpt>
      <trkpt lat="41.939697" lon="-87.668609">
      </trkpt>
      <trkpt lat="41.941506" lon="-87.669927">
      </trkpt>
      <trkpt lat="41.941511" lon="-87.669353">
      </trkpt>
      <trkpt lat="41.941511" lon="-87.669353">
      </trkpt>
      <trkpt lat="41.941517" lon="-87.668771">
      </trkpt>
      <trkpt lat="41.939809" lon="-87.668729">
      </trkpt>
      <trkpt lat="41.939512" lon="-87.668425">
      </trkpt>
      <trkpt lat="41.932557" lon="-87.658713">
      </trkpt>
      <trkpt lat="41.932636" lon="-87.653863">
      </trkpt>
      <trkpt lat="41.931569" lon="-87.653827">
      </trkpt>
      <trkpt lat="41.931569" lon="-87.653827">
      </trkpt>
      <trkpt lat="41.932636" lon="-87.653863">
      </trkpt>
      <trkpt lat="41.932557" lon="-87.658713">
      </trkpt>
      <trkpt lat="41.937916" lon="-87.666175">
      </trkpt>
      <trkpt lat="41.939729" lon="-87.666233">
      </trkpt>
      <trkpt lat="41.939644" lon="-87.673369">
      </trkpt>
      <trkpt lat="41.939644" lon="-87.673369">
      </trkpt>
      <trkpt lat="41.939838" lon="-87.658974">
      </trkpt>
      <trkpt lat="41.936197" lon="-87.658837">
      </trkpt>
      <trkpt lat="41.936331" lon="-87.651561">
      </trkpt>
      <trkpt lat="41.935411" lon="-87.651528">
      </trkpt>
      <trkpt lat="41.935378" lon="-87.65295">
      </trkpt>
      <trkpt lat="41.935378" lon="-87.65295">
      </trkpt>
      <trkpt lat="41.935355" lon="-87.653955">
      </trkpt>
      <trkpt lat="41.932636" lon="-87.653863">
      </trkpt>
      <trkpt lat="41.932278" lon="-87.678134">
      </trkpt>
      <trkpt lat="41.925026" lon="-87.677893">
      </trkpt>
      <trkpt lat="41.924981" lon="-87.681912">
      </trkpt>
      <trkpt lat="41.926707" lon="-87.685177">
      </trkpt>
      <trkpt lat="41.940439" lon="-87.709664">
      </trkpt>
      <trkpt lat="41.942208" lon="-87.714861">
      </trkpt>
      <trkpt lat="41.947985" lon="-87.719618">
      </trkpt>
      <trkpt lat="41.958569" lon="-87.738838">
      </trkpt>
      <trkpt lat="41.960451" lon="-87.741371">
      </trkpt>
      <trkpt lat="41.960845" lon="-87.74187">
      </trkpt>
      <trkpt lat="41.960081" lon="-87.794161">
      </trkpt>
      <trkpt lat="41.953879" lon="-87.807297">
      </trkpt>
      <trkpt lat="41.947086" lon="-87.807064">
      </trkpt>
      <trkpt lat="41.947086" lon="-87.807064">
      </trkpt>
      <trkpt lat="41.952771" lon="-87.807255">
      </trkpt>
      <trkpt lat="41.953617" lon="-87.731304">
      </trkpt>
      <trkpt lat="41.94853" lon="-87.721846">
      </trkpt>
      <trkpt lat="41.946493" lon="-87.718984">
      </trkpt>
      <trkpt lat="41.946623" lon="-87.708842">
      </trkpt>
      <trkpt lat="41.942766" lon="-87.703229">
      </trkpt>
      <trkpt lat="41.942777" lon="-87.701229">
      </trkpt>
      <trkpt lat="41.942777" lon="-87.701229">
      </trkpt>
      <trkpt lat="41.942795" lon="-87.697932">
      </trkpt>
      <trkpt lat="41.939404" lon="-87.697818">
      </trkpt>
      <trkpt lat="41.939918" lon="-87.654106">
      </trkpt>
      <trkpt lat="41.937175" lon="-87.654016">
      </trkpt>
      <trkpt lat="41.937186" lon="-87.653552">
      </trkpt>
      <trkpt lat="41.937074" lon="-87.65355">
      </trkpt>
      <trkpt lat="41.937074" lon="-87.65355">
      </trkpt>
      <trkpt lat="41.937074" lon="-87.65355">
      </trkpt>
      <trkpt lat="41.937074" lon="-87.65355">
      </trkpt>
      <trkpt lat="41.937186" lon="-87.653552">
      </trkpt>
      <trkpt lat="41.937175" lon="-87.654016">
      </trkpt>
      <trkpt lat="41.932636" lon="-87.653863">
      </trkpt>
      <trkpt lat="41.932278" lon="-87.678134">
      </trkpt>
      <trkpt lat="41.925026" lon="-87.677893">
      </trkpt>
      <trkpt lat="41.924981" lon="-87.681912">
      </trkpt>
      <trkpt lat="41.926707" lon="-87.685177">
      </trkpt>
      <trkpt lat="41.940439" lon="-87.709664">
      </trkpt>
      <trkpt lat="41.942208" lon="-87.714861">
      </trkpt>
      <trkpt lat="41.947985" lon="-87.719618">
      </trkpt>
      <trkpt lat="41.958569" lon="-87.738838">
      </trkpt>
      <trkpt lat="41.960451" lon="-87.741371">
      </trkpt>
      <trkpt lat="41.960845" lon="-87.74187">
      </trkpt>
      <trkpt lat="41.960061" lon="-87.794287">
      </trkpt>
      <trkpt lat="41.946631" lon="-87.822074">
      </trkpt>
      <trkpt lat="41.937842" lon="-87.821404">
      </trkpt>
      <trkpt lat="41.937866" lon="-87.820185">
      </trkpt>
      <trkpt lat="41.936076" lon="-87.820102">
      </trkpt>
      <trkpt lat="41.936062" lon="-87.820727">
      </trkpt>
      <trkpt lat="41.934634" lon="-87.82067">
      </trkpt>
      <trkpt lat="41.934634" lon="-87.82067">
      </trkpt>
      <trkpt lat="41.934634" lon="-87.82067">
      </trkpt>
      <trkpt lat="41.934634" lon="-87.82067">
      </trkpt>
      <trkpt lat="41.93424" lon="-87.820654">
      </trkpt>
      <trkpt lat="41.934229" lon="-87.821275">
      </trkpt>
      <trkpt lat="41.937842" lon="-87.821404">
      </trkpt>
      <trkpt lat="41.937819" lon="-87.822616">
      </trkpt>
      <trkpt lat="41.945136" lon="-87.82292">
      </trkpt>
      <trkpt lat="41.945095" lon="-87.824627">
      </trkpt>
      <trkpt lat="41.952719" lon="-87.809667">
      </trkpt>
      <trkpt lat="41.954208" lon="-87.672222">
      </trkpt>
      <trkpt lat="41.95937" lon="-87.672354">
      </trkpt>
      <trkpt lat="41.95937" lon="-87.672354">
      </trkpt>
      <trkpt lat="41.959729" lon="-87.672366">
      </trkpt>
      <trkpt lat="41.959768" lon="-87.669247">
      </trkpt>
      <trkpt lat="41.924216" lon="-87.668122">
      </trkpt>
      <trkpt lat="41.921138" lon="-87.668644">
      </trkpt>
      <trkpt lat="41.917197" lon="-87.667771">
      </trkpt>
      <trkpt lat="41.90407" lon="-87.667594">
      </trkpt>
      <trkpt lat="41.903364" lon="-87.666488">
      </trkpt>
      <trkpt lat="41.903374" lon="-87.665045">
      </trkpt>
      <trkpt lat="41.903929" lon="-87.665061">
      </trkpt>
      <trkpt lat="41.903929" lon="-87.665061">
      </trkpt>
      <trkpt lat="41.907034" lon="-87.665154">
      </trkpt>
      <trkpt lat="41.907019" lon="-87.666333">
      </trkpt>
      <trkpt lat="41.910658" lon="-87.666509">
      </trkpt>
      <trkpt lat="41.911172" lon="-87.633071">
      </trkpt>
      <trkpt lat="41.912903" lon="-87.633044">
      </trkpt>
      <trkpt lat="41.913237" lon="-87.632269">
      </trkpt>
      <trkpt lat="41.912247" lon="-87.628505">
      </trkpt>
      <trkpt lat="41.912475" lon="-87.626923">
      </trkpt>
      <trkpt lat="41.913347" lon="-87.626017">
      </trkpt>
      <trkpt lat="41.918036" lon="-87.628743">
      </trkpt>
      <trkpt lat="41.927967" lon="-87.631735">
      </trkpt>
      <trkpt lat="41.934701" lon="-87.632273">
      </trkpt>
      <trkpt lat="41.936704" lon="-87.633661">
      </trkpt>
      <trkpt lat="41.941219" lon="-87.638833">
      </trkpt>
      <trkpt lat="41.950931" lon="-87.644376">
      </trkpt>
      <trkpt lat="41.960253" lon="-87.646094">
      </trkpt>
      <trkpt lat="41.962086" lon="-87.645534">
      </trkpt>
      <trkpt lat="41.962798" lon="-87.639779">
      </trkpt>
      <trkpt lat="41.963606" lon="-87.638571">
      </trkpt>
      <trkpt lat="41.963606" lon="-87.638571">
      </trkpt>
      <trkpt lat="41.963341" lon="-87.638723">
      </trkpt>
      <trkpt lat="41.963055" lon="-87.639059">
      </trkpt>
      <trkpt lat="41.962786" lon="-87.639836">
      </trkpt>
      <trkpt lat="41.961908" lon="-87.646878">
      </trkpt>
      <trkpt lat="41.9618" lon="-87.65234">
      </trkpt>
      <trkpt lat="41.962723" lon="-87.652353">
      </trkpt>
      <trkpt lat="41.962725" lon="-87.65212">
      </trkpt>
      <trkpt lat="41.962725" lon="-87.65212">
      </trkpt>
      <trkpt lat="41.962747" lon="-87.649944">
      </trkpt>
      <trkpt lat="41.961843" lon="-87.649918">
      </trkpt>
      <trkpt lat="41.961908" lon="-87.646878">
      </trkpt>
      <trkpt lat="41.955203" lon="-87.644905">
      </trkpt>
      <trkpt lat="41.950757" lon="-87.644507">
      </trkpt>
      <trkpt lat="41.941067" lon="-87.638957">
      </trkpt>
      <trkpt lat="41.93482" lon="-87.632527">
      </trkpt>
      <trkpt lat="41.928427" lon="-87.632048">
      </trkpt>
      <trkpt lat="41.915117" lon="-87.627538">
      </trkpt>
      <trkpt lat="41.913042" lon="-87.627206">
      </trkpt>
      <trkpt lat="41.912346" lon="-87.628067">
      </trkpt>
      <trkpt lat="41.913334" lon="-87.632438">
      </trkpt>
      <trkpt lat="41.912907" lon="-87.633196">
      </trkpt>
      <trkpt lat="41.911171" lon="-87.633223">
      </trkpt>
      <trkpt lat="41.910927" lon="-87.648286">
      </trkpt>
      <trkpt lat="41.91731" lon="-87.648495">
      </trkpt>
      <trkpt lat="41.91731" lon="-87.648495">
      </trkpt>
      <trkpt lat="41.938193" lon="-87.649228">
      </trkpt>
      <trkpt lat="41.939012" lon="-87.649915">
      </trkpt>
      <trkpt lat="41.938994" lon="-87.651152">
      </trkpt>
      <trkpt lat="41.939804" lon="-87.651186">
      </trkpt>
      <trkpt lat="41.939804" lon="-87.651186">
      </trkpt>
      <trkpt lat="41.939958" lon="-87.651193">
      </trkpt>
      <trkpt lat="41.939965" lon="-87.650679">
      </trkpt>
      <trkpt lat="41.95438" lon="-87.662225">
      </trkpt>
      <trkpt lat="41.954012" lon="-87.701923">
      </trkpt>
      <trkpt lat="41.955772" lon="-87.701976">
      </trkpt>
      <trkpt lat="41.95578" lon="-87.700495">
      </trkpt>
      <trkpt lat="41.95578" lon="-87.700495">
      </trkpt>
      <trkpt lat="41.955792" lon="-87.69831">
      </trkpt>
      <trkpt lat="41.953982" lon="-87.698254">
      </trkpt>
      <trkpt lat="41.953983" lon="-87.688733">
      </trkpt>
      <trkpt lat="41.954121" lon="-87.678766">
      </trkpt>
      <trkpt lat="41.946063" lon="-87.678527">
      </trkpt>
      <trkpt lat="41.946063" lon="-87.678527">
      </trkpt>
      <trkpt lat="41.954216" lon="-87.678771">
      </trkpt>
      <trkpt lat="41.953916" lon="-87.712911">
      </trkpt>
      <trkpt lat="41.968411" lon="-87.713373">
      </trkpt>
      <trkpt lat="41.968394" lon="-87.714891">
      </trkpt>
      <trkpt lat="41.968394" lon="-87.714891">
      </trkpt>
      <trkpt lat="41.969172" lon="-87.649644">
      </trkpt>
      <trkpt lat="41.965847" lon="-87.648701">
      </trkpt>
      <trkpt lat="41.965847" lon="-87.648701">
      </trkpt>
      <trkpt lat="41.965499" lon="-87.648611">
      </trkpt>
      <trkpt lat="41.965571" lon="-87.647973">
      </trkpt>
      <trkpt lat="41.963721" lon="-87.646868">
      </trkpt>
      <trkpt lat="41.950757" lon="-87.644507">
      </trkpt>
      <trkpt lat="41.941067" lon="-87.638957">
      </trkpt>
      <trkpt lat="41.936608" lon="-87.633807">
      </trkpt>
      <trkpt lat="41.934639" lon="-87.632453">
      </trkpt>
      <trkpt lat="41.928427" lon="-87.632048">
      </trkpt>
      <trkpt lat="41.915117" lon="-87.627538">
      </trkpt>
      <trkpt lat="41.913042" lon="-87.627206">
      </trkpt>
      <trkpt lat="41.912346" lon="-87.628067">
      </trkpt>
      <trkpt lat="41.913334" lon="-87.632438">
      </trkpt>
      <trkpt lat="41.912907" lon="-87.633196">
      </trkpt>
      <trkpt lat="41.911171" lon="-87.633223">
      </trkpt>
      <trkpt lat="41.910927" lon="-87.648286">
      </trkpt>
      <trkpt lat="41.91731" lon="-87.648495">
      </trkpt>
      <trkpt lat="41.91731" lon="-87.648495">
      </trkpt>
      <trkpt lat="41.91731" lon="-87.648495">
      </trkpt>
      <trkpt lat="41.91731" lon="-87.648495">
      </trkpt>
      <trkpt lat="41.925453" lon="-87.648766">
      </trkpt>
      <trkpt lat="41.936111" lon="-87.663682">
      </trkpt>
      <trkpt lat="41.938211" lon="-87.663758">
      </trkpt>
      <trkpt lat="41.938211" lon="-87.663758">
      </trkpt>
      <trkpt lat="41.938211" lon="-87.663758">
      </trkpt>
      <trkpt lat="41.938211" lon="-87.663758">
      </trkpt>
      <trkpt lat="41.93521" lon="-87.663649">
      </trkpt>
      <trkpt lat="41.935144" lon="-87.668549">
      </trkpt>
      <trkpt lat="41.921563" lon="-87.668616">
      </trkpt>
      <trkpt lat="41.921395" lon="-87.677255">
      </trkpt>
      <trkpt lat="41.916815" lon="-87.669405">
      </trkpt>
      <trkpt lat="41.909975" lon="-87.664752">
      </trkpt>
      <trkpt lat="41.90696" lon="-87.661748">
      </trkpt>
      <trkpt lat="41.901587" lon="-87.661131">
      </trkpt>
      <trkpt lat="41.897534" lon="-87.659383">
      </trkpt>
      <trkpt lat="41.89442" lon="-87.657463">
      </trkpt>
      <trkpt lat="41.894312" lon="-87.663988">
      </trkpt>
      <trkpt lat="41.895209" lon="-87.664011">
      </trkpt>
      <trkpt lat="41.895231" lon="-87.662558">
      </trkpt>
      <trkpt lat="41.895231" lon="-87.662558">
      </trkpt>
      <trkpt lat="41.895233" lon="-87.662372">
      </trkpt>
      <trkpt lat="41.896146" lon="-87.662395">
      </trkpt>
      <trkpt lat="41.896248" lon="-87.655926">
      </trkpt>
      <trkpt lat="41.895215" lon="-87.655629">
      </trkpt>
      <trkpt lat="41.89501" lon="-87.655808">
      </trkpt>
      <trkpt lat="41.89596" lon="-87.657675">
      </trkpt>
      <trkpt lat="41.898217" lon="-87.65932">
      </trkpt>
      <trkpt lat="41.901753" lon="-87.660805">
      </trkpt>
      <trkpt lat="41.906799" lon="-87.661253">
      </trkpt>
      <trkpt lat="41.910145" lon="-87.664439">
      </trkpt>
      <trkpt lat="41.917096" lon="-87.669227">
      </trkpt>
      <trkpt lat="41.937344" lon="-87.704001">
      </trkpt>
      <trkpt lat="41.939332" lon="-87.707163">
      </trkpt>
      <trkpt lat="41.939599" lon="-87.707595">
      </trkpt>
      <trkpt lat="41.95211" lon="-87.707967">
      </trkpt>
      <trkpt lat="41.952129" lon="-87.704297">
      </trkpt>
      <trkpt lat="41.950433" lon="-87.70425">
      </trkpt>
    </trkseg>
  </trk>
</gpx>