<?xml version="1.0" encoding="UTF-8"?>
<gpx xmlns="http://www.topografix.com/GPX/1/1" xmlns:xsi="http://www.w3.org/2001/XMLSchema-instance" xsi:schemaLocation="http://www.topografix.com/GPX/1/1 http://www.topografix.com/GPX/1/1/gpx.xsd" version="1.1" creator="gpx.py -- https://github.com/tkrajina/gpxpy">
  <trk>
    <trkseg>
      <trkpt lat="41.90052" lon="-87.67412">
      </trkpt>
      <trkpt lat="41.899597" lon="-87.674089">
      </trkpt>
      <trkpt lat="41.89908" lon="-87.720092">
      </trkpt>
      <trkpt lat="41.902469" lon="-87.720195">
      </trkpt>
      <trkpt lat="41.902469" lon="-87.720195">
      </trkpt>
      <trkpt lat="41.902727" lon="-87.720203">
      </trkpt>
      <trkpt lat="41.902764" lon="-87.716574">
      </trkpt>
      <trkpt lat="41.904574" lon="-87.716622">
      </trkpt>
      <trkpt lat="41.90458" lon="-87.715988">
      </trkpt>
      <trkpt lat="41.905353" lon="-87.716651">
      </trkpt>
      <trkpt lat="41.931929" lon="-87.717188">
      </trkpt>
      <trkpt lat="41.931892" lon="-87.719631">
      </trkpt>
      <trkpt lat="41.931377" lon="-87.719618">
      </trkpt>
      <trkpt lat="41.931377" lon="-87.719618">
      </trkpt>
      <trkpt lat="41.93007" lon="-87.719583">
      </trkpt>
      <trkpt lat="41.930057" lon="-87.720801">
      </trkpt>
      <trkpt lat="41.931876" lon="-87.720852">
      </trkpt>
      <trkpt lat="41.931929" lon="-87.717188">
      </trkpt>
      <trkpt lat="41.939221" lon="-87.717392">
      </trkpt>
      <trkpt lat="41.939288" lon="-87.712487">
      </trkpt>
      <trkpt lat="41.941642" lon="-87.712571">
      </trkpt>
      <trkpt lat="41.943044" lon="-87.715981">
      </trkpt>
      <trkpt lat="41.947985" lon="-87.719618">
      </trkpt>
      <trkpt lat="41.960998" lon="-87.742619">
      </trkpt>
      <trkpt lat="41.965012" lon="-87.746732">
      </trkpt>
      <trkpt lat="41.980044" lon="-87.746614">
      </trkpt>
      <trkpt lat="41.987222" lon="-87.751348">
      </trkpt>
      <trkpt lat="42.006167" lon="-87.748589">
      </trkpt>
      <trkpt lat="42.010101" lon="-87.748003">
      </trkpt>
      <trkpt lat="42.011715" lon="-87.747943">
      </trkpt>
      <trkpt lat="42.012621" lon="-87.682444">
      </trkpt>
      <trkpt lat="42.012606" lon="-87.676853">
      </trkpt>
      <trkpt lat="42.012606" lon="-87.676853">
      </trkpt>
      <trkpt lat="42.012511" lon="-87.682294">
      </trkpt>
      <trkpt lat="42.012621" lon="-87.682444">
      </trkpt>
      <trkpt lat="42.012318" lon="-87.683076">
      </trkpt>
      <trkpt lat="42.015152" lon="-87.684067">
      </trkpt>
      <trkpt lat="42.015501" lon="-87.684163">
      </trkpt>
      <trkpt lat="42.016504" lon="-87.684283">
      </trkpt>
      <trkpt lat="42.016485" lon="-87.683008">
      </trkpt>
      <trkpt lat="42.017138" lon="-87.683005">
      </trkpt>
      <trkpt lat="42.017138" lon="-87.683005">
      </trkpt>
      <trkpt lat="42.016485" lon="-87.683008">
      </trkpt>
      <trkpt lat="42.016504" lon="-87.684283">
      </trkpt>
      <trkpt lat="42.012318" lon="-87.683076">
      </trkpt>
      <trkpt lat="42.012287" lon="-87.69024">
      </trkpt>
      <trkpt lat="41.955627" lon="-87.688512">
      </trkpt>
      <trkpt lat="41.954086" lon="-87.688469">
      </trkpt>
      <trkpt lat="41.954012" lon="-87.701923">
      </trkpt>
      <trkpt lat="41.955614" lon="-87.701972">
      </trkpt>
      <trkpt lat="41.955614" lon="-87.701972">
      </trkpt>
      <trkpt lat="41.955772" lon="-87.701976">
      </trkpt>
      <trkpt lat="41.955778" lon="-87.70075">
      </trkpt>
      <trkpt lat="41.954" lon="-87.700702">
      </trkpt>
      <trkpt lat="41.953965" lon="-87.709947">
      </trkpt>
      <trkpt lat="41.953965" lon="-87.709947">
      </trkpt>
      <trkpt lat="41.953958" lon="-87.710466">
      </trkpt>
      <trkpt lat="41.953985" lon="-87.688469">
      </trkpt>
      <trkpt lat="42.012287" lon="-87.69024">
      </trkpt>
      <trkpt lat="42.012258" lon="-87.687558">
      </trkpt>
      <trkpt lat="42.012506" lon="-87.687554">
      </trkpt>
      <trkpt lat="42.012506" lon="-87.687554">
      </trkpt>
      <trkpt lat="42.014079" lon="-87.687532">
      </trkpt>
      <trkpt lat="42.014108" lon="-87.690224">
      </trkpt>
      <trkpt lat="42.015915" lon="-87.690208">
      </trkpt>
      <trkpt lat="42.015808" lon="-87.694779">
      </trkpt>
      <trkpt lat="42.015808" lon="-87.694779">
      </trkpt>
      <trkpt lat="42.015915" lon="-87.690208">
      </trkpt>
      <trkpt lat="41.990567" lon="-87.689674">
      </trkpt>
      <trkpt lat="41.990509" lon="-87.689876">
      </trkpt>
      <trkpt lat="41.990752" lon="-87.67223">
      </trkpt>
      <trkpt lat="41.985105" lon="-87.662456">
      </trkpt>
      <trkpt lat="41.984999" lon="-87.653157">
      </trkpt>
      <trkpt lat="41.972134" lon="-87.648822">
      </trkpt>
      <trkpt lat="41.951193" lon="-87.64469">
      </trkpt>
      <trkpt lat="41.941067" lon="-87.638957">
      </trkpt>
      <trkpt lat="41.93482" lon="-87.632527">
      </trkpt>
      <trkpt lat="41.928427" lon="-87.632048">
      </trkpt>
      <trkpt lat="41.904908" lon="-87.624861">
      </trkpt>
      <trkpt lat="41.901978" lon="-87.624179">
      </trkpt>
      <trkpt lat="41.897581" lon="-87.624226">
      </trkpt>
      <trkpt lat="41.897599" lon="-87.623421">
      </trkpt>
      <trkpt lat="41.897599" lon="-87.623421">
      </trkpt>
      <trkpt lat="41.897618" lon="-87.621852">
      </trkpt>
      <trkpt lat="41.896766" lon="-87.621834">
      </trkpt>
      <trkpt lat="41.896737" lon="-87.624345">
      </trkpt>
      <trkpt lat="41.896443" lon="-87.624388">
      </trkpt>
      <trkpt lat="41.895747" lon="-87.624376">
      </trkpt>
      <trkpt lat="41.895768" lon="-87.622402">
      </trkpt>
      <trkpt lat="41.895768" lon="-87.622402">
      </trkpt>
      <trkpt lat="41.895808" lon="-87.620354">
      </trkpt>
      <trkpt lat="41.891803" lon="-87.620235">
      </trkpt>
      <trkpt lat="41.891506" lon="-87.639878">
      </trkpt>
      <trkpt lat="41.891239" lon="-87.643004">
      </trkpt>
      <trkpt lat="41.891179" lon="-87.648776">
      </trkpt>
      <trkpt lat="41.889662" lon="-87.648752">
      </trkpt>
      <trkpt lat="41.889662" lon="-87.648752">
      </trkpt>
      <trkpt lat="41.889017" lon="-87.648718">
      </trkpt>
      <trkpt lat="41.889054" lon="-87.644337">
      </trkpt>
      <trkpt lat="41.884425" lon="-87.644184">
      </trkpt>
      <trkpt lat="41.884406" lon="-87.646033">
      </trkpt>
      <trkpt lat="41.884406" lon="-87.646033">
      </trkpt>
      <trkpt lat="41.884415" lon="-87.647438">
      </trkpt>
      <trkpt lat="41.885665" lon="-87.647482">
      </trkpt>
      <trkpt lat="41.885682" lon="-87.646258">
      </trkpt>
      <trkpt lat="41.881827" lon="-87.645999">
      </trkpt>
      <trkpt lat="41.880956" lon="-87.646134">
      </trkpt>
      <trkpt lat="41.879569" lon="-87.646145">
      </trkpt>
      <trkpt lat="41.878121" lon="-87.646166">
      </trkpt>
      <trkpt lat="41.876334" lon="-87.646815">
      </trkpt>
      <trkpt lat="41.875728" lon="-87.649135">
      </trkpt>
      <trkpt lat="41.876197" lon="-87.657603">
      </trkpt>
      <trkpt lat="41.875633" lon="-87.697949">
      </trkpt>
      <trkpt lat="41.874284" lon="-87.70915">
      </trkpt>
      <trkpt lat="41.873967" lon="-87.732948">
      </trkpt>
      <trkpt lat="41.87185" lon="-87.740938">
      </trkpt>
      <trkpt lat="41.871025" lon="-87.76928">
      </trkpt>
      <trkpt lat="41.873251" lon="-87.799298">
      </trkpt>
      <trkpt lat="41.87368" lon="-87.804441">
      </trkpt>
      <trkpt lat="41.934519" lon="-87.806613">
      </trkpt>
      <trkpt lat="41.93424" lon="-87.820654">
      </trkpt>
      <trkpt lat="41.934634" lon="-87.82067">
      </trkpt>
      <trkpt lat="41.934634" lon="-87.82067">
      </trkpt>
      <trkpt lat="41.93424" lon="-87.820654">
      </trkpt>
      <trkpt lat="41.934421" lon="-87.81151">
      </trkpt>
      <trkpt lat="41.924776" lon="-87.811185">
      </trkpt>
      <trkpt lat="41.923552" lon="-87.803157">
      </trkpt>
      <trkpt lat="41.92364" lon="-87.789403">
      </trkpt>
      <trkpt lat="41.924878" lon="-87.690086">
      </trkpt>
      <trkpt lat="41.925214" lon="-87.690094">
      </trkpt>
      <trkpt lat="41.925214" lon="-87.690094">
      </trkpt>
      <trkpt lat="41.926696" lon="-87.690149">
      </trkpt>
      <trkpt lat="41.926718" lon="-87.687704">
      </trkpt>
      <trkpt lat="41.917587" lon="-87.687413">
      </trkpt>
      <trkpt lat="41.917431" lon="-87.703944">
      </trkpt>
      <trkpt lat="41.915416" lon="-87.703892">
      </trkpt>
      <trkpt lat="41.915416" lon="-87.703892">
      </trkpt>
      <trkpt lat="41.913751" lon="-87.703857">
      </trkpt>
      <trkpt lat="41.913772" lon="-87.70233">
      </trkpt>
      <trkpt lat="41.912" lon="-87.702283">
      </trkpt>
      <trkpt lat="41.912147" lon="-87.701932">
      </trkpt>
      <trkpt lat="41.925969" lon="-87.702347">
      </trkpt>
      <trkpt lat="41.925445" lon="-87.701488">
      </trkpt>
      <trkpt lat="41.925798" lon="-87.70114">
      </trkpt>
      <trkpt lat="41.925798" lon="-87.70114">
      </trkpt>
      <trkpt lat="41.928437" lon="-87.701194">
      </trkpt>
      <trkpt lat="41.928471" lon="-87.697517">
      </trkpt>
      <trkpt lat="41.956867" lon="-87.698335">
      </trkpt>
      <trkpt lat="41.956867" lon="-87.698335">
      </trkpt>
      <trkpt lat="41.941887" lon="-87.697902">
      </trkpt>
      <trkpt lat="41.941872" lon="-87.700544">
      </trkpt>
      <trkpt lat="41.941084" lon="-87.701556">
      </trkpt>
      <trkpt lat="41.941075" lon="-87.702765">
      </trkpt>
      <trkpt lat="41.915629" lon="-87.702035">
      </trkpt>
      <trkpt lat="41.915625" lon="-87.702385">
      </trkpt>
      <trkpt lat="41.914235" lon="-87.702344">
      </trkpt>
      <trkpt lat="41.914235" lon="-87.702344">
      </trkpt>
      <trkpt lat="41.912" lon="-87.702283">
      </trkpt>
      <trkpt lat="41.912147" lon="-87.701932">
      </trkpt>
      <trkpt lat="41.909559" lon="-87.701837">
      </trkpt>
      <trkpt lat="41.908237" lon="-87.701353">
      </trkpt>
      <trkpt lat="41.907279" lon="-87.701248">
      </trkpt>
      <trkpt lat="41.902886" lon="-87.702278">
      </trkpt>
      <trkpt lat="41.903226" lon="-87.674833">
      </trkpt>
      <trkpt lat="41.901404" lon="-87.674763">
      </trkpt>
      <trkpt lat="41.901415" lon="-87.67415">
      </trkpt>
      <trkpt lat="41.90052" lon="-87.67412">
      </trkpt>
      <trkpt lat="41.90052" lon="-87.67412">
      </trkpt>
      <trkpt lat="41.901415" lon="-87.67415">
      </trkpt>
      <trkpt lat="41.901426" lon="-87.673548">
      </trkpt>
      <trkpt lat="41.903247" lon="-87.673606">
      </trkpt>
      <trkpt lat="41.903351" lon="-87.667439">
      </trkpt>
      <trkpt lat="41.916129" lon="-87.66782">
      </trkpt>
      <trkpt lat="41.917067" lon="-87.663815">
      </trkpt>
      <trkpt lat="41.917264" lon="-87.658201">
      </trkpt>
      <trkpt lat="41.925291" lon="-87.658464">
      </trkpt>
      <trkpt lat="41.925453" lon="-87.648766">
      </trkpt>
      <trkpt lat="41.929091" lon="-87.648892">
      </trkpt>
      <trkpt lat="41.929095" lon="-87.647955">
      </trkpt>
      <trkpt lat="41.929095" lon="-87.647955">
      </trkpt>
      <trkpt lat="41.929091" lon="-87.648892">
      </trkpt>
      <trkpt lat="41.925453" lon="-87.648766">
      </trkpt>
      <trkpt lat="41.925291" lon="-87.658464">
      </trkpt>
      <trkpt lat="41.917264" lon="-87.658201">
      </trkpt>
      <trkpt lat="41.917139" lon="-87.658378">
      </trkpt>
      <trkpt lat="41.917067" lon="-87.663815">
      </trkpt>
      <trkpt lat="41.916455" lon="-87.666413">
      </trkpt>
      <trkpt lat="41.911013" lon="-87.662368">
      </trkpt>
      <trkpt lat="41.908679" lon="-87.660908">
      </trkpt>
      <trkpt lat="41.908679" lon="-87.660908">
      </trkpt>
      <trkpt lat="41.910715" lon="-87.66216">
      </trkpt>
      <trkpt lat="41.910674" lon="-87.664445">
      </trkpt>
      <trkpt lat="41.915886" lon="-87.668091">
      </trkpt>
      <trkpt lat="41.91815" lon="-87.670574">
      </trkpt>
      <trkpt lat="41.937344" lon="-87.704001">
      </trkpt>
      <trkpt lat="41.939132" lon="-87.706803">
      </trkpt>
      <trkpt lat="41.93884" lon="-87.746879">
      </trkpt>
      <trkpt lat="41.931542" lon="-87.746595">
      </trkpt>
      <trkpt lat="41.93147" lon="-87.751741">
      </trkpt>
      <trkpt lat="41.93147" lon="-87.751741">
      </trkpt>
      <trkpt lat="41.932116" lon="-87.696547">
      </trkpt>
      <trkpt lat="41.919706" lon="-87.673831">
      </trkpt>
      <trkpt lat="41.918264" lon="-87.671882">
      </trkpt>
      <trkpt lat="41.918151" lon="-87.671723">
      </trkpt>
      <trkpt lat="41.91793" lon="-87.667505">
      </trkpt>
      <trkpt lat="41.916455" lon="-87.666413">
      </trkpt>
      <trkpt lat="41.917067" lon="-87.663815">
      </trkpt>
      <trkpt lat="41.917139" lon="-87.658378">
      </trkpt>
      <trkpt lat="41.918041" lon="-87.658214">
      </trkpt>
      <trkpt lat="41.918178" lon="-87.648523">
      </trkpt>
      <trkpt lat="41.91731" lon="-87.648495">
      </trkpt>
      <trkpt lat="41.91731" lon="-87.648495">
      </trkpt>
      <trkpt lat="41.925453" lon="-87.648766">
      </trkpt>
      <trkpt lat="41.932557" lon="-87.658713">
      </trkpt>
      <trkpt lat="41.932567" lon="-87.65822">
      </trkpt>
      <trkpt lat="41.932567" lon="-87.65822">
      </trkpt>
      <trkpt lat="41.932728" lon="-87.649013">
      </trkpt>
      <trkpt lat="41.939973" lon="-87.649275">
      </trkpt>
      <trkpt lat="41.940568" lon="-87.638088">
      </trkpt>
      <trkpt lat="41.951253" lon="-87.644496">
      </trkpt>
      <trkpt lat="41.954749" lon="-87.644596">
      </trkpt>
      <trkpt lat="41.973046" lon="-87.648738">
      </trkpt>
      <trkpt lat="41.981039" lon="-87.652251">
      </trkpt>
      <trkpt lat="41.984951" lon="-87.652803">
      </trkpt>
      <trkpt lat="41.985586" lon="-87.654178">
      </trkpt>
      <trkpt lat="41.985105" lon="-87.662456">
      </trkpt>
      <trkpt lat="41.987189" lon="-87.665884">
      </trkpt>
      <trkpt lat="41.987146" lon="-87.669585">
      </trkpt>
      <trkpt lat="41.988054" lon="-87.669707">
      </trkpt>
      <trkpt lat="41.987608" lon="-87.669796">
      </trkpt>
      <trkpt lat="41.987519" lon="-87.669769">
      </trkpt>
      <trkpt lat="41.987519" lon="-87.669769">
      </trkpt>
      <trkpt lat="41.987519" lon="-87.669769">
      </trkpt>
      <trkpt lat="41.987519" lon="-87.669769">
      </trkpt>
      <trkpt lat="41.983497" lon="-87.668766">
      </trkpt>
      <trkpt lat="41.983198" lon="-87.679477">
      </trkpt>
      <trkpt lat="41.982043" lon="-87.679565">
      </trkpt>
      <trkpt lat="41.977735" lon="-87.688432">
      </trkpt>
      <trkpt lat="41.977715" lon="-87.68922">
      </trkpt>
      <trkpt lat="41.975899" lon="-87.689151">
      </trkpt>
      <trkpt lat="41.975749" lon="-87.708696">
      </trkpt>
      <trkpt lat="41.968457" lon="-87.708478">
      </trkpt>
      <trkpt lat="41.968411" lon="-87.713373">
      </trkpt>
      <trkpt lat="41.96472" lon="-87.713255">
      </trkpt>
      <trkpt lat="41.964757" lon="-87.713874">
      </trkpt>
      <trkpt lat="41.964757" lon="-87.713874">
      </trkpt>
      <trkpt lat="41.96472" lon="-87.713255">
      </trkpt>
      <trkpt lat="41.940478" lon="-87.712526">
      </trkpt>
      <trkpt lat="41.939977" lon="-87.709442">
      </trkpt>
      <trkpt lat="41.927358" lon="-87.687291">
      </trkpt>
      <trkpt lat="41.925223" lon="-87.684125">
      </trkpt>
      <trkpt lat="41.924902" lon="-87.687645">
      </trkpt>
      <trkpt lat="41.917587" lon="-87.687413">
      </trkpt>
      <trkpt lat="41.917536" lon="-87.692301">
      </trkpt>
      <trkpt lat="41.917031" lon="-87.692287">
      </trkpt>
      <trkpt lat="41.917031" lon="-87.692287">
      </trkpt>
      <trkpt lat="41.917536" lon="-87.692301">
      </trkpt>
      <trkpt lat="41.917587" lon="-87.687413">
      </trkpt>
      <trkpt lat="41.990567" lon="-87.689674">
      </trkpt>
      <trkpt lat="41.990487" lon="-87.693324">
      </trkpt>
      <trkpt lat="41.993372" lon="-87.693415">
      </trkpt>
      <trkpt lat="41.993372" lon="-87.693415">
      </trkpt>
      <trkpt lat="41.994056" lon="-87.693436">
      </trkpt>
      <trkpt lat="41.994043" lon="-87.694651">
      </trkpt>
      <trkpt lat="41.990481" lon="-87.694534">
      </trkpt>
      <trkpt lat="41.990388" lon="-87.70943">
      </trkpt>
      <trkpt lat="41.990388" lon="-87.70943">
      </trkpt>
      <trkpt lat="41.99039" lon="-87.707391">
      </trkpt>
      <trkpt lat="41.981813" lon="-87.693072">
      </trkpt>
      <trkpt lat="41.975877" lon="-87.692352">
      </trkpt>
      <trkpt lat="41.976173" lon="-87.66966">
      </trkpt>
      <trkpt lat="41.961591" lon="-87.669293">
      </trkpt>
      <trkpt lat="41.961638" lon="-87.665949">
      </trkpt>
      <trkpt lat="41.957755" lon="-87.664338">
      </trkpt>
      <trkpt lat="41.950599" lon="-87.659238">
      </trkpt>
      <trkpt lat="41.944409" lon="-87.659098">
      </trkpt>
      <trkpt lat="41.944451" lon="-87.656319">
      </trkpt>
      <trkpt lat="41.944451" lon="-87.656319">
      </trkpt>
      <trkpt lat="41.944458" lon="-87.654273">
      </trkpt>
      <trkpt lat="41.939918" lon="-87.654106">
      </trkpt>
      <trkpt lat="41.939729" lon="-87.666233">
      </trkpt>
      <trkpt lat="41.937916" lon="-87.666175">
      </trkpt>
      <trkpt lat="41.93788" lon="-87.668655">
      </trkpt>
      <trkpt lat="41.901054" lon="-87.667495">
      </trkpt>
      <trkpt lat="41.901009" lon="-87.669888">
      </trkpt>
      <trkpt lat="41.900367" lon="-87.669869">
      </trkpt>
      <trkpt lat="41.900367" lon="-87.669869">
      </trkpt>
      <trkpt lat="41.90331" lon="-87.669955">
      </trkpt>
      <trkpt lat="41.903351" lon="-87.667439">
      </trkpt>
      <trkpt lat="41.916129" lon="-87.66782">
      </trkpt>
      <trkpt lat="41.917067" lon="-87.663815">
      </trkpt>
      <trkpt lat="41.917114" lon="-87.66003">
      </trkpt>
      <trkpt lat="41.919363" lon="-87.663134">
      </trkpt>
      <trkpt lat="41.936111" lon="-87.663682">
      </trkpt>
      <trkpt lat="41.935776" lon="-87.663209">
      </trkpt>
      <trkpt lat="41.935776" lon="-87.663209">
      </trkpt>
      <trkpt lat="41.932557" lon="-87.658713">
      </trkpt>
      <trkpt lat="41.932636" lon="-87.653863">
      </trkpt>
      <trkpt lat="41.931569" lon="-87.653827">
      </trkpt>
      <trkpt lat="41.931569" lon="-87.653827">
      </trkpt>
      <trkpt lat="41.925374" lon="-87.653601">
      </trkpt>
      <trkpt lat="41.924902" lon="-87.687645">
      </trkpt>
      <trkpt lat="41.917587" lon="-87.687413">
      </trkpt>
      <trkpt lat="41.917431" lon="-87.703944">
      </trkpt>
      <trkpt lat="41.915416" lon="-87.703892">
      </trkpt>
      <trkpt lat="41.915416" lon="-87.703892">
      </trkpt>
      <trkpt lat="41.913751" lon="-87.703857">
      </trkpt>
      <trkpt lat="41.913772" lon="-87.70233">
      </trkpt>
      <trkpt lat="41.912" lon="-87.702283">
      </trkpt>
      <trkpt lat="41.912147" lon="-87.701932">
      </trkpt>
      <trkpt lat="41.91745" lon="-87.702101">
      </trkpt>
      <trkpt lat="41.917413" lon="-87.705789">
      </trkpt>
      <trkpt lat="41.917413" lon="-87.705789">
      </trkpt>
      <trkpt lat="41.91793" lon="-87.667505">
      </trkpt>
      <trkpt lat="41.916455" lon="-87.666413">
      </trkpt>
      <trkpt lat="41.917067" lon="-87.663815">
      </trkpt>
      <trkpt lat="41.917139" lon="-87.658378">
      </trkpt>
      <trkpt lat="41.918041" lon="-87.658214">
      </trkpt>
      <trkpt lat="41.918472" lon="-87.636131">
      </trkpt>
      <trkpt lat="41.918564" lon="-87.636142">
      </trkpt>
      <trkpt lat="41.919706" lon="-87.636391">
      </trkpt>
      <trkpt lat="41.919706" lon="-87.636391">
      </trkpt>
      <trkpt lat="41.918803" lon="-87.636415">
      </trkpt>
      <trkpt lat="41.918472" lon="-87.636131">
      </trkpt>
      <trkpt lat="41.918356" lon="-87.636542">
      </trkpt>
      <trkpt lat="41.918178" lon="-87.648523">
      </trkpt>
      <trkpt lat="41.91731" lon="-87.648495">
      </trkpt>
      <trkpt lat="41.91731" lon="-87.648495">
      </trkpt>
      <trkpt lat="41.925453" lon="-87.648766">
      </trkpt>
      <trkpt lat="41.932557" lon="-87.658713">
      </trkpt>
      <trkpt lat="41.944409" lon="-87.659098">
      </trkpt>
      <trkpt lat="41.944451" lon="-87.656319">
      </trkpt>
      <trkpt lat="41.944451" lon="-87.656319">
      </trkpt>
      <trkpt lat="41.944458" lon="-87.654273">
      </trkpt>
      <trkpt lat="41.943561" lon="-87.654224">
      </trkpt>
      <trkpt lat="41.94349" lon="-87.659073">
      </trkpt>
      <trkpt lat="41.941664" lon="-87.659024">
      </trkpt>
      <trkpt lat="41.941681" lon="-87.657794">
      </trkpt>
      <trkpt lat="41.940121" lon="-87.657753">
      </trkpt>
      <trkpt lat="41.940121" lon="-87.657753">
      </trkpt>
      <trkpt lat="41.939858" lon="-87.657746">
      </trkpt>
      <trkpt lat="41.939838" lon="-87.658974">
      </trkpt>
      <trkpt lat="41.932557" lon="-87.658713">
      </trkpt>
      <trkpt lat="41.932567" lon="-87.65822">
      </trkpt>
      <trkpt lat="41.932567" lon="-87.65822">
      </trkpt>
      <trkpt lat="41.932557" lon="-87.658713">
      </trkpt>
      <trkpt lat="41.925453" lon="-87.648766">
      </trkpt>
      <trkpt lat="41.91731" lon="-87.648495">
      </trkpt>
      <trkpt lat="41.91731" lon="-87.648495">
      </trkpt>
      <trkpt lat="41.925453" lon="-87.648766">
      </trkpt>
      <trkpt lat="41.925491" lon="-87.646336">
      </trkpt>
      <trkpt lat="41.9273" lon="-87.646397">
      </trkpt>
      <trkpt lat="41.927332" lon="-87.644025">
      </trkpt>
      <trkpt lat="41.927063" lon="-87.644015">
      </trkpt>
      <trkpt lat="41.927063" lon="-87.644015">
      </trkpt>
      <trkpt lat="41.925527" lon="-87.643933">
      </trkpt>
      <trkpt lat="41.924902" lon="-87.687645">
      </trkpt>
      <trkpt lat="41.917587" lon="-87.687413">
      </trkpt>
      <trkpt lat="41.91745" lon="-87.702101">
      </trkpt>
      <trkpt lat="41.915629" lon="-87.702035">
      </trkpt>
      <trkpt lat="41.915612" lon="-87.703717">
      </trkpt>
      <trkpt lat="41.915612" lon="-87.703717">
      </trkpt>
      <trkpt lat="41.915578" lon="-87.706867">
      </trkpt>
      <trkpt lat="41.917401" lon="-87.706934">
      </trkpt>
      <trkpt lat="41.917096" lon="-87.732665">
      </trkpt>
      <trkpt lat="41.922586" lon="-87.732832">
      </trkpt>
      <trkpt lat="41.922606" lon="-87.731192">
      </trkpt>
      <trkpt lat="41.922606" lon="-87.731192">
      </trkpt>
      <trkpt lat="41.922615" lon="-87.730387">
      </trkpt>
      <trkpt lat="41.924449" lon="-87.730442">
      </trkpt>
      <trkpt lat="41.923827" lon="-87.775719">
      </trkpt>
      <trkpt lat="41.931151" lon="-87.775966">
      </trkpt>
      <trkpt lat="41.930831" lon="-87.806486">
      </trkpt>
      <trkpt lat="41.934519" lon="-87.806613">
      </trkpt>
      <trkpt lat="41.93424" lon="-87.820654">
      </trkpt>
      <trkpt lat="41.934634" lon="-87.82067">
      </trkpt>
      <trkpt lat="41.934634" lon="-87.82067">
      </trkpt>
      <trkpt lat="41.93424" lon="-87.820654">
      </trkpt>
      <trkpt lat="41.934229" lon="-87.821275">
      </trkpt>
      <trkpt lat="41.937842" lon="-87.821404">
      </trkpt>
      <trkpt lat="41.937819" lon="-87.822616">
      </trkpt>
      <trkpt lat="41.945136" lon="-87.82292">
      </trkpt>
      <trkpt lat="41.945095" lon="-87.824627">
      </trkpt>
      <trkpt lat="41.960061" lon="-87.794287">
      </trkpt>
      <trkpt lat="41.960724" lon="-87.747538">
      </trkpt>
      <trkpt lat="41.962975" lon="-87.746911">
      </trkpt>
      <trkpt lat="41.96438" lon="-87.747627">
      </trkpt>
      <trkpt lat="41.964394" lon="-87.745977">
      </trkpt>
      <trkpt lat="41.96725" lon="-87.747015">
      </trkpt>
      <trkpt lat="41.972024" lon="-87.747318">
      </trkpt>
      <trkpt lat="41.980044" lon="-87.746614">
      </trkpt>
      <trkpt lat="41.987222" lon="-87.751348">
      </trkpt>
      <trkpt lat="41.989907" lon="-87.75017">
      </trkpt>
      <trkpt lat="41.990752" lon="-87.67223">
      </trkpt>
      <trkpt lat="41.987189" lon="-87.665884">
      </trkpt>
      <trkpt lat="41.987188" lon="-87.665961">
      </trkpt>
      <trkpt lat="41.987188" lon="-87.665961">
      </trkpt>
      <trkpt lat="41.987146" lon="-87.669585">
      </trkpt>
      <trkpt lat="41.988904" lon="-87.669817">
      </trkpt>
      <trkpt lat="41.9908" lon="-87.669967">
      </trkpt>
      <trkpt lat="41.9909" lon="-87.662727">
      </trkpt>
      <trkpt lat="41.989969" lon="-87.662692">
      </trkpt>
      <trkpt lat="41.989936" lon="-87.665002">
      </trkpt>
      <trkpt lat="41.989936" lon="-87.665002">
      </trkpt>
      <trkpt lat="41.989919" lon="-87.669914">
      </trkpt>
      <trkpt lat="41.99639" lon="-87.670138">
      </trkpt>
      <trkpt lat="41.998633" lon="-87.670719">
      </trkpt>
      <trkpt lat="41.999512" lon="-87.670426">
      </trkpt>
      <trkpt lat="42.004146" lon="-87.670564">
      </trkpt>
      <trkpt lat="42.004146" lon="-87.670564">
      </trkpt>
      <trkpt lat="42.001724" lon="-87.67049">
      </trkpt>
      <trkpt lat="42.001778" lon="-87.666857">
      </trkpt>
      <trkpt lat="41.999959" lon="-87.666801">
      </trkpt>
      <trkpt lat="41.999957" lon="-87.667137">
      </trkpt>
      <trkpt lat="41.999957" lon="-87.667137">
      </trkpt>
      <trkpt lat="41.999939" lon="-87.66922">
      </trkpt>
      <trkpt lat="41.998103" lon="-87.669168">
      </trkpt>
      <trkpt lat="41.998011" lon="-87.655748">
      </trkpt>
      <trkpt lat="41.985556" lon="-87.655253">
      </trkpt>
      <trkpt lat="41.984999" lon="-87.653157">
      </trkpt>
      <trkpt lat="41.981232" lon="-87.652706">
      </trkpt>
      <trkpt lat="41.972134" lon="-87.648822">
      </trkpt>
      <trkpt lat="41.955203" lon="-87.644905">
      </trkpt>
      <trkpt lat="41.951193" lon="-87.64469">
      </trkpt>
      <trkpt lat="41.942042" lon="-87.639566">
      </trkpt>
      <trkpt lat="41.940268" lon="-87.638796">
      </trkpt>
      <trkpt lat="41.940119" lon="-87.639537">
      </trkpt>
      <trkpt lat="41.936919" lon="-87.639435">
      </trkpt>
      <trkpt lat="41.936919" lon="-87.639435">
      </trkpt>
      <trkpt lat="41.940119" lon="-87.639537">
      </trkpt>
      <trkpt lat="41.939965" lon="-87.650679">
      </trkpt>
      <trkpt lat="41.94357" lon="-87.653588">
      </trkpt>
      <trkpt lat="41.943396" lon="-87.665475">
      </trkpt>
      <trkpt lat="41.943396" lon="-87.665475">
      </trkpt>
      <trkpt lat="41.943383" lon="-87.666342">
      </trkpt>
      <trkpt lat="41.939729" lon="-87.666233">
      </trkpt>
      <trkpt lat="41.940268" lon="-87.638796">
      </trkpt>
      <trkpt lat="41.939931" lon="-87.638606">
      </trkpt>
      <trkpt lat="41.936955" lon="-87.634194">
      </trkpt>
      <trkpt lat="41.93482" lon="-87.632527">
      </trkpt>
      <trkpt lat="41.928427" lon="-87.632048">
      </trkpt>
      <trkpt lat="41.915117" lon="-87.627538">
      </trkpt>
      <trkpt lat="41.913042" lon="-87.627206">
      </trkpt>
      <trkpt lat="41.912346" lon="-87.628067">
      </trkpt>
      <trkpt lat="41.913459" lon="-87.631428">
      </trkpt>
      <trkpt lat="41.912907" lon="-87.633196">
      </trkpt>
      <trkpt lat="41.899913" lon="-87.632884">
      </trkpt>
      <trkpt lat="41.899913" lon="-87.632884">
      </trkpt>
      <trkpt lat="41.89661" lon="-87.632793">
      </trkpt>
      <trkpt lat="41.896633" lon="-87.631243">
      </trkpt>
      <trkpt lat="41.889473" lon="-87.631072">
      </trkpt>
      <trkpt lat="41.889473" lon="-87.631072">
      </trkpt>
      <trkpt lat="41.889218" lon="-87.631063">
      </trkpt>
      <trkpt lat="41.889186" lon="-87.632434">
      </trkpt>
      <trkpt lat="41.893212" lon="-87.632534">
      </trkpt>
      <trkpt lat="41.893148" lon="-87.637063">
      </trkpt>
      <trkpt lat="41.892522" lon="-87.64596">
      </trkpt>
      <trkpt lat="41.892674" lon="-87.65028">
      </trkpt>
      <trkpt lat="41.892622" lon="-87.653268">
      </trkpt>
      <trkpt lat="41.896481" lon="-87.658404">
      </trkpt>
      <trkpt lat="41.901399" lon="-87.660896">
      </trkpt>
      <trkpt lat="41.906646" lon="-87.66137">
      </trkpt>
      <trkpt lat="41.917654" lon="-87.670146">
      </trkpt>
      <trkpt lat="41.940372" lon="-87.709927">
      </trkpt>
      <trkpt lat="41.94215" lon="-87.715306">
      </trkpt>
      <trkpt lat="41.947613" lon="-87.719592">
      </trkpt>
      <trkpt lat="41.95982" lon="-87.741635">
      </trkpt>
      <trkpt lat="41.963594" lon="-87.746287">
      </trkpt>
      <trkpt lat="41.975724" lon="-87.747426">
      </trkpt>
      <trkpt lat="41.976396" lon="-87.74607">
      </trkpt>
      <trkpt lat="41.975364" lon="-87.745776">
      </trkpt>
      <trkpt lat="41.975339" lon="-87.747984">
      </trkpt>
      <trkpt lat="41.969853" lon="-87.747854">
      </trkpt>
      <trkpt lat="41.969725" lon="-87.758281">
      </trkpt>
      <trkpt lat="41.968432" lon="-87.761242">
      </trkpt>
      <trkpt lat="41.968654" lon="-87.761435">
      </trkpt>
      <trkpt lat="41.975661" lon="-87.785931">
      </trkpt>
      <trkpt lat="41.97559" lon="-87.795142">
      </trkpt>
      <trkpt lat="41.972843" lon="-87.7952">
      </trkpt>
      <trkpt lat="41.972843" lon="-87.7952">
      </trkpt>
      <trkpt lat="41.96836" lon="-87.795284">
      </trkpt>
      <trkpt lat="41.96853" lon="-87.778289">
      </trkpt>
      <trkpt lat="41.967665" lon="-87.77728">
      </trkpt>
      <trkpt lat="41.967781" lon="-87.767479">
      </trkpt>
      <trkpt lat="41.96235" lon="-87.7673">
      </trkpt>
      <trkpt lat="41.962474" lon="-87.756072">
      </trkpt>
      <trkpt lat="41.960636" lon="-87.75449">
      </trkpt>
      <trkpt lat="41.960809" lon="-87.741062">
      </trkpt>
      <trkpt lat="41.960809" lon="-87.741062">
      </trkpt>
      <trkpt lat="41.960812" lon="-87.743853">
      </trkpt>
      <trkpt lat="41.958818" lon="-87.740635">
      </trkpt>
      <trkpt lat="41.958438" lon="-87.739456">
      </trkpt>
      <trkpt lat="41.957103" lon="-87.73715">
      </trkpt>
      <trkpt lat="41.955492" lon="-87.734704">
      </trkpt>
      <trkpt lat="41.953617" lon="-87.731304">
      </trkpt>
      <trkpt lat="41.953712" lon="-87.719156">
      </trkpt>
      <trkpt lat="41.953111" lon="-87.718284">
      </trkpt>
      <trkpt lat="41.953111" lon="-87.718284">
      </trkpt>
      <trkpt lat="41.94223" lon="-87.702467">
      </trkpt>
      <trkpt lat="41.94193" lon="-87.702789">
      </trkpt>
      <trkpt lat="41.925969" lon="-87.702347">
      </trkpt>
      <trkpt lat="41.92529" lon="-87.701236">
      </trkpt>
      <trkpt lat="41.92529" lon="-87.701236">
      </trkpt>
      <trkpt lat="41.924799" lon="-87.700436">
      </trkpt>
      <trkpt lat="41.925453" lon="-87.648766">
      </trkpt>
      <trkpt lat="41.918106" lon="-87.638503">
      </trkpt>
      <trkpt lat="41.918106" lon="-87.638503">
      </trkpt>
      <trkpt lat="41.918322" lon="-87.638808">
      </trkpt>
      <trkpt lat="41.921954" lon="-87.638941">
      </trkpt>
      <trkpt lat="41.921963" lon="-87.638269">
      </trkpt>
      <trkpt lat="41.927956" lon="-87.641881">
      </trkpt>
      <trkpt lat="41.927956" lon="-87.641881">
      </trkpt>
      <trkpt lat="41.92558" lon="-87.640463">
      </trkpt>
      <trkpt lat="41.926223" lon="-87.63067">
      </trkpt>
      <trkpt lat="41.928415" lon="-87.631851">
      </trkpt>
      <trkpt lat="41.935386" lon="-87.632612">
      </trkpt>
      <trkpt lat="41.941219" lon="-87.638833">
      </trkpt>
      <trkpt lat="41.950931" lon="-87.644376">
      </trkpt>
      <trkpt lat="41.967723" lon="-87.647541">
      </trkpt>
      <trkpt lat="41.969474" lon="-87.647273">
      </trkpt>
      <trkpt lat="41.96907" lon="-87.656225">
      </trkpt>
      <trkpt lat="41.974712" lon="-87.656365">
      </trkpt>
      <trkpt lat="41.974712" lon="-87.656365">
      </trkpt>
      <trkpt lat="41.976381" lon="-87.656408">
      </trkpt>
      <trkpt lat="41.976453" lon="-87.651813">
      </trkpt>
      <trkpt lat="41.974283" lon="-87.649568">
      </trkpt>
      <trkpt lat="41.972134" lon="-87.648822">
      </trkpt>
      <trkpt lat="41.955203" lon="-87.644905">
      </trkpt>
      <trkpt lat="41.950978" lon="-87.644611">
      </trkpt>
      <trkpt lat="41.941067" lon="-87.638957">
      </trkpt>
      <trkpt lat="41.93482" lon="-87.632527">
      </trkpt>
      <trkpt lat="41.928427" lon="-87.632048">
      </trkpt>
      <trkpt lat="41.915117" lon="-87.627538">
      </trkpt>
      <trkpt lat="41.913042" lon="-87.627206">
      </trkpt>
      <trkpt lat="41.912346" lon="-87.628067">
      </trkpt>
      <trkpt lat="41.913334" lon="-87.632438">
      </trkpt>
      <trkpt lat="41.912907" lon="-87.633196">
      </trkpt>
      <trkpt lat="41.911171" lon="-87.633223">
      </trkpt>
      <trkpt lat="41.910633" lon="-87.66776">
      </trkpt>
      <trkpt lat="41.899711" lon="-87.667457">
      </trkpt>
      <trkpt lat="41.899648" lon="-87.67107">
      </trkpt>
      <trkpt lat="41.900741" lon="-87.671103">
      </trkpt>
    </trkseg>
  </trk>
</gpx>