<?xml version="1.0" encoding="UTF-8"?>
<gpx xmlns="http://www.topografix.com/GPX/1/1" xmlns:xsi="http://www.w3.org/2001/XMLSchema-instance" xsi:schemaLocation="http://www.topografix.com/GPX/1/1 http://www.topografix.com/GPX/1/1/gpx.xsd" version="1.1" creator="gpx.py -- https://github.com/tkrajina/gpxpy">
  <trk>
    <trkseg>
      <trkpt lat="41.867711" lon="-87.68031">
      </trkpt>
      <trkpt lat="41.869069" lon="-87.680351">
      </trkpt>
      <trkpt lat="41.869064" lon="-87.680846">
      </trkpt>
      <trkpt lat="41.872865" lon="-87.676298">
      </trkpt>
      <trkpt lat="41.875016" lon="-87.676418">
      </trkpt>
      <trkpt lat="41.875021" lon="-87.676128">
      </trkpt>
      <trkpt lat="41.875604" lon="-87.6605">
      </trkpt>
      <trkpt lat="41.875329" lon="-87.650308">
      </trkpt>
      <trkpt lat="41.875302" lon="-87.647601">
      </trkpt>
      <trkpt lat="41.874563" lon="-87.645452">
      </trkpt>
      <trkpt lat="41.875077" lon="-87.644482">
      </trkpt>
      <trkpt lat="41.876036" lon="-87.64458">
      </trkpt>
      <trkpt lat="41.880374" lon="-87.645275">
      </trkpt>
      <trkpt lat="41.881847" lon="-87.645355">
      </trkpt>
      <trkpt lat="41.882198" lon="-87.645393">
      </trkpt>
      <trkpt lat="41.885931" lon="-87.64591">
      </trkpt>
      <trkpt lat="41.888483" lon="-87.647404">
      </trkpt>
      <trkpt lat="41.897251" lon="-87.658783">
      </trkpt>
      <trkpt lat="41.901753" lon="-87.660805">
      </trkpt>
      <trkpt lat="41.906186" lon="-87.660967">
      </trkpt>
      <trkpt lat="41.907951" lon="-87.662226">
      </trkpt>
      <trkpt lat="41.910674" lon="-87.664445">
      </trkpt>
      <trkpt lat="41.910715" lon="-87.66216">
      </trkpt>
      <trkpt lat="41.916455" lon="-87.666413">
      </trkpt>
      <trkpt lat="41.917067" lon="-87.663815">
      </trkpt>
      <trkpt lat="41.917139" lon="-87.658378">
      </trkpt>
      <trkpt lat="41.921676" lon="-87.65834">
      </trkpt>
      <trkpt lat="41.921694" lon="-87.657125">
      </trkpt>
      <trkpt lat="41.920202" lon="-87.657077">
      </trkpt>
      <trkpt lat="41.920202" lon="-87.657077">
      </trkpt>
      <trkpt lat="41.918057" lon="-87.657007">
      </trkpt>
      <trkpt lat="41.918322" lon="-87.638808">
      </trkpt>
      <trkpt lat="41.918106" lon="-87.638503">
      </trkpt>
      <trkpt lat="41.918106" lon="-87.638503">
      </trkpt>
      <trkpt lat="41.915479" lon="-87.634849">
      </trkpt>
      <trkpt lat="41.915623" lon="-87.634358">
      </trkpt>
      <trkpt lat="41.913169" lon="-87.632856">
      </trkpt>
      <trkpt lat="41.912793" lon="-87.633227">
      </trkpt>
      <trkpt lat="41.911528" lon="-87.633232">
      </trkpt>
      <trkpt lat="41.891597" lon="-87.632696">
      </trkpt>
      <trkpt lat="41.891557" lon="-87.635588">
      </trkpt>
      <trkpt lat="41.891816" lon="-87.635594">
      </trkpt>
      <trkpt lat="41.891816" lon="-87.635594">
      </trkpt>
      <trkpt lat="41.891557" lon="-87.635588">
      </trkpt>
      <trkpt lat="41.891576" lon="-87.634054">
      </trkpt>
      <trkpt lat="41.884468" lon="-87.633916">
      </trkpt>
      <trkpt lat="41.884465" lon="-87.635401">
      </trkpt>
      <trkpt lat="41.886768" lon="-87.635439">
      </trkpt>
      <trkpt lat="41.886821" lon="-87.634232">
      </trkpt>
      <trkpt lat="41.886821" lon="-87.634232">
      </trkpt>
      <trkpt lat="41.886809" lon="-87.627383">
      </trkpt>
      <trkpt lat="41.888194" lon="-87.624469">
      </trkpt>
      <trkpt lat="41.900824" lon="-87.624042">
      </trkpt>
      <trkpt lat="41.902709" lon="-87.623664">
      </trkpt>
      <trkpt lat="41.912141" lon="-87.62589">
      </trkpt>
      <trkpt lat="41.918036" lon="-87.628743">
      </trkpt>
      <trkpt lat="41.928415" lon="-87.631851">
      </trkpt>
      <trkpt lat="41.934381" lon="-87.632152">
      </trkpt>
      <trkpt lat="41.936704" lon="-87.633661">
      </trkpt>
      <trkpt lat="41.939073" lon="-87.63676">
      </trkpt>
      <trkpt lat="41.940568" lon="-87.638088">
      </trkpt>
      <trkpt lat="41.940119" lon="-87.639537">
      </trkpt>
      <trkpt lat="41.939759" lon="-87.663815">
      </trkpt>
      <trkpt lat="41.943419" lon="-87.663907">
      </trkpt>
      <trkpt lat="41.943396" lon="-87.665475">
      </trkpt>
      <trkpt lat="41.943396" lon="-87.665475">
      </trkpt>
      <trkpt lat="41.943346" lon="-87.668829">
      </trkpt>
      <trkpt lat="41.924216" lon="-87.668122">
      </trkpt>
      <trkpt lat="41.921138" lon="-87.668644">
      </trkpt>
      <trkpt lat="41.917197" lon="-87.667771">
      </trkpt>
      <trkpt lat="41.912452" lon="-87.667808">
      </trkpt>
      <trkpt lat="41.912442" lon="-87.668966">
      </trkpt>
      <trkpt lat="41.913123" lon="-87.668983">
      </trkpt>
      <trkpt lat="41.913123" lon="-87.668983">
      </trkpt>
      <trkpt lat="41.910614" lon="-87.668915">
      </trkpt>
      <trkpt lat="41.910674" lon="-87.664445">
      </trkpt>
      <trkpt lat="41.915886" lon="-87.668091">
      </trkpt>
      <trkpt lat="41.91815" lon="-87.670574">
      </trkpt>
      <trkpt lat="41.940439" lon="-87.709664">
      </trkpt>
      <trkpt lat="41.942208" lon="-87.714861">
      </trkpt>
      <trkpt lat="41.947985" lon="-87.719618">
      </trkpt>
      <trkpt lat="41.958569" lon="-87.738838">
      </trkpt>
      <trkpt lat="41.960451" lon="-87.741371">
      </trkpt>
      <trkpt lat="41.960845" lon="-87.74187">
      </trkpt>
      <trkpt lat="41.960081" lon="-87.794161">
      </trkpt>
      <trkpt lat="41.949144" lon="-87.816945">
      </trkpt>
      <trkpt lat="41.941072" lon="-87.816641">
      </trkpt>
      <trkpt lat="41.941072" lon="-87.816641">
      </trkpt>
      <trkpt lat="41.939617" lon="-87.816587">
      </trkpt>
      <trkpt lat="41.939594" lon="-87.817797">
      </trkpt>
      <trkpt lat="41.948419" lon="-87.818384">
      </trkpt>
      <trkpt lat="41.958438" lon="-87.797713">
      </trkpt>
      <trkpt lat="41.968342" lon="-87.797737">
      </trkpt>
      <trkpt lat="41.96853" lon="-87.778289">
      </trkpt>
      <trkpt lat="41.967665" lon="-87.77728">
      </trkpt>
      <trkpt lat="41.968033" lon="-87.747723">
      </trkpt>
      <trkpt lat="41.972896" lon="-87.747918">
      </trkpt>
      <trkpt lat="41.972794" lon="-87.747761">
      </trkpt>
      <trkpt lat="41.966563" lon="-87.747223">
      </trkpt>
      <trkpt lat="41.963113" lon="-87.745961">
      </trkpt>
      <trkpt lat="41.960129" lon="-87.742125">
      </trkpt>
      <trkpt lat="41.947613" lon="-87.719592">
      </trkpt>
      <trkpt lat="41.94215" lon="-87.715306">
      </trkpt>
      <trkpt lat="41.940524" lon="-87.710219">
      </trkpt>
      <trkpt lat="41.933659" lon="-87.698173">
      </trkpt>
      <trkpt lat="41.919706" lon="-87.673831">
      </trkpt>
      <trkpt lat="41.918264" lon="-87.671882">
      </trkpt>
      <trkpt lat="41.917859" lon="-87.671887">
      </trkpt>
      <trkpt lat="41.917824" lon="-87.673991">
      </trkpt>
      <trkpt lat="41.909456" lon="-87.673955">
      </trkpt>
      <trkpt lat="41.909456" lon="-87.673955">
      </trkpt>
      <trkpt lat="41.90961" lon="-87.673782">
      </trkpt>
      <trkpt lat="41.910536" lon="-87.673806">
      </trkpt>
      <trkpt lat="41.911039" lon="-87.63858">
      </trkpt>
      <trkpt lat="41.918322" lon="-87.638808">
      </trkpt>
      <trkpt lat="41.918106" lon="-87.638503">
      </trkpt>
      <trkpt lat="41.918106" lon="-87.638503">
      </trkpt>
      <trkpt lat="41.918322" lon="-87.638808">
      </trkpt>
      <trkpt lat="41.921954" lon="-87.638941">
      </trkpt>
      <trkpt lat="41.92199" lon="-87.63646">
      </trkpt>
      <trkpt lat="41.925658" lon="-87.636586">
      </trkpt>
      <trkpt lat="41.925697" lon="-87.634084">
      </trkpt>
      <trkpt lat="41.926223" lon="-87.63067">
      </trkpt>
      <trkpt lat="41.928415" lon="-87.631851">
      </trkpt>
      <trkpt lat="41.9333" lon="-87.631922">
      </trkpt>
      <trkpt lat="41.935183" lon="-87.632501">
      </trkpt>
      <trkpt lat="41.936704" lon="-87.633661">
      </trkpt>
      <trkpt lat="41.939504" lon="-87.637308">
      </trkpt>
      <trkpt lat="41.941399" lon="-87.638962">
      </trkpt>
      <trkpt lat="41.950931" lon="-87.644376">
      </trkpt>
      <trkpt lat="41.952992" lon="-87.644572">
      </trkpt>
      <trkpt lat="41.954667" lon="-87.644162">
      </trkpt>
      <trkpt lat="41.95446" lon="-87.656767">
      </trkpt>
      <trkpt lat="41.958194" lon="-87.656894">
      </trkpt>
      <trkpt lat="41.958194" lon="-87.656894">
      </trkpt>
      <trkpt lat="41.95446" lon="-87.656767">
      </trkpt>
      <trkpt lat="41.954634" lon="-87.645235">
      </trkpt>
      <trkpt lat="41.950978" lon="-87.644611">
      </trkpt>
      <trkpt lat="41.941594" lon="-87.639315">
      </trkpt>
      <trkpt lat="41.93482" lon="-87.632527">
      </trkpt>
      <trkpt lat="41.928427" lon="-87.632048">
      </trkpt>
      <trkpt lat="41.918735" lon="-87.629189">
      </trkpt>
      <trkpt lat="41.911998" lon="-87.62605">
      </trkpt>
      <trkpt lat="41.902892" lon="-87.62428">
      </trkpt>
      <trkpt lat="41.901583" lon="-87.62287">
      </trkpt>
      <trkpt lat="41.900898" lon="-87.619617">
      </trkpt>
      <trkpt lat="41.893292" lon="-87.614447">
      </trkpt>
      <trkpt lat="41.886779" lon="-87.614132">
      </trkpt>
      <trkpt lat="41.884515" lon="-87.614444">
      </trkpt>
      <trkpt lat="41.884448" lon="-87.639799">
      </trkpt>
      <trkpt lat="41.887293" lon="-87.639932">
      </trkpt>
      <trkpt lat="41.887293" lon="-87.639932">
      </trkpt>
      <trkpt lat="41.889064" lon="-87.64001">
      </trkpt>
      <trkpt lat="41.889102" lon="-87.641432">
      </trkpt>
      <trkpt lat="41.888757" lon="-87.641385">
      </trkpt>
      <trkpt lat="41.884445" lon="-87.641308">
      </trkpt>
      <trkpt lat="41.884406" lon="-87.646033">
      </trkpt>
      <trkpt lat="41.884406" lon="-87.646033">
      </trkpt>
      <trkpt lat="41.884415" lon="-87.647438">
      </trkpt>
      <trkpt lat="41.885665" lon="-87.647482">
      </trkpt>
      <trkpt lat="41.885682" lon="-87.646258">
      </trkpt>
      <trkpt lat="41.881827" lon="-87.645999">
      </trkpt>
      <trkpt lat="41.880956" lon="-87.646134">
      </trkpt>
      <trkpt lat="41.879569" lon="-87.646145">
      </trkpt>
      <trkpt lat="41.878121" lon="-87.646166">
      </trkpt>
      <trkpt lat="41.876334" lon="-87.646815">
      </trkpt>
      <trkpt lat="41.875728" lon="-87.649135">
      </trkpt>
      <trkpt lat="41.876197" lon="-87.657603">
      </trkpt>
      <trkpt lat="41.875633" lon="-87.697949">
      </trkpt>
      <trkpt lat="41.874284" lon="-87.70915">
      </trkpt>
      <trkpt lat="41.873967" lon="-87.732948">
      </trkpt>
      <trkpt lat="41.87185" lon="-87.740938">
      </trkpt>
      <trkpt lat="41.871025" lon="-87.76928">
      </trkpt>
      <trkpt lat="41.873251" lon="-87.799298">
      </trkpt>
      <trkpt lat="41.87368" lon="-87.804441">
      </trkpt>
      <trkpt lat="41.897906" lon="-87.805379">
      </trkpt>
      <trkpt lat="41.898012" lon="-87.797775">
      </trkpt>
      <trkpt lat="41.897845" lon="-87.797769">
      </trkpt>
      <trkpt lat="41.897845" lon="-87.797769">
      </trkpt>
      <trkpt lat="41.898012" lon="-87.797775">
      </trkpt>
      <trkpt lat="41.897906" lon="-87.805379">
      </trkpt>
      <trkpt lat="41.887137" lon="-87.804994">
      </trkpt>
      <trkpt lat="41.887212" lon="-87.80176">
      </trkpt>
      <trkpt lat="41.887212" lon="-87.80176">
      </trkpt>
      <trkpt lat="41.887307" lon="-87.794474">
      </trkpt>
      <trkpt lat="41.909018" lon="-87.79505">
      </trkpt>
      <trkpt lat="41.909384" lon="-87.765733">
      </trkpt>
      <trkpt lat="41.923987" lon="-87.765997">
      </trkpt>
      <trkpt lat="41.92411" lon="-87.75615">
      </trkpt>
      <trkpt lat="41.929747" lon="-87.756354">
      </trkpt>
      <trkpt lat="41.929747" lon="-87.756354">
      </trkpt>
      <trkpt lat="41.931408" lon="-87.756422">
      </trkpt>
      <trkpt lat="41.931667" lon="-87.736809">
      </trkpt>
      <trkpt lat="41.935532" lon="-87.736922">
      </trkpt>
      <trkpt lat="41.935532" lon="-87.736922">
      </trkpt>
      <trkpt lat="41.931667" lon="-87.736809">
      </trkpt>
      <trkpt lat="41.931796" lon="-87.726988">
      </trkpt>
      <trkpt lat="41.924493" lon="-87.726763">
      </trkpt>
      <trkpt lat="41.924722" lon="-87.707229">
      </trkpt>
      <trkpt lat="41.899192" lon="-87.706677">
      </trkpt>
      <trkpt lat="41.899269" lon="-87.699269">
      </trkpt>
      <trkpt lat="41.899144" lon="-87.699266">
      </trkpt>
      <trkpt lat="41.899144" lon="-87.699266">
      </trkpt>
      <trkpt lat="41.898054" lon="-87.699235">
      </trkpt>
      <trkpt lat="41.898041" lon="-87.70044">
      </trkpt>
      <trkpt lat="41.899255" lon="-87.700472">
      </trkpt>
      <trkpt lat="41.899238" lon="-87.702461">
      </trkpt>
      <trkpt lat="41.907558" lon="-87.701241">
      </trkpt>
      <trkpt lat="41.932074" lon="-87.702516">
      </trkpt>
      <trkpt lat="41.932108" lon="-87.697602">
      </trkpt>
      <trkpt lat="41.956867" lon="-87.698335">
      </trkpt>
      <trkpt lat="41.956867" lon="-87.698335">
      </trkpt>
      <trkpt lat="41.953982" lon="-87.698254">
      </trkpt>
      <trkpt lat="41.952719" lon="-87.809667">
      </trkpt>
      <trkpt lat="41.946631" lon="-87.822074">
      </trkpt>
      <trkpt lat="41.937842" lon="-87.821404">
      </trkpt>
      <trkpt lat="41.937866" lon="-87.820185">
      </trkpt>
      <trkpt lat="41.936076" lon="-87.820102">
      </trkpt>
      <trkpt lat="41.936062" lon="-87.820727">
      </trkpt>
      <trkpt lat="41.934634" lon="-87.82067">
      </trkpt>
      <trkpt lat="41.934634" lon="-87.82067">
      </trkpt>
      <trkpt lat="41.93424" lon="-87.820654">
      </trkpt>
      <trkpt lat="41.934421" lon="-87.81151">
      </trkpt>
      <trkpt lat="41.924776" lon="-87.811185">
      </trkpt>
      <trkpt lat="41.923552" lon="-87.803157">
      </trkpt>
      <trkpt lat="41.92364" lon="-87.789403">
      </trkpt>
      <trkpt lat="41.924902" lon="-87.687645">
      </trkpt>
      <trkpt lat="41.919088" lon="-87.68746">
      </trkpt>
      <trkpt lat="41.919134" lon="-87.685015">
      </trkpt>
      <trkpt lat="41.918313" lon="-87.684989">
      </trkpt>
      <trkpt lat="41.918313" lon="-87.684989">
      </trkpt>
      <trkpt lat="41.91763" lon="-87.684968">
      </trkpt>
      <trkpt lat="41.917479" lon="-87.698748">
      </trkpt>
      <trkpt lat="41.917288" lon="-87.698742">
      </trkpt>
      <trkpt lat="41.917288" lon="-87.698742">
      </trkpt>
      <trkpt lat="41.917288" lon="-87.698742">
      </trkpt>
      <trkpt lat="41.917288" lon="-87.698742">
      </trkpt>
      <trkpt lat="41.917479" lon="-87.698748">
      </trkpt>
      <trkpt lat="41.917587" lon="-87.687413">
      </trkpt>
      <trkpt lat="41.924902" lon="-87.687645">
      </trkpt>
      <trkpt lat="41.924978" lon="-87.682301">
      </trkpt>
      <trkpt lat="41.926707" lon="-87.685177">
      </trkpt>
      <trkpt lat="41.940439" lon="-87.709664">
      </trkpt>
      <trkpt lat="41.942208" lon="-87.714861">
      </trkpt>
      <trkpt lat="41.947985" lon="-87.719618">
      </trkpt>
      <trkpt lat="41.958569" lon="-87.738838">
      </trkpt>
      <trkpt lat="41.960451" lon="-87.741371">
      </trkpt>
      <trkpt lat="41.960809" lon="-87.741062">
      </trkpt>
      <trkpt lat="41.960809" lon="-87.741062">
      </trkpt>
      <trkpt lat="41.960812" lon="-87.743853">
      </trkpt>
      <trkpt lat="41.947583" lon="-87.71984">
      </trkpt>
      <trkpt lat="41.942115" lon="-87.715518">
      </trkpt>
      <trkpt lat="41.939977" lon="-87.709442">
      </trkpt>
      <trkpt lat="41.918378" lon="-87.671496">
      </trkpt>
      <trkpt lat="41.916326" lon="-87.668918">
      </trkpt>
      <trkpt lat="41.913088" lon="-87.666712">
      </trkpt>
      <trkpt lat="41.910672" lon="-87.665662">
      </trkpt>
      <trkpt lat="41.910633" lon="-87.66776">
      </trkpt>
      <trkpt lat="41.899711" lon="-87.667457">
      </trkpt>
      <trkpt lat="41.899597" lon="-87.674089">
      </trkpt>
      <trkpt lat="41.90052" lon="-87.67412">
      </trkpt>
    </trkseg>
  </trk>
</gpx>