<?xml version="1.0" encoding="UTF-8"?>
<gpx xmlns="http://www.topografix.com/GPX/1/1" xmlns:xsi="http://www.w3.org/2001/XMLSchema-instance" xsi:schemaLocation="http://www.topografix.com/GPX/1/1 http://www.topografix.com/GPX/1/1/gpx.xsd" version="1.1" creator="gpx.py -- https://github.com/tkrajina/gpxpy">
  <trk>
    <trkseg>
      <trkpt lat="41.934634" lon="-87.82067">
      </trkpt>
      <trkpt lat="41.93424" lon="-87.820654">
      </trkpt>
      <trkpt lat="41.934519" lon="-87.806613">
      </trkpt>
      <trkpt lat="41.873618" lon="-87.804598">
      </trkpt>
      <trkpt lat="41.87064" lon="-87.769061">
      </trkpt>
      <trkpt lat="41.871594" lon="-87.739969">
      </trkpt>
      <trkpt lat="41.87362" lon="-87.733001">
      </trkpt>
      <trkpt lat="41.875168" lon="-87.69832">
      </trkpt>
      <trkpt lat="41.875329" lon="-87.650308">
      </trkpt>
      <trkpt lat="41.875215" lon="-87.648052">
      </trkpt>
      <trkpt lat="41.874037" lon="-87.646014">
      </trkpt>
      <trkpt lat="41.869485" lon="-87.644983">
      </trkpt>
      <trkpt lat="41.850609" lon="-87.644998">
      </trkpt>
      <trkpt lat="41.847255" lon="-87.642186">
      </trkpt>
      <trkpt lat="41.845323" lon="-87.634652">
      </trkpt>
      <trkpt lat="41.842703" lon="-87.631597">
      </trkpt>
      <trkpt lat="41.830548" lon="-87.631069">
      </trkpt>
      <trkpt lat="41.823664" lon="-87.631351">
      </trkpt>
      <trkpt lat="41.823572" lon="-87.637354">
      </trkpt>
      <trkpt lat="41.822128" lon="-87.637371">
      </trkpt>
      <trkpt lat="41.820875" lon="-87.636442">
      </trkpt>
      <trkpt lat="41.828196" lon="-87.636384">
      </trkpt>
      <trkpt lat="41.828196" lon="-87.636384">
      </trkpt>
      <trkpt lat="41.821693" lon="-87.636271">
      </trkpt>
      <trkpt lat="41.821467" lon="-87.636312">
      </trkpt>
      <trkpt lat="41.82142" lon="-87.636505">
      </trkpt>
      <trkpt lat="41.820875" lon="-87.636442">
      </trkpt>
      <trkpt lat="41.820881" lon="-87.636628">
      </trkpt>
      <trkpt lat="41.821281" lon="-87.637094">
      </trkpt>
      <trkpt lat="41.821664" lon="-87.637886">
      </trkpt>
      <trkpt lat="41.821917" lon="-87.637872">
      </trkpt>
      <trkpt lat="41.822128" lon="-87.637371">
      </trkpt>
      <trkpt lat="41.823572" lon="-87.637354">
      </trkpt>
      <trkpt lat="41.82352" lon="-87.641053">
      </trkpt>
      <trkpt lat="41.828999" lon="-87.641181">
      </trkpt>
      <trkpt lat="41.828981" lon="-87.642413">
      </trkpt>
      <trkpt lat="41.829256" lon="-87.642419">
      </trkpt>
      <trkpt lat="41.829256" lon="-87.642419">
      </trkpt>
      <trkpt lat="41.8308" lon="-87.64245">
      </trkpt>
      <trkpt lat="41.830295" lon="-87.684464">
      </trkpt>
      <trkpt lat="41.83845" lon="-87.685425">
      </trkpt>
      <trkpt lat="41.838129" lon="-87.694132">
      </trkpt>
      <trkpt lat="41.847634" lon="-87.694753">
      </trkpt>
      <trkpt lat="41.847944" lon="-87.698857">
      </trkpt>
      <trkpt lat="41.85186" lon="-87.699093">
      </trkpt>
      <trkpt lat="41.851661" lon="-87.710877">
      </trkpt>
      <trkpt lat="41.851938" lon="-87.711165">
      </trkpt>
      <trkpt lat="41.851643" lon="-87.723333">
      </trkpt>
      <trkpt lat="41.848648" lon="-87.73165">
      </trkpt>
      <trkpt lat="41.848648" lon="-87.73165">
      </trkpt>
      <trkpt lat="41.864713" lon="-87.686158">
      </trkpt>
      <trkpt lat="41.869064" lon="-87.680846">
      </trkpt>
      <trkpt lat="41.8692" lon="-87.670488">
      </trkpt>
      <trkpt lat="41.8692" lon="-87.670488">
      </trkpt>
      <trkpt lat="41.869264" lon="-87.666399">
      </trkpt>
      <trkpt lat="41.875179" lon="-87.666563">
      </trkpt>
      <trkpt lat="41.875183" lon="-87.666292">
      </trkpt>
      <trkpt lat="41.875604" lon="-87.6605">
      </trkpt>
      <trkpt lat="41.875321" lon="-87.650924">
      </trkpt>
      <trkpt lat="41.875815" lon="-87.620619">
      </trkpt>
      <trkpt lat="41.884357" lon="-87.620605">
      </trkpt>
      <trkpt lat="41.884368" lon="-87.618892">
      </trkpt>
      <trkpt lat="41.884368" lon="-87.618892">
      </trkpt>
      <trkpt lat="41.884405" lon="-87.613523">
      </trkpt>
      <trkpt lat="41.884519" lon="-87.613459">
      </trkpt>
      <trkpt lat="41.884484" lon="-87.624371">
      </trkpt>
      <trkpt lat="41.88577" lon="-87.624431">
      </trkpt>
      <trkpt lat="41.885769" lon="-87.624623">
      </trkpt>
      <trkpt lat="41.884489" lon="-87.624571">
      </trkpt>
      <trkpt lat="41.884366" lon="-87.624344">
      </trkpt>
      <trkpt lat="41.884372" lon="-87.623414">
      </trkpt>
      <trkpt lat="41.884293" lon="-87.622907">
      </trkpt>
      <trkpt lat="41.884319" lon="-87.621085">
      </trkpt>
      <trkpt lat="41.884319" lon="-87.621085">
      </trkpt>
      <trkpt lat="41.884316" lon="-87.620576">
      </trkpt>
      <trkpt lat="41.884463" lon="-87.637617">
      </trkpt>
      <trkpt lat="41.884164" lon="-87.663166">
      </trkpt>
      <trkpt lat="41.885361" lon="-87.6653">
      </trkpt>
      <trkpt lat="41.88533" lon="-87.66685">
      </trkpt>
      <trkpt lat="41.886119" lon="-87.666934">
      </trkpt>
      <trkpt lat="41.886122" lon="-87.666648">
      </trkpt>
      <trkpt lat="41.886122" lon="-87.666648">
      </trkpt>
      <trkpt lat="41.886119" lon="-87.666934">
      </trkpt>
      <trkpt lat="41.886514" lon="-87.666953">
      </trkpt>
      <trkpt lat="41.886129" lon="-87.667053">
      </trkpt>
      <trkpt lat="41.885323" lon="-87.667085">
      </trkpt>
      <trkpt lat="41.884621" lon="-87.686532">
      </trkpt>
      <trkpt lat="41.872439" lon="-87.686258">
      </trkpt>
      <trkpt lat="41.872439" lon="-87.686258">
      </trkpt>
      <trkpt lat="41.86479" lon="-87.685988">
      </trkpt>
      <trkpt lat="41.84568" lon="-87.740046">
      </trkpt>
      <trkpt lat="41.844155" lon="-87.741957">
      </trkpt>
      <trkpt lat="41.84365" lon="-87.74583">
      </trkpt>
      <trkpt lat="41.820928" lon="-87.810482">
      </trkpt>
      <trkpt lat="41.819295" lon="-87.822541">
      </trkpt>
      <trkpt lat="41.815879" lon="-87.827713">
      </trkpt>
      <trkpt lat="41.816297" lon="-87.837877">
      </trkpt>
      <trkpt lat="41.818187" lon="-87.837934">
      </trkpt>
      <trkpt lat="41.81819" lon="-87.83772">
      </trkpt>
      <trkpt lat="41.81819" lon="-87.83772">
      </trkpt>
      <trkpt lat="41.81821" lon="-87.836612">
      </trkpt>
      <trkpt lat="41.816232" lon="-87.836547">
      </trkpt>
      <trkpt lat="41.816105" lon="-87.833858">
      </trkpt>
      <trkpt lat="41.824859" lon="-87.82873">
      </trkpt>
      <trkpt lat="41.835367" lon="-87.829256">
      </trkpt>
      <trkpt lat="41.839536" lon="-87.833513">
      </trkpt>
      <trkpt lat="41.870006" lon="-87.833629">
      </trkpt>
      <trkpt lat="41.871614" lon="-87.830438">
      </trkpt>
      <trkpt lat="41.874042" lon="-87.810791">
      </trkpt>
      <trkpt lat="41.87064" lon="-87.769061">
      </trkpt>
      <trkpt lat="41.871594" lon="-87.739969">
      </trkpt>
      <trkpt lat="41.87362" lon="-87.733001">
      </trkpt>
      <trkpt lat="41.875168" lon="-87.69832">
      </trkpt>
      <trkpt lat="41.875329" lon="-87.650308">
      </trkpt>
      <trkpt lat="41.874563" lon="-87.645452">
      </trkpt>
      <trkpt lat="41.876036" lon="-87.64458">
      </trkpt>
      <trkpt lat="41.880374" lon="-87.645275">
      </trkpt>
      <trkpt lat="41.881847" lon="-87.645355">
      </trkpt>
      <trkpt lat="41.882198" lon="-87.645393">
      </trkpt>
      <trkpt lat="41.888483" lon="-87.647404">
      </trkpt>
      <trkpt lat="41.897251" lon="-87.658783">
      </trkpt>
      <trkpt lat="41.906443" lon="-87.661061">
      </trkpt>
      <trkpt lat="41.91562" lon="-87.667879">
      </trkpt>
      <trkpt lat="41.920831" lon="-87.675191">
      </trkpt>
      <trkpt lat="41.922669" lon="-87.677815">
      </trkpt>
      <trkpt lat="41.932278" lon="-87.678134">
      </trkpt>
      <trkpt lat="41.932257" lon="-87.680713">
      </trkpt>
      <trkpt lat="41.932073" lon="-87.680658">
      </trkpt>
      <trkpt lat="41.932073" lon="-87.680658">
      </trkpt>
      <trkpt lat="41.932257" lon="-87.680713">
      </trkpt>
      <trkpt lat="41.932278" lon="-87.678134">
      </trkpt>
      <trkpt lat="41.92139" lon="-87.677765">
      </trkpt>
      <trkpt lat="41.921395" lon="-87.677255">
      </trkpt>
      <trkpt lat="41.918587" lon="-87.671848">
      </trkpt>
      <trkpt lat="41.916815" lon="-87.669405">
      </trkpt>
      <trkpt lat="41.915202" lon="-87.667999">
      </trkpt>
      <trkpt lat="41.909975" lon="-87.664752">
      </trkpt>
      <trkpt lat="41.90728" lon="-87.662005">
      </trkpt>
      <trkpt lat="41.905802" lon="-87.661229">
      </trkpt>
      <trkpt lat="41.903435" lon="-87.661667">
      </trkpt>
      <trkpt lat="41.903534" lon="-87.655448">
      </trkpt>
      <trkpt lat="41.904795" lon="-87.656534">
      </trkpt>
      <trkpt lat="41.907144" lon="-87.656617">
      </trkpt>
      <trkpt lat="41.907157" lon="-87.655968">
      </trkpt>
      <trkpt lat="41.907157" lon="-87.655968">
      </trkpt>
      <trkpt lat="41.907157" lon="-87.655968">
      </trkpt>
      <trkpt lat="41.907157" lon="-87.655968">
      </trkpt>
      <trkpt lat="41.907169" lon="-87.655446">
      </trkpt>
      <trkpt lat="41.904942" lon="-87.655255">
      </trkpt>
      <trkpt lat="41.901212" lon="-87.652152">
      </trkpt>
      <trkpt lat="41.899052" lon="-87.647885">
      </trkpt>
      <trkpt lat="41.896403" lon="-87.64782">
      </trkpt>
      <trkpt lat="41.896633" lon="-87.631243">
      </trkpt>
      <trkpt lat="41.895637" lon="-87.631219">
      </trkpt>
      <trkpt lat="41.895653" lon="-87.630373">
      </trkpt>
      <trkpt lat="41.895653" lon="-87.630373">
      </trkpt>
      <trkpt lat="41.895653" lon="-87.630373">
      </trkpt>
      <trkpt lat="41.895653" lon="-87.630373">
      </trkpt>
      <trkpt lat="41.895665" lon="-87.629762">
      </trkpt>
      <trkpt lat="41.896655" lon="-87.62978">
      </trkpt>
      <trkpt lat="41.896586" lon="-87.63421">
      </trkpt>
      <trkpt lat="41.898867" lon="-87.634293">
      </trkpt>
      <trkpt lat="41.898867" lon="-87.634293">
      </trkpt>
      <trkpt lat="41.90053" lon="-87.63435">
      </trkpt>
      <trkpt lat="41.900548" lon="-87.632751">
      </trkpt>
      <trkpt lat="41.905762" lon="-87.632906">
      </trkpt>
      <trkpt lat="41.905825" lon="-87.628062">
      </trkpt>
      <trkpt lat="41.905825" lon="-87.628062">
      </trkpt>
      <trkpt lat="41.904866" lon="-87.628019">
      </trkpt>
      <trkpt lat="41.904854" lon="-87.628715">
      </trkpt>
      <trkpt lat="41.903945" lon="-87.628691">
      </trkpt>
      <trkpt lat="41.903886" lon="-87.633004">
      </trkpt>
      <trkpt lat="41.89661" lon="-87.632793">
      </trkpt>
      <trkpt lat="41.896403" lon="-87.64782">
      </trkpt>
      <trkpt lat="41.890088" lon="-87.647611">
      </trkpt>
      <trkpt lat="41.890082" lon="-87.64876">
      </trkpt>
      <trkpt lat="41.889662" lon="-87.648752">
      </trkpt>
      <trkpt lat="41.889662" lon="-87.648752">
      </trkpt>
      <trkpt lat="41.889662" lon="-87.648752">
      </trkpt>
      <trkpt lat="41.889662" lon="-87.648752">
      </trkpt>
      <trkpt lat="41.885646" lon="-87.648644">
      </trkpt>
      <trkpt lat="41.885682" lon="-87.646258">
      </trkpt>
      <trkpt lat="41.884746" lon="-87.645922">
      </trkpt>
      <trkpt lat="41.881827" lon="-87.645999">
      </trkpt>
      <trkpt lat="41.880956" lon="-87.646134">
      </trkpt>
      <trkpt lat="41.879569" lon="-87.646145">
      </trkpt>
      <trkpt lat="41.878121" lon="-87.646166">
      </trkpt>
      <trkpt lat="41.877218" lon="-87.646107">
      </trkpt>
      <trkpt lat="41.876551" lon="-87.646063">
      </trkpt>
      <trkpt lat="41.875649" lon="-87.646733">
      </trkpt>
      <trkpt lat="41.875057" lon="-87.646076">
      </trkpt>
      <trkpt lat="41.875457" lon="-87.644423">
      </trkpt>
      <trkpt lat="41.875521" lon="-87.630714">
      </trkpt>
      <trkpt lat="41.857771" lon="-87.630236">
      </trkpt>
      <trkpt lat="41.857891" lon="-87.623921">
      </trkpt>
      <trkpt lat="41.855491" lon="-87.623874">
      </trkpt>
      <trkpt lat="41.855505" lon="-87.622723">
      </trkpt>
      <trkpt lat="41.855505" lon="-87.622723">
      </trkpt>
      <trkpt lat="41.855491" lon="-87.623874">
      </trkpt>
      <trkpt lat="41.852795" lon="-87.623807">
      </trkpt>
      <trkpt lat="41.85281" lon="-87.622709">
      </trkpt>
      <trkpt lat="41.85281" lon="-87.622709">
      </trkpt>
      <trkpt lat="41.852813" lon="-87.622234">
      </trkpt>
      <trkpt lat="41.867418" lon="-87.622442">
      </trkpt>
      <trkpt lat="41.867474" lon="-87.618739">
      </trkpt>
      <trkpt lat="41.869799" lon="-87.617003">
      </trkpt>
      <trkpt lat="41.881825" lon="-87.617167">
      </trkpt>
      <trkpt lat="41.884932" lon="-87.613613">
      </trkpt>
      <trkpt lat="41.89273" lon="-87.614003">
      </trkpt>
      <trkpt lat="41.900921" lon="-87.619441">
      </trkpt>
      <trkpt lat="41.90171" lon="-87.622727">
      </trkpt>
      <trkpt lat="41.902767" lon="-87.623983">
      </trkpt>
      <trkpt lat="41.912141" lon="-87.62589">
      </trkpt>
      <trkpt lat="41.918036" lon="-87.628743">
      </trkpt>
      <trkpt lat="41.924159" lon="-87.630534">
      </trkpt>
      <trkpt lat="41.926223" lon="-87.63067">
      </trkpt>
      <trkpt lat="41.925453" lon="-87.648766">
      </trkpt>
      <trkpt lat="41.929016" lon="-87.653741">
      </trkpt>
      <trkpt lat="41.931569" lon="-87.653827">
      </trkpt>
      <trkpt lat="41.931569" lon="-87.653827">
      </trkpt>
      <trkpt lat="41.932636" lon="-87.653863">
      </trkpt>
      <trkpt lat="41.932728" lon="-87.649013">
      </trkpt>
      <trkpt lat="41.939973" lon="-87.649275">
      </trkpt>
      <trkpt lat="41.940568" lon="-87.638088">
      </trkpt>
      <trkpt lat="41.951253" lon="-87.644496">
      </trkpt>
      <trkpt lat="41.973046" lon="-87.648738">
      </trkpt>
      <trkpt lat="41.984951" lon="-87.652803">
      </trkpt>
      <trkpt lat="41.985105" lon="-87.662456">
      </trkpt>
      <trkpt lat="41.992132" lon="-87.67531">
      </trkpt>
      <trkpt lat="42.015152" lon="-87.684067">
      </trkpt>
      <trkpt lat="42.020734" lon="-87.684812">
      </trkpt>
      <trkpt lat="42.020734" lon="-87.684812">
      </trkpt>
      <trkpt lat="42.015152" lon="-87.684067">
      </trkpt>
      <trkpt lat="41.992132" lon="-87.67531">
      </trkpt>
      <trkpt lat="41.985105" lon="-87.662456">
      </trkpt>
      <trkpt lat="41.984999" lon="-87.653157">
      </trkpt>
      <trkpt lat="41.972134" lon="-87.648822">
      </trkpt>
      <trkpt lat="41.951193" lon="-87.64469">
      </trkpt>
      <trkpt lat="41.942042" lon="-87.639566">
      </trkpt>
      <trkpt lat="41.940268" lon="-87.638796">
      </trkpt>
      <trkpt lat="41.940119" lon="-87.639537">
      </trkpt>
      <trkpt lat="41.932914" lon="-87.63931">
      </trkpt>
      <trkpt lat="41.931369" lon="-87.639319">
      </trkpt>
      <trkpt lat="41.93001" lon="-87.64343">
      </trkpt>
      <trkpt lat="41.929694" lon="-87.642943">
      </trkpt>
      <trkpt lat="41.929095" lon="-87.647955">
      </trkpt>
      <trkpt lat="41.929095" lon="-87.647955">
      </trkpt>
      <trkpt lat="41.929091" lon="-87.648892">
      </trkpt>
      <trkpt lat="41.939973" lon="-87.649275">
      </trkpt>
      <trkpt lat="41.940568" lon="-87.638088">
      </trkpt>
      <trkpt lat="41.951253" lon="-87.644496">
      </trkpt>
      <trkpt lat="41.954749" lon="-87.644596">
      </trkpt>
      <trkpt lat="41.973046" lon="-87.648738">
      </trkpt>
      <trkpt lat="41.981039" lon="-87.652251">
      </trkpt>
      <trkpt lat="41.984951" lon="-87.652803">
      </trkpt>
      <trkpt lat="41.985586" lon="-87.654178">
      </trkpt>
      <trkpt lat="41.985105" lon="-87.662456">
      </trkpt>
      <trkpt lat="41.987189" lon="-87.665884">
      </trkpt>
      <trkpt lat="41.987146" lon="-87.669585">
      </trkpt>
      <trkpt lat="41.988054" lon="-87.669707">
      </trkpt>
      <trkpt lat="41.987608" lon="-87.669796">
      </trkpt>
      <trkpt lat="41.987519" lon="-87.669769">
      </trkpt>
      <trkpt lat="41.987519" lon="-87.669769">
      </trkpt>
      <trkpt lat="41.985433" lon="-87.669181">
      </trkpt>
      <trkpt lat="41.985603" lon="-87.663294">
      </trkpt>
      <trkpt lat="41.985105" lon="-87.662456">
      </trkpt>
      <trkpt lat="41.984999" lon="-87.653157">
      </trkpt>
      <trkpt lat="41.972134" lon="-87.648822">
      </trkpt>
      <trkpt lat="41.950978" lon="-87.644611">
      </trkpt>
      <trkpt lat="41.941067" lon="-87.638957">
      </trkpt>
      <trkpt lat="41.93482" lon="-87.632527">
      </trkpt>
      <trkpt lat="41.928427" lon="-87.632048">
      </trkpt>
      <trkpt lat="41.902733" lon="-87.62421">
      </trkpt>
      <trkpt lat="41.900898" lon="-87.619617">
      </trkpt>
      <trkpt lat="41.893955" lon="-87.614907">
      </trkpt>
      <trkpt lat="41.8919" lon="-87.614335">
      </trkpt>
      <trkpt lat="41.889771" lon="-87.61419">
      </trkpt>
      <trkpt lat="41.887652" lon="-87.615105">
      </trkpt>
      <trkpt lat="41.888319" lon="-87.625084">
      </trkpt>
      <trkpt lat="41.886918" lon="-87.62718">
      </trkpt>
      <trkpt lat="41.886919" lon="-87.63479">
      </trkpt>
      <trkpt lat="41.885732" lon="-87.634774">
      </trkpt>
      <trkpt lat="41.885735" lon="-87.634134">
      </trkpt>
      <trkpt lat="41.885735" lon="-87.634134">
      </trkpt>
      <trkpt lat="41.885735" lon="-87.633948">
      </trkpt>
      <trkpt lat="41.884468" lon="-87.633916">
      </trkpt>
      <trkpt lat="41.884408" lon="-87.645482">
      </trkpt>
      <trkpt lat="41.884186" lon="-87.645901">
      </trkpt>
      <trkpt lat="41.881827" lon="-87.645999">
      </trkpt>
      <trkpt lat="41.880956" lon="-87.646134">
      </trkpt>
      <trkpt lat="41.879569" lon="-87.646145">
      </trkpt>
      <trkpt lat="41.878121" lon="-87.646166">
      </trkpt>
      <trkpt lat="41.876334" lon="-87.646815">
      </trkpt>
      <trkpt lat="41.87588" lon="-87.647774">
      </trkpt>
      <trkpt lat="41.875728" lon="-87.649135">
      </trkpt>
      <trkpt lat="41.876197" lon="-87.657603">
      </trkpt>
      <trkpt lat="41.875763" lon="-87.688313">
      </trkpt>
      <trkpt lat="41.875862" lon="-87.692409">
      </trkpt>
      <trkpt lat="41.875983" lon="-87.696151">
      </trkpt>
      <trkpt lat="41.880169" lon="-87.696261">
      </trkpt>
      <trkpt lat="41.880173" lon="-87.695733">
      </trkpt>
      <trkpt lat="41.880173" lon="-87.695733">
      </trkpt>
      <trkpt lat="41.880169" lon="-87.696261">
      </trkpt>
      <trkpt lat="41.884255" lon="-87.69636">
      </trkpt>
      <trkpt lat="41.884089" lon="-87.701291">
      </trkpt>
      <trkpt lat="41.889426" lon="-87.701479">
      </trkpt>
      <trkpt lat="41.891131" lon="-87.701974">
      </trkpt>
      <trkpt lat="41.895594" lon="-87.702191">
      </trkpt>
      <trkpt lat="41.895606" lon="-87.701213">
      </trkpt>
      <trkpt lat="41.895606" lon="-87.701213">
      </trkpt>
      <trkpt lat="41.895912" lon="-87.677057">
      </trkpt>
      <trkpt lat="41.899544" lon="-87.677161">
      </trkpt>
      <trkpt lat="41.899597" lon="-87.674089">
      </trkpt>
      <trkpt lat="41.90052" lon="-87.67412">
      </trkpt>
      <trkpt lat="41.90052" lon="-87.67412">
      </trkpt>
      <trkpt lat="41.899597" lon="-87.674089">
      </trkpt>
      <trkpt lat="41.899842" lon="-87.660982">
      </trkpt>
      <trkpt lat="41.899711" lon="-87.660843">
      </trkpt>
      <trkpt lat="41.895752" lon="-87.658005">
      </trkpt>
      <trkpt lat="41.886676" lon="-87.646473">
      </trkpt>
      <trkpt lat="41.857367" lon="-87.644363">
      </trkpt>
      <trkpt lat="41.852447" lon="-87.645793">
      </trkpt>
      <trkpt lat="41.849097" lon="-87.644333">
      </trkpt>
      <trkpt lat="41.846776" lon="-87.644894">
      </trkpt>
      <trkpt lat="41.844955" lon="-87.652708">
      </trkpt>
      <trkpt lat="41.837772" lon="-87.66744">
      </trkpt>
      <trkpt lat="41.836967" lon="-87.680443">
      </trkpt>
      <trkpt lat="41.82508" lon="-87.718339">
      </trkpt>
      <trkpt lat="41.823909" lon="-87.722555">
      </trkpt>
      <trkpt lat="41.822913" lon="-87.724092">
      </trkpt>
      <trkpt lat="41.775021" lon="-87.722658">
      </trkpt>
      <trkpt lat="41.775006" lon="-87.723897">
      </trkpt>
      <trkpt lat="41.775762" lon="-87.723917">
      </trkpt>
      <trkpt lat="41.775762" lon="-87.723917">
      </trkpt>
      <trkpt lat="41.776827" lon="-87.723946">
      </trkpt>
      <trkpt lat="41.77684" lon="-87.722709">
      </trkpt>
      <trkpt lat="41.822673" lon="-87.723989">
      </trkpt>
      <trkpt lat="41.836711" lon="-87.680385">
      </trkpt>
      <trkpt lat="41.83747" lon="-87.66766">
      </trkpt>
      <trkpt lat="41.841885" lon="-87.658964">
      </trkpt>
      <trkpt lat="41.846659" lon="-87.642563">
      </trkpt>
      <trkpt lat="41.850742" lon="-87.644555">
      </trkpt>
      <trkpt lat="41.885013" lon="-87.645685">
      </trkpt>
      <trkpt lat="41.890597" lon="-87.650048">
      </trkpt>
      <trkpt lat="41.89242" lon="-87.65026">
      </trkpt>
      <trkpt lat="41.892368" lon="-87.63704">
      </trkpt>
      <trkpt lat="41.903798" lon="-87.637466">
      </trkpt>
      <trkpt lat="41.903768" lon="-87.639563">
      </trkpt>
      <trkpt lat="41.904375" lon="-87.6404">
      </trkpt>
      <trkpt lat="41.904515" lon="-87.64022">
      </trkpt>
      <trkpt lat="41.904149" lon="-87.639718">
      </trkpt>
      <trkpt lat="41.904149" lon="-87.639718">
      </trkpt>
      <trkpt lat="41.904191" lon="-87.63907">
      </trkpt>
      <trkpt lat="41.904769" lon="-87.63865">
      </trkpt>
      <trkpt lat="41.904774" lon="-87.638379">
      </trkpt>
      <trkpt lat="41.911039" lon="-87.63858">
      </trkpt>
      <trkpt lat="41.911172" lon="-87.633071">
      </trkpt>
      <trkpt lat="41.912903" lon="-87.633044">
      </trkpt>
      <trkpt lat="41.913237" lon="-87.632269">
      </trkpt>
      <trkpt lat="41.912247" lon="-87.628505">
      </trkpt>
      <trkpt lat="41.912475" lon="-87.626923">
      </trkpt>
      <trkpt lat="41.913347" lon="-87.626017">
      </trkpt>
      <trkpt lat="41.918036" lon="-87.628743">
      </trkpt>
      <trkpt lat="41.927967" lon="-87.631735">
      </trkpt>
      <trkpt lat="41.934989" lon="-87.632402">
      </trkpt>
      <trkpt lat="41.941219" lon="-87.638833">
      </trkpt>
      <trkpt lat="41.951086" lon="-87.644437">
      </trkpt>
      <trkpt lat="41.954749" lon="-87.644596">
      </trkpt>
      <trkpt lat="41.973046" lon="-87.648738">
      </trkpt>
      <trkpt lat="41.981039" lon="-87.652251">
      </trkpt>
      <trkpt lat="41.984866" lon="-87.652765">
      </trkpt>
      <trkpt lat="41.985569" lon="-87.653847">
      </trkpt>
      <trkpt lat="41.985487" lon="-87.658072">
      </trkpt>
      <trkpt lat="41.984272" lon="-87.658038">
      </trkpt>
      <trkpt lat="41.984272" lon="-87.658038">
      </trkpt>
      <trkpt lat="41.984272" lon="-87.658038">
      </trkpt>
      <trkpt lat="41.984272" lon="-87.658038">
      </trkpt>
      <trkpt lat="41.983669" lon="-87.658021">
      </trkpt>
      <trkpt lat="41.983198" lon="-87.679477">
      </trkpt>
      <trkpt lat="41.982043" lon="-87.679565">
      </trkpt>
      <trkpt lat="41.977735" lon="-87.688432">
      </trkpt>
      <trkpt lat="41.977715" lon="-87.68922">
      </trkpt>
      <trkpt lat="41.975899" lon="-87.689151">
      </trkpt>
      <trkpt lat="41.975749" lon="-87.708696">
      </trkpt>
      <trkpt lat="41.968457" lon="-87.708478">
      </trkpt>
      <trkpt lat="41.968394" lon="-87.714891">
      </trkpt>
      <trkpt lat="41.968394" lon="-87.714891">
      </trkpt>
      <trkpt lat="41.969021" lon="-87.659673">
      </trkpt>
      <trkpt lat="41.964503" lon="-87.656894">
      </trkpt>
      <trkpt lat="41.964503" lon="-87.656894">
      </trkpt>
      <trkpt lat="41.961156" lon="-87.654742">
      </trkpt>
      <trkpt lat="41.954492" lon="-87.654549">
      </trkpt>
      <trkpt lat="41.953606" lon="-87.732464">
      </trkpt>
      <trkpt lat="41.955298" lon="-87.732533">
      </trkpt>
      <trkpt lat="41.960998" lon="-87.742619">
      </trkpt>
      <trkpt lat="41.996518" lon="-87.875224">
      </trkpt>
      <trkpt lat="42.250248" lon="-88.962426">
      </trkpt>
      <trkpt lat="42.800369" lon="-89.00473">
      </trkpt>
      <trkpt lat="42.963464" lon="-89.100992">
      </trkpt>
      <trkpt lat="43.041959" lon="-89.276344">
      </trkpt>
      <trkpt lat="43.480461" lon="-89.491922">
      </trkpt>
      <trkpt lat="43.573096" lon="-89.798511">
      </trkpt>
      <trkpt lat="43.664753" lon="-89.81449">
      </trkpt>
      <trkpt lat="43.872521" lon="-90.127193">
      </trkpt>
      <trkpt lat="43.985602" lon="-90.437988">
      </trkpt>
      <trkpt lat="44.152935" lon="-90.553299">
      </trkpt>
      <trkpt lat="44.842595" lon="-91.602716">
      </trkpt>
      <trkpt lat="44.948638" lon="-92.947487">
      </trkpt>
      <trkpt lat="44.948848" lon="-92.953496">
      </trkpt>
      <trkpt lat="45.030851" lon="-92.963262">
      </trkpt>
      <trkpt lat="45.035526" lon="-93.084967">
      </trkpt>
      <trkpt lat="45.060551" lon="-93.150813">
      </trkpt>
      <trkpt lat="45.069923" lon="-93.292644">
      </trkpt>
      <trkpt lat="45.091311" lon="-93.441139">
      </trkpt>
      <trkpt lat="45.251164" lon="-93.689692">
      </trkpt>
      <trkpt lat="45.60774" lon="-94.403694">
      </trkpt>
      <trkpt lat="45.668524" lon="-94.820979">
      </trkpt>
      <trkpt lat="46.040179" lon="-95.841379">
      </trkpt>
      <trkpt lat="46.844449" lon="-96.635923">
      </trkpt>
      <trkpt lat="46.920606" lon="-97.928509">
      </trkpt>
      <trkpt lat="46.825873" lon="-100.851812">
      </trkpt>
      <trkpt lat="46.931886" lon="-104.003375">
      </trkpt>
      <trkpt lat="46.933025" lon="-104.007687">
      </trkpt>
      <trkpt lat="46.920303" lon="-104.007713">
      </trkpt>
      <trkpt lat="46.920452" lon="-104.004333">
      </trkpt>
      <trkpt lat="46.921109" lon="-104.00434">
      </trkpt>
      <trkpt lat="46.921111" lon="-104.004008">
      </trkpt>
      <trkpt lat="46.921111" lon="-104.004008">
      </trkpt>
      <trkpt lat="46.921109" lon="-104.00434">
      </trkpt>
      <trkpt lat="46.920452" lon="-104.004333">
      </trkpt>
      <trkpt lat="46.920303" lon="-104.007713">
      </trkpt>
      <trkpt lat="46.930549" lon="-104.007714">
      </trkpt>
      <trkpt lat="46.821412" lon="-100.845376">
      </trkpt>
      <trkpt lat="46.920377" lon="-97.929326">
      </trkpt>
      <trkpt lat="46.84431" lon="-96.636364">
      </trkpt>
      <trkpt lat="46.040006" lon="-95.841668">
      </trkpt>
      <trkpt lat="45.668414" lon="-94.821253">
      </trkpt>
      <trkpt lat="45.58718" lon="-94.366407">
      </trkpt>
      <trkpt lat="45.094797" lon="-93.449505">
      </trkpt>
      <trkpt lat="45.073368" lon="-93.316321">
      </trkpt>
      <trkpt lat="45.066504" lon="-93.169383">
      </trkpt>
      <trkpt lat="45.037751" lon="-93.092006">
      </trkpt>
      <trkpt lat="44.95846" lon="-93.090897">
      </trkpt>
      <trkpt lat="44.956612" lon="-93.091165">
      </trkpt>
      <trkpt lat="44.95415" lon="-93.090566">
      </trkpt>
      <trkpt lat="44.951923" lon="-93.08647">
      </trkpt>
      <trkpt lat="44.952011" lon="-93.049411">
      </trkpt>
      <trkpt lat="44.901086" lon="-91.765715">
      </trkpt>
      <trkpt lat="44.764039" lon="-91.405786">
      </trkpt>
      <trkpt lat="44.414986" lon="-91.048032">
      </trkpt>
      <trkpt lat="44.150471" lon="-90.551556">
      </trkpt>
      <trkpt lat="43.999682" lon="-90.475118">
      </trkpt>
      <trkpt lat="43.87412" lon="-90.130566">
      </trkpt>
      <trkpt lat="43.663734" lon="-89.814688">
      </trkpt>
      <trkpt lat="43.572688" lon="-89.798572">
      </trkpt>
      <trkpt lat="43.496166" lon="-89.498273">
      </trkpt>
      <trkpt lat="43.110058" lon="-89.285769">
      </trkpt>
      <trkpt lat="42.799124" lon="-89.005142">
      </trkpt>
      <trkpt lat="42.250536" lon="-88.963349">
      </trkpt>
      <trkpt lat="42.1691" lon="-88.593791">
      </trkpt>
      <trkpt lat="41.988327" lon="-87.864082">
      </trkpt>
      <trkpt lat="41.913088" lon="-87.666712">
      </trkpt>
      <trkpt lat="41.910672" lon="-87.665662">
      </trkpt>
      <trkpt lat="41.910826" lon="-87.654084">
      </trkpt>
      <trkpt lat="41.905133" lon="-87.649323">
      </trkpt>
      <trkpt lat="41.905133" lon="-87.649323">
      </trkpt>
      <trkpt lat="41.905042" lon="-87.649202">
      </trkpt>
      <trkpt lat="41.905038" lon="-87.648124">
      </trkpt>
      <trkpt lat="41.910927" lon="-87.648286">
      </trkpt>
      <trkpt lat="41.911172" lon="-87.633071">
      </trkpt>
      <trkpt lat="41.913237" lon="-87.632269">
      </trkpt>
      <trkpt lat="41.912247" lon="-87.628505">
      </trkpt>
      <trkpt lat="41.913347" lon="-87.626017">
      </trkpt>
      <trkpt lat="41.927967" lon="-87.631735">
      </trkpt>
      <trkpt lat="41.934989" lon="-87.632402">
      </trkpt>
      <trkpt lat="41.941219" lon="-87.638833">
      </trkpt>
      <trkpt lat="41.951086" lon="-87.644437">
      </trkpt>
      <trkpt lat="41.973046" lon="-87.648738">
      </trkpt>
      <trkpt lat="41.984951" lon="-87.652803">
      </trkpt>
      <trkpt lat="41.985105" lon="-87.662456">
      </trkpt>
      <trkpt lat="41.992132" lon="-87.67531">
      </trkpt>
      <trkpt lat="41.995752" lon="-87.675808">
      </trkpt>
      <trkpt lat="41.995752" lon="-87.675808">
      </trkpt>
      <trkpt lat="41.99796" lon="-87.67684">
      </trkpt>
      <trkpt lat="41.998083" lon="-87.67067">
      </trkpt>
      <trkpt lat="41.996388" lon="-87.670315">
      </trkpt>
      <trkpt lat="41.996456" lon="-87.665471">
      </trkpt>
      <trkpt lat="41.996338" lon="-87.665223">
      </trkpt>
      <trkpt lat="41.996357" lon="-87.663308">
      </trkpt>
    </trkseg>
  </trk>
</gpx>