<?xml version="1.0" encoding="UTF-8"?>
<gpx xmlns="http://www.topografix.com/GPX/1/1" xmlns:xsi="http://www.w3.org/2001/XMLSchema-instance" xsi:schemaLocation="http://www.topografix.com/GPX/1/1 http://www.topografix.com/GPX/1/1/gpx.xsd" version="1.1" creator="gpx.py -- https://github.com/tkrajina/gpxpy">
  <trk>
    <trkseg>
      <trkpt lat="41.962954" lon="-87.713522">
      </trkpt>
      <trkpt lat="41.962957" lon="-87.713199">
      </trkpt>
      <trkpt lat="41.953809" lon="-87.712908">
      </trkpt>
      <trkpt lat="41.954634" lon="-87.645235">
      </trkpt>
      <trkpt lat="41.950978" lon="-87.644611">
      </trkpt>
      <trkpt lat="41.941594" lon="-87.639315">
      </trkpt>
      <trkpt lat="41.934639" lon="-87.632453">
      </trkpt>
      <trkpt lat="41.928427" lon="-87.632048">
      </trkpt>
      <trkpt lat="41.918735" lon="-87.629189">
      </trkpt>
      <trkpt lat="41.911998" lon="-87.62605">
      </trkpt>
      <trkpt lat="41.902733" lon="-87.62421">
      </trkpt>
      <trkpt lat="41.901491" lon="-87.62264">
      </trkpt>
      <trkpt lat="41.900898" lon="-87.619617">
      </trkpt>
      <trkpt lat="41.893955" lon="-87.614907">
      </trkpt>
      <trkpt lat="41.8919" lon="-87.614335">
      </trkpt>
      <trkpt lat="41.891128" lon="-87.614196">
      </trkpt>
      <trkpt lat="41.891141" lon="-87.61158">
      </trkpt>
      <trkpt lat="41.891531" lon="-87.611588">
      </trkpt>
      <trkpt lat="41.891531" lon="-87.611588">
      </trkpt>
      <trkpt lat="41.891968" lon="-87.611597">
      </trkpt>
      <trkpt lat="41.891833" lon="-87.617687">
      </trkpt>
      <trkpt lat="41.891456" lon="-87.617676">
      </trkpt>
      <trkpt lat="41.891456" lon="-87.617676">
      </trkpt>
      <trkpt lat="41.891833" lon="-87.617687">
      </trkpt>
      <trkpt lat="41.891543" lon="-87.637019">
      </trkpt>
      <trkpt lat="41.892795" lon="-87.637056">
      </trkpt>
      <trkpt lat="41.892522" lon="-87.64596">
      </trkpt>
      <trkpt lat="41.892674" lon="-87.65028">
      </trkpt>
      <trkpt lat="41.892622" lon="-87.653268">
      </trkpt>
      <trkpt lat="41.896481" lon="-87.658404">
      </trkpt>
      <trkpt lat="41.901399" lon="-87.660896">
      </trkpt>
      <trkpt lat="41.906646" lon="-87.66137">
      </trkpt>
      <trkpt lat="41.917654" lon="-87.670146">
      </trkpt>
      <trkpt lat="41.940372" lon="-87.709927">
      </trkpt>
      <trkpt lat="41.94215" lon="-87.715306">
      </trkpt>
      <trkpt lat="41.947613" lon="-87.719592">
      </trkpt>
      <trkpt lat="41.95982" lon="-87.741635">
      </trkpt>
      <trkpt lat="41.963594" lon="-87.746287">
      </trkpt>
      <trkpt lat="41.975724" lon="-87.747426">
      </trkpt>
      <trkpt lat="41.976396" lon="-87.74607">
      </trkpt>
      <trkpt lat="41.975364" lon="-87.745776">
      </trkpt>
      <trkpt lat="41.975339" lon="-87.747984">
      </trkpt>
      <trkpt lat="41.968033" lon="-87.747723">
      </trkpt>
      <trkpt lat="41.967938" lon="-87.757623">
      </trkpt>
      <trkpt lat="41.968431" lon="-87.758399">
      </trkpt>
      <trkpt lat="41.968431" lon="-87.758399">
      </trkpt>
      <trkpt lat="41.968431" lon="-87.758399">
      </trkpt>
      <trkpt lat="41.968431" lon="-87.758399">
      </trkpt>
      <trkpt lat="41.967875" lon="-87.757622">
      </trkpt>
      <trkpt lat="41.968033" lon="-87.747723">
      </trkpt>
      <trkpt lat="41.972896" lon="-87.747918">
      </trkpt>
      <trkpt lat="41.972794" lon="-87.747761">
      </trkpt>
      <trkpt lat="41.966563" lon="-87.747223">
      </trkpt>
      <trkpt lat="41.962358" lon="-87.745232">
      </trkpt>
      <trkpt lat="41.947613" lon="-87.719592">
      </trkpt>
      <trkpt lat="41.94215" lon="-87.715306">
      </trkpt>
      <trkpt lat="41.940372" lon="-87.709927">
      </trkpt>
      <trkpt lat="41.917654" lon="-87.670146">
      </trkpt>
      <trkpt lat="41.906646" lon="-87.66137">
      </trkpt>
      <trkpt lat="41.897394" lon="-87.659066">
      </trkpt>
      <trkpt lat="41.892534" lon="-87.653065">
      </trkpt>
      <trkpt lat="41.89242" lon="-87.632701">
      </trkpt>
      <trkpt lat="41.885741" lon="-87.632564">
      </trkpt>
      <trkpt lat="41.886462" lon="-87.632419">
      </trkpt>
      <trkpt lat="41.886462" lon="-87.632419">
      </trkpt>
      <trkpt lat="41.886819" lon="-87.632428">
      </trkpt>
      <trkpt lat="41.88682" lon="-87.631009">
      </trkpt>
      <trkpt lat="41.885747" lon="-87.630986">
      </trkpt>
      <trkpt lat="41.885746" lon="-87.630207">
      </trkpt>
      <trkpt lat="41.886506" lon="-87.630192">
      </trkpt>
      <trkpt lat="41.886506" lon="-87.630192">
      </trkpt>
      <trkpt lat="41.886919" lon="-87.63022">
      </trkpt>
      <trkpt lat="41.886908" lon="-87.635269">
      </trkpt>
      <trkpt lat="41.88588" lon="-87.636873">
      </trkpt>
      <trkpt lat="41.884459" lon="-87.636965">
      </trkpt>
      <trkpt lat="41.884425" lon="-87.644184">
      </trkpt>
      <trkpt lat="41.881817" lon="-87.644106">
      </trkpt>
      <trkpt lat="41.881801" lon="-87.64573">
      </trkpt>
      <trkpt lat="41.885306" lon="-87.645735">
      </trkpt>
      <trkpt lat="41.887752" lon="-87.646837">
      </trkpt>
      <trkpt lat="41.896733" lon="-87.658396">
      </trkpt>
      <trkpt lat="41.901461" lon="-87.660726">
      </trkpt>
      <trkpt lat="41.906443" lon="-87.661061">
      </trkpt>
      <trkpt lat="41.917096" lon="-87.669227">
      </trkpt>
      <trkpt lat="41.93676" lon="-87.702937">
      </trkpt>
      <trkpt lat="41.940632" lon="-87.710036">
      </trkpt>
      <trkpt lat="41.941793" lon="-87.713979">
      </trkpt>
      <trkpt lat="41.943044" lon="-87.715981">
      </trkpt>
      <trkpt lat="41.94651" lon="-87.717815">
      </trkpt>
      <trkpt lat="41.946215" lon="-87.739921">
      </trkpt>
      <trkpt lat="41.946215" lon="-87.739921">
      </trkpt>
      <trkpt lat="41.946271" lon="-87.735605">
      </trkpt>
      <trkpt lat="41.939142" lon="-87.723912">
      </trkpt>
      <trkpt lat="41.939918" lon="-87.654106">
      </trkpt>
      <trkpt lat="41.937175" lon="-87.654016">
      </trkpt>
      <trkpt lat="41.937186" lon="-87.653552">
      </trkpt>
      <trkpt lat="41.937074" lon="-87.65355">
      </trkpt>
      <trkpt lat="41.937074" lon="-87.65355">
      </trkpt>
      <trkpt lat="41.937186" lon="-87.653552">
      </trkpt>
      <trkpt lat="41.937175" lon="-87.654016">
      </trkpt>
      <trkpt lat="41.932636" lon="-87.653863">
      </trkpt>
      <trkpt lat="41.932278" lon="-87.678134">
      </trkpt>
      <trkpt lat="41.925026" lon="-87.677893">
      </trkpt>
      <trkpt lat="41.924981" lon="-87.681912">
      </trkpt>
      <trkpt lat="41.926707" lon="-87.685177">
      </trkpt>
      <trkpt lat="41.940439" lon="-87.709664">
      </trkpt>
      <trkpt lat="41.942387" lon="-87.715161">
      </trkpt>
      <trkpt lat="41.943551" lon="-87.716453">
      </trkpt>
      <trkpt lat="41.947406" lon="-87.71887">
      </trkpt>
      <trkpt lat="41.950079" lon="-87.723791">
      </trkpt>
      <trkpt lat="41.952511" lon="-87.727575">
      </trkpt>
      <trkpt lat="41.951378" lon="-87.727531">
      </trkpt>
      <trkpt lat="41.947686" lon="-87.720007">
      </trkpt>
      <trkpt lat="41.945898" lon="-87.718393">
      </trkpt>
      <trkpt lat="41.945898" lon="-87.718393">
      </trkpt>
      <trkpt lat="41.942115" lon="-87.715518">
      </trkpt>
      <trkpt lat="41.940478" lon="-87.712526">
      </trkpt>
      <trkpt lat="41.941642" lon="-87.712571">
      </trkpt>
      <trkpt lat="41.943044" lon="-87.715981">
      </trkpt>
      <trkpt lat="41.947985" lon="-87.719618">
      </trkpt>
      <trkpt lat="41.958569" lon="-87.738838">
      </trkpt>
      <trkpt lat="41.960451" lon="-87.741371">
      </trkpt>
      <trkpt lat="41.960845" lon="-87.74187">
      </trkpt>
      <trkpt lat="41.960061" lon="-87.794287">
      </trkpt>
      <trkpt lat="41.946631" lon="-87.822074">
      </trkpt>
      <trkpt lat="41.937842" lon="-87.821404">
      </trkpt>
      <trkpt lat="41.937866" lon="-87.820185">
      </trkpt>
      <trkpt lat="41.936076" lon="-87.820102">
      </trkpt>
      <trkpt lat="41.936062" lon="-87.820727">
      </trkpt>
      <trkpt lat="41.934634" lon="-87.82067">
      </trkpt>
      <trkpt lat="41.934634" lon="-87.82067">
      </trkpt>
      <trkpt lat="41.934634" lon="-87.82067">
      </trkpt>
      <trkpt lat="41.934634" lon="-87.82067">
      </trkpt>
      <trkpt lat="41.93424" lon="-87.820654">
      </trkpt>
      <trkpt lat="41.934421" lon="-87.81151">
      </trkpt>
      <trkpt lat="41.924776" lon="-87.811185">
      </trkpt>
      <trkpt lat="41.923552" lon="-87.803157">
      </trkpt>
      <trkpt lat="41.92364" lon="-87.789403">
      </trkpt>
      <trkpt lat="41.924799" lon="-87.700436">
      </trkpt>
      <trkpt lat="41.925445" lon="-87.701488">
      </trkpt>
      <trkpt lat="41.925798" lon="-87.70114">
      </trkpt>
      <trkpt lat="41.925798" lon="-87.70114">
      </trkpt>
      <trkpt lat="41.932082" lon="-87.701298">
      </trkpt>
      <trkpt lat="41.932179" lon="-87.687832">
      </trkpt>
      <trkpt lat="41.953985" lon="-87.688469">
      </trkpt>
      <trkpt lat="41.954306" lon="-87.668983">
      </trkpt>
      <trkpt lat="41.988054" lon="-87.669707">
      </trkpt>
      <trkpt lat="41.987608" lon="-87.669796">
      </trkpt>
      <trkpt lat="41.987519" lon="-87.669769">
      </trkpt>
      <trkpt lat="41.987519" lon="-87.669769">
      </trkpt>
      <trkpt lat="41.985433" lon="-87.669181">
      </trkpt>
      <trkpt lat="41.985603" lon="-87.663294">
      </trkpt>
      <trkpt lat="41.985105" lon="-87.662456">
      </trkpt>
      <trkpt lat="41.985463" lon="-87.660947">
      </trkpt>
      <trkpt lat="41.985586" lon="-87.654178">
      </trkpt>
      <trkpt lat="41.985103" lon="-87.653214">
      </trkpt>
      <trkpt lat="41.981232" lon="-87.652706">
      </trkpt>
      <trkpt lat="41.973607" lon="-87.649277">
      </trkpt>
      <trkpt lat="41.963721" lon="-87.646868">
      </trkpt>
      <trkpt lat="41.962397" lon="-87.647093">
      </trkpt>
      <trkpt lat="41.961908" lon="-87.646878">
      </trkpt>
      <trkpt lat="41.9618" lon="-87.65234">
      </trkpt>
      <trkpt lat="41.960709" lon="-87.652309">
      </trkpt>
      <trkpt lat="41.960386" lon="-87.65323">
      </trkpt>
      <trkpt lat="41.960386" lon="-87.65323">
      </trkpt>
      <trkpt lat="41.960094" lon="-87.65406">
      </trkpt>
      <trkpt lat="41.961156" lon="-87.654742">
      </trkpt>
      <trkpt lat="41.954492" lon="-87.654549">
      </trkpt>
      <trkpt lat="41.953617" lon="-87.731304">
      </trkpt>
      <trkpt lat="41.954216" lon="-87.732489">
      </trkpt>
      <trkpt lat="41.955298" lon="-87.732533">
      </trkpt>
      <trkpt lat="41.960998" lon="-87.742619">
      </trkpt>
      <trkpt lat="41.966033" lon="-87.752403">
      </trkpt>
      <trkpt lat="41.967937" lon="-87.75503">
      </trkpt>
      <trkpt lat="41.967665" lon="-87.77728">
      </trkpt>
      <trkpt lat="41.964842" lon="-87.777158">
      </trkpt>
      <trkpt lat="41.96491" lon="-87.777053">
      </trkpt>
      <trkpt lat="41.96491" lon="-87.777053">
      </trkpt>
      <trkpt lat="41.964842" lon="-87.777158">
      </trkpt>
      <trkpt lat="41.967665" lon="-87.77728">
      </trkpt>
      <trkpt lat="41.967822" lon="-87.765021">
      </trkpt>
      <trkpt lat="41.967596" lon="-87.761466">
      </trkpt>
      <trkpt lat="41.967869" lon="-87.760755">
      </trkpt>
      <trkpt lat="41.967916" lon="-87.756709">
      </trkpt>
      <trkpt lat="41.966268" lon="-87.753264">
      </trkpt>
      <trkpt lat="41.964121" lon="-87.749887">
      </trkpt>
      <trkpt lat="41.962708" lon="-87.746242">
      </trkpt>
      <trkpt lat="41.959294" lon="-87.74096">
      </trkpt>
      <trkpt lat="41.94853" lon="-87.721846">
      </trkpt>
      <trkpt lat="41.946493" lon="-87.718984">
      </trkpt>
      <trkpt lat="41.946623" lon="-87.708842">
      </trkpt>
      <trkpt lat="41.944219" lon="-87.705317">
      </trkpt>
      <trkpt lat="41.941057" lon="-87.705221">
      </trkpt>
      <trkpt lat="41.941061" lon="-87.704719">
      </trkpt>
      <trkpt lat="41.941061" lon="-87.704719">
      </trkpt>
      <trkpt lat="41.941075" lon="-87.702765">
      </trkpt>
      <trkpt lat="41.935677" lon="-87.702616">
      </trkpt>
      <trkpt lat="41.917124" lon="-87.669746">
      </trkpt>
      <trkpt lat="41.909975" lon="-87.664752">
      </trkpt>
      <trkpt lat="41.906635" lon="-87.661559">
      </trkpt>
      <trkpt lat="41.901587" lon="-87.661131">
      </trkpt>
      <trkpt lat="41.897534" lon="-87.659383">
      </trkpt>
      <trkpt lat="41.894931" lon="-87.657479">
      </trkpt>
      <trkpt lat="41.891076" lon="-87.657374">
      </trkpt>
      <trkpt lat="41.891179" lon="-87.648776">
      </trkpt>
      <trkpt lat="41.889662" lon="-87.648752">
      </trkpt>
      <trkpt lat="41.889662" lon="-87.648752">
      </trkpt>
      <trkpt lat="41.889017" lon="-87.648718">
      </trkpt>
      <trkpt lat="41.888979" lon="-87.648612">
      </trkpt>
      <trkpt lat="41.889039" lon="-87.645907">
      </trkpt>
      <trkpt lat="41.889078" lon="-87.641768">
      </trkpt>
      <trkpt lat="41.889054" lon="-87.641668">
      </trkpt>
      <trkpt lat="41.888886" lon="-87.641418">
      </trkpt>
      <trkpt lat="41.888757" lon="-87.641385">
      </trkpt>
      <trkpt lat="41.887052" lon="-87.641357">
      </trkpt>
      <trkpt lat="41.887052" lon="-87.641357">
      </trkpt>
      <trkpt lat="41.889103" lon="-87.641369">
      </trkpt>
      <trkpt lat="41.889054" lon="-87.644337">
      </trkpt>
      <trkpt lat="41.891194" lon="-87.647627">
      </trkpt>
      <trkpt lat="41.905038" lon="-87.648124">
      </trkpt>
      <trkpt lat="41.905042" lon="-87.649202">
      </trkpt>
      <trkpt lat="41.909772" lon="-87.653203">
      </trkpt>
      <trkpt lat="41.929016" lon="-87.653741">
      </trkpt>
      <trkpt lat="41.928972" lon="-87.65652">
      </trkpt>
      <trkpt lat="41.928972" lon="-87.65652">
      </trkpt>
      <trkpt lat="41.929135" lon="-87.645552">
      </trkpt>
      <trkpt lat="41.929324" lon="-87.644199">
      </trkpt>
      <trkpt lat="41.929694" lon="-87.642943">
      </trkpt>
      <trkpt lat="41.928546" lon="-87.64223">
      </trkpt>
      <trkpt lat="41.928323" lon="-87.642977">
      </trkpt>
      <trkpt lat="41.928323" lon="-87.642977">
      </trkpt>
      <trkpt lat="41.928034" lon="-87.644207">
      </trkpt>
      <trkpt lat="41.925527" lon="-87.643933">
      </trkpt>
      <trkpt lat="41.924981" lon="-87.681912">
      </trkpt>
      <trkpt lat="41.926707" lon="-87.685177">
      </trkpt>
      <trkpt lat="41.940439" lon="-87.709664">
      </trkpt>
      <trkpt lat="41.942387" lon="-87.715161">
      </trkpt>
      <trkpt lat="41.947985" lon="-87.719618">
      </trkpt>
      <trkpt lat="41.960998" lon="-87.742619">
      </trkpt>
      <trkpt lat="41.965157" lon="-87.74678">
      </trkpt>
      <trkpt lat="41.980044" lon="-87.746614">
      </trkpt>
      <trkpt lat="41.985896" lon="-87.750967">
      </trkpt>
      <trkpt lat="41.99049" lon="-87.751131">
      </trkpt>
      <trkpt lat="41.991278" lon="-87.749995">
      </trkpt>
      <trkpt lat="41.990201" lon="-87.750346">
      </trkpt>
      <trkpt lat="41.991161" lon="-87.753543">
      </trkpt>
      <trkpt lat="42.004249" lon="-87.781572">
      </trkpt>
      <trkpt lat="42.007276" lon="-87.784689">
      </trkpt>
      <trkpt lat="42.009008" lon="-87.781034">
      </trkpt>
      <trkpt lat="42.009604" lon="-87.781529">
      </trkpt>
      <trkpt lat="42.010028" lon="-87.780629">
      </trkpt>
      <trkpt lat="42.010028" lon="-87.780629">
      </trkpt>
      <trkpt lat="42.009604" lon="-87.781529">
      </trkpt>
      <trkpt lat="42.009008" lon="-87.781034">
      </trkpt>
      <trkpt lat="42.007276" lon="-87.784689">
      </trkpt>
      <trkpt lat="41.991079" lon="-87.753476">
      </trkpt>
      <trkpt lat="41.980228" lon="-87.746835">
      </trkpt>
      <trkpt lat="41.966563" lon="-87.747223">
      </trkpt>
      <trkpt lat="41.962358" lon="-87.745232">
      </trkpt>
      <trkpt lat="41.947613" lon="-87.719592">
      </trkpt>
      <trkpt lat="41.94215" lon="-87.715306">
      </trkpt>
      <trkpt lat="41.917654" lon="-87.670146">
      </trkpt>
      <trkpt lat="41.906646" lon="-87.66137">
      </trkpt>
      <trkpt lat="41.897685" lon="-87.659246">
      </trkpt>
      <trkpt lat="41.886261" lon="-87.646315">
      </trkpt>
      <trkpt lat="41.850609" lon="-87.644998">
      </trkpt>
      <trkpt lat="41.847255" lon="-87.642186">
      </trkpt>
      <trkpt lat="41.845323" lon="-87.634652">
      </trkpt>
      <trkpt lat="41.841797" lon="-87.631511">
      </trkpt>
      <trkpt lat="41.834597" lon="-87.631593">
      </trkpt>
      <trkpt lat="41.834642" lon="-87.628886">
      </trkpt>
      <trkpt lat="41.833673" lon="-87.628847">
      </trkpt>
    </trkseg>
  </trk>
</gpx>