<?xml version="1.0" encoding="UTF-8"?>
<gpx xmlns="http://www.topografix.com/GPX/1/1" xmlns:xsi="http://www.w3.org/2001/XMLSchema-instance" xsi:schemaLocation="http://www.topografix.com/GPX/1/1 http://www.topografix.com/GPX/1/1/gpx.xsd" version="1.1" creator="gpx.py -- https://github.com/tkrajina/gpxpy">
  <trk>
    <trkseg>
      <trkpt lat="41.987519" lon="-87.669769">
      </trkpt>
      <trkpt lat="41.985953" lon="-87.669343">
      </trkpt>
      <trkpt lat="41.985945" lon="-87.669821">
      </trkpt>
      <trkpt lat="41.986947" lon="-87.669568">
      </trkpt>
      <trkpt lat="41.990269" lon="-87.669937">
      </trkpt>
      <trkpt lat="41.99639" lon="-87.670138">
      </trkpt>
      <trkpt lat="41.998086" lon="-87.670543">
      </trkpt>
      <trkpt lat="41.99814" lon="-87.665468">
      </trkpt>
      <trkpt lat="42.003627" lon="-87.665673">
      </trkpt>
      <trkpt lat="42.00362" lon="-87.666051">
      </trkpt>
      <trkpt lat="42.00362" lon="-87.666051">
      </trkpt>
      <trkpt lat="42.003585" lon="-87.668125">
      </trkpt>
      <trkpt lat="42.005422" lon="-87.668185">
      </trkpt>
      <trkpt lat="42.005389" lon="-87.669957">
      </trkpt>
      <trkpt lat="42.014929" lon="-87.670267">
      </trkpt>
      <trkpt lat="42.014978" lon="-87.667467">
      </trkpt>
      <trkpt lat="42.014978" lon="-87.667467">
      </trkpt>
      <trkpt lat="42.015024" lon="-87.664678">
      </trkpt>
      <trkpt lat="42.021956" lon="-87.666816">
      </trkpt>
      <trkpt lat="42.022353" lon="-87.66675">
      </trkpt>
      <trkpt lat="42.022751" lon="-87.665533">
      </trkpt>
      <trkpt lat="42.023203" lon="-87.665312">
      </trkpt>
      <trkpt lat="42.026585" lon="-87.667277">
      </trkpt>
      <trkpt lat="42.027177" lon="-87.668795">
      </trkpt>
      <trkpt lat="42.027274" lon="-87.678958">
      </trkpt>
      <trkpt lat="42.026622" lon="-87.678877">
      </trkpt>
      <trkpt lat="42.026745" lon="-87.690082">
      </trkpt>
      <trkpt lat="42.026266" lon="-87.72577">
      </trkpt>
      <trkpt lat="42.033502" lon="-87.723981">
      </trkpt>
      <trkpt lat="42.033507" lon="-87.723597">
      </trkpt>
      <trkpt lat="42.033507" lon="-87.723597">
      </trkpt>
      <trkpt lat="42.034007" lon="-87.686761">
      </trkpt>
      <trkpt lat="42.029894" lon="-87.685845">
      </trkpt>
      <trkpt lat="42.017954" lon="-87.684442">
      </trkpt>
      <trkpt lat="42.017946" lon="-87.683">
      </trkpt>
      <trkpt lat="42.017138" lon="-87.683005">
      </trkpt>
      <trkpt lat="42.017138" lon="-87.683005">
      </trkpt>
      <trkpt lat="42.016485" lon="-87.683008">
      </trkpt>
      <trkpt lat="42.016504" lon="-87.684283">
      </trkpt>
      <trkpt lat="42.029894" lon="-87.685845">
      </trkpt>
      <trkpt lat="42.041263" lon="-87.688374">
      </trkpt>
      <trkpt lat="42.048527" lon="-87.688792">
      </trkpt>
      <trkpt lat="42.055784" lon="-87.686917">
      </trkpt>
      <trkpt lat="42.064157" lon="-87.683523">
      </trkpt>
      <trkpt lat="42.068711" lon="-87.682885">
      </trkpt>
      <trkpt lat="42.068742" lon="-87.685082">
      </trkpt>
      <trkpt lat="42.068742" lon="-87.685082">
      </trkpt>
      <trkpt lat="42.068882" lon="-87.697998">
      </trkpt>
      <trkpt lat="42.064331" lon="-87.698067">
      </trkpt>
      <trkpt lat="42.064611" lon="-87.728131">
      </trkpt>
      <trkpt lat="42.062484" lon="-87.730613">
      </trkpt>
      <trkpt lat="42.062548" lon="-87.74915">
      </trkpt>
      <trkpt lat="42.062415" lon="-87.74874">
      </trkpt>
      <trkpt lat="42.062415" lon="-87.74874">
      </trkpt>
      <trkpt lat="42.062482" lon="-87.727436">
      </trkpt>
      <trkpt lat="42.055257" lon="-87.727537">
      </trkpt>
      <trkpt lat="42.055334" lon="-87.715818">
      </trkpt>
      <trkpt lat="42.052539" lon="-87.709349">
      </trkpt>
      <trkpt lat="42.05196" lon="-87.706397">
      </trkpt>
      <trkpt lat="42.052194" lon="-87.688763">
      </trkpt>
      <trkpt lat="42.051448" lon="-87.688069">
      </trkpt>
      <trkpt lat="42.048527" lon="-87.688792">
      </trkpt>
      <trkpt lat="42.041263" lon="-87.688374">
      </trkpt>
      <trkpt lat="42.029894" lon="-87.685845">
      </trkpt>
      <trkpt lat="42.015501" lon="-87.684163">
      </trkpt>
      <trkpt lat="42.004103" lon="-87.679672">
      </trkpt>
      <trkpt lat="42.004091" lon="-87.680339">
      </trkpt>
      <trkpt lat="42.001583" lon="-87.680263">
      </trkpt>
      <trkpt lat="42.001563" lon="-87.68146">
      </trkpt>
      <trkpt lat="42.001563" lon="-87.68146">
      </trkpt>
      <trkpt lat="42.004215" lon="-87.681531">
      </trkpt>
      <trkpt lat="42.00423" lon="-87.680342">
      </trkpt>
      <trkpt lat="42.004091" lon="-87.680339">
      </trkpt>
      <trkpt lat="42.004103" lon="-87.679672">
      </trkpt>
      <trkpt lat="41.99796" lon="-87.67684">
      </trkpt>
      <trkpt lat="41.99817" lon="-87.655995">
      </trkpt>
      <trkpt lat="41.997711" lon="-87.655621">
      </trkpt>
      <trkpt lat="41.987812" lon="-87.655324">
      </trkpt>
      <trkpt lat="41.987812" lon="-87.655324">
      </trkpt>
      <trkpt lat="41.985556" lon="-87.655253">
      </trkpt>
      <trkpt lat="41.984999" lon="-87.653157">
      </trkpt>
      <trkpt lat="41.973006" lon="-87.649079">
      </trkpt>
      <trkpt lat="41.950978" lon="-87.644611">
      </trkpt>
      <trkpt lat="41.941067" lon="-87.638957">
      </trkpt>
      <trkpt lat="41.93482" lon="-87.632527">
      </trkpt>
      <trkpt lat="41.928427" lon="-87.632048">
      </trkpt>
      <trkpt lat="41.902892" lon="-87.62428">
      </trkpt>
      <trkpt lat="41.900898" lon="-87.619617">
      </trkpt>
      <trkpt lat="41.893292" lon="-87.614447">
      </trkpt>
      <trkpt lat="41.886779" lon="-87.614132">
      </trkpt>
      <trkpt lat="41.884515" lon="-87.614444">
      </trkpt>
      <trkpt lat="41.884448" lon="-87.639799">
      </trkpt>
      <trkpt lat="41.887994" lon="-87.639953">
      </trkpt>
      <trkpt lat="41.88801" lon="-87.640199">
      </trkpt>
      <trkpt lat="41.88801" lon="-87.640199">
      </trkpt>
      <trkpt lat="41.887994" lon="-87.639953">
      </trkpt>
      <trkpt lat="41.889064" lon="-87.64001">
      </trkpt>
      <trkpt lat="41.88911" lon="-87.641057">
      </trkpt>
      <trkpt lat="41.889054" lon="-87.644337">
      </trkpt>
      <trkpt lat="41.883163" lon="-87.644147">
      </trkpt>
      <trkpt lat="41.883172" lon="-87.642677">
      </trkpt>
      <trkpt lat="41.883172" lon="-87.642677">
      </trkpt>
      <trkpt lat="41.884435" lon="-87.642712">
      </trkpt>
      <trkpt lat="41.884408" lon="-87.645482">
      </trkpt>
      <trkpt lat="41.884186" lon="-87.645901">
      </trkpt>
      <trkpt lat="41.881827" lon="-87.645999">
      </trkpt>
      <trkpt lat="41.880956" lon="-87.646134">
      </trkpt>
      <trkpt lat="41.879569" lon="-87.646145">
      </trkpt>
      <trkpt lat="41.878121" lon="-87.646166">
      </trkpt>
      <trkpt lat="41.876334" lon="-87.646815">
      </trkpt>
      <trkpt lat="41.87588" lon="-87.647774">
      </trkpt>
      <trkpt lat="41.875728" lon="-87.649135">
      </trkpt>
      <trkpt lat="41.876197" lon="-87.657603">
      </trkpt>
      <trkpt lat="41.875763" lon="-87.688313">
      </trkpt>
      <trkpt lat="41.875862" lon="-87.692409">
      </trkpt>
      <trkpt lat="41.875983" lon="-87.696151">
      </trkpt>
      <trkpt lat="41.880169" lon="-87.696261">
      </trkpt>
      <trkpt lat="41.880173" lon="-87.695733">
      </trkpt>
      <trkpt lat="41.880173" lon="-87.695733">
      </trkpt>
      <trkpt lat="41.880169" lon="-87.696261">
      </trkpt>
      <trkpt lat="41.874902" lon="-87.696127">
      </trkpt>
      <trkpt lat="41.874908" lon="-87.695509">
      </trkpt>
      <trkpt lat="41.875125" lon="-87.690201">
      </trkpt>
      <trkpt lat="41.87561" lon="-87.659837">
      </trkpt>
      <trkpt lat="41.875318" lon="-87.651569">
      </trkpt>
      <trkpt lat="41.87559" lon="-87.623113">
      </trkpt>
      <trkpt lat="41.875815" lon="-87.620619">
      </trkpt>
      <trkpt lat="41.875872" lon="-87.62062">
      </trkpt>
      <trkpt lat="41.875872" lon="-87.62062">
      </trkpt>
      <trkpt lat="41.880871" lon="-87.620794">
      </trkpt>
      <trkpt lat="41.882623" lon="-87.620558">
      </trkpt>
      <trkpt lat="41.884517" lon="-87.620609">
      </trkpt>
      <trkpt lat="41.884489" lon="-87.627902">
      </trkpt>
      <trkpt lat="41.889259" lon="-87.628003">
      </trkpt>
      <trkpt lat="41.889251" lon="-87.628704">
      </trkpt>
      <trkpt lat="41.889251" lon="-87.628704">
      </trkpt>
      <trkpt lat="41.889218" lon="-87.631063">
      </trkpt>
      <trkpt lat="41.884477" lon="-87.630953">
      </trkpt>
      <trkpt lat="41.884465" lon="-87.635401">
      </trkpt>
      <trkpt lat="41.886768" lon="-87.635439">
      </trkpt>
      <trkpt lat="41.886821" lon="-87.635158">
      </trkpt>
      <trkpt lat="41.886821" lon="-87.634232">
      </trkpt>
      <trkpt lat="41.886821" lon="-87.634232">
      </trkpt>
      <trkpt lat="41.886819" lon="-87.632568">
      </trkpt>
      <trkpt lat="41.883305" lon="-87.632482">
      </trkpt>
      <trkpt lat="41.883246" lon="-87.631699">
      </trkpt>
      <trkpt lat="41.883184" lon="-87.630932">
      </trkpt>
      <trkpt lat="41.87816" lon="-87.63078">
      </trkpt>
      <trkpt lat="41.878331" lon="-87.620697">
      </trkpt>
      <trkpt lat="41.875872" lon="-87.62062">
      </trkpt>
      <trkpt lat="41.875872" lon="-87.62062">
      </trkpt>
      <trkpt lat="41.875872" lon="-87.62062">
      </trkpt>
      <trkpt lat="41.875872" lon="-87.62062">
      </trkpt>
      <trkpt lat="41.875815" lon="-87.620619">
      </trkpt>
      <trkpt lat="41.875615" lon="-87.643841">
      </trkpt>
      <trkpt lat="41.876197" lon="-87.657603">
      </trkpt>
      <trkpt lat="41.875658" lon="-87.697235">
      </trkpt>
      <trkpt lat="41.874348" lon="-87.708052">
      </trkpt>
      <trkpt lat="41.874195" lon="-87.716326">
      </trkpt>
      <trkpt lat="41.874448" lon="-87.720405">
      </trkpt>
      <trkpt lat="41.868047" lon="-87.720159">
      </trkpt>
      <trkpt lat="41.868023" lon="-87.722791">
      </trkpt>
      <trkpt lat="41.867116" lon="-87.722764">
      </trkpt>
      <trkpt lat="41.867118" lon="-87.722576">
      </trkpt>
      <trkpt lat="41.867118" lon="-87.722576">
      </trkpt>
      <trkpt lat="41.867146" lon="-87.720128">
      </trkpt>
      <trkpt lat="41.863035" lon="-87.719988">
      </trkpt>
      <trkpt lat="41.862432" lon="-87.719379">
      </trkpt>
      <trkpt lat="41.862526" lon="-87.705556">
      </trkpt>
      <trkpt lat="41.839055" lon="-87.704879">
      </trkpt>
      <trkpt lat="41.839099" lon="-87.702417">
      </trkpt>
      <trkpt lat="41.839099" lon="-87.702417">
      </trkpt>
      <trkpt lat="41.837285" lon="-87.702362">
      </trkpt>
      <trkpt lat="41.837239" lon="-87.704823">
      </trkpt>
      <trkpt lat="41.829034" lon="-87.704642">
      </trkpt>
      <trkpt lat="41.830574" lon="-87.699332">
      </trkpt>
      <trkpt lat="41.836711" lon="-87.680385">
      </trkpt>
      <trkpt lat="41.83747" lon="-87.66766">
      </trkpt>
      <trkpt lat="41.844887" lon="-87.651867">
      </trkpt>
      <trkpt lat="41.846989" lon="-87.642887">
      </trkpt>
      <trkpt lat="41.847976" lon="-87.616851">
      </trkpt>
      <trkpt lat="41.848153" lon="-87.613392">
      </trkpt>
      <trkpt lat="41.84938" lon="-87.612168">
      </trkpt>
      <trkpt lat="41.8661" lon="-87.619244">
      </trkpt>
      <trkpt lat="41.869799" lon="-87.617003">
      </trkpt>
      <trkpt lat="41.881825" lon="-87.617167">
      </trkpt>
      <trkpt lat="41.884762" lon="-87.613645">
      </trkpt>
      <trkpt lat="41.89273" lon="-87.614003">
      </trkpt>
      <trkpt lat="41.900921" lon="-87.619441">
      </trkpt>
      <trkpt lat="41.902767" lon="-87.623983">
      </trkpt>
      <trkpt lat="41.924159" lon="-87.630534">
      </trkpt>
      <trkpt lat="41.926223" lon="-87.63067">
      </trkpt>
      <trkpt lat="41.925453" lon="-87.648766">
      </trkpt>
      <trkpt lat="41.929016" lon="-87.653741">
      </trkpt>
      <trkpt lat="41.928972" lon="-87.65652">
      </trkpt>
      <trkpt lat="41.928972" lon="-87.65652">
      </trkpt>
      <trkpt lat="41.929135" lon="-87.645552">
      </trkpt>
      <trkpt lat="41.929324" lon="-87.644199">
      </trkpt>
      <trkpt lat="41.929694" lon="-87.642943">
      </trkpt>
      <trkpt lat="41.927956" lon="-87.641881">
      </trkpt>
      <trkpt lat="41.927956" lon="-87.641881">
      </trkpt>
      <trkpt lat="41.92963" lon="-87.642875">
      </trkpt>
      <trkpt lat="41.93012" lon="-87.643564">
      </trkpt>
      <trkpt lat="41.931849" lon="-87.644577">
      </trkpt>
      <trkpt lat="41.932979" lon="-87.645015">
      </trkpt>
      <trkpt lat="41.938193" lon="-87.649228">
      </trkpt>
      <trkpt lat="41.938097" lon="-87.654046">
      </trkpt>
      <trkpt lat="41.937175" lon="-87.654016">
      </trkpt>
      <trkpt lat="41.937186" lon="-87.653552">
      </trkpt>
      <trkpt lat="41.937074" lon="-87.65355">
      </trkpt>
      <trkpt lat="41.937074" lon="-87.65355">
      </trkpt>
      <trkpt lat="41.937186" lon="-87.653552">
      </trkpt>
      <trkpt lat="41.937175" lon="-87.654016">
      </trkpt>
      <trkpt lat="41.936284" lon="-87.653987">
      </trkpt>
      <trkpt lat="41.93662" lon="-87.636854">
      </trkpt>
      <trkpt lat="41.936481" lon="-87.636832">
      </trkpt>
      <trkpt lat="41.936481" lon="-87.636832">
      </trkpt>
      <trkpt lat="41.934349" lon="-87.636648">
      </trkpt>
      <trkpt lat="41.933168" lon="-87.636082">
      </trkpt>
      <trkpt lat="41.931132" lon="-87.637134">
      </trkpt>
      <trkpt lat="41.925745" lon="-87.633621">
      </trkpt>
      <trkpt lat="41.926001" lon="-87.631853">
      </trkpt>
      <trkpt lat="41.923776" lon="-87.630603">
      </trkpt>
      <trkpt lat="41.918735" lon="-87.629189">
      </trkpt>
      <trkpt lat="41.915117" lon="-87.627538">
      </trkpt>
      <trkpt lat="41.913042" lon="-87.627206">
      </trkpt>
      <trkpt lat="41.912346" lon="-87.628067">
      </trkpt>
      <trkpt lat="41.913459" lon="-87.631428">
      </trkpt>
      <trkpt lat="41.912907" lon="-87.633196">
      </trkpt>
      <trkpt lat="41.899913" lon="-87.632884">
      </trkpt>
      <trkpt lat="41.899913" lon="-87.632884">
      </trkpt>
      <trkpt lat="41.89661" lon="-87.632793">
      </trkpt>
      <trkpt lat="41.896586" lon="-87.63421">
      </trkpt>
      <trkpt lat="41.898867" lon="-87.634293">
      </trkpt>
      <trkpt lat="41.898867" lon="-87.634293">
      </trkpt>
      <trkpt lat="41.90053" lon="-87.63435">
      </trkpt>
      <trkpt lat="41.9006" lon="-87.628335">
      </trkpt>
      <trkpt lat="41.900747" lon="-87.62834">
      </trkpt>
      <trkpt lat="41.900824" lon="-87.624042">
      </trkpt>
      <trkpt lat="41.902709" lon="-87.623664">
      </trkpt>
      <trkpt lat="41.912141" lon="-87.62589">
      </trkpt>
      <trkpt lat="41.918036" lon="-87.628743">
      </trkpt>
      <trkpt lat="41.928415" lon="-87.631851">
      </trkpt>
      <trkpt lat="41.934381" lon="-87.632152">
      </trkpt>
      <trkpt lat="41.936704" lon="-87.633661">
      </trkpt>
      <trkpt lat="41.939073" lon="-87.63676">
      </trkpt>
      <trkpt lat="41.940568" lon="-87.638088">
      </trkpt>
      <trkpt lat="41.940268" lon="-87.638796">
      </trkpt>
      <trkpt lat="41.936481" lon="-87.636832">
      </trkpt>
      <trkpt lat="41.936481" lon="-87.636832">
      </trkpt>
      <trkpt lat="41.935621" lon="-87.636768">
      </trkpt>
      <trkpt lat="41.935587" lon="-87.639391">
      </trkpt>
      <trkpt lat="41.936919" lon="-87.639435">
      </trkpt>
      <trkpt lat="41.936919" lon="-87.639435">
      </trkpt>
      <trkpt lat="41.940119" lon="-87.639537">
      </trkpt>
      <trkpt lat="41.940268" lon="-87.638796">
      </trkpt>
      <trkpt lat="41.939931" lon="-87.638606">
      </trkpt>
      <trkpt lat="41.934639" lon="-87.632453">
      </trkpt>
      <trkpt lat="41.928427" lon="-87.632048">
      </trkpt>
      <trkpt lat="41.902733" lon="-87.62421">
      </trkpt>
      <trkpt lat="41.900898" lon="-87.619617">
      </trkpt>
      <trkpt lat="41.892868" lon="-87.614264">
      </trkpt>
      <trkpt lat="41.884928" lon="-87.614127">
      </trkpt>
      <trkpt lat="41.881821" lon="-87.617453">
      </trkpt>
      <trkpt lat="41.869765" lon="-87.617261">
      </trkpt>
      <trkpt lat="41.866208" lon="-87.619588">
      </trkpt>
      <trkpt lat="41.853242" lon="-87.614728">
      </trkpt>
      <trkpt lat="41.84861" lon="-87.614264">
      </trkpt>
      <trkpt lat="41.848129" lon="-87.623007">
      </trkpt>
      <trkpt lat="41.847768" lon="-87.626571">
      </trkpt>
      <trkpt lat="41.847608" lon="-87.626978">
      </trkpt>
      <trkpt lat="41.834684" lon="-87.626674">
      </trkpt>
      <trkpt lat="41.834642" lon="-87.628886">
      </trkpt>
      <trkpt lat="41.833673" lon="-87.628847">
      </trkpt>
      <trkpt lat="41.833673" lon="-87.628847">
      </trkpt>
      <trkpt lat="41.834642" lon="-87.628886">
      </trkpt>
      <trkpt lat="41.834623" lon="-87.629907">
      </trkpt>
      <trkpt lat="41.841613" lon="-87.6301">
      </trkpt>
      <trkpt lat="41.844491" lon="-87.631814">
      </trkpt>
      <trkpt lat="41.847286" lon="-87.641891">
      </trkpt>
      <trkpt lat="41.850184" lon="-87.644549">
      </trkpt>
      <trkpt lat="41.852401" lon="-87.645183">
      </trkpt>
      <trkpt lat="41.856638" lon="-87.644172">
      </trkpt>
      <trkpt lat="41.867845" lon="-87.644517">
      </trkpt>
      <trkpt lat="41.873521" lon="-87.644628">
      </trkpt>
      <trkpt lat="41.875725" lon="-87.645646">
      </trkpt>
      <trkpt lat="41.875863" lon="-87.649223">
      </trkpt>
      <trkpt lat="41.875763" lon="-87.688313">
      </trkpt>
      <trkpt lat="41.875862" lon="-87.692409">
      </trkpt>
      <trkpt lat="41.875983" lon="-87.696151">
      </trkpt>
      <trkpt lat="41.877434" lon="-87.696189">
      </trkpt>
      <trkpt lat="41.877461" lon="-87.693785">
      </trkpt>
      <trkpt lat="41.878371" lon="-87.693796">
      </trkpt>
      <trkpt lat="41.878346" lon="-87.696046">
      </trkpt>
      <trkpt lat="41.878346" lon="-87.696046">
      </trkpt>
      <trkpt lat="41.878344" lon="-87.696214">
      </trkpt>
      <trkpt lat="41.874902" lon="-87.696127">
      </trkpt>
      <trkpt lat="41.874908" lon="-87.695509">
      </trkpt>
      <trkpt lat="41.875125" lon="-87.690201">
      </trkpt>
      <trkpt lat="41.875329" lon="-87.650308">
      </trkpt>
      <trkpt lat="41.874563" lon="-87.645452">
      </trkpt>
      <trkpt lat="41.876036" lon="-87.64458">
      </trkpt>
      <trkpt lat="41.886419" lon="-87.646101">
      </trkpt>
      <trkpt lat="41.891702" lon="-87.651689">
      </trkpt>
      <trkpt lat="41.896836" lon="-87.65868">
      </trkpt>
      <trkpt lat="41.906646" lon="-87.66137">
      </trkpt>
      <trkpt lat="41.917654" lon="-87.670146">
      </trkpt>
      <trkpt lat="41.940372" lon="-87.709927">
      </trkpt>
      <trkpt lat="41.94215" lon="-87.715306">
      </trkpt>
      <trkpt lat="41.947613" lon="-87.719592">
      </trkpt>
      <trkpt lat="41.95982" lon="-87.741635">
      </trkpt>
      <trkpt lat="41.963594" lon="-87.746287">
      </trkpt>
      <trkpt lat="41.975724" lon="-87.747426">
      </trkpt>
      <trkpt lat="41.976396" lon="-87.74607">
      </trkpt>
      <trkpt lat="41.975364" lon="-87.745776">
      </trkpt>
      <trkpt lat="41.975339" lon="-87.747984">
      </trkpt>
      <trkpt lat="41.968033" lon="-87.747723">
      </trkpt>
      <trkpt lat="41.967938" lon="-87.757623">
      </trkpt>
      <trkpt lat="41.968431" lon="-87.758399">
      </trkpt>
      <trkpt lat="41.968431" lon="-87.758399">
      </trkpt>
      <trkpt lat="41.967875" lon="-87.757622">
      </trkpt>
      <trkpt lat="41.968033" lon="-87.747723">
      </trkpt>
      <trkpt lat="41.972896" lon="-87.747918">
      </trkpt>
      <trkpt lat="41.972794" lon="-87.747761">
      </trkpt>
      <trkpt lat="41.966563" lon="-87.747223">
      </trkpt>
      <trkpt lat="41.963113" lon="-87.745961">
      </trkpt>
      <trkpt lat="41.960129" lon="-87.742125">
      </trkpt>
      <trkpt lat="41.947613" lon="-87.719592">
      </trkpt>
      <trkpt lat="41.94215" lon="-87.715306">
      </trkpt>
      <trkpt lat="41.940524" lon="-87.710219">
      </trkpt>
      <trkpt lat="41.933659" lon="-87.698173">
      </trkpt>
      <trkpt lat="41.918139" lon="-87.671115">
      </trkpt>
      <trkpt lat="41.915851" lon="-87.668499">
      </trkpt>
      <trkpt lat="41.913088" lon="-87.666712">
      </trkpt>
      <trkpt lat="41.910672" lon="-87.665662">
      </trkpt>
      <trkpt lat="41.910633" lon="-87.66776">
      </trkpt>
      <trkpt lat="41.899711" lon="-87.667457">
      </trkpt>
      <trkpt lat="41.899597" lon="-87.674089">
      </trkpt>
      <trkpt lat="41.90052" lon="-87.67412">
      </trkpt>
      <trkpt lat="41.90052" lon="-87.67412">
      </trkpt>
      <trkpt lat="41.899597" lon="-87.674089">
      </trkpt>
      <trkpt lat="41.899544" lon="-87.677161">
      </trkpt>
      <trkpt lat="41.895912" lon="-87.677057">
      </trkpt>
      <trkpt lat="41.89575" lon="-87.686835">
      </trkpt>
      <trkpt lat="41.884621" lon="-87.686532">
      </trkpt>
      <trkpt lat="41.884544" lon="-87.688567">
      </trkpt>
      <trkpt lat="41.88207" lon="-87.688508">
      </trkpt>
      <trkpt lat="41.882072" lon="-87.688351">
      </trkpt>
      <trkpt lat="41.882072" lon="-87.688351">
      </trkpt>
      <trkpt lat="41.882072" lon="-87.688351">
      </trkpt>
      <trkpt lat="41.882072" lon="-87.688351">
      </trkpt>
      <trkpt lat="41.882091" lon="-87.686454">
      </trkpt>
      <trkpt lat="41.876082" lon="-87.686385">
      </trkpt>
      <trkpt lat="41.876072" lon="-87.687412">
      </trkpt>
      <trkpt lat="41.875862" lon="-87.692409">
      </trkpt>
      <trkpt lat="41.875537" lon="-87.699324">
      </trkpt>
      <trkpt lat="41.874348" lon="-87.708052">
      </trkpt>
      <trkpt lat="41.874195" lon="-87.716326">
      </trkpt>
      <trkpt lat="41.874474" lon="-87.719239">
      </trkpt>
      <trkpt lat="41.874358" lon="-87.725442">
      </trkpt>
      <trkpt lat="41.851087" lon="-87.72475">
      </trkpt>
      <trkpt lat="41.848648" lon="-87.73165">
      </trkpt>
      <trkpt lat="41.848648" lon="-87.73165">
      </trkpt>
      <trkpt lat="41.86479" lon="-87.685988">
      </trkpt>
      <trkpt lat="41.864954" lon="-87.676219">
      </trkpt>
      <trkpt lat="41.863132" lon="-87.676146">
      </trkpt>
      <trkpt lat="41.863211" lon="-87.671247">
      </trkpt>
      <trkpt lat="41.862263" lon="-87.671222">
      </trkpt>
      <trkpt lat="41.862263" lon="-87.671222">
      </trkpt>
      <trkpt lat="41.866763" lon="-87.671352">
      </trkpt>
      <trkpt lat="41.866797" lon="-87.666327">
      </trkpt>
      <trkpt lat="41.875179" lon="-87.666563">
      </trkpt>
      <trkpt lat="41.875183" lon="-87.666292">
      </trkpt>
      <trkpt lat="41.875604" lon="-87.6605">
      </trkpt>
      <trkpt lat="41.875329" lon="-87.650308">
      </trkpt>
      <trkpt lat="41.875302" lon="-87.647601">
      </trkpt>
      <trkpt lat="41.874563" lon="-87.645452">
      </trkpt>
      <trkpt lat="41.875077" lon="-87.644482">
      </trkpt>
      <trkpt lat="41.876036" lon="-87.64458">
      </trkpt>
      <trkpt lat="41.877863" lon="-87.645364">
      </trkpt>
      <trkpt lat="41.880374" lon="-87.645275">
      </trkpt>
      <trkpt lat="41.881847" lon="-87.645355">
      </trkpt>
      <trkpt lat="41.882198" lon="-87.645393">
      </trkpt>
      <trkpt lat="41.883308" lon="-87.645396">
      </trkpt>
      <trkpt lat="41.884407" lon="-87.645241">
      </trkpt>
      <trkpt lat="41.884408" lon="-87.645482">
      </trkpt>
      <trkpt lat="41.884186" lon="-87.645901">
      </trkpt>
      <trkpt lat="41.881827" lon="-87.645999">
      </trkpt>
      <trkpt lat="41.880956" lon="-87.646134">
      </trkpt>
      <trkpt lat="41.879569" lon="-87.646145">
      </trkpt>
      <trkpt lat="41.878121" lon="-87.646166">
      </trkpt>
      <trkpt lat="41.877218" lon="-87.646107">
      </trkpt>
      <trkpt lat="41.876066" lon="-87.646836">
      </trkpt>
      <trkpt lat="41.876066" lon="-87.646836">
      </trkpt>
      <trkpt lat="41.875465" lon="-87.646947">
      </trkpt>
      <trkpt lat="41.872433" lon="-87.645662">
      </trkpt>
      <trkpt lat="41.869682" lon="-87.645367">
      </trkpt>
      <trkpt lat="41.869691" lon="-87.644443">
      </trkpt>
      <trkpt lat="41.873493" lon="-87.644854">
      </trkpt>
      <trkpt lat="41.874454" lon="-87.644691">
      </trkpt>
      <trkpt lat="41.875161" lon="-87.644224">
      </trkpt>
      <trkpt lat="41.87559" lon="-87.644167">
      </trkpt>
      <trkpt lat="41.877863" lon="-87.645364">
      </trkpt>
      <trkpt lat="41.880374" lon="-87.645275">
      </trkpt>
      <trkpt lat="41.881847" lon="-87.645355">
      </trkpt>
      <trkpt lat="41.882198" lon="-87.645393">
      </trkpt>
      <trkpt lat="41.883308" lon="-87.645396">
      </trkpt>
      <trkpt lat="41.884407" lon="-87.645241">
      </trkpt>
      <trkpt lat="41.884406" lon="-87.646033">
      </trkpt>
      <trkpt lat="41.884406" lon="-87.646033">
      </trkpt>
      <trkpt lat="41.884415" lon="-87.647438">
      </trkpt>
      <trkpt lat="41.885665" lon="-87.647482">
      </trkpt>
      <trkpt lat="41.885682" lon="-87.646258">
      </trkpt>
      <trkpt lat="41.885494" lon="-87.646031">
      </trkpt>
      <trkpt lat="41.884746" lon="-87.645922">
      </trkpt>
      <trkpt lat="41.881827" lon="-87.645999">
      </trkpt>
      <trkpt lat="41.880956" lon="-87.646134">
      </trkpt>
      <trkpt lat="41.879569" lon="-87.646145">
      </trkpt>
      <trkpt lat="41.878121" lon="-87.646166">
      </trkpt>
      <trkpt lat="41.876602" lon="-87.646544">
      </trkpt>
      <trkpt lat="41.87613" lon="-87.64712">
      </trkpt>
      <trkpt lat="41.875847" lon="-87.647927">
      </trkpt>
      <trkpt lat="41.875719" lon="-87.651339">
      </trkpt>
      <trkpt lat="41.876192" lon="-87.657268">
      </trkpt>
      <trkpt lat="41.876121" lon="-87.662425">
      </trkpt>
      <trkpt lat="41.876354" lon="-87.666742">
      </trkpt>
      <trkpt lat="41.875178" lon="-87.666699">
      </trkpt>
      <trkpt lat="41.875266" lon="-87.661819">
      </trkpt>
      <trkpt lat="41.87336" lon="-87.661763">
      </trkpt>
      <trkpt lat="41.873338" lon="-87.663339">
      </trkpt>
      <trkpt lat="41.873338" lon="-87.663339">
      </trkpt>
      <trkpt lat="41.873326" lon="-87.664196">
      </trkpt>
      <trkpt lat="41.871672" lon="-87.664145">
      </trkpt>
      <trkpt lat="41.871628" lon="-87.666599">
      </trkpt>
      <trkpt lat="41.869262" lon="-87.666531">
      </trkpt>
      <trkpt lat="41.8692" lon="-87.670488">
      </trkpt>
      <trkpt lat="41.8692" lon="-87.670488">
      </trkpt>
      <trkpt lat="41.869001" lon="-87.68604">
      </trkpt>
      <trkpt lat="41.876094" lon="-87.686165">
      </trkpt>
      <trkpt lat="41.876006" lon="-87.693713">
      </trkpt>
      <trkpt lat="41.878371" lon="-87.693796">
      </trkpt>
      <trkpt lat="41.878346" lon="-87.696046">
      </trkpt>
      <trkpt lat="41.878346" lon="-87.696046">
      </trkpt>
      <trkpt lat="41.878344" lon="-87.696214">
      </trkpt>
      <trkpt lat="41.875983" lon="-87.696151">
      </trkpt>
      <trkpt lat="41.875891" lon="-87.70598">
      </trkpt>
      <trkpt lat="41.874393" lon="-87.705939">
      </trkpt>
      <trkpt lat="41.874393" lon="-87.705939">
      </trkpt>
      <trkpt lat="41.89556" lon="-87.706541">
      </trkpt>
      <trkpt lat="41.895523" lon="-87.709901">
      </trkpt>
      <trkpt lat="41.89729" lon="-87.709964">
      </trkpt>
      <trkpt lat="41.89729" lon="-87.709964">
      </trkpt>
      <trkpt lat="41.895523" lon="-87.709901">
      </trkpt>
      <trkpt lat="41.89556" lon="-87.706541">
      </trkpt>
      <trkpt lat="41.902833" lon="-87.706787">
      </trkpt>
      <trkpt lat="41.902888" lon="-87.701605">
      </trkpt>
      <trkpt lat="41.902888" lon="-87.701605">
      </trkpt>
      <trkpt lat="41.902886" lon="-87.702278">
      </trkpt>
      <trkpt lat="41.907241" lon="-87.70125">
      </trkpt>
      <trkpt lat="41.910165" lon="-87.701875">
      </trkpt>
      <trkpt lat="41.910324" lon="-87.687207">
      </trkpt>
      <trkpt lat="41.953985" lon="-87.688469">
      </trkpt>
      <trkpt lat="41.954306" lon="-87.668983">
      </trkpt>
      <trkpt lat="41.961593" lon="-87.669185">
      </trkpt>
      <trkpt lat="41.961772" lon="-87.655148">
      </trkpt>
      <trkpt lat="41.964503" lon="-87.656894">
      </trkpt>
      <trkpt lat="41.964503" lon="-87.656894">
      </trkpt>
      <trkpt lat="41.965401" lon="-87.657469">
      </trkpt>
      <trkpt lat="41.965499" lon="-87.648611">
      </trkpt>
      <trkpt lat="41.965774" lon="-87.646428">
      </trkpt>
      <trkpt lat="41.967291" lon="-87.647437">
      </trkpt>
      <trkpt lat="41.974381" lon="-87.649207">
      </trkpt>
      <trkpt lat="41.98144" lon="-87.652386">
      </trkpt>
      <trkpt lat="41.984866" lon="-87.652765">
      </trkpt>
      <trkpt lat="41.985504" lon="-87.653488">
      </trkpt>
      <trkpt lat="41.985556" lon="-87.655253">
      </trkpt>
      <trkpt lat="41.987812" lon="-87.655324">
      </trkpt>
      <trkpt lat="41.987812" lon="-87.655324">
      </trkpt>
      <trkpt lat="41.985556" lon="-87.655253">
      </trkpt>
      <trkpt lat="41.984999" lon="-87.653157">
      </trkpt>
      <trkpt lat="41.981232" lon="-87.652706">
      </trkpt>
      <trkpt lat="41.972134" lon="-87.648822">
      </trkpt>
      <trkpt lat="41.955203" lon="-87.644905">
      </trkpt>
      <trkpt lat="41.951193" lon="-87.64469">
      </trkpt>
      <trkpt lat="41.942042" lon="-87.639566">
      </trkpt>
      <trkpt lat="41.940268" lon="-87.638796">
      </trkpt>
      <trkpt lat="41.939729" lon="-87.666233">
      </trkpt>
      <trkpt lat="41.937916" lon="-87.666175">
      </trkpt>
      <trkpt lat="41.93788" lon="-87.668655">
      </trkpt>
      <trkpt lat="41.932963" lon="-87.668473">
      </trkpt>
      <trkpt lat="41.932963" lon="-87.668473">
      </trkpt>
      <trkpt lat="41.924169" lon="-87.668122">
      </trkpt>
      <trkpt lat="41.921138" lon="-87.668644">
      </trkpt>
      <trkpt lat="41.917197" lon="-87.667771">
      </trkpt>
      <trkpt lat="41.893346" lon="-87.667274">
      </trkpt>
      <trkpt lat="41.89337" lon="-87.665583">
      </trkpt>
      <trkpt lat="41.892616" lon="-87.665559">
      </trkpt>
      <trkpt lat="41.892616" lon="-87.665559">
      </trkpt>
      <trkpt lat="41.890995" lon="-87.665512">
      </trkpt>
      <trkpt lat="41.891189" lon="-87.645341">
      </trkpt>
      <trkpt lat="41.891506" lon="-87.639878">
      </trkpt>
      <trkpt lat="41.891576" lon="-87.634054">
      </trkpt>
      <trkpt lat="41.890774" lon="-87.634037">
      </trkpt>
      <trkpt lat="41.890784" lon="-87.633354">
      </trkpt>
      <trkpt lat="41.890784" lon="-87.633354">
      </trkpt>
      <trkpt lat="41.890784" lon="-87.633354">
      </trkpt>
      <trkpt lat="41.890784" lon="-87.633354">
      </trkpt>
      <trkpt lat="41.890814" lon="-87.631109">
      </trkpt>
      <trkpt lat="41.885747" lon="-87.630986">
      </trkpt>
      <trkpt lat="41.885769" lon="-87.624623">
      </trkpt>
      <trkpt lat="41.884489" lon="-87.624571">
      </trkpt>
      <trkpt lat="41.884366" lon="-87.624344">
      </trkpt>
      <trkpt lat="41.884372" lon="-87.623414">
      </trkpt>
      <trkpt lat="41.884293" lon="-87.622907">
      </trkpt>
      <trkpt lat="41.884406" lon="-87.617529">
      </trkpt>
      <trkpt lat="41.884538" lon="-87.617389">
      </trkpt>
      <trkpt lat="41.885524" lon="-87.617418">
      </trkpt>
      <trkpt lat="41.885561" lon="-87.616288">
      </trkpt>
      <trkpt lat="41.886523" lon="-87.616289">
      </trkpt>
      <trkpt lat="41.88653" lon="-87.618715">
      </trkpt>
      <trkpt lat="41.88653" lon="-87.618715">
      </trkpt>
      <trkpt lat="41.886506" lon="-87.619106">
      </trkpt>
      <trkpt lat="41.88644" lon="-87.619147">
      </trkpt>
      <trkpt lat="41.885527" lon="-87.6191">
      </trkpt>
      <trkpt lat="41.885517" lon="-87.617816">
      </trkpt>
      <trkpt lat="41.885517" lon="-87.617816">
      </trkpt>
      <trkpt lat="41.885524" lon="-87.617418">
      </trkpt>
      <trkpt lat="41.884538" lon="-87.617389">
      </trkpt>
      <trkpt lat="41.884489" lon="-87.627902">
      </trkpt>
      <trkpt lat="41.882046" lon="-87.627799">
      </trkpt>
      <trkpt lat="41.881984" lon="-87.630875">
      </trkpt>
      <trkpt lat="41.875701" lon="-87.630715">
      </trkpt>
      <trkpt lat="41.875719" lon="-87.651339">
      </trkpt>
      <trkpt lat="41.876197" lon="-87.657603">
      </trkpt>
      <trkpt lat="41.8759" lon="-87.673066">
      </trkpt>
      <trkpt lat="41.876215" lon="-87.676512">
      </trkpt>
      <trkpt lat="41.881323" lon="-87.676638">
      </trkpt>
      <trkpt lat="41.881324" lon="-87.679085">
      </trkpt>
      <trkpt lat="41.88126" lon="-87.678236">
      </trkpt>
      <trkpt lat="41.88126" lon="-87.678236">
      </trkpt>
      <trkpt lat="41.881323" lon="-87.676638">
      </trkpt>
      <trkpt lat="41.875016" lon="-87.676555">
      </trkpt>
      <trkpt lat="41.875021" lon="-87.676128">
      </trkpt>
      <trkpt lat="41.875431" lon="-87.673504">
      </trkpt>
      <trkpt lat="41.875604" lon="-87.6605">
      </trkpt>
      <trkpt lat="41.875329" lon="-87.650308">
      </trkpt>
      <trkpt lat="41.875215" lon="-87.648052">
      </trkpt>
      <trkpt lat="41.874806" lon="-87.646919">
      </trkpt>
      <trkpt lat="41.874142" lon="-87.64633">
      </trkpt>
      <trkpt lat="41.872516" lon="-87.645818">
      </trkpt>
      <trkpt lat="41.869682" lon="-87.645367">
      </trkpt>
      <trkpt lat="41.869741" lon="-87.64081">
      </trkpt>
      <trkpt lat="41.868867" lon="-87.640765">
      </trkpt>
      <trkpt lat="41.868867" lon="-87.640765">
      </trkpt>
      <trkpt lat="41.867205" lon="-87.640721">
      </trkpt>
      <trkpt lat="41.867474" lon="-87.618739">
      </trkpt>
      <trkpt lat="41.869799" lon="-87.617003">
      </trkpt>
      <trkpt lat="41.881825" lon="-87.617167">
      </trkpt>
      <trkpt lat="41.884932" lon="-87.613613">
      </trkpt>
      <trkpt lat="41.89273" lon="-87.614003">
      </trkpt>
      <trkpt lat="41.900921" lon="-87.619441">
      </trkpt>
      <trkpt lat="41.90171" lon="-87.622727">
      </trkpt>
      <trkpt lat="41.902893" lon="-87.624048">
      </trkpt>
      <trkpt lat="41.912141" lon="-87.62589">
      </trkpt>
      <trkpt lat="41.918036" lon="-87.628743">
      </trkpt>
      <trkpt lat="41.928415" lon="-87.631851">
      </trkpt>
      <trkpt lat="41.934381" lon="-87.632152">
      </trkpt>
      <trkpt lat="41.936704" lon="-87.633661">
      </trkpt>
      <trkpt lat="41.939073" lon="-87.63676">
      </trkpt>
      <trkpt lat="41.940568" lon="-87.638088">
      </trkpt>
      <trkpt lat="41.940119" lon="-87.639537">
      </trkpt>
      <trkpt lat="41.935587" lon="-87.639391">
      </trkpt>
      <trkpt lat="41.935562" lon="-87.641825">
      </trkpt>
      <trkpt lat="41.935387" lon="-87.64182">
      </trkpt>
      <trkpt lat="41.935387" lon="-87.64182">
      </trkpt>
      <trkpt lat="41.935562" lon="-87.641825">
      </trkpt>
      <trkpt lat="41.935551" lon="-87.644248">
      </trkpt>
      <trkpt lat="41.934258" lon="-87.644249">
      </trkpt>
      <trkpt lat="41.933542" lon="-87.644695">
      </trkpt>
      <trkpt lat="41.932807" lon="-87.644906">
      </trkpt>
      <trkpt lat="41.932567" lon="-87.65822">
      </trkpt>
      <trkpt lat="41.932567" lon="-87.65822">
      </trkpt>
      <trkpt lat="41.932557" lon="-87.658713">
      </trkpt>
      <trkpt lat="41.929016" lon="-87.653741">
      </trkpt>
      <trkpt lat="41.923569" lon="-87.653551">
      </trkpt>
      <trkpt lat="41.9236" lon="-87.651547">
      </trkpt>
      <trkpt lat="41.9236" lon="-87.651547">
      </trkpt>
      <trkpt lat="41.923682" lon="-87.646272">
      </trkpt>
      <trkpt lat="41.921883" lon="-87.643784">
      </trkpt>
      <trkpt lat="41.92199" lon="-87.63646">
      </trkpt>
      <trkpt lat="41.919706" lon="-87.636391">
      </trkpt>
      <trkpt lat="41.919706" lon="-87.636391">
      </trkpt>
      <trkpt lat="41.919243" lon="-87.636415">
      </trkpt>
      <trkpt lat="41.919188" lon="-87.6366">
      </trkpt>
      <trkpt lat="41.92558" lon="-87.640463">
      </trkpt>
      <trkpt lat="41.925453" lon="-87.648766">
      </trkpt>
      <trkpt lat="41.932557" lon="-87.658713">
      </trkpt>
      <trkpt lat="41.932567" lon="-87.65822">
      </trkpt>
      <trkpt lat="41.932567" lon="-87.65822">
      </trkpt>
      <trkpt lat="41.932914" lon="-87.63931">
      </trkpt>
      <trkpt lat="41.936919" lon="-87.639435">
      </trkpt>
    </trkseg>
  </trk>
</gpx>