<?xml version="1.0" encoding="UTF-8"?>
<gpx xmlns="http://www.topografix.com/GPX/1/1" xmlns:xsi="http://www.w3.org/2001/XMLSchema-instance" xsi:schemaLocation="http://www.topografix.com/GPX/1/1 http://www.topografix.com/GPX/1/1/gpx.xsd" version="1.1" creator="gpx.py -- https://github.com/tkrajina/gpxpy">
  <trk>
    <trkseg>
      <trkpt lat="41.924487" lon="-87.64262">
      </trkpt>
      <trkpt lat="41.924486" lon="-87.642726">
      </trkpt>
      <trkpt lat="41.923734" lon="-87.64271">
      </trkpt>
      <trkpt lat="41.923783" lon="-87.639373">
      </trkpt>
      <trkpt lat="41.913071" lon="-87.632796">
      </trkpt>
      <trkpt lat="41.913301" lon="-87.631903">
      </trkpt>
      <trkpt lat="41.913236" lon="-87.631046">
      </trkpt>
      <trkpt lat="41.912247" lon="-87.628505">
      </trkpt>
      <trkpt lat="41.912183" lon="-87.627696">
      </trkpt>
      <trkpt lat="41.912316" lon="-87.626932">
      </trkpt>
      <trkpt lat="41.912316" lon="-87.626932">
      </trkpt>
      <trkpt lat="41.912316" lon="-87.626932">
      </trkpt>
      <trkpt lat="41.912316" lon="-87.626932">
      </trkpt>
      <trkpt lat="41.91244" lon="-87.627004">
      </trkpt>
      <trkpt lat="41.913347" lon="-87.626017">
      </trkpt>
      <trkpt lat="41.918036" lon="-87.628743">
      </trkpt>
      <trkpt lat="41.927967" lon="-87.631735">
      </trkpt>
      <trkpt lat="41.934989" lon="-87.632402">
      </trkpt>
      <trkpt lat="41.941219" lon="-87.638833">
      </trkpt>
      <trkpt lat="41.950931" lon="-87.644376">
      </trkpt>
      <trkpt lat="41.964019" lon="-87.64669">
      </trkpt>
      <trkpt lat="41.965774" lon="-87.646428">
      </trkpt>
      <trkpt lat="41.965499" lon="-87.648611">
      </trkpt>
      <trkpt lat="41.965847" lon="-87.648701">
      </trkpt>
      <trkpt lat="41.965847" lon="-87.648701">
      </trkpt>
      <trkpt lat="41.965499" lon="-87.648611">
      </trkpt>
      <trkpt lat="41.965571" lon="-87.647973">
      </trkpt>
      <trkpt lat="41.964213" lon="-87.646988">
      </trkpt>
      <trkpt lat="41.957427" lon="-87.645733">
      </trkpt>
      <trkpt lat="41.955777" lon="-87.645546">
      </trkpt>
      <trkpt lat="41.951093" lon="-87.644867">
      </trkpt>
      <trkpt lat="41.946112" lon="-87.641989">
      </trkpt>
      <trkpt lat="41.945418" lon="-87.644042">
      </trkpt>
      <trkpt lat="41.945418" lon="-87.644042">
      </trkpt>
      <trkpt lat="41.944845" lon="-87.645737">
      </trkpt>
      <trkpt lat="41.942773" lon="-87.644494">
      </trkpt>
      <trkpt lat="41.940035" lon="-87.64439">
      </trkpt>
      <trkpt lat="41.939288" lon="-87.712487">
      </trkpt>
      <trkpt lat="41.937474" lon="-87.712442">
      </trkpt>
      <trkpt lat="41.937454" lon="-87.713667">
      </trkpt>
      <trkpt lat="41.938138" lon="-87.713681">
      </trkpt>
      <trkpt lat="41.938138" lon="-87.713681">
      </trkpt>
      <trkpt lat="41.939271" lon="-87.713703">
      </trkpt>
      <trkpt lat="41.939221" lon="-87.717392">
      </trkpt>
      <trkpt lat="41.935091" lon="-87.717283">
      </trkpt>
      <trkpt lat="41.933888" lon="-87.715323">
      </trkpt>
      <trkpt lat="41.935364" lon="-87.713746">
      </trkpt>
      <trkpt lat="41.935364" lon="-87.713746">
      </trkpt>
      <trkpt lat="41.936607" lon="-87.712419">
      </trkpt>
      <trkpt lat="41.932003" lon="-87.712293">
      </trkpt>
      <trkpt lat="41.932479" lon="-87.66355">
      </trkpt>
      <trkpt lat="41.934302" lon="-87.663616">
      </trkpt>
      <trkpt lat="41.934287" lon="-87.664529">
      </trkpt>
      <trkpt lat="41.934287" lon="-87.664529">
      </trkpt>
      <trkpt lat="41.934262" lon="-87.666043">
      </trkpt>
      <trkpt lat="41.933349" lon="-87.66601">
      </trkpt>
      <trkpt lat="41.933309" lon="-87.668485">
      </trkpt>
      <trkpt lat="41.921563" lon="-87.668616">
      </trkpt>
      <trkpt lat="41.921395" lon="-87.677255">
      </trkpt>
      <trkpt lat="41.916326" lon="-87.668918">
      </trkpt>
      <trkpt lat="41.906635" lon="-87.661559">
      </trkpt>
      <trkpt lat="41.896667" lon="-87.658834">
      </trkpt>
      <trkpt lat="41.886973" lon="-87.646614">
      </trkpt>
      <trkpt lat="41.857367" lon="-87.644363">
      </trkpt>
      <trkpt lat="41.849097" lon="-87.644333">
      </trkpt>
      <trkpt lat="41.846546" lon="-87.641933">
      </trkpt>
      <trkpt lat="41.847976" lon="-87.616851">
      </trkpt>
      <trkpt lat="41.847086" lon="-87.612314">
      </trkpt>
      <trkpt lat="41.832576" lon="-87.607188">
      </trkpt>
      <trkpt lat="41.803885" lon="-87.58209">
      </trkpt>
      <trkpt lat="41.781232" lon="-87.574954">
      </trkpt>
      <trkpt lat="41.780203" lon="-87.584175">
      </trkpt>
      <trkpt lat="41.776085" lon="-87.586376">
      </trkpt>
      <trkpt lat="41.759682" lon="-87.586137">
      </trkpt>
      <trkpt lat="41.759693" lon="-87.585114">
      </trkpt>
      <trkpt lat="41.759229" lon="-87.585107">
      </trkpt>
      <trkpt lat="41.759242" lon="-87.584124">
      </trkpt>
      <trkpt lat="41.759242" lon="-87.584124">
      </trkpt>
      <trkpt lat="41.759229" lon="-87.585107">
      </trkpt>
      <trkpt lat="41.759693" lon="-87.585114">
      </trkpt>
      <trkpt lat="41.759686" lon="-87.585762">
      </trkpt>
      <trkpt lat="41.771514" lon="-87.585994">
      </trkpt>
      <trkpt lat="41.780203" lon="-87.584175">
      </trkpt>
      <trkpt lat="41.780713" lon="-87.574628">
      </trkpt>
      <trkpt lat="41.791827" lon="-87.580105">
      </trkpt>
      <trkpt lat="41.795899" lon="-87.579065">
      </trkpt>
      <trkpt lat="41.803976" lon="-87.581975">
      </trkpt>
      <trkpt lat="41.815381" lon="-87.593676">
      </trkpt>
      <trkpt lat="41.826403" lon="-87.600955">
      </trkpt>
      <trkpt lat="41.832668" lon="-87.606909">
      </trkpt>
      <trkpt lat="41.843509" lon="-87.610426">
      </trkpt>
      <trkpt lat="41.84866" lon="-87.61299">
      </trkpt>
      <trkpt lat="41.84709" lon="-87.628154">
      </trkpt>
      <trkpt lat="41.847207" lon="-87.642476">
      </trkpt>
      <trkpt lat="41.845121" lon="-87.652275">
      </trkpt>
      <trkpt lat="41.837712" lon="-87.667647">
      </trkpt>
      <trkpt lat="41.837032" lon="-87.680151">
      </trkpt>
      <trkpt lat="41.832287" lon="-87.695427">
      </trkpt>
      <trkpt lat="41.831418" lon="-87.698851">
      </trkpt>
      <trkpt lat="41.830863" lon="-87.700566">
      </trkpt>
      <trkpt lat="41.83001" lon="-87.70462">
      </trkpt>
      <trkpt lat="41.857973" lon="-87.705425">
      </trkpt>
      <trkpt lat="41.856273" lon="-87.710246">
      </trkpt>
      <trkpt lat="41.857808" lon="-87.710293">
      </trkpt>
      <trkpt lat="41.857808" lon="-87.710293">
      </trkpt>
      <trkpt lat="41.85614" lon="-87.710242">
      </trkpt>
      <trkpt lat="41.857847" lon="-87.705421">
      </trkpt>
      <trkpt lat="41.851772" lon="-87.705261">
      </trkpt>
      <trkpt lat="41.85179" lon="-87.704042">
      </trkpt>
      <trkpt lat="41.852765" lon="-87.704057">
      </trkpt>
      <trkpt lat="41.852765" lon="-87.704057">
      </trkpt>
      <trkpt lat="41.85179" lon="-87.704042">
      </trkpt>
      <trkpt lat="41.851772" lon="-87.705261">
      </trkpt>
      <trkpt lat="41.857847" lon="-87.705421">
      </trkpt>
      <trkpt lat="41.861327" lon="-87.695753">
      </trkpt>
      <trkpt lat="41.874902" lon="-87.696127">
      </trkpt>
      <trkpt lat="41.874908" lon="-87.695509">
      </trkpt>
      <trkpt lat="41.875125" lon="-87.690201">
      </trkpt>
      <trkpt lat="41.87561" lon="-87.659837">
      </trkpt>
      <trkpt lat="41.875329" lon="-87.650308">
      </trkpt>
      <trkpt lat="41.875302" lon="-87.647601">
      </trkpt>
      <trkpt lat="41.874563" lon="-87.645452">
      </trkpt>
      <trkpt lat="41.875077" lon="-87.644482">
      </trkpt>
      <trkpt lat="41.876036" lon="-87.64458">
      </trkpt>
      <trkpt lat="41.877863" lon="-87.645364">
      </trkpt>
      <trkpt lat="41.880374" lon="-87.645275">
      </trkpt>
      <trkpt lat="41.881847" lon="-87.645355">
      </trkpt>
      <trkpt lat="41.882198" lon="-87.645393">
      </trkpt>
      <trkpt lat="41.885306" lon="-87.645735">
      </trkpt>
      <trkpt lat="41.887151" lon="-87.646457">
      </trkpt>
      <trkpt lat="41.8891" lon="-87.648003">
      </trkpt>
      <trkpt lat="41.890597" lon="-87.650048">
      </trkpt>
      <trkpt lat="41.891699" lon="-87.651108">
      </trkpt>
      <trkpt lat="41.89225" lon="-87.650775">
      </trkpt>
      <trkpt lat="41.892434" lon="-87.65007">
      </trkpt>
      <trkpt lat="41.892574" lon="-87.621881">
      </trkpt>
      <trkpt lat="41.892574" lon="-87.621881">
      </trkpt>
      <trkpt lat="41.892588" lon="-87.620263">
      </trkpt>
      <trkpt lat="41.893412" lon="-87.620283">
      </trkpt>
      <trkpt lat="41.89336" lon="-87.622735">
      </trkpt>
      <trkpt lat="41.894164" lon="-87.622757">
      </trkpt>
      <trkpt lat="41.894176" lon="-87.62188">
      </trkpt>
      <trkpt lat="41.894176" lon="-87.62188">
      </trkpt>
      <trkpt lat="41.894214" lon="-87.620307">
      </trkpt>
      <trkpt lat="41.896781" lon="-87.620387">
      </trkpt>
      <trkpt lat="41.896844" lon="-87.616893">
      </trkpt>
      <trkpt lat="41.892868" lon="-87.614264">
      </trkpt>
      <trkpt lat="41.885247" lon="-87.614081">
      </trkpt>
      <trkpt lat="41.881821" lon="-87.617453">
      </trkpt>
      <trkpt lat="41.869765" lon="-87.617261">
      </trkpt>
      <trkpt lat="41.866068" lon="-87.619589">
      </trkpt>
      <trkpt lat="41.853242" lon="-87.614728">
      </trkpt>
      <trkpt lat="41.848506" lon="-87.614444">
      </trkpt>
      <trkpt lat="41.84732" lon="-87.626818">
      </trkpt>
      <trkpt lat="41.847855" lon="-87.631727">
      </trkpt>
      <trkpt lat="41.843118" lon="-87.631351">
      </trkpt>
      <trkpt lat="41.779686" lon="-87.631207">
      </trkpt>
      <trkpt lat="41.773353" lon="-87.626354">
      </trkpt>
      <trkpt lat="41.764985" lon="-87.625947">
      </trkpt>
      <trkpt lat="41.762459" lon="-87.626135">
      </trkpt>
      <trkpt lat="41.76004" lon="-87.626442">
      </trkpt>
      <trkpt lat="41.756427" lon="-87.626347">
      </trkpt>
      <trkpt lat="41.756353" lon="-87.627968">
      </trkpt>
      <trkpt lat="41.757993" lon="-87.628006">
      </trkpt>
      <trkpt lat="41.757993" lon="-87.628006">
      </trkpt>
      <trkpt lat="41.758171" lon="-87.628011">
      </trkpt>
      <trkpt lat="41.758109" lon="-87.62475">
      </trkpt>
      <trkpt lat="41.75855" lon="-87.624761">
      </trkpt>
      <trkpt lat="41.761615" lon="-87.625189">
      </trkpt>
      <trkpt lat="41.769497" lon="-87.625651">
      </trkpt>
      <trkpt lat="41.77398" lon="-87.626234">
      </trkpt>
      <trkpt lat="41.779495" lon="-87.630747">
      </trkpt>
      <trkpt lat="41.838631" lon="-87.630667">
      </trkpt>
      <trkpt lat="41.844225" lon="-87.63193">
      </trkpt>
      <trkpt lat="41.847354" lon="-87.642036">
      </trkpt>
      <trkpt lat="41.850632" lon="-87.644778">
      </trkpt>
      <trkpt lat="41.885816" lon="-87.645875">
      </trkpt>
      <trkpt lat="41.8891" lon="-87.648003">
      </trkpt>
      <trkpt lat="41.897251" lon="-87.658783">
      </trkpt>
      <trkpt lat="41.899938" lon="-87.659701">
      </trkpt>
      <trkpt lat="41.899597" lon="-87.674089">
      </trkpt>
      <trkpt lat="41.90052" lon="-87.67412">
      </trkpt>
      <trkpt lat="41.90052" lon="-87.67412">
      </trkpt>
      <trkpt lat="41.899597" lon="-87.674089">
      </trkpt>
      <trkpt lat="41.899544" lon="-87.677161">
      </trkpt>
      <trkpt lat="41.876215" lon="-87.676512">
      </trkpt>
      <trkpt lat="41.876213" lon="-87.676863">
      </trkpt>
      <trkpt lat="41.871004" lon="-87.768271">
      </trkpt>
      <trkpt lat="41.874235" lon="-87.810299">
      </trkpt>
      <trkpt lat="41.869778" lon="-87.887193">
      </trkpt>
      <trkpt lat="41.873868" lon="-87.903102">
      </trkpt>
      <trkpt lat="41.868556" lon="-87.918965">
      </trkpt>
      <trkpt lat="41.857187" lon="-87.929548">
      </trkpt>
      <trkpt lat="41.845298" lon="-87.946695">
      </trkpt>
      <trkpt lat="41.84403" lon="-87.978457">
      </trkpt>
      <trkpt lat="41.832098" lon="-88.015984">
      </trkpt>
      <trkpt lat="41.827558" lon="-88.021676">
      </trkpt>
      <trkpt lat="41.813668" lon="-88.028569">
      </trkpt>
      <trkpt lat="41.810006" lon="-88.034292">
      </trkpt>
      <trkpt lat="41.810084" lon="-88.073498">
      </trkpt>
      <trkpt lat="41.805662" lon="-88.087614">
      </trkpt>
      <trkpt lat="41.806483" lon="-88.159381">
      </trkpt>
      <trkpt lat="41.807737" lon="-88.164816">
      </trkpt>
      <trkpt lat="41.808158" lon="-88.166633">
      </trkpt>
      <trkpt lat="41.842049" lon="-88.17093">
      </trkpt>
      <trkpt lat="41.856978" lon="-88.160935">
      </trkpt>
      <trkpt lat="41.857012" lon="-88.176889">
      </trkpt>
      <trkpt lat="41.861458" lon="-88.192877">
      </trkpt>
      <trkpt lat="41.863763" lon="-88.19473">
      </trkpt>
      <trkpt lat="41.885083" lon="-88.194407">
      </trkpt>
      <trkpt lat="41.884636" lon="-88.204904">
      </trkpt>
      <trkpt lat="41.884636" lon="-88.204904">
      </trkpt>
      <trkpt lat="41.882" lon="-88.200892">
      </trkpt>
      <trkpt lat="41.882082" lon="-88.194625">
      </trkpt>
      <trkpt lat="41.85856" lon="-88.194851">
      </trkpt>
      <trkpt lat="41.850282" lon="-88.203689">
      </trkpt>
      <trkpt lat="41.830769" lon="-88.201072">
      </trkpt>
      <trkpt lat="41.815559" lon="-88.205031">
      </trkpt>
      <trkpt lat="41.802987" lon="-88.203554">
      </trkpt>
      <trkpt lat="41.806297" lon="-88.170986">
      </trkpt>
      <trkpt lat="41.805456" lon="-88.087366">
      </trkpt>
      <trkpt lat="41.809888" lon="-88.073551">
      </trkpt>
      <trkpt lat="41.809533" lon="-88.035675">
      </trkpt>
      <trkpt lat="41.81336" lon="-88.028541">
      </trkpt>
      <trkpt lat="41.830068" lon="-88.01898">
      </trkpt>
      <trkpt lat="41.836259" lon="-88.000391">
      </trkpt>
      <trkpt lat="41.843825" lon="-87.978408">
      </trkpt>
      <trkpt lat="41.845432" lon="-87.94557">
      </trkpt>
      <trkpt lat="41.853259" lon="-87.932811">
      </trkpt>
      <trkpt lat="41.864502" lon="-87.922937">
      </trkpt>
      <trkpt lat="41.872171" lon="-87.911351">
      </trkpt>
      <trkpt lat="41.873316" lon="-87.901684">
      </trkpt>
      <trkpt lat="41.869444" lon="-87.888177">
      </trkpt>
      <trkpt lat="41.869576" lon="-87.882376">
      </trkpt>
      <trkpt lat="41.874042" lon="-87.810791">
      </trkpt>
      <trkpt lat="41.87064" lon="-87.769061">
      </trkpt>
      <trkpt lat="41.875168" lon="-87.69832">
      </trkpt>
      <trkpt lat="41.875329" lon="-87.650308">
      </trkpt>
      <trkpt lat="41.876036" lon="-87.64458">
      </trkpt>
      <trkpt lat="41.880374" lon="-87.645275">
      </trkpt>
      <trkpt lat="41.881847" lon="-87.645355">
      </trkpt>
      <trkpt lat="41.882198" lon="-87.645393">
      </trkpt>
      <trkpt lat="41.888483" lon="-87.647404">
      </trkpt>
      <trkpt lat="41.897251" lon="-87.658783">
      </trkpt>
      <trkpt lat="41.906443" lon="-87.661061">
      </trkpt>
      <trkpt lat="41.915739" lon="-87.667973">
      </trkpt>
      <trkpt lat="41.917898" lon="-87.66968">
      </trkpt>
      <trkpt lat="41.917936" lon="-87.667964">
      </trkpt>
      <trkpt lat="41.937882" lon="-87.668531">
      </trkpt>
      <trkpt lat="41.937875" lon="-87.669017">
      </trkpt>
      <trkpt lat="41.937875" lon="-87.669017">
      </trkpt>
      <trkpt lat="41.937845" lon="-87.671019">
      </trkpt>
      <trkpt lat="41.93237" lon="-87.670818">
      </trkpt>
      <trkpt lat="41.932278" lon="-87.678134">
      </trkpt>
      <trkpt lat="41.925026" lon="-87.677893">
      </trkpt>
      <trkpt lat="41.924981" lon="-87.681912">
      </trkpt>
      <trkpt lat="41.926707" lon="-87.685177">
      </trkpt>
      <trkpt lat="41.942387" lon="-87.715161">
      </trkpt>
      <trkpt lat="41.947985" lon="-87.719618">
      </trkpt>
      <trkpt lat="41.960998" lon="-87.742619">
      </trkpt>
      <trkpt lat="41.982409" lon="-87.78422">
      </trkpt>
      <trkpt lat="41.984247" lon="-87.852562">
      </trkpt>
      <trkpt lat="41.996518" lon="-87.875224">
      </trkpt>
      <trkpt lat="42.007565" lon="-87.898667">
      </trkpt>
      <trkpt lat="42.021307" lon="-87.953891">
      </trkpt>
      <trkpt lat="42.038006" lon="-87.977902">
      </trkpt>
      <trkpt lat="42.056093" lon="-88.018823">
      </trkpt>
      <trkpt lat="42.056828" lon="-88.021626">
      </trkpt>
      <trkpt lat="42.057979" lon="-88.029256">
      </trkpt>
      <trkpt lat="42.04186" lon="-88.030904">
      </trkpt>
      <trkpt lat="42.017386" lon="-88.031014">
      </trkpt>
      <trkpt lat="41.990718" lon="-88.023582">
      </trkpt>
      <trkpt lat="41.972392" lon="-88.024834">
      </trkpt>
      <trkpt lat="41.957727" lon="-88.027352">
      </trkpt>
      <trkpt lat="41.947597" lon="-88.037535">
      </trkpt>
      <trkpt lat="41.90897" lon="-88.038117">
      </trkpt>
      <trkpt lat="41.904811" lon="-88.038982">
      </trkpt>
      <trkpt lat="41.902316" lon="-88.103087">
      </trkpt>
      <trkpt lat="41.907877" lon="-88.150515">
      </trkpt>
      <trkpt lat="41.888137" lon="-88.151092">
      </trkpt>
      <trkpt lat="41.884636" lon="-88.204904">
      </trkpt>
      <trkpt lat="41.884636" lon="-88.204904">
      </trkpt>
      <trkpt lat="41.882" lon="-88.200892">
      </trkpt>
      <trkpt lat="41.882082" lon="-88.194625">
      </trkpt>
      <trkpt lat="41.85856" lon="-88.194851">
      </trkpt>
      <trkpt lat="41.850282" lon="-88.203689">
      </trkpt>
      <trkpt lat="41.830769" lon="-88.201072">
      </trkpt>
      <trkpt lat="41.815559" lon="-88.205031">
      </trkpt>
      <trkpt lat="41.802987" lon="-88.203554">
      </trkpt>
      <trkpt lat="41.806297" lon="-88.170986">
      </trkpt>
      <trkpt lat="41.805456" lon="-88.087366">
      </trkpt>
      <trkpt lat="41.809888" lon="-88.073551">
      </trkpt>
      <trkpt lat="41.809533" lon="-88.035675">
      </trkpt>
      <trkpt lat="41.81336" lon="-88.028541">
      </trkpt>
      <trkpt lat="41.830068" lon="-88.01898">
      </trkpt>
      <trkpt lat="41.836259" lon="-88.000391">
      </trkpt>
      <trkpt lat="41.843825" lon="-87.978408">
      </trkpt>
      <trkpt lat="41.845432" lon="-87.94557">
      </trkpt>
      <trkpt lat="41.853259" lon="-87.932811">
      </trkpt>
      <trkpt lat="41.864502" lon="-87.922937">
      </trkpt>
      <trkpt lat="41.872171" lon="-87.911351">
      </trkpt>
      <trkpt lat="41.873316" lon="-87.901684">
      </trkpt>
      <trkpt lat="41.869444" lon="-87.888177">
      </trkpt>
      <trkpt lat="41.869576" lon="-87.882376">
      </trkpt>
      <trkpt lat="41.874042" lon="-87.810791">
      </trkpt>
      <trkpt lat="41.87064" lon="-87.769061">
      </trkpt>
      <trkpt lat="41.875168" lon="-87.69832">
      </trkpt>
      <trkpt lat="41.875815" lon="-87.620619">
      </trkpt>
      <trkpt lat="41.878331" lon="-87.620697">
      </trkpt>
      <trkpt lat="41.878364" lon="-87.617182">
      </trkpt>
      <trkpt lat="41.884762" lon="-87.613645">
      </trkpt>
      <trkpt lat="41.892878" lon="-87.614041">
      </trkpt>
      <trkpt lat="41.900921" lon="-87.619441">
      </trkpt>
      <trkpt lat="41.902893" lon="-87.624048">
      </trkpt>
      <trkpt lat="41.934381" lon="-87.632152">
      </trkpt>
      <trkpt lat="41.939073" lon="-87.63676">
      </trkpt>
      <trkpt lat="41.940568" lon="-87.638088">
      </trkpt>
      <trkpt lat="41.940119" lon="-87.639537">
      </trkpt>
      <trkpt lat="41.947363" lon="-87.642703">
      </trkpt>
      <trkpt lat="41.947363" lon="-87.642703">
      </trkpt>
      <trkpt lat="41.941519" lon="-87.639642">
      </trkpt>
      <trkpt lat="41.932914" lon="-87.63931">
      </trkpt>
      <trkpt lat="41.932636" lon="-87.653863">
      </trkpt>
      <trkpt lat="41.929016" lon="-87.653741">
      </trkpt>
      <trkpt lat="41.928972" lon="-87.65652">
      </trkpt>
      <trkpt lat="41.928972" lon="-87.65652">
      </trkpt>
      <trkpt lat="41.929016" lon="-87.653741">
      </trkpt>
      <trkpt lat="41.931569" lon="-87.653827">
      </trkpt>
      <trkpt lat="41.931569" lon="-87.653827">
      </trkpt>
      <trkpt lat="41.929016" lon="-87.653741">
      </trkpt>
      <trkpt lat="41.925453" lon="-87.648766">
      </trkpt>
      <trkpt lat="41.926001" lon="-87.631853">
      </trkpt>
      <trkpt lat="41.912297" lon="-87.626142">
      </trkpt>
      <trkpt lat="41.902733" lon="-87.62421">
      </trkpt>
      <trkpt lat="41.901491" lon="-87.62264">
      </trkpt>
      <trkpt lat="41.900898" lon="-87.619617">
      </trkpt>
      <trkpt lat="41.892716" lon="-87.614229">
      </trkpt>
      <trkpt lat="41.884928" lon="-87.614127">
      </trkpt>
      <trkpt lat="41.881821" lon="-87.617453">
      </trkpt>
      <trkpt lat="41.869895" lon="-87.617247">
      </trkpt>
      <trkpt lat="41.86764" lon="-87.618862">
      </trkpt>
      <trkpt lat="41.867601" lon="-87.620423">
      </trkpt>
      <trkpt lat="41.865835" lon="-87.619968">
      </trkpt>
      <trkpt lat="41.864987" lon="-87.619558">
      </trkpt>
      <trkpt lat="41.865039" lon="-87.613948">
      </trkpt>
      <trkpt lat="41.866115" lon="-87.613754">
      </trkpt>
      <trkpt lat="41.866162" lon="-87.610134">
      </trkpt>
      <trkpt lat="41.864785" lon="-87.609077">
      </trkpt>
      <trkpt lat="41.862992" lon="-87.609222">
      </trkpt>
      <trkpt lat="41.862992" lon="-87.609222">
      </trkpt>
      <trkpt lat="41.864785" lon="-87.609077">
      </trkpt>
      <trkpt lat="41.866469" lon="-87.610138">
      </trkpt>
      <trkpt lat="41.866369" lon="-87.614013">
      </trkpt>
      <trkpt lat="41.86504" lon="-87.614089">
      </trkpt>
      <trkpt lat="41.864982" lon="-87.619015">
      </trkpt>
      <trkpt lat="41.866961" lon="-87.619088">
      </trkpt>
      <trkpt lat="41.869799" lon="-87.617003">
      </trkpt>
      <trkpt lat="41.881825" lon="-87.617167">
      </trkpt>
      <trkpt lat="41.884932" lon="-87.613613">
      </trkpt>
      <trkpt lat="41.89273" lon="-87.614003">
      </trkpt>
      <trkpt lat="41.900921" lon="-87.619441">
      </trkpt>
      <trkpt lat="41.90171" lon="-87.622727">
      </trkpt>
      <trkpt lat="41.902767" lon="-87.623983">
      </trkpt>
      <trkpt lat="41.912141" lon="-87.62589">
      </trkpt>
      <trkpt lat="41.918036" lon="-87.628743">
      </trkpt>
      <trkpt lat="41.924159" lon="-87.630534">
      </trkpt>
      <trkpt lat="41.926223" lon="-87.63067">
      </trkpt>
      <trkpt lat="41.92558" lon="-87.640463">
      </trkpt>
      <trkpt lat="41.929694" lon="-87.642943">
      </trkpt>
      <trkpt lat="41.929095" lon="-87.647955">
      </trkpt>
    </trkseg>
  </trk>
</gpx>