<?xml version="1.0" encoding="UTF-8"?>
<gpx xmlns="http://www.topografix.com/GPX/1/1" xmlns:xsi="http://www.w3.org/2001/XMLSchema-instance" xsi:schemaLocation="http://www.topografix.com/GPX/1/1 http://www.topografix.com/GPX/1/1/gpx.xsd" version="1.1" creator="gpx.py -- https://github.com/tkrajina/gpxpy">
  <trk>
    <trkseg>
      <trkpt lat="42.033266" lon="-87.684068">
      </trkpt>
      <trkpt lat="42.032795" lon="-87.684083">
      </trkpt>
      <trkpt lat="42.032767" lon="-87.679153">
      </trkpt>
      <trkpt lat="42.027266" lon="-87.678155">
      </trkpt>
      <trkpt lat="42.027161" lon="-87.668578">
      </trkpt>
      <trkpt lat="42.025972" lon="-87.666902">
      </trkpt>
      <trkpt lat="42.023099" lon="-87.665412">
      </trkpt>
      <trkpt lat="42.022304" lon="-87.66691">
      </trkpt>
      <trkpt lat="42.021131" lon="-87.666595">
      </trkpt>
      <trkpt lat="42.005557" lon="-87.660929">
      </trkpt>
      <trkpt lat="41.998191" lon="-87.66054">
      </trkpt>
      <trkpt lat="41.968906" lon="-87.659673">
      </trkpt>
      <trkpt lat="41.966917" lon="-87.658451">
      </trkpt>
      <trkpt lat="41.965382" lon="-87.658845">
      </trkpt>
      <trkpt lat="41.965371" lon="-87.659627">
      </trkpt>
      <trkpt lat="41.96558" lon="-87.65963">
      </trkpt>
      <trkpt lat="41.96558" lon="-87.65963">
      </trkpt>
      <trkpt lat="41.967205" lon="-87.65966">
      </trkpt>
      <trkpt lat="41.967254" lon="-87.656208">
      </trkpt>
      <trkpt lat="41.974712" lon="-87.656365">
      </trkpt>
      <trkpt lat="41.974712" lon="-87.656365">
      </trkpt>
      <trkpt lat="41.975268" lon="-87.656375">
      </trkpt>
      <trkpt lat="41.97529" lon="-87.654984">
      </trkpt>
      <trkpt lat="41.954492" lon="-87.654549">
      </trkpt>
      <trkpt lat="41.953982" lon="-87.698254">
      </trkpt>
      <trkpt lat="41.956867" lon="-87.698335">
      </trkpt>
      <trkpt lat="41.956867" lon="-87.698335">
      </trkpt>
      <trkpt lat="41.961247" lon="-87.698474">
      </trkpt>
      <trkpt lat="41.961319" lon="-87.688686">
      </trkpt>
      <trkpt lat="41.99044" lon="-87.689669">
      </trkpt>
      <trkpt lat="41.990491" lon="-87.687195">
      </trkpt>
      <trkpt lat="41.995454" lon="-87.687372">
      </trkpt>
      <trkpt lat="41.995454" lon="-87.687372">
      </trkpt>
      <trkpt lat="41.995958" lon="-87.68739">
      </trkpt>
      <trkpt lat="41.99598" lon="-87.686162">
      </trkpt>
      <trkpt lat="41.994168" lon="-87.686084">
      </trkpt>
      <trkpt lat="41.994104" lon="-87.689782">
      </trkpt>
      <trkpt lat="41.975899" lon="-87.689151">
      </trkpt>
      <trkpt lat="41.975668" lon="-87.715999">
      </trkpt>
      <trkpt lat="41.975154" lon="-87.716002">
      </trkpt>
      <trkpt lat="41.975154" lon="-87.716002">
      </trkpt>
      <trkpt lat="41.97272" lon="-87.715945">
      </trkpt>
      <trkpt lat="41.972555" lon="-87.715319">
      </trkpt>
      <trkpt lat="41.972559" lon="-87.714705">
      </trkpt>
      <trkpt lat="41.972764" lon="-87.713495">
      </trkpt>
      <trkpt lat="41.975692" lon="-87.713554">
      </trkpt>
      <trkpt lat="41.975749" lon="-87.708696">
      </trkpt>
      <trkpt lat="41.973924" lon="-87.708631">
      </trkpt>
      <trkpt lat="41.973943" lon="-87.706438">
      </trkpt>
      <trkpt lat="41.973943" lon="-87.706438">
      </trkpt>
      <trkpt lat="41.973946" lon="-87.706198">
      </trkpt>
      <trkpt lat="41.97211" lon="-87.706131">
      </trkpt>
      <trkpt lat="41.972118" lon="-87.704913">
      </trkpt>
      <trkpt lat="41.970314" lon="-87.70487">
      </trkpt>
      <trkpt lat="41.970324" lon="-87.703871">
      </trkpt>
      <trkpt lat="41.969886" lon="-87.703652">
      </trkpt>
      <trkpt lat="41.968503" lon="-87.703607">
      </trkpt>
      <trkpt lat="41.96851" lon="-87.702871">
      </trkpt>
      <trkpt lat="41.968005" lon="-87.702852">
      </trkpt>
      <trkpt lat="41.96359" lon="-87.698437">
      </trkpt>
      <trkpt lat="41.956867" lon="-87.698335">
      </trkpt>
      <trkpt lat="41.956867" lon="-87.698335">
      </trkpt>
      <trkpt lat="41.941887" lon="-87.697902">
      </trkpt>
      <trkpt lat="41.941872" lon="-87.700544">
      </trkpt>
      <trkpt lat="41.941084" lon="-87.701556">
      </trkpt>
      <trkpt lat="41.941075" lon="-87.702765">
      </trkpt>
      <trkpt lat="41.91745" lon="-87.702101">
      </trkpt>
      <trkpt lat="41.917431" lon="-87.703944">
      </trkpt>
      <trkpt lat="41.915416" lon="-87.703892">
      </trkpt>
      <trkpt lat="41.915416" lon="-87.703892">
      </trkpt>
      <trkpt lat="41.913751" lon="-87.703857">
      </trkpt>
      <trkpt lat="41.913772" lon="-87.70233">
      </trkpt>
      <trkpt lat="41.912" lon="-87.702283">
      </trkpt>
      <trkpt lat="41.912147" lon="-87.701932">
      </trkpt>
      <trkpt lat="41.91745" lon="-87.702101">
      </trkpt>
      <trkpt lat="41.917587" lon="-87.687413">
      </trkpt>
      <trkpt lat="41.953985" lon="-87.688469">
      </trkpt>
      <trkpt lat="41.954306" lon="-87.668983">
      </trkpt>
      <trkpt lat="41.96524" lon="-87.669262">
      </trkpt>
      <trkpt lat="41.965371" lon="-87.659627">
      </trkpt>
      <trkpt lat="41.96558" lon="-87.65963">
      </trkpt>
      <trkpt lat="41.96558" lon="-87.65963">
      </trkpt>
      <trkpt lat="41.967205" lon="-87.65966">
      </trkpt>
      <trkpt lat="41.967179" lon="-87.661129">
      </trkpt>
      <trkpt lat="41.965352" lon="-87.661022">
      </trkpt>
      <trkpt lat="41.964757" lon="-87.713874">
      </trkpt>
      <trkpt lat="41.964757" lon="-87.713874">
      </trkpt>
      <trkpt lat="41.96472" lon="-87.713255">
      </trkpt>
      <trkpt lat="41.975692" lon="-87.713554">
      </trkpt>
      <trkpt lat="41.975899" lon="-87.689151">
      </trkpt>
      <trkpt lat="41.977715" lon="-87.68922">
      </trkpt>
      <trkpt lat="41.977735" lon="-87.688432">
      </trkpt>
      <trkpt lat="41.97925" lon="-87.685014">
      </trkpt>
      <trkpt lat="41.982043" lon="-87.679565">
      </trkpt>
      <trkpt lat="41.983198" lon="-87.679477">
      </trkpt>
      <trkpt lat="41.983365" lon="-87.674607">
      </trkpt>
      <trkpt lat="41.98969" lon="-87.674682">
      </trkpt>
      <trkpt lat="41.98969" lon="-87.674682">
      </trkpt>
      <trkpt lat="41.98969" lon="-87.674682">
      </trkpt>
      <trkpt lat="41.98969" lon="-87.674682">
      </trkpt>
      <trkpt lat="41.990712" lon="-87.674711">
      </trkpt>
      <trkpt lat="41.990752" lon="-87.67223">
      </trkpt>
      <trkpt lat="41.989576" lon="-87.669778">
      </trkpt>
      <trkpt lat="41.985105" lon="-87.662456">
      </trkpt>
      <trkpt lat="41.985452" lon="-87.661136">
      </trkpt>
      <trkpt lat="41.985487" lon="-87.658072">
      </trkpt>
      <trkpt lat="41.984272" lon="-87.658038">
      </trkpt>
      <trkpt lat="41.984272" lon="-87.658038">
      </trkpt>
      <trkpt lat="41.983669" lon="-87.658021">
      </trkpt>
      <trkpt lat="41.983848" lon="-87.654482">
      </trkpt>
      <trkpt lat="41.983688" lon="-87.653702">
      </trkpt>
      <trkpt lat="41.98172" lon="-87.653016">
      </trkpt>
      <trkpt lat="41.973607" lon="-87.649277">
      </trkpt>
      <trkpt lat="41.967243" lon="-87.647684">
      </trkpt>
      <trkpt lat="41.965571" lon="-87.647973">
      </trkpt>
      <trkpt lat="41.965333" lon="-87.662408">
      </trkpt>
      <trkpt lat="41.965538" lon="-87.662436">
      </trkpt>
      <trkpt lat="41.965538" lon="-87.662436">
      </trkpt>
      <trkpt lat="41.965333" lon="-87.662408">
      </trkpt>
      <trkpt lat="41.965571" lon="-87.647973">
      </trkpt>
      <trkpt lat="41.963721" lon="-87.646868">
      </trkpt>
      <trkpt lat="41.950757" lon="-87.644507">
      </trkpt>
      <trkpt lat="41.941067" lon="-87.638957">
      </trkpt>
      <trkpt lat="41.936608" lon="-87.633807">
      </trkpt>
      <trkpt lat="41.934639" lon="-87.632453">
      </trkpt>
      <trkpt lat="41.928427" lon="-87.632048">
      </trkpt>
      <trkpt lat="41.915117" lon="-87.627538">
      </trkpt>
      <trkpt lat="41.913042" lon="-87.627206">
      </trkpt>
      <trkpt lat="41.912346" lon="-87.628067">
      </trkpt>
      <trkpt lat="41.913459" lon="-87.631428">
      </trkpt>
      <trkpt lat="41.912907" lon="-87.633196">
      </trkpt>
      <trkpt lat="41.89661" lon="-87.632793">
      </trkpt>
      <trkpt lat="41.896269" lon="-87.654734">
      </trkpt>
      <trkpt lat="41.892535" lon="-87.657882">
      </trkpt>
      <trkpt lat="41.892518" lon="-87.659522">
      </trkpt>
      <trkpt lat="41.893465" lon="-87.659547">
      </trkpt>
      <trkpt lat="41.893479" lon="-87.658764">
      </trkpt>
      <trkpt lat="41.893479" lon="-87.658764">
      </trkpt>
      <trkpt lat="41.893417" lon="-87.66233">
      </trkpt>
      <trkpt lat="41.891027" lon="-87.662267">
      </trkpt>
      <trkpt lat="41.890657" lon="-87.687437">
      </trkpt>
      <trkpt lat="41.895625" lon="-87.699899">
      </trkpt>
      <trkpt lat="41.895606" lon="-87.701213">
      </trkpt>
      <trkpt lat="41.895606" lon="-87.701213">
      </trkpt>
      <trkpt lat="41.896233" lon="-87.657506">
      </trkpt>
      <trkpt lat="41.899867" lon="-87.657601">
      </trkpt>
      <trkpt lat="41.899846" lon="-87.658881">
      </trkpt>
      <trkpt lat="41.900211" lon="-87.658901">
      </trkpt>
      <trkpt lat="41.900649" lon="-87.659328">
      </trkpt>
      <trkpt lat="41.900664" lon="-87.660134">
      </trkpt>
      <trkpt lat="41.900807" lon="-87.660179">
      </trkpt>
      <trkpt lat="41.900807" lon="-87.660179">
      </trkpt>
      <trkpt lat="41.90345" lon="-87.660665">
      </trkpt>
      <trkpt lat="41.903435" lon="-87.661667">
      </trkpt>
      <trkpt lat="41.901131" lon="-87.661131">
      </trkpt>
      <trkpt lat="41.897272" lon="-87.659243">
      </trkpt>
      <trkpt lat="41.896" lon="-87.658255">
      </trkpt>
      <trkpt lat="41.889352" lon="-87.648602">
      </trkpt>
      <trkpt lat="41.887778" lon="-87.647099">
      </trkpt>
      <trkpt lat="41.885929" lon="-87.646219">
      </trkpt>
      <trkpt lat="41.881827" lon="-87.645999">
      </trkpt>
      <trkpt lat="41.880956" lon="-87.646134">
      </trkpt>
      <trkpt lat="41.879569" lon="-87.646145">
      </trkpt>
      <trkpt lat="41.878121" lon="-87.646166">
      </trkpt>
      <trkpt lat="41.876334" lon="-87.646815">
      </trkpt>
      <trkpt lat="41.87588" lon="-87.647774">
      </trkpt>
      <trkpt lat="41.875728" lon="-87.649135">
      </trkpt>
      <trkpt lat="41.876197" lon="-87.657603">
      </trkpt>
      <trkpt lat="41.8759" lon="-87.673066">
      </trkpt>
      <trkpt lat="41.876215" lon="-87.676512">
      </trkpt>
      <trkpt lat="41.881323" lon="-87.676638">
      </trkpt>
      <trkpt lat="41.881324" lon="-87.679085">
      </trkpt>
      <trkpt lat="41.88126" lon="-87.678236">
      </trkpt>
      <trkpt lat="41.88126" lon="-87.678236">
      </trkpt>
      <trkpt lat="41.881475" lon="-87.666061">
      </trkpt>
      <trkpt lat="41.884284" lon="-87.663241">
      </trkpt>
      <trkpt lat="41.889971" lon="-87.659834">
      </trkpt>
      <trkpt lat="41.896273" lon="-87.654527">
      </trkpt>
      <trkpt lat="41.896517" lon="-87.639973">
      </trkpt>
      <trkpt lat="41.900464" lon="-87.64005">
      </trkpt>
      <trkpt lat="41.900546" lon="-87.632901">
      </trkpt>
      <trkpt lat="41.899913" lon="-87.632884">
      </trkpt>
      <trkpt lat="41.899913" lon="-87.632884">
      </trkpt>
      <trkpt lat="41.89661" lon="-87.632793">
      </trkpt>
      <trkpt lat="41.896269" lon="-87.654734">
      </trkpt>
      <trkpt lat="41.89501" lon="-87.655808">
      </trkpt>
      <trkpt lat="41.89596" lon="-87.657675">
      </trkpt>
      <trkpt lat="41.898217" lon="-87.65932">
      </trkpt>
      <trkpt lat="41.901753" lon="-87.660805">
      </trkpt>
      <trkpt lat="41.907216" lon="-87.661536">
      </trkpt>
      <trkpt lat="41.910145" lon="-87.664439">
      </trkpt>
      <trkpt lat="41.916712" lon="-87.668818">
      </trkpt>
      <trkpt lat="41.920831" lon="-87.675191">
      </trkpt>
      <trkpt lat="41.922669" lon="-87.677815">
      </trkpt>
      <trkpt lat="41.932278" lon="-87.678134">
      </trkpt>
      <trkpt lat="41.935872" lon="-87.683107">
      </trkpt>
      <trkpt lat="41.938607" lon="-87.683176">
      </trkpt>
      <trkpt lat="41.938622" lon="-87.681944">
      </trkpt>
      <trkpt lat="41.938622" lon="-87.681944">
      </trkpt>
      <trkpt lat="41.938638" lon="-87.680748">
      </trkpt>
      <trkpt lat="41.934149" lon="-87.680711">
      </trkpt>
      <trkpt lat="41.932278" lon="-87.678134">
      </trkpt>
      <trkpt lat="41.92139" lon="-87.677765">
      </trkpt>
      <trkpt lat="41.921395" lon="-87.677255">
      </trkpt>
      <trkpt lat="41.916815" lon="-87.669405">
      </trkpt>
      <trkpt lat="41.909975" lon="-87.664752">
      </trkpt>
      <trkpt lat="41.90696" lon="-87.661748">
      </trkpt>
      <trkpt lat="41.901587" lon="-87.661131">
      </trkpt>
      <trkpt lat="41.897534" lon="-87.659383">
      </trkpt>
      <trkpt lat="41.894931" lon="-87.657479">
      </trkpt>
      <trkpt lat="41.891076" lon="-87.657374">
      </trkpt>
      <trkpt lat="41.891092" lon="-87.655792">
      </trkpt>
      <trkpt lat="41.890535" lon="-87.655778">
      </trkpt>
      <trkpt lat="41.890535" lon="-87.655778">
      </trkpt>
      <trkpt lat="41.891092" lon="-87.655792">
      </trkpt>
      <trkpt lat="41.891179" lon="-87.648776">
      </trkpt>
      <trkpt lat="41.891975" lon="-87.648798">
      </trkpt>
      <trkpt lat="41.893035" lon="-87.650448">
      </trkpt>
      <trkpt lat="41.893035" lon="-87.650448">
      </trkpt>
      <trkpt lat="41.893342" lon="-87.650924">
      </trkpt>
      <trkpt lat="41.89336" lon="-87.647667">
      </trkpt>
      <trkpt lat="41.90987" lon="-87.648252">
      </trkpt>
      <trkpt lat="41.909856" lon="-87.649122">
      </trkpt>
      <trkpt lat="41.909856" lon="-87.649122">
      </trkpt>
      <trkpt lat="41.90987" lon="-87.648252">
      </trkpt>
      <trkpt lat="41.910013" lon="-87.648257">
      </trkpt>
      <trkpt lat="41.921692" lon="-87.664499">
      </trkpt>
      <trkpt lat="41.921692" lon="-87.664499">
      </trkpt>
      <trkpt lat="41.924274" lon="-87.668123">
      </trkpt>
      <trkpt lat="41.973437" lon="-87.669473">
      </trkpt>
      <trkpt lat="41.973279" lon="-87.677814">
      </trkpt>
      <trkpt lat="41.974722" lon="-87.677853">
      </trkpt>
      <trkpt lat="41.97474" lon="-87.676798">
      </trkpt>
      <trkpt lat="41.97474" lon="-87.676798">
      </trkpt>
      <trkpt lat="41.974747" lon="-87.676368">
      </trkpt>
      <trkpt lat="41.973309" lon="-87.676325">
      </trkpt>
      <trkpt lat="41.973438" lon="-87.669403">
      </trkpt>
      <trkpt lat="41.973375" lon="-87.667898">
      </trkpt>
      <trkpt lat="41.973425" lon="-87.664676">
      </trkpt>
      <trkpt lat="41.972606" lon="-87.664692">
      </trkpt>
      <trkpt lat="41.972678" lon="-87.659771">
      </trkpt>
      <trkpt lat="41.971482" lon="-87.659728">
      </trkpt>
      <trkpt lat="41.971565" lon="-87.656283">
      </trkpt>
      <trkpt lat="41.974712" lon="-87.656365">
      </trkpt>
      <trkpt lat="41.974712" lon="-87.656365">
      </trkpt>
      <trkpt lat="41.976381" lon="-87.656408">
      </trkpt>
      <trkpt lat="41.976324" lon="-87.659864">
      </trkpt>
      <trkpt lat="42.005442" lon="-87.660904">
      </trkpt>
      <trkpt lat="42.011614" lon="-87.662865">
      </trkpt>
      <trkpt lat="42.015024" lon="-87.664678">
      </trkpt>
      <trkpt lat="42.014978" lon="-87.667467">
      </trkpt>
      <trkpt lat="42.014978" lon="-87.667467">
      </trkpt>
      <trkpt lat="42.015005" lon="-87.668213">
      </trkpt>
      <trkpt lat="42.014968" lon="-87.668332">
      </trkpt>
      <trkpt lat="42.014929" lon="-87.670267">
      </trkpt>
      <trkpt lat="42.012718" lon="-87.670195">
      </trkpt>
      <trkpt lat="42.012606" lon="-87.676853">
      </trkpt>
      <trkpt lat="42.012606" lon="-87.676853">
      </trkpt>
      <trkpt lat="42.012511" lon="-87.682294">
      </trkpt>
      <trkpt lat="42.012621" lon="-87.682444">
      </trkpt>
      <trkpt lat="42.012318" lon="-87.683076">
      </trkpt>
      <trkpt lat="42.015501" lon="-87.684163">
      </trkpt>
      <trkpt lat="42.019488" lon="-87.684645">
      </trkpt>
      <trkpt lat="42.019532" lon="-87.690179">
      </trkpt>
      <trkpt lat="42.019113" lon="-87.711292">
      </trkpt>
      <trkpt lat="42.021634" lon="-87.710729">
      </trkpt>
      <trkpt lat="42.022905" lon="-87.710861">
      </trkpt>
      <trkpt lat="42.022905" lon="-87.710861">
      </trkpt>
      <trkpt lat="42.021634" lon="-87.710729">
      </trkpt>
      <trkpt lat="42.019113" lon="-87.711292">
      </trkpt>
      <trkpt lat="42.019532" lon="-87.690179">
      </trkpt>
      <trkpt lat="41.995915" lon="-87.689837">
      </trkpt>
      <trkpt lat="41.995937" lon="-87.688612">
      </trkpt>
      <trkpt lat="41.995436" lon="-87.688596">
      </trkpt>
      <trkpt lat="41.995436" lon="-87.688596">
      </trkpt>
      <trkpt lat="41.990584" lon="-87.68844">
      </trkpt>
      <trkpt lat="41.990509" lon="-87.689876">
      </trkpt>
      <trkpt lat="41.990857" lon="-87.665171">
      </trkpt>
      <trkpt lat="41.991183" lon="-87.66518">
      </trkpt>
      <trkpt lat="41.991183" lon="-87.66518">
      </trkpt>
      <trkpt lat="41.99177" lon="-87.665197">
      </trkpt>
      <trkpt lat="41.991712" lon="-87.670157">
      </trkpt>
      <trkpt lat="41.987608" lon="-87.669796">
      </trkpt>
      <trkpt lat="41.986767" lon="-87.669866">
      </trkpt>
      <trkpt lat="41.986688" lon="-87.674649">
      </trkpt>
      <trkpt lat="41.983365" lon="-87.674607">
      </trkpt>
      <trkpt lat="41.983198" lon="-87.679477">
      </trkpt>
      <trkpt lat="41.982043" lon="-87.679565">
      </trkpt>
      <trkpt lat="41.979533" lon="-87.684398">
      </trkpt>
      <trkpt lat="41.976867" lon="-87.684318">
      </trkpt>
      <trkpt lat="41.976877" lon="-87.683701">
      </trkpt>
      <trkpt lat="41.976877" lon="-87.683701">
      </trkpt>
      <trkpt lat="41.976906" lon="-87.681885">
      </trkpt>
      <trkpt lat="41.975993" lon="-87.681857">
      </trkpt>
      <trkpt lat="41.975877" lon="-87.692352">
      </trkpt>
      <trkpt lat="41.979508" lon="-87.692693">
      </trkpt>
      <trkpt lat="41.979449" lon="-87.702665">
      </trkpt>
      <trkpt lat="41.979449" lon="-87.702665">
      </trkpt>
      <trkpt lat="41.97944" lon="-87.703963">
      </trkpt>
      <trkpt lat="41.983097" lon="-87.705071">
      </trkpt>
      <trkpt lat="41.98284" lon="-87.728412">
      </trkpt>
      <trkpt lat="41.975527" lon="-87.728239">
      </trkpt>
      <trkpt lat="41.975314" lon="-87.74954">
      </trkpt>
      <trkpt lat="41.975314" lon="-87.74954">
      </trkpt>
      <trkpt lat="41.975317" lon="-87.749263">
      </trkpt>
      <trkpt lat="41.973672" lon="-87.749213">
      </trkpt>
      <trkpt lat="41.972794" lon="-87.747761">
      </trkpt>
      <trkpt lat="41.966563" lon="-87.747223">
      </trkpt>
      <trkpt lat="41.963113" lon="-87.745961">
      </trkpt>
      <trkpt lat="41.960129" lon="-87.742125">
      </trkpt>
      <trkpt lat="41.947613" lon="-87.719592">
      </trkpt>
      <trkpt lat="41.94215" lon="-87.715306">
      </trkpt>
      <trkpt lat="41.940524" lon="-87.710219">
      </trkpt>
      <trkpt lat="41.933659" lon="-87.698173">
      </trkpt>
      <trkpt lat="41.927358" lon="-87.687291">
      </trkpt>
      <trkpt lat="41.924962" lon="-87.683686">
      </trkpt>
      <trkpt lat="41.925151" lon="-87.66815">
      </trkpt>
      <trkpt lat="41.939697" lon="-87.668609">
      </trkpt>
      <trkpt lat="41.939918" lon="-87.654106">
      </trkpt>
      <trkpt lat="41.947246" lon="-87.654325">
      </trkpt>
      <trkpt lat="41.947284" lon="-87.651901">
      </trkpt>
      <trkpt lat="41.945437" lon="-87.651828">
      </trkpt>
      <trkpt lat="41.945421" lon="-87.653056">
      </trkpt>
      <trkpt lat="41.945555" lon="-87.653062">
      </trkpt>
      <trkpt lat="41.945555" lon="-87.653062">
      </trkpt>
      <trkpt lat="41.947265" lon="-87.653133">
      </trkpt>
      <trkpt lat="41.947315" lon="-87.649493">
      </trkpt>
      <trkpt lat="41.953239" lon="-87.649662">
      </trkpt>
      <trkpt lat="41.961373" lon="-87.649905">
      </trkpt>
      <trkpt lat="41.961373" lon="-87.649905">
      </trkpt>
      <trkpt lat="41.954561" lon="-87.649713">
      </trkpt>
      <trkpt lat="41.954086" lon="-87.688469">
      </trkpt>
      <trkpt lat="41.949742" lon="-87.688345">
      </trkpt>
      <trkpt lat="41.949742" lon="-87.688345">
      </trkpt>
      <trkpt lat="41.953985" lon="-87.688469">
      </trkpt>
      <trkpt lat="41.954122" lon="-87.678715">
      </trkpt>
      <trkpt lat="41.956871" lon="-87.680652">
      </trkpt>
      <trkpt lat="41.956848" lon="-87.682516">
      </trkpt>
      <trkpt lat="41.956848" lon="-87.682516">
      </trkpt>
      <trkpt lat="41.956833" lon="-87.683697">
      </trkpt>
      <trkpt lat="41.954151" lon="-87.683613">
      </trkpt>
      <trkpt lat="41.953982" lon="-87.698254">
      </trkpt>
      <trkpt lat="41.946686" lon="-87.698037">
      </trkpt>
      <trkpt lat="41.94651" lon="-87.717815">
      </trkpt>
      <trkpt lat="41.947883" lon="-87.719292">
      </trkpt>
      <trkpt lat="41.960998" lon="-87.742619">
      </trkpt>
      <trkpt lat="41.965157" lon="-87.74678">
      </trkpt>
      <trkpt lat="41.975724" lon="-87.747426">
      </trkpt>
      <trkpt lat="41.980044" lon="-87.746614">
      </trkpt>
      <trkpt lat="41.985896" lon="-87.750967">
      </trkpt>
      <trkpt lat="41.99049" lon="-87.751131">
      </trkpt>
      <trkpt lat="41.991278" lon="-87.749995">
      </trkpt>
      <trkpt lat="41.990201" lon="-87.750346">
      </trkpt>
      <trkpt lat="41.991161" lon="-87.753543">
      </trkpt>
      <trkpt lat="42.004121" lon="-87.781309">
      </trkpt>
      <trkpt lat="42.006556" lon="-87.776297">
      </trkpt>
      <trkpt lat="42.006556" lon="-87.776297">
      </trkpt>
      <trkpt lat="42.004121" lon="-87.781309">
      </trkpt>
      <trkpt lat="41.991079" lon="-87.753476">
      </trkpt>
      <trkpt lat="41.98986" lon="-87.753263">
      </trkpt>
      <trkpt lat="41.988489" lon="-87.751657">
      </trkpt>
      <trkpt lat="41.98526" lon="-87.750815">
      </trkpt>
      <trkpt lat="41.980228" lon="-87.746835">
      </trkpt>
      <trkpt lat="41.975817" lon="-87.7476">
      </trkpt>
      <trkpt lat="41.963527" lon="-87.746855">
      </trkpt>
      <trkpt lat="41.961807" lon="-87.745273">
      </trkpt>
      <trkpt lat="41.957103" lon="-87.73715">
      </trkpt>
      <trkpt lat="41.954216" lon="-87.732489">
      </trkpt>
      <trkpt lat="41.953606" lon="-87.732464">
      </trkpt>
      <trkpt lat="41.953587" lon="-87.733959">
      </trkpt>
      <trkpt lat="41.948121" lon="-87.733804">
      </trkpt>
      <trkpt lat="41.948077" lon="-87.736646">
      </trkpt>
      <trkpt lat="41.948162" lon="-87.736648">
      </trkpt>
      <trkpt lat="41.948162" lon="-87.736648">
      </trkpt>
      <trkpt lat="41.953551" lon="-87.736807">
      </trkpt>
      <trkpt lat="41.953617" lon="-87.731304">
      </trkpt>
      <trkpt lat="41.951994" lon="-87.728029">
      </trkpt>
      <trkpt lat="41.94853" lon="-87.721846">
      </trkpt>
      <trkpt lat="41.946493" lon="-87.718984">
      </trkpt>
      <trkpt lat="41.946711" lon="-87.694882">
      </trkpt>
      <trkpt lat="41.947669" lon="-87.694885">
      </trkpt>
      <trkpt lat="41.947669" lon="-87.694885">
      </trkpt>
      <trkpt lat="41.946711" lon="-87.694882">
      </trkpt>
      <trkpt lat="41.946686" lon="-87.698037">
      </trkpt>
      <trkpt lat="41.942795" lon="-87.697932">
      </trkpt>
      <trkpt lat="41.942777" lon="-87.701229">
      </trkpt>
      <trkpt lat="41.942777" lon="-87.701229">
      </trkpt>
      <trkpt lat="41.942766" lon="-87.703229">
      </trkpt>
      <trkpt lat="41.94223" lon="-87.702467">
      </trkpt>
      <trkpt lat="41.935677" lon="-87.702616">
      </trkpt>
      <trkpt lat="41.917124" lon="-87.669746">
      </trkpt>
      <trkpt lat="41.906635" lon="-87.661559">
      </trkpt>
      <trkpt lat="41.896667" lon="-87.658834">
      </trkpt>
      <trkpt lat="41.887778" lon="-87.647099">
      </trkpt>
      <trkpt lat="41.851247" lon="-87.645245">
      </trkpt>
      <trkpt lat="41.847384" lon="-87.642429">
      </trkpt>
      <trkpt lat="41.845323" lon="-87.634652">
      </trkpt>
      <trkpt lat="41.84209" lon="-87.63091">
      </trkpt>
      <trkpt lat="41.79178" lon="-87.631289">
      </trkpt>
      <trkpt lat="41.783322" lon="-87.631532">
      </trkpt>
      <trkpt lat="41.779372" lon="-87.631833">
      </trkpt>
      <trkpt lat="41.779366" lon="-87.632128">
      </trkpt>
      <trkpt lat="41.778543" lon="-87.632538">
      </trkpt>
      <trkpt lat="41.778543" lon="-87.632538">
      </trkpt>
      <trkpt lat="41.779366" lon="-87.632128">
      </trkpt>
      <trkpt lat="41.779372" lon="-87.631833">
      </trkpt>
      <trkpt lat="41.778124" lon="-87.631812">
      </trkpt>
      <trkpt lat="41.778077" lon="-87.635009">
      </trkpt>
      <trkpt lat="41.779907" lon="-87.635057">
      </trkpt>
      <trkpt lat="41.779931" lon="-87.630139">
      </trkpt>
      <trkpt lat="41.780433" lon="-87.630149">
      </trkpt>
      <trkpt lat="41.807989" lon="-87.63142">
      </trkpt>
      <trkpt lat="41.812785" lon="-87.629665">
      </trkpt>
      <trkpt lat="41.837743" lon="-87.630393">
      </trkpt>
      <trkpt lat="41.844069" lon="-87.631001">
      </trkpt>
      <trkpt lat="41.846653" lon="-87.630081">
      </trkpt>
      <trkpt lat="41.847976" lon="-87.616851">
      </trkpt>
      <trkpt lat="41.848153" lon="-87.613392">
      </trkpt>
      <trkpt lat="41.84938" lon="-87.612168">
      </trkpt>
      <trkpt lat="41.8661" lon="-87.619244">
      </trkpt>
      <trkpt lat="41.869799" lon="-87.617003">
      </trkpt>
      <trkpt lat="41.881825" lon="-87.617167">
      </trkpt>
      <trkpt lat="41.884762" lon="-87.613645">
      </trkpt>
      <trkpt lat="41.892577" lon="-87.613978">
      </trkpt>
      <trkpt lat="41.900921" lon="-87.619441">
      </trkpt>
      <trkpt lat="41.902638" lon="-87.623907">
      </trkpt>
      <trkpt lat="41.909833" lon="-87.625717">
      </trkpt>
      <trkpt lat="41.913347" lon="-87.626017">
      </trkpt>
      <trkpt lat="41.912344" lon="-87.627835">
      </trkpt>
      <trkpt lat="41.913334" lon="-87.632438">
      </trkpt>
      <trkpt lat="41.911171" lon="-87.633223">
      </trkpt>
      <trkpt lat="41.911054" lon="-87.643446">
      </trkpt>
      <trkpt lat="41.913908" lon="-87.643529">
      </trkpt>
      <trkpt lat="41.913887" lon="-87.644729">
      </trkpt>
      <trkpt lat="41.913887" lon="-87.644729">
      </trkpt>
      <trkpt lat="41.913826" lon="-87.648378">
      </trkpt>
      <trkpt lat="41.925453" lon="-87.648766">
      </trkpt>
      <trkpt lat="41.936111" lon="-87.663682">
      </trkpt>
      <trkpt lat="41.943419" lon="-87.663907">
      </trkpt>
      <trkpt lat="41.943396" lon="-87.665475">
      </trkpt>
      <trkpt lat="41.943396" lon="-87.665475">
      </trkpt>
      <trkpt lat="41.943383" lon="-87.666342">
      </trkpt>
      <trkpt lat="41.939729" lon="-87.666233">
      </trkpt>
      <trkpt lat="41.939918" lon="-87.654106">
      </trkpt>
      <trkpt lat="41.937175" lon="-87.654016">
      </trkpt>
      <trkpt lat="41.937186" lon="-87.653552">
      </trkpt>
      <trkpt lat="41.937074" lon="-87.65355">
      </trkpt>
      <trkpt lat="41.937074" lon="-87.65355">
      </trkpt>
      <trkpt lat="41.937186" lon="-87.653552">
      </trkpt>
      <trkpt lat="41.937175" lon="-87.654016">
      </trkpt>
      <trkpt lat="41.939918" lon="-87.654106">
      </trkpt>
      <trkpt lat="41.940119" lon="-87.639537">
      </trkpt>
      <trkpt lat="41.940568" lon="-87.638088">
      </trkpt>
      <trkpt lat="41.951253" lon="-87.644496">
      </trkpt>
      <trkpt lat="41.954749" lon="-87.644596">
      </trkpt>
      <trkpt lat="41.973046" lon="-87.648738">
      </trkpt>
      <trkpt lat="41.981039" lon="-87.652251">
      </trkpt>
      <trkpt lat="41.984951" lon="-87.652803">
      </trkpt>
      <trkpt lat="41.985586" lon="-87.654178">
      </trkpt>
      <trkpt lat="41.985105" lon="-87.662456">
      </trkpt>
      <trkpt lat="41.987189" lon="-87.665884">
      </trkpt>
      <trkpt lat="41.987146" lon="-87.669585">
      </trkpt>
      <trkpt lat="41.988054" lon="-87.669707">
      </trkpt>
      <trkpt lat="41.987608" lon="-87.669796">
      </trkpt>
      <trkpt lat="41.987519" lon="-87.669769">
      </trkpt>
      <trkpt lat="41.987519" lon="-87.669769">
      </trkpt>
      <trkpt lat="41.985433" lon="-87.669181">
      </trkpt>
      <trkpt lat="41.985603" lon="-87.663294">
      </trkpt>
      <trkpt lat="41.983631" lon="-87.660074">
      </trkpt>
      <trkpt lat="41.972678" lon="-87.659771">
      </trkpt>
      <trkpt lat="41.972674" lon="-87.660107">
      </trkpt>
      <trkpt lat="41.972674" lon="-87.660107">
      </trkpt>
      <trkpt lat="41.972678" lon="-87.659771">
      </trkpt>
      <trkpt lat="41.969021" lon="-87.659673">
      </trkpt>
      <trkpt lat="41.969276" lon="-87.648824">
      </trkpt>
      <trkpt lat="41.965793" lon="-87.64734">
      </trkpt>
      <trkpt lat="41.950978" lon="-87.644611">
      </trkpt>
      <trkpt lat="41.941067" lon="-87.638957">
      </trkpt>
      <trkpt lat="41.935041" lon="-87.632637">
      </trkpt>
      <trkpt lat="41.927741" lon="-87.631858">
      </trkpt>
      <trkpt lat="41.926001" lon="-87.631853">
      </trkpt>
      <trkpt lat="41.925453" lon="-87.648766">
      </trkpt>
      <trkpt lat="41.91731" lon="-87.648495">
      </trkpt>
      <trkpt lat="41.91731" lon="-87.648495">
      </trkpt>
      <trkpt lat="41.925453" lon="-87.648766">
      </trkpt>
      <trkpt lat="41.939697" lon="-87.668609">
      </trkpt>
      <trkpt lat="41.948822" lon="-87.66884">
      </trkpt>
      <trkpt lat="41.948845" lon="-87.667351">
      </trkpt>
      <trkpt lat="41.948845" lon="-87.667351">
      </trkpt>
      <trkpt lat="41.948897" lon="-87.664054">
      </trkpt>
      <trkpt lat="41.954357" lon="-87.664217">
      </trkpt>
      <trkpt lat="41.954634" lon="-87.645235">
      </trkpt>
      <trkpt lat="41.950978" lon="-87.644611">
      </trkpt>
      <trkpt lat="41.941594" lon="-87.639315">
      </trkpt>
      <trkpt lat="41.93482" lon="-87.632527">
      </trkpt>
      <trkpt lat="41.928427" lon="-87.632048">
      </trkpt>
      <trkpt lat="41.915117" lon="-87.627538">
      </trkpt>
      <trkpt lat="41.913042" lon="-87.627206">
      </trkpt>
      <trkpt lat="41.912346" lon="-87.628067">
      </trkpt>
      <trkpt lat="41.913459" lon="-87.631428">
      </trkpt>
      <trkpt lat="41.912907" lon="-87.633196">
      </trkpt>
      <trkpt lat="41.900546" lon="-87.632901">
      </trkpt>
      <trkpt lat="41.90053" lon="-87.63435">
      </trkpt>
      <trkpt lat="41.898867" lon="-87.634293">
      </trkpt>
      <trkpt lat="41.898867" lon="-87.634293">
      </trkpt>
      <trkpt lat="41.898867" lon="-87.634293">
      </trkpt>
      <trkpt lat="41.898867" lon="-87.634293">
      </trkpt>
      <trkpt lat="41.896586" lon="-87.63421">
      </trkpt>
      <trkpt lat="41.896269" lon="-87.654734">
      </trkpt>
      <trkpt lat="41.892535" lon="-87.657882">
      </trkpt>
      <trkpt lat="41.892518" lon="-87.659522">
      </trkpt>
      <trkpt lat="41.893465" lon="-87.659547">
      </trkpt>
      <trkpt lat="41.893479" lon="-87.658764">
      </trkpt>
      <trkpt lat="41.893479" lon="-87.658764">
      </trkpt>
      <trkpt lat="41.893417" lon="-87.66233">
      </trkpt>
      <trkpt lat="41.891027" lon="-87.662267">
      </trkpt>
      <trkpt lat="41.890782" lon="-87.679339">
      </trkpt>
      <trkpt lat="41.891505" lon="-87.67936">
      </trkpt>
      <trkpt lat="41.891528" lon="-87.67804">
      </trkpt>
      <trkpt lat="41.891528" lon="-87.67804">
      </trkpt>
      <trkpt lat="41.891547" lon="-87.676926">
      </trkpt>
      <trkpt lat="41.890825" lon="-87.676904">
      </trkpt>
      <trkpt lat="41.891189" lon="-87.645341">
      </trkpt>
      <trkpt lat="41.891543" lon="-87.637019">
      </trkpt>
      <trkpt lat="41.892368" lon="-87.63704">
      </trkpt>
      <trkpt lat="41.892457" lon="-87.62966">
      </trkpt>
      <trkpt lat="41.894584" lon="-87.629727">
      </trkpt>
      <trkpt lat="41.894584" lon="-87.629727">
      </trkpt>
      <trkpt lat="41.896655" lon="-87.62978">
      </trkpt>
      <trkpt lat="41.896633" lon="-87.631243">
      </trkpt>
      <trkpt lat="41.895637" lon="-87.631219">
      </trkpt>
      <trkpt lat="41.895653" lon="-87.630373">
      </trkpt>
      <trkpt lat="41.895653" lon="-87.630373">
      </trkpt>
      <trkpt lat="41.895665" lon="-87.629762">
      </trkpt>
      <trkpt lat="41.896655" lon="-87.62978">
      </trkpt>
      <trkpt lat="41.896269" lon="-87.654734">
      </trkpt>
      <trkpt lat="41.89501" lon="-87.655808">
      </trkpt>
      <trkpt lat="41.89596" lon="-87.657675">
      </trkpt>
      <trkpt lat="41.898217" lon="-87.65932">
      </trkpt>
      <trkpt lat="41.901753" lon="-87.660805">
      </trkpt>
      <trkpt lat="41.906799" lon="-87.661253">
      </trkpt>
      <trkpt lat="41.910145" lon="-87.664439">
      </trkpt>
      <trkpt lat="41.917096" lon="-87.669227">
      </trkpt>
      <trkpt lat="41.937344" lon="-87.704001">
      </trkpt>
      <trkpt lat="41.939348" lon="-87.706845">
      </trkpt>
      <trkpt lat="41.93936" lon="-87.706369">
      </trkpt>
      <trkpt lat="41.944803" lon="-87.706177">
      </trkpt>
      <trkpt lat="41.944219" lon="-87.705317">
      </trkpt>
      <trkpt lat="41.943085" lon="-87.705281">
      </trkpt>
      <trkpt lat="41.943085" lon="-87.705281">
      </trkpt>
      <trkpt lat="41.939366" lon="-87.705182">
      </trkpt>
      <trkpt lat="41.939378" lon="-87.702718">
      </trkpt>
      <trkpt lat="41.935677" lon="-87.702616">
      </trkpt>
      <trkpt lat="41.917124" lon="-87.669746">
      </trkpt>
      <trkpt lat="41.906635" lon="-87.661559">
      </trkpt>
      <trkpt lat="41.896667" lon="-87.658834">
      </trkpt>
      <trkpt lat="41.887778" lon="-87.647099">
      </trkpt>
      <trkpt lat="41.857367" lon="-87.644363">
      </trkpt>
      <trkpt lat="41.852447" lon="-87.645793">
      </trkpt>
      <trkpt lat="41.849097" lon="-87.644333">
      </trkpt>
      <trkpt lat="41.846776" lon="-87.644894">
      </trkpt>
      <trkpt lat="41.844955" lon="-87.652708">
      </trkpt>
      <trkpt lat="41.837862" lon="-87.667166">
      </trkpt>
      <trkpt lat="41.837032" lon="-87.680151">
      </trkpt>
      <trkpt lat="41.832287" lon="-87.695427">
      </trkpt>
      <trkpt lat="41.831418" lon="-87.698851">
      </trkpt>
      <trkpt lat="41.830863" lon="-87.700566">
      </trkpt>
      <trkpt lat="41.829715" lon="-87.704666">
      </trkpt>
      <trkpt lat="41.803404" lon="-87.703846">
      </trkpt>
      <trkpt lat="41.803365" lon="-87.705243">
      </trkpt>
      <trkpt lat="41.803552" lon="-87.704121">
      </trkpt>
      <trkpt lat="41.803682" lon="-87.705762">
      </trkpt>
      <trkpt lat="41.803682" lon="-87.705762">
      </trkpt>
      <trkpt lat="41.803552" lon="-87.704121">
      </trkpt>
      <trkpt lat="41.803365" lon="-87.705243">
      </trkpt>
      <trkpt lat="41.803404" lon="-87.703846">
      </trkpt>
      <trkpt lat="41.898325" lon="-87.706651">
      </trkpt>
      <trkpt lat="41.899176" lon="-87.708783">
      </trkpt>
      <trkpt lat="41.899117" lon="-87.715822">
      </trkpt>
      <trkpt lat="41.899117" lon="-87.715822">
      </trkpt>
      <trkpt lat="41.899176" lon="-87.708783">
      </trkpt>
      <trkpt lat="41.896575" lon="-87.702222">
      </trkpt>
      <trkpt lat="41.895594" lon="-87.702191">
      </trkpt>
      <trkpt lat="41.895606" lon="-87.701213">
      </trkpt>
      <trkpt lat="41.895606" lon="-87.701213">
      </trkpt>
      <trkpt lat="41.895625" lon="-87.699899">
      </trkpt>
      <trkpt lat="41.890711" lon="-87.687618">
      </trkpt>
      <trkpt lat="41.890646" lon="-87.686683">
      </trkpt>
      <trkpt lat="41.866615" lon="-87.686045">
      </trkpt>
      <trkpt lat="41.866796" lon="-87.666485">
      </trkpt>
      <trkpt lat="41.858705" lon="-87.66624">
      </trkpt>
      <trkpt lat="41.858703" lon="-87.666424">
      </trkpt>
      <trkpt lat="41.858703" lon="-87.666424">
      </trkpt>
      <trkpt lat="41.858707" lon="-87.666113">
      </trkpt>
      <trkpt lat="41.875179" lon="-87.666563">
      </trkpt>
      <trkpt lat="41.875183" lon="-87.666292">
      </trkpt>
      <trkpt lat="41.875329" lon="-87.650308">
      </trkpt>
      <trkpt lat="41.875302" lon="-87.647601">
      </trkpt>
      <trkpt lat="41.874563" lon="-87.645452">
      </trkpt>
      <trkpt lat="41.875077" lon="-87.644482">
      </trkpt>
      <trkpt lat="41.876036" lon="-87.64458">
      </trkpt>
      <trkpt lat="41.880374" lon="-87.645275">
      </trkpt>
      <trkpt lat="41.881847" lon="-87.645355">
      </trkpt>
      <trkpt lat="41.882198" lon="-87.645393">
      </trkpt>
      <trkpt lat="41.885931" lon="-87.64591">
      </trkpt>
      <trkpt lat="41.888483" lon="-87.647404">
      </trkpt>
      <trkpt lat="41.897251" lon="-87.658783">
      </trkpt>
      <trkpt lat="41.901753" lon="-87.660805">
      </trkpt>
      <trkpt lat="41.906186" lon="-87.660967">
      </trkpt>
      <trkpt lat="41.907951" lon="-87.662226">
      </trkpt>
      <trkpt lat="41.910674" lon="-87.664445">
      </trkpt>
      <trkpt lat="41.910927" lon="-87.648286">
      </trkpt>
      <trkpt lat="41.918178" lon="-87.648523">
      </trkpt>
      <trkpt lat="41.918199" lon="-87.647123">
      </trkpt>
      <trkpt lat="41.918199" lon="-87.647123">
      </trkpt>
      <trkpt lat="41.918041" lon="-87.658214">
      </trkpt>
      <trkpt lat="41.917139" lon="-87.658378">
      </trkpt>
      <trkpt lat="41.917067" lon="-87.663815">
      </trkpt>
      <trkpt lat="41.916455" lon="-87.666413">
      </trkpt>
      <trkpt lat="41.91793" lon="-87.667505">
      </trkpt>
      <trkpt lat="41.917898" lon="-87.66968">
      </trkpt>
      <trkpt lat="41.940439" lon="-87.709664">
      </trkpt>
      <trkpt lat="41.942208" lon="-87.714861">
      </trkpt>
      <trkpt lat="41.947985" lon="-87.719618">
      </trkpt>
      <trkpt lat="41.958569" lon="-87.738838">
      </trkpt>
      <trkpt lat="41.960451" lon="-87.741371">
      </trkpt>
      <trkpt lat="41.960845" lon="-87.74187">
      </trkpt>
      <trkpt lat="41.960061" lon="-87.794287">
      </trkpt>
      <trkpt lat="41.946631" lon="-87.822074">
      </trkpt>
      <trkpt lat="41.937842" lon="-87.821404">
      </trkpt>
      <trkpt lat="41.937866" lon="-87.820185">
      </trkpt>
      <trkpt lat="41.936076" lon="-87.820102">
      </trkpt>
      <trkpt lat="41.936062" lon="-87.820727">
      </trkpt>
      <trkpt lat="41.934634" lon="-87.82067">
      </trkpt>
      <trkpt lat="41.934634" lon="-87.82067">
      </trkpt>
      <trkpt lat="41.93424" lon="-87.820654">
      </trkpt>
      <trkpt lat="41.934519" lon="-87.806613">
      </trkpt>
      <trkpt lat="41.873618" lon="-87.804598">
      </trkpt>
      <trkpt lat="41.87064" lon="-87.769061">
      </trkpt>
      <trkpt lat="41.871594" lon="-87.739969">
      </trkpt>
      <trkpt lat="41.87362" lon="-87.733001">
      </trkpt>
      <trkpt lat="41.875358" lon="-87.680246">
      </trkpt>
      <trkpt lat="41.875016" lon="-87.676555">
      </trkpt>
      <trkpt lat="41.848542" lon="-87.675739">
      </trkpt>
      <trkpt lat="41.848385" lon="-87.676155">
      </trkpt>
      <trkpt lat="41.848385" lon="-87.676155">
      </trkpt>
      <trkpt lat="41.848542" lon="-87.675739">
      </trkpt>
      <trkpt lat="41.830387" lon="-87.675278">
      </trkpt>
      <trkpt lat="41.830414" lon="-87.672835">
      </trkpt>
      <trkpt lat="41.826774" lon="-87.672742">
      </trkpt>
      <trkpt lat="41.826787" lon="-87.671518">
      </trkpt>
      <trkpt lat="41.82698" lon="-87.671523">
      </trkpt>
      <trkpt lat="41.82698" lon="-87.671523">
      </trkpt>
      <trkpt lat="41.830427" lon="-87.671618">
      </trkpt>
      <trkpt lat="41.830387" lon="-87.675278">
      </trkpt>
      <trkpt lat="41.848542" lon="-87.675739">
      </trkpt>
      <trkpt lat="41.84761" lon="-87.678183">
      </trkpt>
      <trkpt lat="41.84851" lon="-87.678206">
      </trkpt>
      <trkpt lat="41.84802" lon="-87.679493">
      </trkpt>
      <trkpt lat="41.84802" lon="-87.679493">
      </trkpt>
      <trkpt lat="41.849449" lon="-87.675766">
      </trkpt>
      <trkpt lat="41.837577" lon="-87.675532">
      </trkpt>
      <trkpt lat="41.83692" lon="-87.674646">
      </trkpt>
      <trkpt lat="41.837057" lon="-87.669646">
      </trkpt>
      <trkpt lat="41.837403" lon="-87.66757">
      </trkpt>
      <trkpt lat="41.841443" lon="-87.659905">
      </trkpt>
      <trkpt lat="41.844887" lon="-87.651867">
      </trkpt>
      <trkpt lat="41.845741" lon="-87.646596">
      </trkpt>
      <trkpt lat="41.846989" lon="-87.642887">
      </trkpt>
      <trkpt lat="41.84739" lon="-87.632344">
      </trkpt>
      <trkpt lat="41.846918" lon="-87.628234">
      </trkpt>
      <trkpt lat="41.847737" lon="-87.624498">
      </trkpt>
      <trkpt lat="41.847894" lon="-87.622076">
      </trkpt>
      <trkpt lat="41.847688" lon="-87.619892">
      </trkpt>
      <trkpt lat="41.847696" lon="-87.618334">
      </trkpt>
      <trkpt lat="41.848104" lon="-87.618041">
      </trkpt>
      <trkpt lat="41.848483" lon="-87.618375">
      </trkpt>
      <trkpt lat="41.848387" lon="-87.622136">
      </trkpt>
      <trkpt lat="41.857909" lon="-87.62226">
      </trkpt>
      <trkpt lat="41.857911" lon="-87.621984">
      </trkpt>
      <trkpt lat="41.857911" lon="-87.621984">
      </trkpt>
      <trkpt lat="41.857891" lon="-87.623921">
      </trkpt>
      <trkpt lat="41.823762" lon="-87.62314">
      </trkpt>
      <trkpt lat="41.823804" lon="-87.619991">
      </trkpt>
      <trkpt lat="41.822908" lon="-87.619964">
      </trkpt>
      <trkpt lat="41.822908" lon="-87.619964">
      </trkpt>
      <trkpt lat="41.823804" lon="-87.619991">
      </trkpt>
      <trkpt lat="41.823673" lon="-87.629633">
      </trkpt>
      <trkpt lat="41.827425" lon="-87.629738">
      </trkpt>
      <trkpt lat="41.837743" lon="-87.630393">
      </trkpt>
      <trkpt lat="41.844144" lon="-87.631347">
      </trkpt>
      <trkpt lat="41.847354" lon="-87.642036">
      </trkpt>
      <trkpt lat="41.85074" lon="-87.644829">
      </trkpt>
      <trkpt lat="41.867845" lon="-87.644517">
      </trkpt>
      <trkpt lat="41.873521" lon="-87.644628">
      </trkpt>
      <trkpt lat="41.875725" lon="-87.645646">
      </trkpt>
      <trkpt lat="41.875863" lon="-87.649223">
      </trkpt>
      <trkpt lat="41.875819" lon="-87.680757">
      </trkpt>
      <trkpt lat="41.876094" lon="-87.686165">
      </trkpt>
      <trkpt lat="41.890646" lon="-87.686683">
      </trkpt>
      <trkpt lat="41.894314" lon="-87.696662">
      </trkpt>
      <trkpt lat="41.905668" lon="-87.696939">
      </trkpt>
      <trkpt lat="41.905693" lon="-87.694135">
      </trkpt>
      <trkpt lat="41.905693" lon="-87.694135">
      </trkpt>
      <trkpt lat="41.905712" lon="-87.692014">
      </trkpt>
      <trkpt lat="41.910281" lon="-87.692115">
      </trkpt>
      <trkpt lat="41.910927" lon="-87.648286">
      </trkpt>
      <trkpt lat="41.91731" lon="-87.648495">
      </trkpt>
      <trkpt lat="41.91731" lon="-87.648495">
      </trkpt>
      <trkpt lat="41.910927" lon="-87.648286">
      </trkpt>
      <trkpt lat="41.910674" lon="-87.664445">
      </trkpt>
      <trkpt lat="41.915886" lon="-87.668091">
      </trkpt>
      <trkpt lat="41.91815" lon="-87.670574">
      </trkpt>
      <trkpt lat="41.929581" lon="-87.690595">
      </trkpt>
      <trkpt lat="41.931942" lon="-87.694091">
      </trkpt>
      <trkpt lat="41.932108" lon="-87.697602">
      </trkpt>
      <trkpt lat="41.956867" lon="-87.698335">
      </trkpt>
      <trkpt lat="41.956867" lon="-87.698335">
      </trkpt>
      <trkpt lat="41.932108" lon="-87.697602">
      </trkpt>
      <trkpt lat="41.932116" lon="-87.696547">
      </trkpt>
      <trkpt lat="41.918139" lon="-87.671115">
      </trkpt>
      <trkpt lat="41.915851" lon="-87.668499">
      </trkpt>
      <trkpt lat="41.913088" lon="-87.666712">
      </trkpt>
      <trkpt lat="41.910672" lon="-87.665662">
      </trkpt>
      <trkpt lat="41.910633" lon="-87.66776">
      </trkpt>
      <trkpt lat="41.899711" lon="-87.667457">
      </trkpt>
      <trkpt lat="41.899597" lon="-87.674089">
      </trkpt>
      <trkpt lat="41.90052" lon="-87.67412">
      </trkpt>
      <trkpt lat="41.90052" lon="-87.67412">
      </trkpt>
      <trkpt lat="41.901415" lon="-87.67415">
      </trkpt>
      <trkpt lat="41.901426" lon="-87.673548">
      </trkpt>
      <trkpt lat="41.903247" lon="-87.673606">
      </trkpt>
      <trkpt lat="41.903351" lon="-87.667439">
      </trkpt>
      <trkpt lat="41.910635" lon="-87.667641">
      </trkpt>
      <trkpt lat="41.911172" lon="-87.633071">
      </trkpt>
      <trkpt lat="41.912903" lon="-87.633044">
      </trkpt>
      <trkpt lat="41.913237" lon="-87.632269">
      </trkpt>
      <trkpt lat="41.913114" lon="-87.630561">
      </trkpt>
      <trkpt lat="41.912247" lon="-87.628505">
      </trkpt>
      <trkpt lat="41.912316" lon="-87.626932">
      </trkpt>
      <trkpt lat="41.912316" lon="-87.626932">
      </trkpt>
      <trkpt lat="41.90257" lon="-87.624114">
      </trkpt>
      <trkpt lat="41.900898" lon="-87.619617">
      </trkpt>
      <trkpt lat="41.892716" lon="-87.614229">
      </trkpt>
      <trkpt lat="41.884928" lon="-87.614127">
      </trkpt>
      <trkpt lat="41.881821" lon="-87.617453">
      </trkpt>
      <trkpt lat="41.869765" lon="-87.617261">
      </trkpt>
      <trkpt lat="41.866208" lon="-87.619588">
      </trkpt>
      <trkpt lat="41.853242" lon="-87.614728">
      </trkpt>
      <trkpt lat="41.848506" lon="-87.614444">
      </trkpt>
      <trkpt lat="41.84732" lon="-87.626818">
      </trkpt>
      <trkpt lat="41.847855" lon="-87.631727">
      </trkpt>
      <trkpt lat="41.843118" lon="-87.631351">
      </trkpt>
      <trkpt lat="41.79178" lon="-87.631289">
      </trkpt>
      <trkpt lat="41.783322" lon="-87.631532">
      </trkpt>
      <trkpt lat="41.779372" lon="-87.631833">
      </trkpt>
      <trkpt lat="41.779366" lon="-87.632128">
      </trkpt>
      <trkpt lat="41.778543" lon="-87.632538">
      </trkpt>
      <trkpt lat="41.778543" lon="-87.632538">
      </trkpt>
      <trkpt lat="41.779366" lon="-87.632128">
      </trkpt>
      <trkpt lat="41.779372" lon="-87.631833">
      </trkpt>
      <trkpt lat="41.778124" lon="-87.631812">
      </trkpt>
      <trkpt lat="41.778077" lon="-87.635009">
      </trkpt>
      <trkpt lat="41.779907" lon="-87.635057">
      </trkpt>
      <trkpt lat="41.779931" lon="-87.630139">
      </trkpt>
      <trkpt lat="41.780433" lon="-87.630149">
      </trkpt>
      <trkpt lat="41.807989" lon="-87.63142">
      </trkpt>
      <trkpt lat="41.812785" lon="-87.629665">
      </trkpt>
      <trkpt lat="41.837743" lon="-87.630393">
      </trkpt>
      <trkpt lat="41.844144" lon="-87.631347">
      </trkpt>
      <trkpt lat="41.847354" lon="-87.642036">
      </trkpt>
      <trkpt lat="41.85074" lon="-87.644829">
      </trkpt>
      <trkpt lat="41.867845" lon="-87.644517">
      </trkpt>
      <trkpt lat="41.873521" lon="-87.644628">
      </trkpt>
      <trkpt lat="41.875355" lon="-87.643468">
      </trkpt>
      <trkpt lat="41.875546" lon="-87.629223">
      </trkpt>
      <trkpt lat="41.889242" lon="-87.629579">
      </trkpt>
      <trkpt lat="41.889251" lon="-87.628704">
      </trkpt>
      <trkpt lat="41.889251" lon="-87.628704">
      </trkpt>
      <trkpt lat="41.889133" lon="-87.639082">
      </trkpt>
      <trkpt lat="41.889057" lon="-87.639841">
      </trkpt>
      <trkpt lat="41.889102" lon="-87.641432">
      </trkpt>
      <trkpt lat="41.884445" lon="-87.641308">
      </trkpt>
      <trkpt lat="41.884406" lon="-87.646033">
      </trkpt>
      <trkpt lat="41.884406" lon="-87.646033">
      </trkpt>
      <trkpt lat="41.884415" lon="-87.647438">
      </trkpt>
      <trkpt lat="41.903643" lon="-87.648086">
      </trkpt>
      <trkpt lat="41.903783" lon="-87.638347">
      </trkpt>
      <trkpt lat="41.918322" lon="-87.638808">
      </trkpt>
      <trkpt lat="41.918472" lon="-87.636131">
      </trkpt>
      <trkpt lat="41.918564" lon="-87.636142">
      </trkpt>
      <trkpt lat="41.919706" lon="-87.636391">
      </trkpt>
      <trkpt lat="41.919706" lon="-87.636391">
      </trkpt>
      <trkpt lat="41.925658" lon="-87.636586">
      </trkpt>
      <trkpt lat="41.926223" lon="-87.63067">
      </trkpt>
      <trkpt lat="41.928415" lon="-87.631851">
      </trkpt>
      <trkpt lat="41.935386" lon="-87.632612">
      </trkpt>
      <trkpt lat="41.941219" lon="-87.638833">
      </trkpt>
      <trkpt lat="41.951086" lon="-87.644437">
      </trkpt>
      <trkpt lat="41.954749" lon="-87.644596">
      </trkpt>
      <trkpt lat="41.973046" lon="-87.648738">
      </trkpt>
      <trkpt lat="41.98144" lon="-87.652386">
      </trkpt>
      <trkpt lat="41.983909" lon="-87.65229">
      </trkpt>
      <trkpt lat="41.983528" lon="-87.666707">
      </trkpt>
    </trkseg>
  </trk>
</gpx>