<?xml version="1.0" encoding="UTF-8"?>
<gpx xmlns="http://www.topografix.com/GPX/1/1" xmlns:xsi="http://www.w3.org/2001/XMLSchema-instance" xsi:schemaLocation="http://www.topografix.com/GPX/1/1 http://www.topografix.com/GPX/1/1/gpx.xsd" version="1.1" creator="gpx.py -- https://github.com/tkrajina/gpxpy">
  <trk>
    <trkseg>
      <trkpt lat="41.915612" lon="-87.703717">
      </trkpt>
      <trkpt lat="41.915629" lon="-87.702035">
      </trkpt>
      <trkpt lat="41.91745" lon="-87.702101">
      </trkpt>
      <trkpt lat="41.917871" lon="-87.671089">
      </trkpt>
      <trkpt lat="41.917216" lon="-87.670404">
      </trkpt>
      <trkpt lat="41.906635" lon="-87.661559">
      </trkpt>
      <trkpt lat="41.896667" lon="-87.658834">
      </trkpt>
      <trkpt lat="41.886973" lon="-87.646614">
      </trkpt>
      <trkpt lat="41.864445" lon="-87.64461">
      </trkpt>
      <trkpt lat="41.851247" lon="-87.645245">
      </trkpt>
      <trkpt lat="41.847384" lon="-87.642429">
      </trkpt>
      <trkpt lat="41.845323" lon="-87.634652">
      </trkpt>
      <trkpt lat="41.842703" lon="-87.631597">
      </trkpt>
      <trkpt lat="41.830548" lon="-87.631069">
      </trkpt>
      <trkpt lat="41.823664" lon="-87.631351">
      </trkpt>
      <trkpt lat="41.823783" lon="-87.621597">
      </trkpt>
      <trkpt lat="41.824244" lon="-87.621608">
      </trkpt>
      <trkpt lat="41.824244" lon="-87.621608">
      </trkpt>
      <trkpt lat="41.838364" lon="-87.621916">
      </trkpt>
      <trkpt lat="41.839068" lon="-87.623234">
      </trkpt>
      <trkpt lat="41.867506" lon="-87.624157">
      </trkpt>
      <trkpt lat="41.86749" lon="-87.625221">
      </trkpt>
      <trkpt lat="41.86749" lon="-87.625221">
      </trkpt>
      <trkpt lat="41.86743" lon="-87.630588">
      </trkpt>
      <trkpt lat="41.864707" lon="-87.630345">
      </trkpt>
      <trkpt lat="41.857771" lon="-87.630236">
      </trkpt>
      <trkpt lat="41.85776" lon="-87.63188">
      </trkpt>
      <trkpt lat="41.856638" lon="-87.631859">
      </trkpt>
      <trkpt lat="41.856629" lon="-87.632542">
      </trkpt>
      <trkpt lat="41.856629" lon="-87.632542">
      </trkpt>
      <trkpt lat="41.856638" lon="-87.631859">
      </trkpt>
      <trkpt lat="41.85776" lon="-87.63188">
      </trkpt>
      <trkpt lat="41.857542" lon="-87.646633">
      </trkpt>
      <trkpt lat="41.858102" lon="-87.646649">
      </trkpt>
      <trkpt lat="41.857876" lon="-87.66163">
      </trkpt>
      <trkpt lat="41.857876" lon="-87.66163">
      </trkpt>
      <trkpt lat="41.857567" lon="-87.684175">
      </trkpt>
      <trkpt lat="41.85724" lon="-87.6858">
      </trkpt>
      <trkpt lat="41.852039" lon="-87.685627">
      </trkpt>
      <trkpt lat="41.851569" lon="-87.711325">
      </trkpt>
      <trkpt lat="41.849683" lon="-87.711271">
      </trkpt>
      <trkpt lat="41.849683" lon="-87.711271">
      </trkpt>
      <trkpt lat="41.849683" lon="-87.711271">
      </trkpt>
      <trkpt lat="41.849683" lon="-87.711271">
      </trkpt>
      <trkpt lat="41.848077" lon="-87.711226">
      </trkpt>
      <trkpt lat="41.848089" lon="-87.710008">
      </trkpt>
      <trkpt lat="41.851717" lon="-87.710116">
      </trkpt>
      <trkpt lat="41.851772" lon="-87.705261">
      </trkpt>
      <trkpt lat="41.884354" lon="-87.706225">
      </trkpt>
      <trkpt lat="41.884634" lon="-87.711113">
      </trkpt>
      <trkpt lat="41.899784" lon="-87.711571">
      </trkpt>
      <trkpt lat="41.902232" lon="-87.716556">
      </trkpt>
      <trkpt lat="41.904574" lon="-87.716622">
      </trkpt>
      <trkpt lat="41.90458" lon="-87.715988">
      </trkpt>
      <trkpt lat="41.930091" lon="-87.717134">
      </trkpt>
      <trkpt lat="41.930086" lon="-87.718374">
      </trkpt>
      <trkpt lat="41.931664" lon="-87.718419">
      </trkpt>
      <trkpt lat="41.931664" lon="-87.718419">
      </trkpt>
      <trkpt lat="41.93191" lon="-87.718427">
      </trkpt>
      <trkpt lat="41.931929" lon="-87.717188">
      </trkpt>
      <trkpt lat="41.909987" lon="-87.71669">
      </trkpt>
      <trkpt lat="41.909928" lon="-87.721646">
      </trkpt>
      <trkpt lat="41.902715" lon="-87.721433">
      </trkpt>
      <trkpt lat="41.902687" lon="-87.725083">
      </trkpt>
      <trkpt lat="41.900672" lon="-87.72502">
      </trkpt>
      <trkpt lat="41.900672" lon="-87.72502">
      </trkpt>
      <trkpt lat="41.899037" lon="-87.72497">
      </trkpt>
      <trkpt lat="41.899026" lon="-87.726198">
      </trkpt>
      <trkpt lat="41.902679" lon="-87.726291">
      </trkpt>
      <trkpt lat="41.902357" lon="-87.745973">
      </trkpt>
      <trkpt lat="41.909683" lon="-87.746129">
      </trkpt>
      <trkpt lat="41.90959" lon="-87.749173">
      </trkpt>
      <trkpt lat="41.908935" lon="-87.805768">
      </trkpt>
      <trkpt lat="41.938002" lon="-87.806735">
      </trkpt>
      <trkpt lat="41.937955" lon="-87.815295">
      </trkpt>
      <trkpt lat="41.943421" lon="-87.815499">
      </trkpt>
      <trkpt lat="41.943421" lon="-87.815499">
      </trkpt>
      <trkpt lat="41.949555" lon="-87.816105">
      </trkpt>
      <trkpt lat="41.952719" lon="-87.809667">
      </trkpt>
      <trkpt lat="41.953985" lon="-87.688469">
      </trkpt>
      <trkpt lat="41.949742" lon="-87.688345">
      </trkpt>
      <trkpt lat="41.949742" lon="-87.688345">
      </trkpt>
      <trkpt lat="41.946744" lon="-87.688245">
      </trkpt>
      <trkpt lat="41.945482" lon="-87.795979">
      </trkpt>
      <trkpt lat="41.923598" lon="-87.795245">
      </trkpt>
      <trkpt lat="41.923585" lon="-87.79707">
      </trkpt>
      <trkpt lat="41.923215" lon="-87.797058">
      </trkpt>
      <trkpt lat="41.923215" lon="-87.797058">
      </trkpt>
      <trkpt lat="41.923585" lon="-87.79707">
      </trkpt>
      <trkpt lat="41.92364" lon="-87.789403">
      </trkpt>
      <trkpt lat="41.924878" lon="-87.690086">
      </trkpt>
      <trkpt lat="41.928243" lon="-87.690204">
      </trkpt>
      <trkpt lat="41.928214" lon="-87.689264">
      </trkpt>
      <trkpt lat="41.928214" lon="-87.689264">
      </trkpt>
      <trkpt lat="41.928049" lon="-87.688981">
      </trkpt>
      <trkpt lat="41.926707" lon="-87.688923">
      </trkpt>
      <trkpt lat="41.926718" lon="-87.687704">
      </trkpt>
      <trkpt lat="41.939468" lon="-87.688003">
      </trkpt>
      <trkpt lat="41.939644" lon="-87.673369">
      </trkpt>
      <trkpt lat="41.939644" lon="-87.673369">
      </trkpt>
      <trkpt lat="41.939697" lon="-87.668609">
      </trkpt>
      <trkpt lat="41.932557" lon="-87.658713">
      </trkpt>
      <trkpt lat="41.932636" lon="-87.653863">
      </trkpt>
      <trkpt lat="41.931569" lon="-87.653827">
      </trkpt>
      <trkpt lat="41.931569" lon="-87.653827">
      </trkpt>
      <trkpt lat="41.932636" lon="-87.653863">
      </trkpt>
      <trkpt lat="41.932728" lon="-87.649013">
      </trkpt>
      <trkpt lat="41.939973" lon="-87.649275">
      </trkpt>
      <trkpt lat="41.940568" lon="-87.638088">
      </trkpt>
      <trkpt lat="41.951253" lon="-87.644496">
      </trkpt>
      <trkpt lat="41.954749" lon="-87.644596">
      </trkpt>
      <trkpt lat="41.973046" lon="-87.648738">
      </trkpt>
      <trkpt lat="41.98144" lon="-87.652386">
      </trkpt>
      <trkpt lat="41.983909" lon="-87.65229">
      </trkpt>
      <trkpt lat="41.983528" lon="-87.666707">
      </trkpt>
      <trkpt lat="41.983528" lon="-87.666707">
      </trkpt>
      <trkpt lat="41.983688" lon="-87.653702">
      </trkpt>
      <trkpt lat="41.972134" lon="-87.648822">
      </trkpt>
      <trkpt lat="41.955203" lon="-87.644905">
      </trkpt>
      <trkpt lat="41.950978" lon="-87.644611">
      </trkpt>
      <trkpt lat="41.941067" lon="-87.638957">
      </trkpt>
      <trkpt lat="41.935041" lon="-87.632637">
      </trkpt>
      <trkpt lat="41.927741" lon="-87.631858">
      </trkpt>
      <trkpt lat="41.926001" lon="-87.631853">
      </trkpt>
      <trkpt lat="41.92558" lon="-87.640463">
      </trkpt>
      <trkpt lat="41.927956" lon="-87.641881">
      </trkpt>
      <trkpt lat="41.927956" lon="-87.641881">
      </trkpt>
      <trkpt lat="41.92558" lon="-87.640463">
      </trkpt>
      <trkpt lat="41.926223" lon="-87.63067">
      </trkpt>
      <trkpt lat="41.928415" lon="-87.631851">
      </trkpt>
      <trkpt lat="41.935386" lon="-87.632612">
      </trkpt>
      <trkpt lat="41.941219" lon="-87.638833">
      </trkpt>
      <trkpt lat="41.951086" lon="-87.644437">
      </trkpt>
      <trkpt lat="41.954749" lon="-87.644596">
      </trkpt>
      <trkpt lat="41.973046" lon="-87.648738">
      </trkpt>
      <trkpt lat="41.98144" lon="-87.652386">
      </trkpt>
      <trkpt lat="41.983912" lon="-87.652325">
      </trkpt>
      <trkpt lat="41.983198" lon="-87.679477">
      </trkpt>
      <trkpt lat="41.982043" lon="-87.679565">
      </trkpt>
      <trkpt lat="41.977941" lon="-87.687992">
      </trkpt>
      <trkpt lat="41.97923" lon="-87.688015">
      </trkpt>
      <trkpt lat="41.979583" lon="-87.685908">
      </trkpt>
      <trkpt lat="41.980202" lon="-87.685402">
      </trkpt>
      <trkpt lat="41.982307" lon="-87.685604">
      </trkpt>
      <trkpt lat="41.982385" lon="-87.68541">
      </trkpt>
      <trkpt lat="41.986037" lon="-87.685638">
      </trkpt>
      <trkpt lat="41.986051" lon="-87.682929">
      </trkpt>
      <trkpt lat="41.987045" lon="-87.681454">
      </trkpt>
      <trkpt lat="41.987045" lon="-87.681454">
      </trkpt>
      <trkpt lat="41.98684" lon="-87.680113">
      </trkpt>
      <trkpt lat="41.986928" lon="-87.679052">
      </trkpt>
      <trkpt lat="41.987207" lon="-87.678701">
      </trkpt>
      <trkpt lat="41.987201" lon="-87.678054">
      </trkpt>
      <trkpt lat="41.986701" lon="-87.677401">
      </trkpt>
      <trkpt lat="41.986651" lon="-87.676712">
      </trkpt>
      <trkpt lat="41.986803" lon="-87.676509">
      </trkpt>
      <trkpt lat="41.986664" lon="-87.676319">
      </trkpt>
      <trkpt lat="41.986688" lon="-87.674649">
      </trkpt>
      <trkpt lat="41.983365" lon="-87.674607">
      </trkpt>
      <trkpt lat="41.983198" lon="-87.679477">
      </trkpt>
      <trkpt lat="41.975076" lon="-87.679366">
      </trkpt>
      <trkpt lat="41.975076" lon="-87.679366">
      </trkpt>
      <trkpt lat="41.976029" lon="-87.679392">
      </trkpt>
      <trkpt lat="41.976453" lon="-87.651813">
      </trkpt>
      <trkpt lat="41.974283" lon="-87.649568">
      </trkpt>
      <trkpt lat="41.972134" lon="-87.648822">
      </trkpt>
      <trkpt lat="41.955203" lon="-87.644905">
      </trkpt>
      <trkpt lat="41.950978" lon="-87.644611">
      </trkpt>
      <trkpt lat="41.941067" lon="-87.638957">
      </trkpt>
      <trkpt lat="41.93482" lon="-87.632527">
      </trkpt>
      <trkpt lat="41.928427" lon="-87.632048">
      </trkpt>
      <trkpt lat="41.915117" lon="-87.627538">
      </trkpt>
      <trkpt lat="41.913042" lon="-87.627206">
      </trkpt>
      <trkpt lat="41.912346" lon="-87.628067">
      </trkpt>
      <trkpt lat="41.913404" lon="-87.631075">
      </trkpt>
      <trkpt lat="41.913169" lon="-87.632856">
      </trkpt>
      <trkpt lat="41.915623" lon="-87.634358">
      </trkpt>
      <trkpt lat="41.915479" lon="-87.634849">
      </trkpt>
      <trkpt lat="41.918106" lon="-87.638503">
      </trkpt>
      <trkpt lat="41.918106" lon="-87.638503">
      </trkpt>
      <trkpt lat="41.918322" lon="-87.638808">
      </trkpt>
      <trkpt lat="41.911164" lon="-87.638583">
      </trkpt>
      <trkpt lat="41.910674" lon="-87.664445">
      </trkpt>
      <trkpt lat="41.915886" lon="-87.668091">
      </trkpt>
      <trkpt lat="41.91815" lon="-87.670574">
      </trkpt>
      <trkpt lat="41.940439" lon="-87.709664">
      </trkpt>
      <trkpt lat="41.942387" lon="-87.715161">
      </trkpt>
      <trkpt lat="41.947406" lon="-87.71887">
      </trkpt>
      <trkpt lat="41.950079" lon="-87.723791">
      </trkpt>
      <trkpt lat="41.952511" lon="-87.727575">
      </trkpt>
      <trkpt lat="41.957311" lon="-87.727721">
      </trkpt>
      <trkpt lat="41.957305" lon="-87.728172">
      </trkpt>
      <trkpt lat="41.957305" lon="-87.728172">
      </trkpt>
      <trkpt lat="41.957291" lon="-87.729313">
      </trkpt>
      <trkpt lat="41.95911" lon="-87.729363">
      </trkpt>
      <trkpt lat="41.959129" lon="-87.727776">
      </trkpt>
      <trkpt lat="41.959621" lon="-87.727783">
      </trkpt>
      <trkpt lat="41.953712" lon="-87.719156">
      </trkpt>
      <trkpt lat="41.954634" lon="-87.645235">
      </trkpt>
      <trkpt lat="41.951093" lon="-87.644867">
      </trkpt>
      <trkpt lat="41.947363" lon="-87.642703">
      </trkpt>
      <trkpt lat="41.947363" lon="-87.642703">
      </trkpt>
      <trkpt lat="41.951093" lon="-87.644867">
      </trkpt>
      <trkpt lat="41.953061" lon="-87.644996">
      </trkpt>
      <trkpt lat="41.952749" lon="-87.649638">
      </trkpt>
      <trkpt lat="41.953239" lon="-87.649662">
      </trkpt>
      <trkpt lat="41.958449" lon="-87.65304">
      </trkpt>
      <trkpt lat="41.958406" lon="-87.656021">
      </trkpt>
      <trkpt lat="41.958251" lon="-87.656157">
      </trkpt>
      <trkpt lat="41.958194" lon="-87.656894">
      </trkpt>
      <trkpt lat="41.958194" lon="-87.656894">
      </trkpt>
      <trkpt lat="41.95446" lon="-87.656767">
      </trkpt>
      <trkpt lat="41.954634" lon="-87.645235">
      </trkpt>
      <trkpt lat="41.941594" lon="-87.639315">
      </trkpt>
      <trkpt lat="41.934639" lon="-87.632453">
      </trkpt>
      <trkpt lat="41.928427" lon="-87.632048">
      </trkpt>
      <trkpt lat="41.902733" lon="-87.62421">
      </trkpt>
      <trkpt lat="41.900898" lon="-87.619617">
      </trkpt>
      <trkpt lat="41.892868" lon="-87.614264">
      </trkpt>
      <trkpt lat="41.884928" lon="-87.614127">
      </trkpt>
      <trkpt lat="41.881821" lon="-87.617453">
      </trkpt>
      <trkpt lat="41.869765" lon="-87.617261">
      </trkpt>
      <trkpt lat="41.866208" lon="-87.619588">
      </trkpt>
      <trkpt lat="41.853242" lon="-87.614728">
      </trkpt>
      <trkpt lat="41.848506" lon="-87.614444">
      </trkpt>
      <trkpt lat="41.84732" lon="-87.626818">
      </trkpt>
      <trkpt lat="41.847855" lon="-87.631727">
      </trkpt>
      <trkpt lat="41.843118" lon="-87.631351">
      </trkpt>
      <trkpt lat="41.834246" lon="-87.631163">
      </trkpt>
      <trkpt lat="41.830937" lon="-87.631513">
      </trkpt>
      <trkpt lat="41.831008" lon="-87.626457">
      </trkpt>
      <trkpt lat="41.83283" lon="-87.626475">
      </trkpt>
      <trkpt lat="41.832863" lon="-87.625023">
      </trkpt>
      <trkpt lat="41.832863" lon="-87.625023">
      </trkpt>
      <trkpt lat="41.83283" lon="-87.626475">
      </trkpt>
      <trkpt lat="41.834676" lon="-87.626499">
      </trkpt>
      <trkpt lat="41.831006" lon="-87.62663">
      </trkpt>
      <trkpt lat="41.830937" lon="-87.631513">
      </trkpt>
      <trkpt lat="41.827182" lon="-87.631416">
      </trkpt>
      <trkpt lat="41.807984" lon="-87.632226">
      </trkpt>
      <trkpt lat="41.779333" lon="-87.631154">
      </trkpt>
      <trkpt lat="41.772231" lon="-87.626113">
      </trkpt>
      <trkpt lat="41.72052" lon="-87.624621">
      </trkpt>
      <trkpt lat="41.713653" lon="-87.621065">
      </trkpt>
      <trkpt lat="41.713191" lon="-87.600337">
      </trkpt>
      <trkpt lat="41.708673" lon="-87.592948">
      </trkpt>
      <trkpt lat="41.703483" lon="-87.592406">
      </trkpt>
      <trkpt lat="41.685512" lon="-87.601798">
      </trkpt>
      <trkpt lat="41.676933" lon="-87.601728">
      </trkpt>
      <trkpt lat="41.660202" lon="-87.589096">
      </trkpt>
      <trkpt lat="41.659512" lon="-87.59119">
      </trkpt>
      <trkpt lat="41.658851" lon="-87.560717">
      </trkpt>
      <trkpt lat="41.656176" lon="-87.555878">
      </trkpt>
      <trkpt lat="41.65737" lon="-87.555649">
      </trkpt>
      <trkpt lat="41.65736" lon="-87.553811">
      </trkpt>
      <trkpt lat="41.656889" lon="-87.553812">
      </trkpt>
      <trkpt lat="41.656889" lon="-87.553812">
      </trkpt>
      <trkpt lat="41.65736" lon="-87.553811">
      </trkpt>
      <trkpt lat="41.657281" lon="-87.557102">
      </trkpt>
      <trkpt lat="41.660149" lon="-87.585314">
      </trkpt>
      <trkpt lat="41.662478" lon="-87.590822">
      </trkpt>
      <trkpt lat="41.675885" lon="-87.601403">
      </trkpt>
      <trkpt lat="41.685726" lon="-87.601563">
      </trkpt>
      <trkpt lat="41.69908" lon="-87.594329">
      </trkpt>
      <trkpt lat="41.705863" lon="-87.591535">
      </trkpt>
      <trkpt lat="41.711823" lon="-87.595707">
      </trkpt>
      <trkpt lat="41.713575" lon="-87.618809">
      </trkpt>
      <trkpt lat="41.717096" lon="-87.62372">
      </trkpt>
      <trkpt lat="41.769497" lon="-87.625651">
      </trkpt>
      <trkpt lat="41.779495" lon="-87.630747">
      </trkpt>
      <trkpt lat="41.838631" lon="-87.630667">
      </trkpt>
      <trkpt lat="41.844069" lon="-87.631001">
      </trkpt>
      <trkpt lat="41.852935" lon="-87.631144">
      </trkpt>
      <trkpt lat="41.852919" lon="-87.632035">
      </trkpt>
      <trkpt lat="41.851747" lon="-87.632001">
      </trkpt>
      <trkpt lat="41.851747" lon="-87.632001">
      </trkpt>
      <trkpt lat="41.852788" lon="-87.632031">
      </trkpt>
      <trkpt lat="41.852781" lon="-87.631057">
      </trkpt>
      <trkpt lat="41.852781" lon="-87.631057">
      </trkpt>
      <trkpt lat="41.852791" lon="-87.630056">
      </trkpt>
      <trkpt lat="41.852935" lon="-87.631144">
      </trkpt>
      <trkpt lat="41.850453" lon="-87.631153">
      </trkpt>
      <trkpt lat="41.843118" lon="-87.631351">
      </trkpt>
      <trkpt lat="41.815532" lon="-87.630439">
      </trkpt>
      <trkpt lat="41.812071" lon="-87.63061">
      </trkpt>
      <trkpt lat="41.807984" lon="-87.632226">
      </trkpt>
      <trkpt lat="41.798939" lon="-87.631696">
      </trkpt>
      <trkpt lat="41.794538" lon="-87.631804">
      </trkpt>
      <trkpt lat="41.793876" lon="-87.684065">
      </trkpt>
      <trkpt lat="41.78654" lon="-87.68385">
      </trkpt>
      <trkpt lat="41.786503" lon="-87.687505">
      </trkpt>
      <trkpt lat="41.787022" lon="-87.687518">
      </trkpt>
      <trkpt lat="41.787022" lon="-87.687518">
      </trkpt>
      <trkpt lat="41.788338" lon="-87.687551">
      </trkpt>
      <trkpt lat="41.788363" lon="-87.683894">
      </trkpt>
      <trkpt lat="41.779229" lon="-87.683662">
      </trkpt>
      <trkpt lat="41.779322" lon="-87.673898">
      </trkpt>
      <trkpt lat="41.76299" lon="-87.673489">
      </trkpt>
      <trkpt lat="41.763002" lon="-87.672278">
      </trkpt>
      <trkpt lat="41.762131" lon="-87.672255">
      </trkpt>
      <trkpt lat="41.762131" lon="-87.672255">
      </trkpt>
      <trkpt lat="41.762131" lon="-87.672255">
      </trkpt>
      <trkpt lat="41.762131" lon="-87.672255">
      </trkpt>
      <trkpt lat="41.76119" lon="-87.67223">
      </trkpt>
      <trkpt lat="41.761177" lon="-87.673442">
      </trkpt>
      <trkpt lat="41.764814" lon="-87.673537">
      </trkpt>
      <trkpt lat="41.765368" lon="-87.624899">
      </trkpt>
      <trkpt lat="41.765772" lon="-87.624908">
      </trkpt>
      <trkpt lat="41.769557" lon="-87.62543">
      </trkpt>
      <trkpt lat="41.77431" lon="-87.626008">
      </trkpt>
      <trkpt lat="41.779578" lon="-87.630526">
      </trkpt>
      <trkpt lat="41.837743" lon="-87.630393">
      </trkpt>
      <trkpt lat="41.844144" lon="-87.631347">
      </trkpt>
      <trkpt lat="41.847354" lon="-87.642036">
      </trkpt>
      <trkpt lat="41.85074" lon="-87.644829">
      </trkpt>
      <trkpt lat="41.885816" lon="-87.645875">
      </trkpt>
      <trkpt lat="41.8891" lon="-87.648003">
      </trkpt>
      <trkpt lat="41.897003" lon="-87.6586">
      </trkpt>
      <trkpt lat="41.907951" lon="-87.662226">
      </trkpt>
      <trkpt lat="41.910674" lon="-87.664445">
      </trkpt>
      <trkpt lat="41.910536" lon="-87.673806">
      </trkpt>
      <trkpt lat="41.909456" lon="-87.673955">
      </trkpt>
      <trkpt lat="41.909456" lon="-87.673955">
      </trkpt>
      <trkpt lat="41.910536" lon="-87.673806">
      </trkpt>
      <trkpt lat="41.911246" lon="-87.627664">
      </trkpt>
      <trkpt lat="41.907826" lon="-87.627565">
      </trkpt>
      <trkpt lat="41.907822" lon="-87.627762">
      </trkpt>
      <trkpt lat="41.907408" lon="-87.627665">
      </trkpt>
      <trkpt lat="41.907408" lon="-87.627665">
      </trkpt>
      <trkpt lat="41.907408" lon="-87.627665">
      </trkpt>
      <trkpt lat="41.907408" lon="-87.627665">
      </trkpt>
      <trkpt lat="41.906783" lon="-87.627544">
      </trkpt>
      <trkpt lat="41.906798" lon="-87.625531">
      </trkpt>
      <trkpt lat="41.912316" lon="-87.626932">
      </trkpt>
      <trkpt lat="41.90257" lon="-87.624114">
      </trkpt>
      <trkpt lat="41.901491" lon="-87.62264">
      </trkpt>
      <trkpt lat="41.900898" lon="-87.619617">
      </trkpt>
      <trkpt lat="41.892716" lon="-87.614229">
      </trkpt>
      <trkpt lat="41.884928" lon="-87.614127">
      </trkpt>
      <trkpt lat="41.881821" lon="-87.617453">
      </trkpt>
      <trkpt lat="41.869765" lon="-87.617261">
      </trkpt>
      <trkpt lat="41.866208" lon="-87.619588">
      </trkpt>
      <trkpt lat="41.862252" lon="-87.618646">
      </trkpt>
      <trkpt lat="41.853242" lon="-87.614728">
      </trkpt>
      <trkpt lat="41.849799" lon="-87.613506">
      </trkpt>
      <trkpt lat="41.848332" lon="-87.614886">
      </trkpt>
      <trkpt lat="41.848101" lon="-87.623443">
      </trkpt>
      <trkpt lat="41.84709" lon="-87.628154">
      </trkpt>
      <trkpt lat="41.847516" lon="-87.632226">
      </trkpt>
      <trkpt lat="41.847153" lon="-87.642816">
      </trkpt>
      <trkpt lat="41.845121" lon="-87.652275">
      </trkpt>
      <trkpt lat="41.837712" lon="-87.667647">
      </trkpt>
      <trkpt lat="41.837095" lon="-87.679805">
      </trkpt>
      <trkpt lat="41.833938" lon="-87.690167">
      </trkpt>
      <trkpt lat="41.833938" lon="-87.690167">
      </trkpt>
      <trkpt lat="41.832287" lon="-87.695427">
      </trkpt>
      <trkpt lat="41.831418" lon="-87.698851">
      </trkpt>
      <trkpt lat="41.830863" lon="-87.700566">
      </trkpt>
      <trkpt lat="41.829715" lon="-87.704666">
      </trkpt>
      <trkpt lat="41.829034" lon="-87.704642">
      </trkpt>
      <trkpt lat="41.830574" lon="-87.699332">
      </trkpt>
      <trkpt lat="41.836711" lon="-87.680385">
      </trkpt>
      <trkpt lat="41.83747" lon="-87.66766">
      </trkpt>
      <trkpt lat="41.841885" lon="-87.658964">
      </trkpt>
      <trkpt lat="41.846659" lon="-87.642563">
      </trkpt>
      <trkpt lat="41.850742" lon="-87.644555">
      </trkpt>
      <trkpt lat="41.887151" lon="-87.646457">
      </trkpt>
      <trkpt lat="41.896733" lon="-87.658396">
      </trkpt>
      <trkpt lat="41.906443" lon="-87.661061">
      </trkpt>
      <trkpt lat="41.916712" lon="-87.668818">
      </trkpt>
      <trkpt lat="41.929581" lon="-87.690595">
      </trkpt>
      <trkpt lat="41.932133" lon="-87.694122">
      </trkpt>
      <trkpt lat="41.932142" lon="-87.692784">
      </trkpt>
      <trkpt lat="41.935622" lon="-87.692831">
      </trkpt>
      <trkpt lat="41.937288" lon="-87.695239">
      </trkpt>
      <trkpt lat="41.940262" lon="-87.695246">
      </trkpt>
      <trkpt lat="41.940836" lon="-87.694671">
      </trkpt>
      <trkpt lat="41.940836" lon="-87.694671">
      </trkpt>
      <trkpt lat="41.940307" lon="-87.694511">
      </trkpt>
      <trkpt lat="41.940262" lon="-87.695246">
      </trkpt>
      <trkpt lat="41.939421" lon="-87.695268">
      </trkpt>
      <trkpt lat="41.939468" lon="-87.688003">
      </trkpt>
      <trkpt lat="41.953985" lon="-87.688469">
      </trkpt>
      <trkpt lat="41.954667" lon="-87.644162">
      </trkpt>
      <trkpt lat="41.958305" lon="-87.645792">
      </trkpt>
      <trkpt lat="41.964019" lon="-87.64669">
      </trkpt>
      <trkpt lat="41.965774" lon="-87.646428">
      </trkpt>
      <trkpt lat="41.965499" lon="-87.648611">
      </trkpt>
      <trkpt lat="41.965847" lon="-87.648701">
      </trkpt>
      <trkpt lat="41.965847" lon="-87.648701">
      </trkpt>
      <trkpt lat="41.964056" lon="-87.648244">
      </trkpt>
      <trkpt lat="41.962078" lon="-87.646894">
      </trkpt>
      <trkpt lat="41.95936" lon="-87.646692">
      </trkpt>
      <trkpt lat="41.959302" lon="-87.649847">
      </trkpt>
      <trkpt lat="41.956013" lon="-87.649754">
      </trkpt>
      <trkpt lat="41.955618" lon="-87.651202">
      </trkpt>
      <trkpt lat="41.955464" lon="-87.651109">
      </trkpt>
      <trkpt lat="41.955455" lon="-87.652078">
      </trkpt>
      <trkpt lat="41.955455" lon="-87.652078">
      </trkpt>
      <trkpt lat="41.955432" lon="-87.654573">
      </trkpt>
      <trkpt lat="41.954492" lon="-87.654549">
      </trkpt>
      <trkpt lat="41.954634" lon="-87.645235">
      </trkpt>
      <trkpt lat="41.950978" lon="-87.644611">
      </trkpt>
      <trkpt lat="41.941594" lon="-87.639315">
      </trkpt>
      <trkpt lat="41.93482" lon="-87.632527">
      </trkpt>
      <trkpt lat="41.928427" lon="-87.632048">
      </trkpt>
      <trkpt lat="41.915117" lon="-87.627538">
      </trkpt>
      <trkpt lat="41.913042" lon="-87.627206">
      </trkpt>
      <trkpt lat="41.912346" lon="-87.628067">
      </trkpt>
      <trkpt lat="41.913459" lon="-87.631428">
      </trkpt>
      <trkpt lat="41.912907" lon="-87.633196">
      </trkpt>
      <trkpt lat="41.89661" lon="-87.632793">
      </trkpt>
      <trkpt lat="41.896146" lon="-87.662395">
      </trkpt>
      <trkpt lat="41.894339" lon="-87.662352">
      </trkpt>
      <trkpt lat="41.894312" lon="-87.663988">
      </trkpt>
      <trkpt lat="41.895209" lon="-87.664011">
      </trkpt>
      <trkpt lat="41.895231" lon="-87.662558">
      </trkpt>
      <trkpt lat="41.895231" lon="-87.662558">
      </trkpt>
      <trkpt lat="41.895233" lon="-87.662372">
      </trkpt>
      <trkpt lat="41.896146" lon="-87.662395">
      </trkpt>
      <trkpt lat="41.896248" lon="-87.655926">
      </trkpt>
      <trkpt lat="41.895215" lon="-87.655629">
      </trkpt>
      <trkpt lat="41.89501" lon="-87.655808">
      </trkpt>
      <trkpt lat="41.898217" lon="-87.65932">
      </trkpt>
      <trkpt lat="41.906799" lon="-87.661253">
      </trkpt>
      <trkpt lat="41.91766" lon="-87.669906">
      </trkpt>
      <trkpt lat="41.940439" lon="-87.709664">
      </trkpt>
      <trkpt lat="41.942208" lon="-87.714861">
      </trkpt>
      <trkpt lat="41.947985" lon="-87.719618">
      </trkpt>
      <trkpt lat="41.960998" lon="-87.742619">
      </trkpt>
      <trkpt lat="41.965012" lon="-87.746732">
      </trkpt>
      <trkpt lat="41.980044" lon="-87.746614">
      </trkpt>
      <trkpt lat="41.987222" lon="-87.751348">
      </trkpt>
      <trkpt lat="42.006167" lon="-87.748589">
      </trkpt>
      <trkpt lat="42.010101" lon="-87.748003">
      </trkpt>
      <trkpt lat="42.018306" lon="-87.747721">
      </trkpt>
      <trkpt lat="42.024826" lon="-87.755918">
      </trkpt>
      <trkpt lat="42.026335" lon="-87.754644">
      </trkpt>
      <trkpt lat="42.026381" lon="-87.761656">
      </trkpt>
    </trkseg>
  </trk>
</gpx>