<?xml version="1.0" encoding="UTF-8"?>
<gpx xmlns="http://www.topografix.com/GPX/1/1" xmlns:xsi="http://www.w3.org/2001/XMLSchema-instance" xsi:schemaLocation="http://www.topografix.com/GPX/1/1 http://www.topografix.com/GPX/1/1/gpx.xsd" version="1.1" creator="gpx.py -- https://github.com/tkrajina/gpxpy">
  <trk>
    <trkseg>
      <trkpt lat="41.90052" lon="-87.67412">
      </trkpt>
      <trkpt lat="41.899597" lon="-87.674089">
      </trkpt>
      <trkpt lat="41.899842" lon="-87.660982">
      </trkpt>
      <trkpt lat="41.899711" lon="-87.660843">
      </trkpt>
      <trkpt lat="41.896667" lon="-87.658834">
      </trkpt>
      <trkpt lat="41.895018" lon="-87.657114">
      </trkpt>
      <trkpt lat="41.89377" lon="-87.655657">
      </trkpt>
      <trkpt lat="41.89226" lon="-87.654831">
      </trkpt>
      <trkpt lat="41.891931" lon="-87.653963">
      </trkpt>
      <trkpt lat="41.892554" lon="-87.651034">
      </trkpt>
      <trkpt lat="41.892541" lon="-87.624121">
      </trkpt>
      <trkpt lat="41.897586" lon="-87.624066">
      </trkpt>
      <trkpt lat="41.897599" lon="-87.623421">
      </trkpt>
      <trkpt lat="41.897599" lon="-87.623421">
      </trkpt>
      <trkpt lat="41.897618" lon="-87.621852">
      </trkpt>
      <trkpt lat="41.896766" lon="-87.621834">
      </trkpt>
      <trkpt lat="41.896737" lon="-87.624345">
      </trkpt>
      <trkpt lat="41.896443" lon="-87.624388">
      </trkpt>
      <trkpt lat="41.894143" lon="-87.624336">
      </trkpt>
      <trkpt lat="41.894164" lon="-87.622757">
      </trkpt>
      <trkpt lat="41.893947" lon="-87.622751">
      </trkpt>
      <trkpt lat="41.893947" lon="-87.622751">
      </trkpt>
      <trkpt lat="41.89336" lon="-87.622735">
      </trkpt>
      <trkpt lat="41.893148" lon="-87.637063">
      </trkpt>
      <trkpt lat="41.89263" lon="-87.638252">
      </trkpt>
      <trkpt lat="41.892522" lon="-87.64596">
      </trkpt>
      <trkpt lat="41.892674" lon="-87.65028">
      </trkpt>
      <trkpt lat="41.894568" lon="-87.655595">
      </trkpt>
      <trkpt lat="41.896733" lon="-87.658396">
      </trkpt>
      <trkpt lat="41.901461" lon="-87.660726">
      </trkpt>
      <trkpt lat="41.906799" lon="-87.661253">
      </trkpt>
      <trkpt lat="41.91766" lon="-87.669906">
      </trkpt>
      <trkpt lat="41.93676" lon="-87.702937">
      </trkpt>
      <trkpt lat="41.940632" lon="-87.710036">
      </trkpt>
      <trkpt lat="41.941793" lon="-87.713979">
      </trkpt>
      <trkpt lat="41.943044" lon="-87.715981">
      </trkpt>
      <trkpt lat="41.94651" lon="-87.717815">
      </trkpt>
      <trkpt lat="41.946377" lon="-87.727395">
      </trkpt>
      <trkpt lat="41.945471" lon="-87.727368">
      </trkpt>
      <trkpt lat="41.945499" lon="-87.725105">
      </trkpt>
      <trkpt lat="41.945499" lon="-87.725105">
      </trkpt>
      <trkpt lat="41.945584" lon="-87.718551">
      </trkpt>
      <trkpt lat="41.944989" lon="-87.718156">
      </trkpt>
      <trkpt lat="41.942115" lon="-87.715518">
      </trkpt>
      <trkpt lat="41.939977" lon="-87.709442">
      </trkpt>
      <trkpt lat="41.915851" lon="-87.668499">
      </trkpt>
      <trkpt lat="41.906635" lon="-87.661559">
      </trkpt>
      <trkpt lat="41.896667" lon="-87.658834">
      </trkpt>
      <trkpt lat="41.886676" lon="-87.646473">
      </trkpt>
      <trkpt lat="41.857367" lon="-87.644363">
      </trkpt>
      <trkpt lat="41.852447" lon="-87.645793">
      </trkpt>
      <trkpt lat="41.849097" lon="-87.644333">
      </trkpt>
      <trkpt lat="41.846776" lon="-87.644894">
      </trkpt>
      <trkpt lat="41.844955" lon="-87.652708">
      </trkpt>
      <trkpt lat="41.837772" lon="-87.66744">
      </trkpt>
      <trkpt lat="41.836967" lon="-87.680443">
      </trkpt>
      <trkpt lat="41.82508" lon="-87.718339">
      </trkpt>
      <trkpt lat="41.823909" lon="-87.722555">
      </trkpt>
      <trkpt lat="41.823672" lon="-87.724004">
      </trkpt>
      <trkpt lat="41.830338" lon="-87.724208">
      </trkpt>
      <trkpt lat="41.830751" lon="-87.72955">
      </trkpt>
      <trkpt lat="41.830238" lon="-87.729553">
      </trkpt>
      <trkpt lat="41.830238" lon="-87.729553">
      </trkpt>
      <trkpt lat="41.830751" lon="-87.72955">
      </trkpt>
      <trkpt lat="41.830249" lon="-87.724676">
      </trkpt>
      <trkpt lat="41.823534" lon="-87.724107">
      </trkpt>
      <trkpt lat="41.823155" lon="-87.723984">
      </trkpt>
      <trkpt lat="41.836711" lon="-87.680385">
      </trkpt>
      <trkpt lat="41.837594" lon="-87.667241">
      </trkpt>
      <trkpt lat="41.842424" lon="-87.657825">
      </trkpt>
      <trkpt lat="41.845204" lon="-87.650817">
      </trkpt>
      <trkpt lat="41.847117" lon="-87.641938">
      </trkpt>
      <trkpt lat="41.847388" lon="-87.631933">
      </trkpt>
      <trkpt lat="41.846918" lon="-87.628234">
      </trkpt>
      <trkpt lat="41.847827" lon="-87.623841">
      </trkpt>
      <trkpt lat="41.847976" lon="-87.616851">
      </trkpt>
      <trkpt lat="41.848153" lon="-87.613392">
      </trkpt>
      <trkpt lat="41.84938" lon="-87.612168">
      </trkpt>
      <trkpt lat="41.860334" lon="-87.617619">
      </trkpt>
      <trkpt lat="41.8661" lon="-87.619244">
      </trkpt>
      <trkpt lat="41.869799" lon="-87.617003">
      </trkpt>
      <trkpt lat="41.881825" lon="-87.617167">
      </trkpt>
      <trkpt lat="41.884512" lon="-87.613723">
      </trkpt>
      <trkpt lat="41.889097" lon="-87.614006">
      </trkpt>
      <trkpt lat="41.890559" lon="-87.613604">
      </trkpt>
      <trkpt lat="41.890948" lon="-87.61169">
      </trkpt>
      <trkpt lat="41.891968" lon="-87.611597">
      </trkpt>
      <trkpt lat="41.891667" lon="-87.628071">
      </trkpt>
      <trkpt lat="41.893025" lon="-87.628109">
      </trkpt>
      <trkpt lat="41.893025" lon="-87.628109">
      </trkpt>
      <trkpt lat="41.893279" lon="-87.628116">
      </trkpt>
      <trkpt lat="41.893255" lon="-87.629681">
      </trkpt>
      <trkpt lat="41.899126" lon="-87.629839">
      </trkpt>
      <trkpt lat="41.899141" lon="-87.628299">
      </trkpt>
      <trkpt lat="41.900747" lon="-87.62834">
      </trkpt>
      <trkpt lat="41.900781" lon="-87.626352">
      </trkpt>
      <trkpt lat="41.900781" lon="-87.626352">
      </trkpt>
      <trkpt lat="41.900747" lon="-87.62834">
      </trkpt>
      <trkpt lat="41.899945" lon="-87.62832">
      </trkpt>
      <trkpt lat="41.899794" lon="-87.631337">
      </trkpt>
      <trkpt lat="41.875701" lon="-87.630715">
      </trkpt>
      <trkpt lat="41.875719" lon="-87.651339">
      </trkpt>
      <trkpt lat="41.876197" lon="-87.657603">
      </trkpt>
      <trkpt lat="41.875819" lon="-87.680757">
      </trkpt>
      <trkpt lat="41.876094" lon="-87.686165">
      </trkpt>
      <trkpt lat="41.881166" lon="-87.686432">
      </trkpt>
      <trkpt lat="41.881145" lon="-87.688489">
      </trkpt>
      <trkpt lat="41.88207" lon="-87.688508">
      </trkpt>
      <trkpt lat="41.882072" lon="-87.688351">
      </trkpt>
      <trkpt lat="41.882072" lon="-87.688351">
      </trkpt>
      <trkpt lat="41.882091" lon="-87.686454">
      </trkpt>
      <trkpt lat="41.874997" lon="-87.686358">
      </trkpt>
      <trkpt lat="41.87496" lon="-87.683366">
      </trkpt>
      <trkpt lat="41.875329" lon="-87.650308">
      </trkpt>
      <trkpt lat="41.874563" lon="-87.645452">
      </trkpt>
      <trkpt lat="41.876036" lon="-87.64458">
      </trkpt>
      <trkpt lat="41.886419" lon="-87.646101">
      </trkpt>
      <trkpt lat="41.891702" lon="-87.651689">
      </trkpt>
      <trkpt lat="41.896836" lon="-87.65868">
      </trkpt>
      <trkpt lat="41.906646" lon="-87.66137">
      </trkpt>
      <trkpt lat="41.917654" lon="-87.670146">
      </trkpt>
      <trkpt lat="41.940372" lon="-87.709927">
      </trkpt>
      <trkpt lat="41.94215" lon="-87.715306">
      </trkpt>
      <trkpt lat="41.947613" lon="-87.719592">
      </trkpt>
      <trkpt lat="41.95982" lon="-87.741635">
      </trkpt>
      <trkpt lat="41.963594" lon="-87.746287">
      </trkpt>
      <trkpt lat="41.980044" lon="-87.746614">
      </trkpt>
      <trkpt lat="41.98759" lon="-87.751368">
      </trkpt>
      <trkpt lat="42.006167" lon="-87.748589">
      </trkpt>
      <trkpt lat="42.010101" lon="-87.748003">
      </trkpt>
      <trkpt lat="42.019034" lon="-87.747705">
      </trkpt>
      <trkpt lat="42.019532" lon="-87.690179">
      </trkpt>
      <trkpt lat="42.024571" lon="-87.690105">
      </trkpt>
      <trkpt lat="42.024553" lon="-87.68856">
      </trkpt>
      <trkpt lat="42.023487" lon="-87.688574">
      </trkpt>
      <trkpt lat="42.023489" lon="-87.688771">
      </trkpt>
    </trkseg>
  </trk>
</gpx>