<?xml version="1.0" encoding="UTF-8"?>
<gpx xmlns="http://www.topografix.com/GPX/1/1" xmlns:xsi="http://www.w3.org/2001/XMLSchema-instance" xsi:schemaLocation="http://www.topografix.com/GPX/1/1 http://www.topografix.com/GPX/1/1/gpx.xsd" version="1.1" creator="gpx.py -- https://github.com/tkrajina/gpxpy">
  <trk>
    <trkseg>
      <trkpt lat="46.921111" lon="-104.004008">
      </trkpt>
      <trkpt lat="46.921109" lon="-104.00434">
      </trkpt>
      <trkpt lat="46.920452" lon="-104.004333">
      </trkpt>
      <trkpt lat="46.920303" lon="-104.007713">
      </trkpt>
      <trkpt lat="46.930549" lon="-104.007714">
      </trkpt>
      <trkpt lat="46.821412" lon="-100.845376">
      </trkpt>
      <trkpt lat="46.920377" lon="-97.929326">
      </trkpt>
      <trkpt lat="46.84431" lon="-96.636364">
      </trkpt>
      <trkpt lat="46.040006" lon="-95.841668">
      </trkpt>
      <trkpt lat="45.668414" lon="-94.821253">
      </trkpt>
      <trkpt lat="45.58718" lon="-94.366407">
      </trkpt>
      <trkpt lat="45.094797" lon="-93.449505">
      </trkpt>
      <trkpt lat="45.073368" lon="-93.316321">
      </trkpt>
      <trkpt lat="45.066504" lon="-93.169383">
      </trkpt>
      <trkpt lat="45.037751" lon="-93.092006">
      </trkpt>
      <trkpt lat="44.95846" lon="-93.090897">
      </trkpt>
      <trkpt lat="44.956612" lon="-93.091165">
      </trkpt>
      <trkpt lat="44.95415" lon="-93.090566">
      </trkpt>
      <trkpt lat="44.951923" lon="-93.08647">
      </trkpt>
      <trkpt lat="44.952011" lon="-93.049411">
      </trkpt>
      <trkpt lat="44.901086" lon="-91.765715">
      </trkpt>
      <trkpt lat="44.764039" lon="-91.405786">
      </trkpt>
      <trkpt lat="44.414986" lon="-91.048032">
      </trkpt>
      <trkpt lat="44.150471" lon="-90.551556">
      </trkpt>
      <trkpt lat="43.999682" lon="-90.475118">
      </trkpt>
      <trkpt lat="43.87412" lon="-90.130566">
      </trkpt>
      <trkpt lat="43.663734" lon="-89.814688">
      </trkpt>
      <trkpt lat="43.572688" lon="-89.798572">
      </trkpt>
      <trkpt lat="43.496166" lon="-89.498273">
      </trkpt>
      <trkpt lat="43.110058" lon="-89.285769">
      </trkpt>
      <trkpt lat="42.799124" lon="-89.005142">
      </trkpt>
      <trkpt lat="42.250536" lon="-88.963349">
      </trkpt>
      <trkpt lat="42.1691" lon="-88.593791">
      </trkpt>
      <trkpt lat="41.988327" lon="-87.864082">
      </trkpt>
      <trkpt lat="41.969592" lon="-87.759145">
      </trkpt>
      <trkpt lat="41.967916" lon="-87.756709">
      </trkpt>
      <trkpt lat="41.968033" lon="-87.747723">
      </trkpt>
      <trkpt lat="41.972896" lon="-87.747918">
      </trkpt>
      <trkpt lat="41.972794" lon="-87.747761">
      </trkpt>
      <trkpt lat="41.966563" lon="-87.747223">
      </trkpt>
      <trkpt lat="41.892534" lon="-87.653065">
      </trkpt>
      <trkpt lat="41.892566" lon="-87.62271">
      </trkpt>
      <trkpt lat="41.893947" lon="-87.622751">
      </trkpt>
      <trkpt lat="41.893947" lon="-87.622751">
      </trkpt>
      <trkpt lat="41.894164" lon="-87.622757">
      </trkpt>
      <trkpt lat="41.894214" lon="-87.620307">
      </trkpt>
      <trkpt lat="41.893412" lon="-87.620283">
      </trkpt>
      <trkpt lat="41.893376" lon="-87.621935">
      </trkpt>
      <trkpt lat="41.893376" lon="-87.621935">
      </trkpt>
      <trkpt lat="41.89336" lon="-87.622735">
      </trkpt>
      <trkpt lat="41.891751" lon="-87.622685">
      </trkpt>
      <trkpt lat="41.891729" lon="-87.624238">
      </trkpt>
      <trkpt lat="41.889907" lon="-87.624172">
      </trkpt>
      <trkpt lat="41.888297" lon="-87.624549">
      </trkpt>
      <trkpt lat="41.888214" lon="-87.62549">
      </trkpt>
      <trkpt lat="41.887194" lon="-87.626429">
      </trkpt>
      <trkpt lat="41.886941" lon="-87.627036">
      </trkpt>
      <trkpt lat="41.886919" lon="-87.635171">
      </trkpt>
      <trkpt lat="41.886721" lon="-87.635761">
      </trkpt>
      <trkpt lat="41.88588" lon="-87.636873">
      </trkpt>
      <trkpt lat="41.884459" lon="-87.636965">
      </trkpt>
      <trkpt lat="41.884406" lon="-87.646033">
      </trkpt>
      <trkpt lat="41.884406" lon="-87.646033">
      </trkpt>
      <trkpt lat="41.884393" lon="-87.648607">
      </trkpt>
      <trkpt lat="41.889662" lon="-87.648752">
      </trkpt>
      <trkpt lat="41.889662" lon="-87.648752">
      </trkpt>
      <trkpt lat="41.885646" lon="-87.648644">
      </trkpt>
      <trkpt lat="41.885682" lon="-87.646258">
      </trkpt>
      <trkpt lat="41.884746" lon="-87.645922">
      </trkpt>
      <trkpt lat="41.881827" lon="-87.645999">
      </trkpt>
      <trkpt lat="41.880956" lon="-87.646134">
      </trkpt>
      <trkpt lat="41.879569" lon="-87.646145">
      </trkpt>
      <trkpt lat="41.878121" lon="-87.646166">
      </trkpt>
      <trkpt lat="41.876334" lon="-87.646815">
      </trkpt>
      <trkpt lat="41.87588" lon="-87.647774">
      </trkpt>
      <trkpt lat="41.875728" lon="-87.649135">
      </trkpt>
      <trkpt lat="41.876197" lon="-87.657603">
      </trkpt>
      <trkpt lat="41.875763" lon="-87.688313">
      </trkpt>
      <trkpt lat="41.875862" lon="-87.692409">
      </trkpt>
      <trkpt lat="41.875983" lon="-87.696151">
      </trkpt>
      <trkpt lat="41.880169" lon="-87.696261">
      </trkpt>
      <trkpt lat="41.880173" lon="-87.695733">
      </trkpt>
      <trkpt lat="41.880173" lon="-87.695733">
      </trkpt>
      <trkpt lat="41.880169" lon="-87.696261">
      </trkpt>
      <trkpt lat="41.874902" lon="-87.696127">
      </trkpt>
      <trkpt lat="41.874908" lon="-87.695509">
      </trkpt>
      <trkpt lat="41.875125" lon="-87.690201">
      </trkpt>
      <trkpt lat="41.87561" lon="-87.659837">
      </trkpt>
      <trkpt lat="41.875329" lon="-87.650308">
      </trkpt>
      <trkpt lat="41.875302" lon="-87.647601">
      </trkpt>
      <trkpt lat="41.874563" lon="-87.645452">
      </trkpt>
      <trkpt lat="41.875077" lon="-87.644482">
      </trkpt>
      <trkpt lat="41.876036" lon="-87.64458">
      </trkpt>
      <trkpt lat="41.877925" lon="-87.64558">
      </trkpt>
      <trkpt lat="41.884644" lon="-87.645654">
      </trkpt>
      <trkpt lat="41.886212" lon="-87.646015">
      </trkpt>
      <trkpt lat="41.88874" lon="-87.647638">
      </trkpt>
      <trkpt lat="41.890597" lon="-87.650048">
      </trkpt>
      <trkpt lat="41.891699" lon="-87.651108">
      </trkpt>
      <trkpt lat="41.892164" lon="-87.650896">
      </trkpt>
      <trkpt lat="41.89242" lon="-87.65026">
      </trkpt>
      <trkpt lat="41.892457" lon="-87.62966">
      </trkpt>
      <trkpt lat="41.894584" lon="-87.629727">
      </trkpt>
      <trkpt lat="41.894584" lon="-87.629727">
      </trkpt>
      <trkpt lat="41.89485" lon="-87.629736">
      </trkpt>
      <trkpt lat="41.894831" lon="-87.631201">
      </trkpt>
      <trkpt lat="41.876886" lon="-87.630743">
      </trkpt>
      <trkpt lat="41.876812" lon="-87.636803">
      </trkpt>
      <trkpt lat="41.876812" lon="-87.636803">
      </trkpt>
      <trkpt lat="41.876769" lon="-87.639817">
      </trkpt>
      <trkpt lat="41.875803" lon="-87.639823">
      </trkpt>
      <trkpt lat="41.875647" lon="-87.641365">
      </trkpt>
      <trkpt lat="41.875736" lon="-87.651991">
      </trkpt>
      <trkpt lat="41.876197" lon="-87.657603">
      </trkpt>
      <trkpt lat="41.875763" lon="-87.688313">
      </trkpt>
      <trkpt lat="41.875862" lon="-87.692409">
      </trkpt>
      <trkpt lat="41.875985" lon="-87.695752">
      </trkpt>
      <trkpt lat="41.875985" lon="-87.695752">
      </trkpt>
      <trkpt lat="41.875983" lon="-87.696151">
      </trkpt>
      <trkpt lat="41.874902" lon="-87.696127">
      </trkpt>
      <trkpt lat="41.874908" lon="-87.695509">
      </trkpt>
      <trkpt lat="41.875125" lon="-87.690201">
      </trkpt>
      <trkpt lat="41.87561" lon="-87.659837">
      </trkpt>
      <trkpt lat="41.875329" lon="-87.650308">
      </trkpt>
      <trkpt lat="41.875302" lon="-87.647601">
      </trkpt>
      <trkpt lat="41.874563" lon="-87.645452">
      </trkpt>
      <trkpt lat="41.875077" lon="-87.644482">
      </trkpt>
      <trkpt lat="41.876036" lon="-87.64458">
      </trkpt>
      <trkpt lat="41.877863" lon="-87.645364">
      </trkpt>
      <trkpt lat="41.880374" lon="-87.645275">
      </trkpt>
      <trkpt lat="41.881847" lon="-87.645355">
      </trkpt>
      <trkpt lat="41.882198" lon="-87.645393">
      </trkpt>
      <trkpt lat="41.885306" lon="-87.645735">
      </trkpt>
      <trkpt lat="41.887151" lon="-87.646457">
      </trkpt>
      <trkpt lat="41.8891" lon="-87.648003">
      </trkpt>
      <trkpt lat="41.890597" lon="-87.650048">
      </trkpt>
      <trkpt lat="41.891699" lon="-87.651108">
      </trkpt>
      <trkpt lat="41.892164" lon="-87.650896">
      </trkpt>
      <trkpt lat="41.89242" lon="-87.65026">
      </trkpt>
      <trkpt lat="41.892423" lon="-87.632511">
      </trkpt>
      <trkpt lat="41.900548" lon="-87.632751">
      </trkpt>
      <trkpt lat="41.9006" lon="-87.628335">
      </trkpt>
      <trkpt lat="41.900747" lon="-87.62834">
      </trkpt>
      <trkpt lat="41.900781" lon="-87.626352">
      </trkpt>
      <trkpt lat="41.900781" lon="-87.626352">
      </trkpt>
      <trkpt lat="41.90082" lon="-87.624141">
      </trkpt>
      <trkpt lat="41.901687" lon="-87.624024">
      </trkpt>
      <trkpt lat="41.901889" lon="-87.624112">
      </trkpt>
      <trkpt lat="41.902429" lon="-87.624503">
      </trkpt>
      <trkpt lat="41.903252" lon="-87.624758">
      </trkpt>
      <trkpt lat="41.903229" lon="-87.6269">
      </trkpt>
      <trkpt lat="41.903229" lon="-87.6269">
      </trkpt>
      <trkpt lat="41.903112" lon="-87.632976">
      </trkpt>
      <trkpt lat="41.891597" lon="-87.632696">
      </trkpt>
      <trkpt lat="41.891225" lon="-87.644384">
      </trkpt>
      <trkpt lat="41.885699" lon="-87.644242">
      </trkpt>
      <trkpt lat="41.885686" lon="-87.645903">
      </trkpt>
      <trkpt lat="41.881827" lon="-87.645999">
      </trkpt>
      <trkpt lat="41.880956" lon="-87.646134">
      </trkpt>
      <trkpt lat="41.879569" lon="-87.646145">
      </trkpt>
      <trkpt lat="41.878121" lon="-87.646166">
      </trkpt>
      <trkpt lat="41.876602" lon="-87.646544">
      </trkpt>
      <trkpt lat="41.875847" lon="-87.647927">
      </trkpt>
      <trkpt lat="41.876121" lon="-87.662425">
      </trkpt>
      <trkpt lat="41.876354" lon="-87.666742">
      </trkpt>
      <trkpt lat="41.864177" lon="-87.666388">
      </trkpt>
      <trkpt lat="41.864143" lon="-87.668834">
      </trkpt>
      <trkpt lat="41.864143" lon="-87.668834">
      </trkpt>
      <trkpt lat="41.864179" lon="-87.666265">
      </trkpt>
      <trkpt lat="41.875179" lon="-87.666563">
      </trkpt>
      <trkpt lat="41.875183" lon="-87.666292">
      </trkpt>
      <trkpt lat="41.87557" lon="-87.662662">
      </trkpt>
      <trkpt lat="41.875604" lon="-87.6605">
      </trkpt>
      <trkpt lat="41.875318" lon="-87.651569">
      </trkpt>
      <trkpt lat="41.875524" lon="-87.633678">
      </trkpt>
      <trkpt lat="41.860792" lon="-87.633218">
      </trkpt>
      <trkpt lat="41.860792" lon="-87.633218">
      </trkpt>
      <trkpt lat="41.859918" lon="-87.631765">
      </trkpt>
      <trkpt lat="41.85776" lon="-87.63188">
      </trkpt>
      <trkpt lat="41.857891" lon="-87.623921">
      </trkpt>
      <trkpt lat="41.867398" lon="-87.624158">
      </trkpt>
      <trkpt lat="41.867474" lon="-87.618739">
      </trkpt>
      <trkpt lat="41.869799" lon="-87.617003">
      </trkpt>
      <trkpt lat="41.881825" lon="-87.617167">
      </trkpt>
      <trkpt lat="41.884932" lon="-87.613613">
      </trkpt>
      <trkpt lat="41.89273" lon="-87.614003">
      </trkpt>
      <trkpt lat="41.900921" lon="-87.619441">
      </trkpt>
      <trkpt lat="41.901629" lon="-87.622526">
      </trkpt>
      <trkpt lat="41.902638" lon="-87.623907">
      </trkpt>
      <trkpt lat="41.909833" lon="-87.625717">
      </trkpt>
      <trkpt lat="41.913347" lon="-87.626017">
      </trkpt>
      <trkpt lat="41.912346" lon="-87.628067">
      </trkpt>
      <trkpt lat="41.913469" lon="-87.63171">
      </trkpt>
      <trkpt lat="41.917005" lon="-87.634131">
      </trkpt>
      <trkpt lat="41.921147" lon="-87.635682">
      </trkpt>
      <trkpt lat="41.921147" lon="-87.635682">
      </trkpt>
      <trkpt lat="41.92507" lon="-87.635849">
      </trkpt>
      <trkpt lat="41.925791" lon="-87.636091">
      </trkpt>
      <trkpt lat="41.926736" lon="-87.63794">
      </trkpt>
      <trkpt lat="41.927922" lon="-87.638809">
      </trkpt>
      <trkpt lat="41.930111" lon="-87.638762">
      </trkpt>
      <trkpt lat="41.931592" lon="-87.638993">
      </trkpt>
      <trkpt lat="41.932293" lon="-87.638681">
      </trkpt>
      <trkpt lat="41.932914" lon="-87.63931">
      </trkpt>
      <trkpt lat="41.932848" lon="-87.642737">
      </trkpt>
      <trkpt lat="41.934143" lon="-87.642776">
      </trkpt>
      <trkpt lat="41.934143" lon="-87.642776">
      </trkpt>
      <trkpt lat="41.934284" lon="-87.64278">
      </trkpt>
      <trkpt lat="41.934308" lon="-87.641392">
      </trkpt>
      <trkpt lat="41.932875" lon="-87.641357">
      </trkpt>
      <trkpt lat="41.932278" lon="-87.678134">
      </trkpt>
      <trkpt lat="41.925026" lon="-87.677893">
      </trkpt>
      <trkpt lat="41.924981" lon="-87.681912">
      </trkpt>
      <trkpt lat="41.926707" lon="-87.685177">
      </trkpt>
      <trkpt lat="41.940439" lon="-87.709664">
      </trkpt>
      <trkpt lat="41.943044" lon="-87.715981">
      </trkpt>
      <trkpt lat="41.94651" lon="-87.717815">
      </trkpt>
      <trkpt lat="41.946215" lon="-87.739921">
      </trkpt>
      <trkpt lat="41.946215" lon="-87.739921">
      </trkpt>
      <trkpt lat="41.946711" lon="-87.694882">
      </trkpt>
      <trkpt lat="41.949456" lon="-87.694892">
      </trkpt>
      <trkpt lat="41.949469" lon="-87.69272">
      </trkpt>
      <trkpt lat="41.949469" lon="-87.69272">
      </trkpt>
      <trkpt lat="41.949435" lon="-87.690806">
      </trkpt>
      <trkpt lat="41.948522" lon="-87.690741">
      </trkpt>
      <trkpt lat="41.948558" lon="-87.688309">
      </trkpt>
      <trkpt lat="41.953985" lon="-87.688469">
      </trkpt>
      <trkpt lat="41.954306" lon="-87.668983">
      </trkpt>
      <trkpt lat="41.961593" lon="-87.669185">
      </trkpt>
      <trkpt lat="41.961772" lon="-87.655148">
      </trkpt>
      <trkpt lat="41.964503" lon="-87.656894">
      </trkpt>
      <trkpt lat="41.964503" lon="-87.656894">
      </trkpt>
      <trkpt lat="41.953239" lon="-87.649662">
      </trkpt>
      <trkpt lat="41.95119" lon="-87.64961">
      </trkpt>
      <trkpt lat="41.946599" lon="-87.646812">
      </trkpt>
      <trkpt lat="41.946514" lon="-87.64706">
      </trkpt>
      <trkpt lat="41.946514" lon="-87.64706">
      </trkpt>
      <trkpt lat="41.946375" lon="-87.649461">
      </trkpt>
      <trkpt lat="41.947315" lon="-87.649493">
      </trkpt>
      <trkpt lat="41.947328" lon="-87.647357">
      </trkpt>
      <trkpt lat="41.948638" lon="-87.64345">
      </trkpt>
      <trkpt lat="41.941203" lon="-87.639574">
      </trkpt>
      <trkpt lat="41.939931" lon="-87.638606">
      </trkpt>
      <trkpt lat="41.936955" lon="-87.634194">
      </trkpt>
      <trkpt lat="41.934639" lon="-87.632453">
      </trkpt>
      <trkpt lat="41.928427" lon="-87.632048">
      </trkpt>
      <trkpt lat="41.918735" lon="-87.629189">
      </trkpt>
      <trkpt lat="41.911998" lon="-87.62605">
      </trkpt>
      <trkpt lat="41.904908" lon="-87.624861">
      </trkpt>
      <trkpt lat="41.901978" lon="-87.624179">
      </trkpt>
      <trkpt lat="41.894143" lon="-87.624336">
      </trkpt>
      <trkpt lat="41.894164" lon="-87.622757">
      </trkpt>
      <trkpt lat="41.893947" lon="-87.622751">
      </trkpt>
      <trkpt lat="41.893947" lon="-87.622751">
      </trkpt>
      <trkpt lat="41.89336" lon="-87.622735">
      </trkpt>
      <trkpt lat="41.893148" lon="-87.637063">
      </trkpt>
      <trkpt lat="41.896556" lon="-87.637178">
      </trkpt>
      <trkpt lat="41.896269" lon="-87.654734">
      </trkpt>
      <trkpt lat="41.89501" lon="-87.655808">
      </trkpt>
      <trkpt lat="41.89596" lon="-87.657675">
      </trkpt>
      <trkpt lat="41.897622" lon="-87.659011">
      </trkpt>
      <trkpt lat="41.901753" lon="-87.660805">
      </trkpt>
      <trkpt lat="41.906443" lon="-87.661061">
      </trkpt>
      <trkpt lat="41.910145" lon="-87.664439">
      </trkpt>
      <trkpt lat="41.915739" lon="-87.667973">
      </trkpt>
      <trkpt lat="41.917898" lon="-87.66968">
      </trkpt>
      <trkpt lat="41.917413" lon="-87.705789">
      </trkpt>
      <trkpt lat="41.917413" lon="-87.705789">
      </trkpt>
      <trkpt lat="41.91793" lon="-87.667505">
      </trkpt>
      <trkpt lat="41.916455" lon="-87.666413">
      </trkpt>
      <trkpt lat="41.917067" lon="-87.663815">
      </trkpt>
      <trkpt lat="41.917139" lon="-87.658378">
      </trkpt>
      <trkpt lat="41.918041" lon="-87.658214">
      </trkpt>
      <trkpt lat="41.918178" lon="-87.648523">
      </trkpt>
      <trkpt lat="41.91731" lon="-87.648495">
      </trkpt>
      <trkpt lat="41.91731" lon="-87.648495">
      </trkpt>
      <trkpt lat="41.918178" lon="-87.648523">
      </trkpt>
      <trkpt lat="41.918472" lon="-87.636131">
      </trkpt>
      <trkpt lat="41.913071" lon="-87.632796">
      </trkpt>
      <trkpt lat="41.912247" lon="-87.628505">
      </trkpt>
      <trkpt lat="41.912316" lon="-87.626932">
      </trkpt>
      <trkpt lat="41.90257" lon="-87.624114">
      </trkpt>
      <trkpt lat="41.900898" lon="-87.619617">
      </trkpt>
      <trkpt lat="41.892868" lon="-87.614264">
      </trkpt>
      <trkpt lat="41.884928" lon="-87.614127">
      </trkpt>
      <trkpt lat="41.881821" lon="-87.617453">
      </trkpt>
      <trkpt lat="41.869765" lon="-87.617261">
      </trkpt>
      <trkpt lat="41.865851" lon="-87.619563">
      </trkpt>
      <trkpt lat="41.833588" lon="-87.607689">
      </trkpt>
      <trkpt lat="41.827907" lon="-87.602929">
      </trkpt>
      <trkpt lat="41.827907" lon="-87.602929">
      </trkpt>
      <trkpt lat="41.827252" lon="-87.60211">
      </trkpt>
      <trkpt lat="41.82517" lon="-87.600903">
      </trkpt>
      <trkpt lat="41.825435" lon="-87.599849">
      </trkpt>
      <trkpt lat="41.829367" lon="-87.604294">
      </trkpt>
      <trkpt lat="41.833032" lon="-87.607125">
      </trkpt>
      <trkpt lat="41.838145" lon="-87.608141">
      </trkpt>
      <trkpt lat="41.852437" lon="-87.613467">
      </trkpt>
      <trkpt lat="41.861647" lon="-87.618159">
      </trkpt>
      <trkpt lat="41.866556" lon="-87.619221">
      </trkpt>
      <trkpt lat="41.867469" lon="-87.619018">
      </trkpt>
      <trkpt lat="41.867506" lon="-87.624157">
      </trkpt>
      <trkpt lat="41.868888" lon="-87.624039">
      </trkpt>
      <trkpt lat="41.868888" lon="-87.624039">
      </trkpt>
      <trkpt lat="41.873158" lon="-87.624138">
      </trkpt>
      <trkpt lat="41.873248" lon="-87.617318">
      </trkpt>
      <trkpt lat="41.869641" lon="-87.617289">
      </trkpt>
      <trkpt lat="41.865851" lon="-87.619563">
      </trkpt>
      <trkpt lat="41.853242" lon="-87.614728">
      </trkpt>
      <trkpt lat="41.849799" lon="-87.613506">
      </trkpt>
      <trkpt lat="41.848506" lon="-87.614444">
      </trkpt>
      <trkpt lat="41.848101" lon="-87.623443">
      </trkpt>
      <trkpt lat="41.84732" lon="-87.626818">
      </trkpt>
      <trkpt lat="41.848155" lon="-87.630758">
      </trkpt>
      <trkpt lat="41.847855" lon="-87.631727">
      </trkpt>
      <trkpt lat="41.843118" lon="-87.631351">
      </trkpt>
      <trkpt lat="41.834246" lon="-87.631163">
      </trkpt>
      <trkpt lat="41.830937" lon="-87.631513">
      </trkpt>
      <trkpt lat="41.831008" lon="-87.626457">
      </trkpt>
      <trkpt lat="41.83283" lon="-87.626475">
      </trkpt>
      <trkpt lat="41.832863" lon="-87.625023">
      </trkpt>
      <trkpt lat="41.832863" lon="-87.625023">
      </trkpt>
      <trkpt lat="41.83283" lon="-87.626475">
      </trkpt>
      <trkpt lat="41.846791" lon="-87.626821">
      </trkpt>
      <trkpt lat="41.84692" lon="-87.626258">
      </trkpt>
      <trkpt lat="41.847976" lon="-87.616851">
      </trkpt>
      <trkpt lat="41.848153" lon="-87.613392">
      </trkpt>
      <trkpt lat="41.84938" lon="-87.612168">
      </trkpt>
      <trkpt lat="41.8661" lon="-87.619244">
      </trkpt>
      <trkpt lat="41.869799" lon="-87.617003">
      </trkpt>
      <trkpt lat="41.881825" lon="-87.617167">
      </trkpt>
      <trkpt lat="41.884762" lon="-87.613645">
      </trkpt>
      <trkpt lat="41.892878" lon="-87.614041">
      </trkpt>
      <trkpt lat="41.900921" lon="-87.619441">
      </trkpt>
      <trkpt lat="41.902893" lon="-87.624048">
      </trkpt>
      <trkpt lat="41.928213" lon="-87.631799">
      </trkpt>
      <trkpt lat="41.934701" lon="-87.632273">
      </trkpt>
      <trkpt lat="41.941219" lon="-87.638833">
      </trkpt>
      <trkpt lat="41.950931" lon="-87.644376">
      </trkpt>
      <trkpt lat="41.960253" lon="-87.646094">
      </trkpt>
      <trkpt lat="41.962086" lon="-87.645534">
      </trkpt>
      <trkpt lat="41.961772" lon="-87.655148">
      </trkpt>
      <trkpt lat="41.964503" lon="-87.656894">
      </trkpt>
      <trkpt lat="41.964503" lon="-87.656894">
      </trkpt>
      <trkpt lat="41.964503" lon="-87.656894">
      </trkpt>
      <trkpt lat="41.964503" lon="-87.656894">
      </trkpt>
      <trkpt lat="41.965401" lon="-87.657469">
      </trkpt>
      <trkpt lat="41.965774" lon="-87.646428">
      </trkpt>
      <trkpt lat="41.98144" lon="-87.652386">
      </trkpt>
      <trkpt lat="41.984866" lon="-87.652765">
      </trkpt>
      <trkpt lat="41.985504" lon="-87.653488">
      </trkpt>
      <trkpt lat="41.985556" lon="-87.655253">
      </trkpt>
      <trkpt lat="41.997803" lon="-87.655634">
      </trkpt>
      <trkpt lat="41.998196" lon="-87.659646">
      </trkpt>
      <trkpt lat="41.998874" lon="-87.660644">
      </trkpt>
      <trkpt lat="42.006762" lon="-87.661292">
      </trkpt>
      <trkpt lat="42.021956" lon="-87.666816">
      </trkpt>
      <trkpt lat="42.023129" lon="-87.665298">
      </trkpt>
      <trkpt lat="42.026154" lon="-87.666866">
      </trkpt>
      <trkpt lat="42.027161" lon="-87.668578">
      </trkpt>
      <trkpt lat="42.027266" lon="-87.678155">
      </trkpt>
      <trkpt lat="42.041201" lon="-87.680569">
      </trkpt>
      <trkpt lat="42.041208" lon="-87.681375">
      </trkpt>
      <trkpt lat="42.043758" lon="-87.68191">
      </trkpt>
      <trkpt lat="42.043758" lon="-87.68191">
      </trkpt>
      <trkpt lat="42.045816" lon="-87.681865">
      </trkpt>
      <trkpt lat="42.04705" lon="-87.681362">
      </trkpt>
      <trkpt lat="42.049698" lon="-87.680072">
      </trkpt>
      <trkpt lat="42.049865" lon="-87.680133">
      </trkpt>
      <trkpt lat="42.049954" lon="-87.680438">
      </trkpt>
      <trkpt lat="42.049974" lon="-87.68164">
      </trkpt>
      <trkpt lat="42.049796" lon="-87.681811">
      </trkpt>
      <trkpt lat="42.047749" lon="-87.681868">
      </trkpt>
      <trkpt lat="42.047749" lon="-87.681868">
      </trkpt>
      <trkpt lat="42.047061" lon="-87.681897">
      </trkpt>
      <trkpt lat="42.046823" lon="-87.681941">
      </trkpt>
      <trkpt lat="42.047037" lon="-87.683456">
      </trkpt>
      <trkpt lat="42.047097" lon="-87.68872">
      </trkpt>
      <trkpt lat="42.041263" lon="-87.688374">
      </trkpt>
      <trkpt lat="42.040938" lon="-87.763691">
      </trkpt>
      <trkpt lat="42.041577" lon="-87.764624">
      </trkpt>
      <trkpt lat="42.042189" lon="-87.763223">
      </trkpt>
      <trkpt lat="42.03371" lon="-87.768504">
      </trkpt>
      <trkpt lat="42.026512" lon="-87.768822">
      </trkpt>
      <trkpt lat="42.021309" lon="-87.765749">
      </trkpt>
      <trkpt lat="42.013632" lon="-87.752686">
      </trkpt>
      <trkpt lat="42.009007" lon="-87.749252">
      </trkpt>
      <trkpt lat="42.001046" lon="-87.748976">
      </trkpt>
      <trkpt lat="41.987219" lon="-87.751521">
      </trkpt>
      <trkpt lat="41.980228" lon="-87.746835">
      </trkpt>
      <trkpt lat="41.963527" lon="-87.746855">
      </trkpt>
      <trkpt lat="41.94853" lon="-87.721846">
      </trkpt>
      <trkpt lat="41.946493" lon="-87.718984">
      </trkpt>
      <trkpt lat="41.946484" lon="-87.71959">
      </trkpt>
      <trkpt lat="41.944989" lon="-87.718156">
      </trkpt>
      <trkpt lat="41.931929" lon="-87.717188">
      </trkpt>
      <trkpt lat="41.93186" lon="-87.722071">
      </trkpt>
      <trkpt lat="41.929231" lon="-87.721999">
      </trkpt>
      <trkpt lat="41.929231" lon="-87.721999">
      </trkpt>
      <trkpt lat="41.924553" lon="-87.721872">
      </trkpt>
      <trkpt lat="41.924722" lon="-87.707229">
      </trkpt>
      <trkpt lat="41.89556" lon="-87.706541">
      </trkpt>
      <trkpt lat="41.895523" lon="-87.709901">
      </trkpt>
      <trkpt lat="41.89729" lon="-87.709964">
      </trkpt>
      <trkpt lat="41.89729" lon="-87.709964">
      </trkpt>
      <trkpt lat="41.895523" lon="-87.709901">
      </trkpt>
      <trkpt lat="41.895912" lon="-87.677057">
      </trkpt>
      <trkpt lat="41.903184" lon="-87.677276">
      </trkpt>
      <trkpt lat="41.903268" lon="-87.67239">
      </trkpt>
      <trkpt lat="41.903498" lon="-87.672395">
      </trkpt>
      <trkpt lat="41.903498" lon="-87.672395">
      </trkpt>
      <trkpt lat="41.903268" lon="-87.67239">
      </trkpt>
      <trkpt lat="41.903025" lon="-87.687018">
      </trkpt>
      <trkpt lat="41.910324" lon="-87.687207">
      </trkpt>
      <trkpt lat="41.910165" lon="-87.701875">
      </trkpt>
      <trkpt lat="41.915629" lon="-87.702035">
      </trkpt>
      <trkpt lat="41.915612" lon="-87.703717">
      </trkpt>
    </trkseg>
  </trk>
</gpx>