<?xml version="1.0" encoding="UTF-8"?>
<gpx xmlns="http://www.topografix.com/GPX/1/1" xmlns:xsi="http://www.w3.org/2001/XMLSchema-instance" xsi:schemaLocation="http://www.topografix.com/GPX/1/1 http://www.topografix.com/GPX/1/1/gpx.xsd" version="1.1" creator="gpx.py -- https://github.com/tkrajina/gpxpy">
  <trk>
    <trkseg>
      <trkpt lat="41.990852" lon="-87.665454">
      </trkpt>
      <trkpt lat="41.99093" lon="-87.660308">
      </trkpt>
      <trkpt lat="41.974627" lon="-87.659822">
      </trkpt>
      <trkpt lat="41.974579" lon="-87.663301">
      </trkpt>
      <trkpt lat="41.974579" lon="-87.663301">
      </trkpt>
      <trkpt lat="41.974627" lon="-87.659822">
      </trkpt>
      <trkpt lat="41.975789" lon="-87.659862">
      </trkpt>
      <trkpt lat="41.981805" lon="-87.660018">
      </trkpt>
      <trkpt lat="41.981785" lon="-87.661293">
      </trkpt>
      <trkpt lat="41.980907" lon="-87.661271">
      </trkpt>
      <trkpt lat="41.980907" lon="-87.661271">
      </trkpt>
      <trkpt lat="41.979959" lon="-87.661247">
      </trkpt>
      <trkpt lat="41.979979" lon="-87.659972">
      </trkpt>
      <trkpt lat="41.976324" lon="-87.659864">
      </trkpt>
      <trkpt lat="41.976453" lon="-87.651813">
      </trkpt>
      <trkpt lat="41.972134" lon="-87.648822">
      </trkpt>
      <trkpt lat="41.950978" lon="-87.644611">
      </trkpt>
      <trkpt lat="41.941067" lon="-87.638957">
      </trkpt>
      <trkpt lat="41.934639" lon="-87.632453">
      </trkpt>
      <trkpt lat="41.928427" lon="-87.632048">
      </trkpt>
      <trkpt lat="41.902733" lon="-87.62421">
      </trkpt>
      <trkpt lat="41.900898" lon="-87.619617">
      </trkpt>
      <trkpt lat="41.892985" lon="-87.614304">
      </trkpt>
      <trkpt lat="41.884928" lon="-87.614127">
      </trkpt>
      <trkpt lat="41.88092" lon="-87.617506">
      </trkpt>
      <trkpt lat="41.880838" lon="-87.624244">
      </trkpt>
      <trkpt lat="41.881322" lon="-87.624206">
      </trkpt>
      <trkpt lat="41.881953" lon="-87.632362">
      </trkpt>
      <trkpt lat="41.881953" lon="-87.632362">
      </trkpt>
      <trkpt lat="41.881801" lon="-87.64573">
      </trkpt>
      <trkpt lat="41.887382" lon="-87.646594">
      </trkpt>
      <trkpt lat="41.891702" lon="-87.651689">
      </trkpt>
      <trkpt lat="41.896836" lon="-87.65868">
      </trkpt>
      <trkpt lat="41.906646" lon="-87.66137">
      </trkpt>
      <trkpt lat="41.917654" lon="-87.670146">
      </trkpt>
      <trkpt lat="41.940372" lon="-87.709927">
      </trkpt>
      <trkpt lat="41.94215" lon="-87.715306">
      </trkpt>
      <trkpt lat="41.947613" lon="-87.719592">
      </trkpt>
      <trkpt lat="41.95982" lon="-87.741635">
      </trkpt>
      <trkpt lat="41.963594" lon="-87.746287">
      </trkpt>
      <trkpt lat="41.975724" lon="-87.747426">
      </trkpt>
      <trkpt lat="41.976396" lon="-87.74607">
      </trkpt>
      <trkpt lat="41.975364" lon="-87.745776">
      </trkpt>
      <trkpt lat="41.975122" lon="-87.765782">
      </trkpt>
      <trkpt lat="41.975691" lon="-87.766315">
      </trkpt>
      <trkpt lat="41.975715" lon="-87.771273">
      </trkpt>
      <trkpt lat="41.982513" lon="-87.784738">
      </trkpt>
      <trkpt lat="41.982443" lon="-87.812691">
      </trkpt>
      <trkpt lat="41.984517" lon="-87.826001">
      </trkpt>
      <trkpt lat="41.984836" lon="-87.831845">
      </trkpt>
      <trkpt lat="41.984644" lon="-87.836934">
      </trkpt>
      <trkpt lat="41.984101" lon="-87.847951">
      </trkpt>
      <trkpt lat="41.984286" lon="-87.870366">
      </trkpt>
      <trkpt lat="41.982737" lon="-87.872126">
      </trkpt>
      <trkpt lat="41.979205" lon="-87.869881">
      </trkpt>
      <trkpt lat="41.974192" lon="-87.869335">
      </trkpt>
      <trkpt lat="41.967668" lon="-87.872902">
      </trkpt>
      <trkpt lat="41.964985" lon="-87.875185">
      </trkpt>
      <trkpt lat="41.958216" lon="-87.879321">
      </trkpt>
      <trkpt lat="41.956993" lon="-87.881043">
      </trkpt>
      <trkpt lat="41.957658" lon="-87.884361">
      </trkpt>
      <trkpt lat="41.950831" lon="-87.885651">
      </trkpt>
      <trkpt lat="41.950812" lon="-87.886885">
      </trkpt>
    </trkseg>
  </trk>
</gpx>