<?xml version="1.0" encoding="UTF-8"?>
<gpx xmlns="http://www.topografix.com/GPX/1/1" xmlns:xsi="http://www.w3.org/2001/XMLSchema-instance" xsi:schemaLocation="http://www.topografix.com/GPX/1/1 http://www.topografix.com/GPX/1/1/gpx.xsd" version="1.1" creator="gpx.py -- https://github.com/tkrajina/gpxpy">
  <trk>
    <trkseg>
      <trkpt lat="41.921868" lon="-87.686959">
      </trkpt>
      <trkpt lat="41.921873" lon="-87.686506">
      </trkpt>
      <trkpt lat="41.920628" lon="-87.686465">
      </trkpt>
      <trkpt lat="41.920704" lon="-87.68262">
      </trkpt>
      <trkpt lat="41.92131" lon="-87.682641">
      </trkpt>
      <trkpt lat="41.921395" lon="-87.677255">
      </trkpt>
      <trkpt lat="41.916326" lon="-87.668918">
      </trkpt>
      <trkpt lat="41.906635" lon="-87.661559">
      </trkpt>
      <trkpt lat="41.896667" lon="-87.658834">
      </trkpt>
      <trkpt lat="41.886973" lon="-87.646614">
      </trkpt>
      <trkpt lat="41.857367" lon="-87.644363">
      </trkpt>
      <trkpt lat="41.852447" lon="-87.645793">
      </trkpt>
      <trkpt lat="41.849097" lon="-87.644333">
      </trkpt>
      <trkpt lat="41.846776" lon="-87.644894">
      </trkpt>
      <trkpt lat="41.844955" lon="-87.652708">
      </trkpt>
      <trkpt lat="41.837772" lon="-87.66744">
      </trkpt>
      <trkpt lat="41.836967" lon="-87.680443">
      </trkpt>
      <trkpt lat="41.82508" lon="-87.718339">
      </trkpt>
      <trkpt lat="41.823909" lon="-87.722555">
      </trkpt>
      <trkpt lat="41.823672" lon="-87.724004">
      </trkpt>
      <trkpt lat="41.82887" lon="-87.72418">
      </trkpt>
      <trkpt lat="41.827176" lon="-87.729566">
      </trkpt>
      <trkpt lat="41.827142" lon="-87.734706">
      </trkpt>
      <trkpt lat="41.827142" lon="-87.734706">
      </trkpt>
      <trkpt lat="41.828755" lon="-87.724177">
      </trkpt>
      <trkpt lat="41.823534" lon="-87.724107">
      </trkpt>
      <trkpt lat="41.823155" lon="-87.723984">
      </trkpt>
      <trkpt lat="41.836711" lon="-87.680385">
      </trkpt>
      <trkpt lat="41.83747" lon="-87.66766">
      </trkpt>
      <trkpt lat="41.841885" lon="-87.658964">
      </trkpt>
      <trkpt lat="41.846659" lon="-87.642563">
      </trkpt>
      <trkpt lat="41.850742" lon="-87.644555">
      </trkpt>
      <trkpt lat="41.885931" lon="-87.64591">
      </trkpt>
      <trkpt lat="41.889375" lon="-87.648317">
      </trkpt>
      <trkpt lat="41.897003" lon="-87.6586">
      </trkpt>
      <trkpt lat="41.906443" lon="-87.661061">
      </trkpt>
      <trkpt lat="41.91562" lon="-87.667879">
      </trkpt>
      <trkpt lat="41.93563" lon="-87.700943">
      </trkpt>
      <trkpt lat="41.943044" lon="-87.715981">
      </trkpt>
      <trkpt lat="41.94651" lon="-87.717815">
      </trkpt>
      <trkpt lat="41.946215" lon="-87.739921">
      </trkpt>
      <trkpt lat="41.946215" lon="-87.739921">
      </trkpt>
      <trkpt lat="41.946223" lon="-87.739311">
      </trkpt>
      <trkpt lat="41.949504" lon="-87.740947">
      </trkpt>
      <trkpt lat="41.954581" lon="-87.749242">
      </trkpt>
      <trkpt lat="41.968654" lon="-87.761435">
      </trkpt>
      <trkpt lat="41.973175" lon="-87.778228">
      </trkpt>
      <trkpt lat="41.976281" lon="-87.787864">
      </trkpt>
      <trkpt lat="41.978418" lon="-87.787821">
      </trkpt>
      <trkpt lat="41.978418" lon="-87.787821">
      </trkpt>
      <trkpt lat="41.982061" lon="-87.787747">
      </trkpt>
      <trkpt lat="41.982068" lon="-87.78646">
      </trkpt>
      <trkpt lat="41.982206" lon="-87.784991">
      </trkpt>
      <trkpt lat="41.981754" lon="-87.78307">
      </trkpt>
      <trkpt lat="41.972237" lon="-87.766154">
      </trkpt>
      <trkpt lat="41.970136" lon="-87.76013">
      </trkpt>
      <trkpt lat="41.964121" lon="-87.749887">
      </trkpt>
      <trkpt lat="41.962708" lon="-87.746242">
      </trkpt>
      <trkpt lat="41.959294" lon="-87.74096">
      </trkpt>
      <trkpt lat="41.94853" lon="-87.721846">
      </trkpt>
      <trkpt lat="41.946493" lon="-87.718984">
      </trkpt>
      <trkpt lat="41.946623" lon="-87.708842">
      </trkpt>
      <trkpt lat="41.944219" lon="-87.705317">
      </trkpt>
      <trkpt lat="41.943085" lon="-87.705281">
      </trkpt>
    </trkseg>
  </trk>
</gpx>