<?xml version="1.0" encoding="UTF-8"?>
<gpx xmlns="http://www.topografix.com/GPX/1/1" xmlns:xsi="http://www.w3.org/2001/XMLSchema-instance" xsi:schemaLocation="http://www.topografix.com/GPX/1/1 http://www.topografix.com/GPX/1/1/gpx.xsd" version="1.1" creator="gpx.py -- https://github.com/tkrajina/gpxpy">
  <trk>
    <trkseg>
      <trkpt lat="41.909136" lon="-87.712229">
      </trkpt>
      <trkpt lat="41.90914" lon="-87.711885">
      </trkpt>
      <trkpt lat="41.910045" lon="-87.711884">
      </trkpt>
      <trkpt lat="41.910104" lon="-87.706907">
      </trkpt>
      <trkpt lat="41.927966" lon="-87.70699">
      </trkpt>
      <trkpt lat="41.928423" lon="-87.702415">
      </trkpt>
      <trkpt lat="41.932074" lon="-87.702516">
      </trkpt>
      <trkpt lat="41.932108" lon="-87.697602">
      </trkpt>
      <trkpt lat="41.956867" lon="-87.698335">
      </trkpt>
      <trkpt lat="41.956867" lon="-87.698335">
      </trkpt>
      <trkpt lat="41.941887" lon="-87.697902">
      </trkpt>
      <trkpt lat="41.941872" lon="-87.700544">
      </trkpt>
      <trkpt lat="41.941084" lon="-87.701556">
      </trkpt>
      <trkpt lat="41.941075" lon="-87.702765">
      </trkpt>
      <trkpt lat="41.907558" lon="-87.701241">
      </trkpt>
      <trkpt lat="41.899238" lon="-87.702461">
      </trkpt>
      <trkpt lat="41.899232" lon="-87.703011">
      </trkpt>
      <trkpt lat="41.898341" lon="-87.702989">
      </trkpt>
      <trkpt lat="41.898338" lon="-87.70343">
      </trkpt>
      <trkpt lat="41.898338" lon="-87.70343">
      </trkpt>
      <trkpt lat="41.898185" lon="-87.706295">
      </trkpt>
      <trkpt lat="41.896575" lon="-87.702222">
      </trkpt>
      <trkpt lat="41.875937" lon="-87.701067">
      </trkpt>
      <trkpt lat="41.875935" lon="-87.701496">
      </trkpt>
      <trkpt lat="41.874348" lon="-87.708052">
      </trkpt>
      <trkpt lat="41.874016" lon="-87.730503">
      </trkpt>
      <trkpt lat="41.874233" lon="-87.735243">
      </trkpt>
      <trkpt lat="41.87392" lon="-87.735235">
      </trkpt>
      <trkpt lat="41.873148" lon="-87.744977">
      </trkpt>
      <trkpt lat="41.784351" lon="-87.741532">
      </trkpt>
      <trkpt lat="41.78485" lon="-87.742426">
      </trkpt>
      <trkpt lat="41.78386" lon="-87.743755">
      </trkpt>
      <trkpt lat="41.786276" lon="-87.746931">
      </trkpt>
      <trkpt lat="41.786276" lon="-87.746931">
      </trkpt>
      <trkpt lat="41.78386" lon="-87.743755">
      </trkpt>
      <trkpt lat="41.78485" lon="-87.742426">
      </trkpt>
      <trkpt lat="41.784238" lon="-87.741157">
      </trkpt>
      <trkpt lat="41.784251" lon="-87.740137">
      </trkpt>
      <trkpt lat="41.784519" lon="-87.739283">
      </trkpt>
      <trkpt lat="41.785495" lon="-87.738573">
      </trkpt>
      <trkpt lat="41.785788" lon="-87.737819">
      </trkpt>
      <trkpt lat="41.785941" lon="-87.722958">
      </trkpt>
      <trkpt lat="41.757923" lon="-87.722268">
      </trkpt>
      <trkpt lat="41.758995" lon="-87.722094">
      </trkpt>
      <trkpt lat="41.758995" lon="-87.722094">
      </trkpt>
      <trkpt lat="41.76409" lon="-87.722344">
      </trkpt>
      <trkpt lat="41.720397" lon="-87.721351">
      </trkpt>
      <trkpt lat="41.720636" lon="-87.704275">
      </trkpt>
      <trkpt lat="41.719595" lon="-87.704256">
      </trkpt>
      <trkpt lat="41.719595" lon="-87.704256">
      </trkpt>
      <trkpt lat="41.720636" lon="-87.704275">
      </trkpt>
      <trkpt lat="41.720668" lon="-87.701844">
      </trkpt>
      <trkpt lat="41.750499" lon="-87.702412">
      </trkpt>
      <trkpt lat="41.759103" lon="-87.683094">
      </trkpt>
      <trkpt lat="41.770156" lon="-87.683405">
      </trkpt>
      <trkpt lat="41.770191" lon="-87.679642">
      </trkpt>
      <trkpt lat="41.769323" lon="-87.679621">
      </trkpt>
      <trkpt lat="41.769323" lon="-87.679621">
      </trkpt>
      <trkpt lat="41.768383" lon="-87.679599">
      </trkpt>
      <trkpt lat="41.768331" lon="-87.683357">
      </trkpt>
      <trkpt lat="41.759103" lon="-87.683094">
      </trkpt>
      <trkpt lat="41.750499" lon="-87.702412">
      </trkpt>
      <trkpt lat="41.742333" lon="-87.712916">
      </trkpt>
      <trkpt lat="41.742004" lon="-87.732362">
      </trkpt>
      <trkpt lat="41.741732" lon="-87.732352">
      </trkpt>
      <trkpt lat="41.741732" lon="-87.732352">
      </trkpt>
      <trkpt lat="41.742004" lon="-87.732362">
      </trkpt>
      <trkpt lat="41.742309" lon="-87.714362">
      </trkpt>
      <trkpt lat="41.741383" lon="-87.714339">
      </trkpt>
      <trkpt lat="41.741506" lon="-87.707027">
      </trkpt>
      <trkpt lat="41.73968" lon="-87.706996">
      </trkpt>
      <trkpt lat="41.73971" lon="-87.704737">
      </trkpt>
      <trkpt lat="41.73971" lon="-87.704737">
      </trkpt>
      <trkpt lat="41.739766" lon="-87.70212">
      </trkpt>
      <trkpt lat="41.735128" lon="-87.702148">
      </trkpt>
      <trkpt lat="41.735786" lon="-87.663125">
      </trkpt>
      <trkpt lat="41.721155" lon="-87.662758">
      </trkpt>
      <trkpt lat="41.721847" lon="-87.614148">
      </trkpt>
      <trkpt lat="41.709143" lon="-87.613824">
      </trkpt>
      <trkpt lat="41.709221" lon="-87.608945">
      </trkpt>
      <trkpt lat="41.710212" lon="-87.608973">
      </trkpt>
      <trkpt lat="41.710212" lon="-87.608973">
      </trkpt>
      <trkpt lat="41.712865" lon="-87.609046">
      </trkpt>
      <trkpt lat="41.712499" lon="-87.613922">
      </trkpt>
      <trkpt lat="41.714097" lon="-87.613969">
      </trkpt>
      <trkpt lat="41.714985" lon="-87.620899">
      </trkpt>
      <trkpt lat="41.718201" lon="-87.623994">
      </trkpt>
      <trkpt lat="41.769497" lon="-87.625651">
      </trkpt>
      <trkpt lat="41.77431" lon="-87.626008">
      </trkpt>
      <trkpt lat="41.779578" lon="-87.630526">
      </trkpt>
      <trkpt lat="41.807989" lon="-87.63142">
      </trkpt>
      <trkpt lat="41.812339" lon="-87.6297">
      </trkpt>
      <trkpt lat="41.823852" lon="-87.630064">
      </trkpt>
      <trkpt lat="41.834623" lon="-87.629907">
      </trkpt>
      <trkpt lat="41.834684" lon="-87.626674">
      </trkpt>
      <trkpt lat="41.833703" lon="-87.626661">
      </trkpt>
      <trkpt lat="41.833703" lon="-87.626661">
      </trkpt>
      <trkpt lat="41.831006" lon="-87.62663">
      </trkpt>
      <trkpt lat="41.830937" lon="-87.631513">
      </trkpt>
      <trkpt lat="41.827182" lon="-87.631416">
      </trkpt>
      <trkpt lat="41.812695" lon="-87.630703">
      </trkpt>
      <trkpt lat="41.807984" lon="-87.632226">
      </trkpt>
      <trkpt lat="41.779333" lon="-87.631154">
      </trkpt>
      <trkpt lat="41.772231" lon="-87.626113">
      </trkpt>
      <trkpt lat="41.72052" lon="-87.624621">
      </trkpt>
      <trkpt lat="41.715903" lon="-87.627884">
      </trkpt>
      <trkpt lat="41.714895" lon="-87.636193">
      </trkpt>
      <trkpt lat="41.714153" lon="-87.651299">
      </trkpt>
      <trkpt lat="41.714057" lon="-87.652056">
      </trkpt>
      <trkpt lat="41.714061" lon="-87.655187">
      </trkpt>
      <trkpt lat="41.717528" lon="-87.655278">
      </trkpt>
      <trkpt lat="41.717535" lon="-87.654822">
      </trkpt>
      <trkpt lat="41.717535" lon="-87.654822">
      </trkpt>
      <trkpt lat="41.717528" lon="-87.655278">
      </trkpt>
      <trkpt lat="41.714061" lon="-87.655187">
      </trkpt>
      <trkpt lat="41.714057" lon="-87.652056">
      </trkpt>
      <trkpt lat="41.713181" lon="-87.650961">
      </trkpt>
      <trkpt lat="41.714223" lon="-87.642306">
      </trkpt>
      <trkpt lat="41.714662" lon="-87.632642">
      </trkpt>
      <trkpt lat="41.715693" lon="-87.627057">
      </trkpt>
      <trkpt lat="41.719562" lon="-87.624177">
      </trkpt>
      <trkpt lat="41.769497" lon="-87.625651">
      </trkpt>
      <trkpt lat="41.779495" lon="-87.630747">
      </trkpt>
      <trkpt lat="41.838631" lon="-87.630667">
      </trkpt>
      <trkpt lat="41.844225" lon="-87.63193">
      </trkpt>
      <trkpt lat="41.847354" lon="-87.642036">
      </trkpt>
      <trkpt lat="41.850632" lon="-87.644778">
      </trkpt>
      <trkpt lat="41.867845" lon="-87.644517">
      </trkpt>
      <trkpt lat="41.873521" lon="-87.644628">
      </trkpt>
      <trkpt lat="41.875863" lon="-87.649223">
      </trkpt>
      <trkpt lat="41.875763" lon="-87.688313">
      </trkpt>
      <trkpt lat="41.875862" lon="-87.692409">
      </trkpt>
      <trkpt lat="41.875937" lon="-87.701067">
      </trkpt>
      <trkpt lat="41.902886" lon="-87.702278">
      </trkpt>
      <trkpt lat="41.902888" lon="-87.701605">
      </trkpt>
      <trkpt lat="41.902888" lon="-87.701605">
      </trkpt>
      <trkpt lat="41.902833" lon="-87.706787">
      </trkpt>
      <trkpt lat="41.89556" lon="-87.706541">
      </trkpt>
      <trkpt lat="41.89537" lon="-87.726081">
      </trkpt>
      <trkpt lat="41.884689" lon="-87.725773">
      </trkpt>
      <trkpt lat="41.88463" lon="-87.730682">
      </trkpt>
      <trkpt lat="41.883568" lon="-87.730649">
      </trkpt>
      <trkpt lat="41.883568" lon="-87.730649">
      </trkpt>
      <trkpt lat="41.883305" lon="-87.730641">
      </trkpt>
      <trkpt lat="41.883366" lon="-87.725734">
      </trkpt>
      <trkpt lat="41.885478" lon="-87.725794">
      </trkpt>
      <trkpt lat="41.885001" lon="-87.717348">
      </trkpt>
      <trkpt lat="41.884883" lon="-87.716831">
      </trkpt>
      <trkpt lat="41.886676" lon="-87.716489">
      </trkpt>
      <trkpt lat="41.889358" lon="-87.716592">
      </trkpt>
      <trkpt lat="41.89036" lon="-87.716192">
      </trkpt>
      <trkpt lat="41.893631" lon="-87.71627">
      </trkpt>
      <trkpt lat="41.893644" lon="-87.714811">
      </trkpt>
      <trkpt lat="41.893644" lon="-87.714811">
      </trkpt>
      <trkpt lat="41.893676" lon="-87.711387">
      </trkpt>
      <trkpt lat="41.884634" lon="-87.711113">
      </trkpt>
      <trkpt lat="41.884354" lon="-87.706225">
      </trkpt>
      <trkpt lat="41.87369" lon="-87.705922">
      </trkpt>
      <trkpt lat="41.873784" lon="-87.697016">
      </trkpt>
      <trkpt lat="41.873784" lon="-87.697016">
      </trkpt>
      <trkpt lat="41.873794" lon="-87.696098">
      </trkpt>
      <trkpt lat="41.884255" lon="-87.69636">
      </trkpt>
      <trkpt lat="41.88498" lon="-87.676739">
      </trkpt>
      <trkpt lat="41.886776" lon="-87.676791">
      </trkpt>
      <trkpt lat="41.886827" lon="-87.673532">
      </trkpt>
      <trkpt lat="41.886827" lon="-87.673532">
      </trkpt>
      <trkpt lat="41.886776" lon="-87.676791">
      </trkpt>
      <trkpt lat="41.88498" lon="-87.676739">
      </trkpt>
      <trkpt lat="41.884621" lon="-87.686532">
      </trkpt>
      <trkpt lat="41.876082" lon="-87.686385">
      </trkpt>
      <trkpt lat="41.876006" lon="-87.693713">
      </trkpt>
      <trkpt lat="41.876734" lon="-87.693741">
      </trkpt>
      <trkpt lat="41.876762" lon="-87.691633">
      </trkpt>
      <trkpt lat="41.876762" lon="-87.691633">
      </trkpt>
      <trkpt lat="41.877486" lon="-87.691651">
      </trkpt>
      <trkpt lat="41.877547" lon="-87.686341">
      </trkpt>
      <trkpt lat="41.876895" lon="-87.686316">
      </trkpt>
      <trkpt lat="41.876576" lon="-87.686384">
      </trkpt>
      <trkpt lat="41.875885" lon="-87.68639">
      </trkpt>
      <trkpt lat="41.872439" lon="-87.686258">
      </trkpt>
      <trkpt lat="41.872439" lon="-87.686258">
      </trkpt>
      <trkpt lat="41.871336" lon="-87.686226">
      </trkpt>
      <trkpt lat="41.876094" lon="-87.686165">
      </trkpt>
      <trkpt lat="41.875937" lon="-87.701067">
      </trkpt>
      <trkpt lat="41.889426" lon="-87.701479">
      </trkpt>
      <trkpt lat="41.891131" lon="-87.701974">
      </trkpt>
      <trkpt lat="41.897899" lon="-87.702431">
      </trkpt>
      <trkpt lat="41.902886" lon="-87.702278">
      </trkpt>
      <trkpt lat="41.902888" lon="-87.701605">
      </trkpt>
      <trkpt lat="41.902888" lon="-87.701605">
      </trkpt>
      <trkpt lat="41.902886" lon="-87.702278">
      </trkpt>
      <trkpt lat="41.904322" lon="-87.70207">
      </trkpt>
      <trkpt lat="41.907241" lon="-87.70125">
      </trkpt>
      <trkpt lat="41.908237" lon="-87.701353">
      </trkpt>
      <trkpt lat="41.909409" lon="-87.701797">
      </trkpt>
      <trkpt lat="41.910165" lon="-87.701875">
      </trkpt>
      <trkpt lat="41.910241" lon="-87.695773">
      </trkpt>
      <trkpt lat="41.911942" lon="-87.69582">
      </trkpt>
      <trkpt lat="41.911942" lon="-87.69582">
      </trkpt>
      <trkpt lat="41.912067" lon="-87.695823">
      </trkpt>
      <trkpt lat="41.912056" lon="-87.697053">
      </trkpt>
      <trkpt lat="41.910223" lon="-87.697029">
      </trkpt>
      <trkpt lat="41.909821" lon="-87.735652">
      </trkpt>
      <trkpt lat="41.916843" lon="-87.753381">
      </trkpt>
      <trkpt lat="41.921914" lon="-87.782959">
      </trkpt>
      <trkpt lat="41.923648" lon="-87.788528">
      </trkpt>
      <trkpt lat="41.923585" lon="-87.79707">
      </trkpt>
      <trkpt lat="41.923215" lon="-87.797058">
      </trkpt>
      <trkpt lat="41.923215" lon="-87.797058">
      </trkpt>
      <trkpt lat="41.923585" lon="-87.79707">
      </trkpt>
      <trkpt lat="41.923598" lon="-87.795245">
      </trkpt>
      <trkpt lat="41.938162" lon="-87.795699">
      </trkpt>
      <trkpt lat="41.938315" lon="-87.786046">
      </trkpt>
      <trkpt lat="41.95292" lon="-87.786554">
      </trkpt>
      <trkpt lat="41.953809" lon="-87.712908">
      </trkpt>
      <trkpt lat="41.957384" lon="-87.713022">
      </trkpt>
      <trkpt lat="41.957384" lon="-87.713022">
      </trkpt>
      <trkpt lat="41.940478" lon="-87.712526">
      </trkpt>
      <trkpt lat="41.939977" lon="-87.709442">
      </trkpt>
      <trkpt lat="41.917124" lon="-87.669746">
      </trkpt>
      <trkpt lat="41.906635" lon="-87.661559">
      </trkpt>
      <trkpt lat="41.896667" lon="-87.658834">
      </trkpt>
      <trkpt lat="41.887778" lon="-87.647099">
      </trkpt>
      <trkpt lat="41.881827" lon="-87.645999">
      </trkpt>
      <trkpt lat="41.880956" lon="-87.646134">
      </trkpt>
      <trkpt lat="41.879569" lon="-87.646145">
      </trkpt>
      <trkpt lat="41.878121" lon="-87.646166">
      </trkpt>
      <trkpt lat="41.875847" lon="-87.647927">
      </trkpt>
      <trkpt lat="41.876121" lon="-87.662425">
      </trkpt>
      <trkpt lat="41.876354" lon="-87.666742">
      </trkpt>
      <trkpt lat="41.869262" lon="-87.666531">
      </trkpt>
      <trkpt lat="41.8692" lon="-87.670488">
      </trkpt>
      <trkpt lat="41.8692" lon="-87.670488">
      </trkpt>
      <trkpt lat="41.86911" lon="-87.676363">
      </trkpt>
      <trkpt lat="41.849401" lon="-87.675765">
      </trkpt>
      <trkpt lat="41.849401" lon="-87.675765">
      </trkpt>
      <trkpt lat="41.848542" lon="-87.675739">
      </trkpt>
      <trkpt lat="41.852334" lon="-87.666089">
      </trkpt>
      <trkpt lat="41.852585" lon="-87.6512">
      </trkpt>
      <trkpt lat="41.855904" lon="-87.643758">
      </trkpt>
      <trkpt lat="41.857758" lon="-87.643778">
      </trkpt>
      <trkpt lat="41.886419" lon="-87.646101">
      </trkpt>
      <trkpt lat="41.897003" lon="-87.6586">
      </trkpt>
      <trkpt lat="41.906443" lon="-87.661061">
      </trkpt>
      <trkpt lat="41.916334" lon="-87.668478">
      </trkpt>
      <trkpt lat="41.93676" lon="-87.702937">
      </trkpt>
      <trkpt lat="41.942387" lon="-87.715161">
      </trkpt>
      <trkpt lat="41.947406" lon="-87.71887">
      </trkpt>
      <trkpt lat="41.950079" lon="-87.723791">
      </trkpt>
      <trkpt lat="41.952511" lon="-87.727575">
      </trkpt>
      <trkpt lat="41.951378" lon="-87.727531">
      </trkpt>
      <trkpt lat="41.945898" lon="-87.718393">
      </trkpt>
      <trkpt lat="41.945898" lon="-87.718393">
      </trkpt>
      <trkpt lat="41.94319" lon="-87.716727">
      </trkpt>
      <trkpt lat="41.942115" lon="-87.715518">
      </trkpt>
      <trkpt lat="41.941459" lon="-87.714674">
      </trkpt>
      <trkpt lat="41.941087" lon="-87.713508">
      </trkpt>
      <trkpt lat="41.940478" lon="-87.712526">
      </trkpt>
      <trkpt lat="41.939288" lon="-87.712487">
      </trkpt>
      <trkpt lat="41.939404" lon="-87.697818">
      </trkpt>
      <trkpt lat="41.940244" lon="-87.697848">
      </trkpt>
      <trkpt lat="41.940262" lon="-87.695246">
      </trkpt>
      <trkpt lat="41.940229" lon="-87.69448">
      </trkpt>
      <trkpt lat="41.940836" lon="-87.694671">
      </trkpt>
      <trkpt lat="41.940836" lon="-87.694671">
      </trkpt>
      <trkpt lat="41.940307" lon="-87.694511">
      </trkpt>
      <trkpt lat="41.939421" lon="-87.695268">
      </trkpt>
      <trkpt lat="41.939404" lon="-87.697818">
      </trkpt>
      <trkpt lat="41.932108" lon="-87.697602">
      </trkpt>
      <trkpt lat="41.932116" lon="-87.696547">
      </trkpt>
      <trkpt lat="41.917124" lon="-87.669746">
      </trkpt>
      <trkpt lat="41.906635" lon="-87.661559">
      </trkpt>
      <trkpt lat="41.896667" lon="-87.658834">
      </trkpt>
      <trkpt lat="41.887778" lon="-87.647099">
      </trkpt>
      <trkpt lat="41.851247" lon="-87.645245">
      </trkpt>
      <trkpt lat="41.847384" lon="-87.642429">
      </trkpt>
      <trkpt lat="41.845323" lon="-87.634652">
      </trkpt>
      <trkpt lat="41.84209" lon="-87.63091">
      </trkpt>
      <trkpt lat="41.779686" lon="-87.631207">
      </trkpt>
      <trkpt lat="41.772231" lon="-87.626113">
      </trkpt>
      <trkpt lat="41.72052" lon="-87.624621">
      </trkpt>
      <trkpt lat="41.71536" lon="-87.62925">
      </trkpt>
      <trkpt lat="41.712978" lon="-87.652269">
      </trkpt>
      <trkpt lat="41.700924" lon="-87.653382">
      </trkpt>
      <trkpt lat="41.695638" lon="-87.65921">
      </trkpt>
      <trkpt lat="41.684066" lon="-87.662318">
      </trkpt>
      <trkpt lat="41.677524" lon="-87.662461">
      </trkpt>
      <trkpt lat="41.676752" lon="-87.714872">
      </trkpt>
      <trkpt lat="41.680844" lon="-87.715055">
      </trkpt>
      <trkpt lat="41.680858" lon="-87.714366">
      </trkpt>
      <trkpt lat="41.680858" lon="-87.714366">
      </trkpt>
      <trkpt lat="41.680894" lon="-87.712596">
      </trkpt>
      <trkpt lat="41.676791" lon="-87.71243">
      </trkpt>
      <trkpt lat="41.677536" lon="-87.661368">
      </trkpt>
      <trkpt lat="41.67848" lon="-87.661398">
      </trkpt>
      <trkpt lat="41.688215" lon="-87.661551">
      </trkpt>
      <trkpt lat="41.695796" lon="-87.658693">
      </trkpt>
      <trkpt lat="41.700714" lon="-87.653084">
      </trkpt>
      <trkpt lat="41.712247" lon="-87.652438">
      </trkpt>
      <trkpt lat="41.714432" lon="-87.648322">
      </trkpt>
      <trkpt lat="41.714662" lon="-87.632642">
      </trkpt>
      <trkpt lat="41.715693" lon="-87.627057">
      </trkpt>
      <trkpt lat="41.719562" lon="-87.624177">
      </trkpt>
      <trkpt lat="41.769497" lon="-87.625651">
      </trkpt>
      <trkpt lat="41.779495" lon="-87.630747">
      </trkpt>
      <trkpt lat="41.838631" lon="-87.630667">
      </trkpt>
      <trkpt lat="41.844069" lon="-87.631001">
      </trkpt>
      <trkpt lat="41.846653" lon="-87.630081">
      </trkpt>
      <trkpt lat="41.847976" lon="-87.616851">
      </trkpt>
      <trkpt lat="41.84938" lon="-87.612168">
      </trkpt>
      <trkpt lat="41.8661" lon="-87.619244">
      </trkpt>
      <trkpt lat="41.892878" lon="-87.614041">
      </trkpt>
      <trkpt lat="41.900921" lon="-87.619441">
      </trkpt>
      <trkpt lat="41.902893" lon="-87.624048">
      </trkpt>
      <trkpt lat="41.934701" lon="-87.632273">
      </trkpt>
      <trkpt lat="41.952992" lon="-87.644572">
      </trkpt>
      <trkpt lat="41.954667" lon="-87.644162">
      </trkpt>
      <trkpt lat="41.954634" lon="-87.645235">
      </trkpt>
      <trkpt lat="41.953061" lon="-87.644996">
      </trkpt>
      <trkpt lat="41.952749" lon="-87.649638">
      </trkpt>
      <trkpt lat="41.95119" lon="-87.64961">
      </trkpt>
      <trkpt lat="41.950114" lon="-87.64957">
      </trkpt>
      <trkpt lat="41.950097" lon="-87.650789">
      </trkpt>
      <trkpt lat="41.950097" lon="-87.650789">
      </trkpt>
      <trkpt lat="41.950079" lon="-87.651978">
      </trkpt>
      <trkpt lat="41.947284" lon="-87.651901">
      </trkpt>
      <trkpt lat="41.947004" lon="-87.66892">
      </trkpt>
      <trkpt lat="41.890972" lon="-87.667205">
      </trkpt>
      <trkpt lat="41.890825" lon="-87.676904">
      </trkpt>
      <trkpt lat="41.886776" lon="-87.676791">
      </trkpt>
      <trkpt lat="41.88668" lon="-87.682912">
      </trkpt>
      <trkpt lat="41.886947" lon="-87.682922">
      </trkpt>
      <trkpt lat="41.886947" lon="-87.682922">
      </trkpt>
      <trkpt lat="41.88668" lon="-87.682912">
      </trkpt>
      <trkpt lat="41.886623" lon="-87.686589">
      </trkpt>
      <trkpt lat="41.881166" lon="-87.686432">
      </trkpt>
      <trkpt lat="41.881077" lon="-87.696286">
      </trkpt>
      <trkpt lat="41.877434" lon="-87.696189">
      </trkpt>
      <trkpt lat="41.877408" lon="-87.69832">
      </trkpt>
      <trkpt lat="41.877408" lon="-87.69832">
      </trkpt>
      <trkpt lat="41.877434" lon="-87.696189">
      </trkpt>
      <trkpt lat="41.874902" lon="-87.696127">
      </trkpt>
      <trkpt lat="41.874908" lon="-87.695509">
      </trkpt>
      <trkpt lat="41.875125" lon="-87.690201">
      </trkpt>
      <trkpt lat="41.875329" lon="-87.650308">
      </trkpt>
      <trkpt lat="41.875215" lon="-87.648052">
      </trkpt>
      <trkpt lat="41.874432" lon="-87.646274">
      </trkpt>
      <trkpt lat="41.87175" lon="-87.645285">
      </trkpt>
      <trkpt lat="41.857367" lon="-87.644363">
      </trkpt>
      <trkpt lat="41.852447" lon="-87.645793">
      </trkpt>
      <trkpt lat="41.849097" lon="-87.644333">
      </trkpt>
      <trkpt lat="41.847746" lon="-87.643981">
      </trkpt>
      <trkpt lat="41.846776" lon="-87.644894">
      </trkpt>
      <trkpt lat="41.844955" lon="-87.652708">
      </trkpt>
      <trkpt lat="41.837862" lon="-87.667166">
      </trkpt>
      <trkpt lat="41.837032" lon="-87.680151">
      </trkpt>
      <trkpt lat="41.832287" lon="-87.695427">
      </trkpt>
      <trkpt lat="41.831418" lon="-87.698851">
      </trkpt>
      <trkpt lat="41.830863" lon="-87.700566">
      </trkpt>
      <trkpt lat="41.829715" lon="-87.704666">
      </trkpt>
      <trkpt lat="41.806827" lon="-87.703944">
      </trkpt>
      <trkpt lat="41.806757" lon="-87.708608">
      </trkpt>
      <trkpt lat="41.806757" lon="-87.708608">
      </trkpt>
      <trkpt lat="41.806827" lon="-87.703944">
      </trkpt>
      <trkpt lat="41.731792" lon="-87.702162">
      </trkpt>
      <trkpt lat="41.731792" lon="-87.702162">
      </trkpt>
      <trkpt lat="41.731792" lon="-87.702162">
      </trkpt>
      <trkpt lat="41.731792" lon="-87.702162">
      </trkpt>
      <trkpt lat="41.750499" lon="-87.702412">
      </trkpt>
      <trkpt lat="41.759103" lon="-87.683094">
      </trkpt>
      <trkpt lat="41.808423" lon="-87.684444">
      </trkpt>
      <trkpt lat="41.808416" lon="-87.683875">
      </trkpt>
      <trkpt lat="41.81444" lon="-87.684021">
      </trkpt>
      <trkpt lat="41.816038" lon="-87.684059">
      </trkpt>
      <trkpt lat="41.819343" lon="-87.684139">
      </trkpt>
      <trkpt lat="41.822995" lon="-87.684228">
      </trkpt>
      <trkpt lat="41.82302" lon="-87.684812">
      </trkpt>
      <trkpt lat="41.822787" lon="-87.694629">
      </trkpt>
      <trkpt lat="41.824616" lon="-87.694671">
      </trkpt>
      <trkpt lat="41.82443" lon="-87.703918">
      </trkpt>
      <trkpt lat="41.82443" lon="-87.703918">
      </trkpt>
      <trkpt lat="41.824417" lon="-87.70444">
      </trkpt>
      <trkpt lat="41.884354" lon="-87.706225">
      </trkpt>
      <trkpt lat="41.885478" lon="-87.725794">
      </trkpt>
      <trkpt lat="41.887338" lon="-87.762446">
      </trkpt>
      <trkpt lat="41.887349" lon="-87.76325">
      </trkpt>
      <trkpt lat="41.88773" lon="-87.763296">
      </trkpt>
      <trkpt lat="41.887722" lon="-87.765123">
      </trkpt>
      <trkpt lat="41.907563" lon="-87.765847">
      </trkpt>
      <trkpt lat="41.907548" lon="-87.76705">
      </trkpt>
      <trkpt lat="41.908707" lon="-87.767091">
      </trkpt>
      <trkpt lat="41.908707" lon="-87.767091">
      </trkpt>
      <trkpt lat="41.909365" lon="-87.767114">
      </trkpt>
      <trkpt lat="41.909384" lon="-87.765733">
      </trkpt>
      <trkpt lat="41.908789" lon="-87.765891">
      </trkpt>
      <trkpt lat="41.898494" lon="-87.765522">
      </trkpt>
      <trkpt lat="41.898428" lon="-87.770378">
      </trkpt>
      <trkpt lat="41.89594" lon="-87.770298">
      </trkpt>
      <trkpt lat="41.89594" lon="-87.770298">
      </trkpt>
      <trkpt lat="41.894781" lon="-87.7702">
      </trkpt>
      <trkpt lat="41.894854" lon="-87.765388">
      </trkpt>
      <trkpt lat="41.870632" lon="-87.764493">
      </trkpt>
      <trkpt lat="41.87127" lon="-87.759558">
      </trkpt>
      <trkpt lat="41.871397" lon="-87.749204">
      </trkpt>
      <trkpt lat="41.871183" lon="-87.745009">
      </trkpt>
      <trkpt lat="41.858586" lon="-87.744504">
      </trkpt>
      <trkpt lat="41.858802" lon="-87.729837">
      </trkpt>
      <trkpt lat="41.854345" lon="-87.729703">
      </trkpt>
      <trkpt lat="41.854379" lon="-87.727258">
      </trkpt>
      <trkpt lat="41.853474" lon="-87.727238">
      </trkpt>
      <trkpt lat="41.853443" lon="-87.729179">
      </trkpt>
      <trkpt lat="41.853443" lon="-87.729179">
      </trkpt>
      <trkpt lat="41.853435" lon="-87.729676">
      </trkpt>
      <trkpt lat="41.854345" lon="-87.729703">
      </trkpt>
      <trkpt lat="41.85441" lon="-87.724836">
      </trkpt>
      <trkpt lat="41.873009" lon="-87.7254">
      </trkpt>
      <trkpt lat="41.873457" lon="-87.723774">
      </trkpt>
      <trkpt lat="41.873525" lon="-87.719121">
      </trkpt>
      <trkpt lat="41.875228" lon="-87.694173">
      </trkpt>
      <trkpt lat="41.875125" lon="-87.690201">
      </trkpt>
      <trkpt lat="41.874994" lon="-87.68617">
      </trkpt>
      <trkpt lat="41.894834" lon="-87.686808">
      </trkpt>
      <trkpt lat="41.894911" lon="-87.681917">
      </trkpt>
      <trkpt lat="41.894023" lon="-87.681892">
      </trkpt>
      <trkpt lat="41.893977" lon="-87.684163">
      </trkpt>
      <trkpt lat="41.893977" lon="-87.684163">
      </trkpt>
      <trkpt lat="41.893973" lon="-87.684348">
      </trkpt>
      <trkpt lat="41.89579" lon="-87.684398">
      </trkpt>
      <trkpt lat="41.896071" lon="-87.667222">
      </trkpt>
      <trkpt lat="41.899713" lon="-87.667339">
      </trkpt>
      <trkpt lat="41.899842" lon="-87.660982">
      </trkpt>
      <trkpt lat="41.899711" lon="-87.660843">
      </trkpt>
      <trkpt lat="41.896667" lon="-87.658834">
      </trkpt>
      <trkpt lat="41.895018" lon="-87.657114">
      </trkpt>
      <trkpt lat="41.89377" lon="-87.655657">
      </trkpt>
      <trkpt lat="41.89226" lon="-87.654831">
      </trkpt>
      <trkpt lat="41.891931" lon="-87.653963">
      </trkpt>
      <trkpt lat="41.892554" lon="-87.651034">
      </trkpt>
      <trkpt lat="41.89242" lon="-87.632701">
      </trkpt>
      <trkpt lat="41.890793" lon="-87.632683">
      </trkpt>
      <trkpt lat="41.89084" lon="-87.629616">
      </trkpt>
      <trkpt lat="41.89084" lon="-87.629616">
      </trkpt>
      <trkpt lat="41.891644" lon="-87.629638">
      </trkpt>
      <trkpt lat="41.890639" lon="-87.687286">
      </trkpt>
      <trkpt lat="41.895625" lon="-87.699899">
      </trkpt>
      <trkpt lat="41.895606" lon="-87.701213">
      </trkpt>
      <trkpt lat="41.895606" lon="-87.701213">
      </trkpt>
      <trkpt lat="41.895594" lon="-87.702191">
      </trkpt>
      <trkpt lat="41.891131" lon="-87.701974">
      </trkpt>
      <trkpt lat="41.889426" lon="-87.701479">
      </trkpt>
      <trkpt lat="41.874345" lon="-87.701026">
      </trkpt>
      <trkpt lat="41.874859" lon="-87.69896">
      </trkpt>
      <trkpt lat="41.874908" lon="-87.695509">
      </trkpt>
      <trkpt lat="41.875125" lon="-87.690201">
      </trkpt>
      <trkpt lat="41.87561" lon="-87.659837">
      </trkpt>
      <trkpt lat="41.875318" lon="-87.651569">
      </trkpt>
      <trkpt lat="41.875524" lon="-87.633678">
      </trkpt>
      <trkpt lat="41.860792" lon="-87.633218">
      </trkpt>
      <trkpt lat="41.860792" lon="-87.633218">
      </trkpt>
      <trkpt lat="41.860529" lon="-87.632957">
      </trkpt>
      <trkpt lat="41.860175" lon="-87.632052">
      </trkpt>
      <trkpt lat="41.859918" lon="-87.631765">
      </trkpt>
      <trkpt lat="41.85776" lon="-87.63188">
      </trkpt>
      <trkpt lat="41.857756" lon="-87.636071">
      </trkpt>
      <trkpt lat="41.857542" lon="-87.646633">
      </trkpt>
      <trkpt lat="41.858102" lon="-87.646649">
      </trkpt>
      <trkpt lat="41.858054" lon="-87.649947">
      </trkpt>
      <trkpt lat="41.857613" lon="-87.649934">
      </trkpt>
      <trkpt lat="41.857613" lon="-87.649934">
      </trkpt>
      <trkpt lat="41.858054" lon="-87.649947">
      </trkpt>
      <trkpt lat="41.858102" lon="-87.646649">
      </trkpt>
      <trkpt lat="41.857542" lon="-87.646633">
      </trkpt>
      <trkpt lat="41.857593" lon="-87.643769">
      </trkpt>
      <trkpt lat="41.857758" lon="-87.643778">
      </trkpt>
      <trkpt lat="41.867845" lon="-87.644517">
      </trkpt>
      <trkpt lat="41.873521" lon="-87.644628">
      </trkpt>
      <trkpt lat="41.874907" lon="-87.644827">
      </trkpt>
      <trkpt lat="41.875725" lon="-87.645646">
      </trkpt>
      <trkpt lat="41.875961" lon="-87.646533">
      </trkpt>
      <trkpt lat="41.875863" lon="-87.649223">
      </trkpt>
      <trkpt lat="41.87589" lon="-87.651853">
      </trkpt>
      <trkpt lat="41.884333" lon="-87.652104">
      </trkpt>
      <trkpt lat="41.884288" lon="-87.654432">
      </trkpt>
      <trkpt lat="41.888297" lon="-87.654546">
      </trkpt>
      <trkpt lat="41.888297" lon="-87.654546">
      </trkpt>
      <trkpt lat="41.889712" lon="-87.654554">
      </trkpt>
      <trkpt lat="41.890015" lon="-87.654595">
      </trkpt>
      <trkpt lat="41.88996" lon="-87.660876">
      </trkpt>
      <trkpt lat="41.889038" lon="-87.660867">
      </trkpt>
      <trkpt lat="41.889038" lon="-87.660867">
      </trkpt>
      <trkpt lat="41.888942" lon="-87.660774">
      </trkpt>
      <trkpt lat="41.887465" lon="-87.661689">
      </trkpt>
      <trkpt lat="41.887381" lon="-87.666979">
      </trkpt>
      <trkpt lat="41.888851" lon="-87.667034">
      </trkpt>
      <trkpt lat="41.888879" lon="-87.664096">
      </trkpt>
      <trkpt lat="41.888879" lon="-87.664096">
      </trkpt>
      <trkpt lat="41.888866" lon="-87.66544">
      </trkpt>
      <trkpt lat="41.889913" lon="-87.665479">
      </trkpt>
      <trkpt lat="41.889971" lon="-87.659834">
      </trkpt>
      <trkpt lat="41.891061" lon="-87.65893">
      </trkpt>
      <trkpt lat="41.891239" lon="-87.643004">
      </trkpt>
      <trkpt lat="41.891501" lon="-87.640016">
      </trkpt>
      <trkpt lat="41.891543" lon="-87.637019">
      </trkpt>
      <trkpt lat="41.892368" lon="-87.63704">
      </trkpt>
      <trkpt lat="41.892476" lon="-87.628093">
      </trkpt>
      <trkpt lat="41.891667" lon="-87.628071">
      </trkpt>
      <trkpt lat="41.891657" lon="-87.628847">
      </trkpt>
      <trkpt lat="41.891657" lon="-87.628847">
      </trkpt>
      <trkpt lat="41.891621" lon="-87.631127">
      </trkpt>
      <trkpt lat="41.889473" lon="-87.631072">
      </trkpt>
      <trkpt lat="41.889473" lon="-87.631072">
      </trkpt>
      <trkpt lat="41.889218" lon="-87.631063">
      </trkpt>
      <trkpt lat="41.889242" lon="-87.629579">
      </trkpt>
      <trkpt lat="41.896655" lon="-87.62978">
      </trkpt>
      <trkpt lat="41.896766" lon="-87.621834">
      </trkpt>
      <trkpt lat="41.899027" lon="-87.62188">
      </trkpt>
      <trkpt lat="41.899027" lon="-87.62188">
      </trkpt>
      <trkpt lat="41.900045" lon="-87.621902">
      </trkpt>
      <trkpt lat="41.899943" lon="-87.628407">
      </trkpt>
      <trkpt lat="41.899859" lon="-87.62986">
      </trkpt>
      <trkpt lat="41.90058" lon="-87.629884">
      </trkpt>
      <trkpt lat="41.900546" lon="-87.632901">
      </trkpt>
      <trkpt lat="41.899913" lon="-87.632884">
      </trkpt>
      <trkpt lat="41.899913" lon="-87.632884">
      </trkpt>
      <trkpt lat="41.899245" lon="-87.632866">
      </trkpt>
      <trkpt lat="41.899247" lon="-87.632712">
      </trkpt>
      <trkpt lat="41.912845" lon="-87.633065">
      </trkpt>
      <trkpt lat="41.913237" lon="-87.632269">
      </trkpt>
      <trkpt lat="41.91329" lon="-87.631395">
      </trkpt>
      <trkpt lat="41.913114" lon="-87.630561">
      </trkpt>
      <trkpt lat="41.912247" lon="-87.628505">
      </trkpt>
      <trkpt lat="41.912183" lon="-87.627696">
      </trkpt>
      <trkpt lat="41.912316" lon="-87.626932">
      </trkpt>
      <trkpt lat="41.912316" lon="-87.626932">
      </trkpt>
      <trkpt lat="41.912538" lon="-87.627054">
      </trkpt>
      <trkpt lat="41.912344" lon="-87.627835">
      </trkpt>
      <trkpt lat="41.912414" lon="-87.628511">
      </trkpt>
      <trkpt lat="41.913269" lon="-87.630586">
      </trkpt>
      <trkpt lat="41.913459" lon="-87.631428">
      </trkpt>
      <trkpt lat="41.913169" lon="-87.632856">
      </trkpt>
      <trkpt lat="41.918564" lon="-87.636142">
      </trkpt>
      <trkpt lat="41.927956" lon="-87.641881">
      </trkpt>
      <trkpt lat="41.927956" lon="-87.641881">
      </trkpt>
      <trkpt lat="41.92963" lon="-87.642875">
      </trkpt>
      <trkpt lat="41.93012" lon="-87.643564">
      </trkpt>
      <trkpt lat="41.931849" lon="-87.644577">
      </trkpt>
      <trkpt lat="41.931615" lon="-87.645974">
      </trkpt>
      <trkpt lat="41.931557" lon="-87.648974">
      </trkpt>
      <trkpt lat="41.932728" lon="-87.649013">
      </trkpt>
      <trkpt lat="41.932567" lon="-87.65822">
      </trkpt>
      <trkpt lat="41.932567" lon="-87.65822">
      </trkpt>
      <trkpt lat="41.932636" lon="-87.653863">
      </trkpt>
      <trkpt lat="41.937175" lon="-87.654016">
      </trkpt>
      <trkpt lat="41.937186" lon="-87.653552">
      </trkpt>
      <trkpt lat="41.937074" lon="-87.65355">
      </trkpt>
      <trkpt lat="41.937074" lon="-87.65355">
      </trkpt>
      <trkpt lat="41.937186" lon="-87.653552">
      </trkpt>
      <trkpt lat="41.937175" lon="-87.654016">
      </trkpt>
      <trkpt lat="41.931569" lon="-87.653827">
      </trkpt>
      <trkpt lat="41.931569" lon="-87.653827">
      </trkpt>
      <trkpt lat="41.932636" lon="-87.653863">
      </trkpt>
      <trkpt lat="41.932807" lon="-87.644906">
      </trkpt>
      <trkpt lat="41.931849" lon="-87.644577">
      </trkpt>
      <trkpt lat="41.93012" lon="-87.643564">
      </trkpt>
      <trkpt lat="41.92963" lon="-87.642875">
      </trkpt>
      <trkpt lat="41.927956" lon="-87.641881">
      </trkpt>
      <trkpt lat="41.927956" lon="-87.641881">
      </trkpt>
      <trkpt lat="41.92558" lon="-87.640463">
      </trkpt>
      <trkpt lat="41.924981" lon="-87.681912">
      </trkpt>
      <trkpt lat="41.926707" lon="-87.685177">
      </trkpt>
      <trkpt lat="41.937344" lon="-87.704001">
      </trkpt>
      <trkpt lat="41.939132" lon="-87.706803">
      </trkpt>
      <trkpt lat="41.939347" lon="-87.709692">
      </trkpt>
      <trkpt lat="41.939096" lon="-87.727187">
      </trkpt>
      <trkpt lat="41.938375" lon="-87.727167">
      </trkpt>
    </trkseg>
  </trk>
</gpx>