<?xml version="1.0" encoding="UTF-8"?>
<gpx xmlns="http://www.topografix.com/GPX/1/1" xmlns:xsi="http://www.w3.org/2001/XMLSchema-instance" xsi:schemaLocation="http://www.topografix.com/GPX/1/1 http://www.topografix.com/GPX/1/1/gpx.xsd" version="1.1" creator="gpx.py -- https://github.com/tkrajina/gpxpy">
  <trk>
    <trkseg>
      <trkpt lat="41.918404" lon="-87.683685">
      </trkpt>
      <trkpt lat="41.918337" lon="-87.687437">
      </trkpt>
      <trkpt lat="41.881166" lon="-87.686432">
      </trkpt>
      <trkpt lat="41.881077" lon="-87.696286">
      </trkpt>
      <trkpt lat="41.877434" lon="-87.696189">
      </trkpt>
      <trkpt lat="41.877408" lon="-87.69832">
      </trkpt>
      <trkpt lat="41.877408" lon="-87.69832">
      </trkpt>
      <trkpt lat="41.877434" lon="-87.696189">
      </trkpt>
      <trkpt lat="41.874902" lon="-87.696127">
      </trkpt>
      <trkpt lat="41.874908" lon="-87.695509">
      </trkpt>
      <trkpt lat="41.875125" lon="-87.690201">
      </trkpt>
      <trkpt lat="41.875329" lon="-87.650308">
      </trkpt>
      <trkpt lat="41.874563" lon="-87.645452">
      </trkpt>
      <trkpt lat="41.876036" lon="-87.64458">
      </trkpt>
      <trkpt lat="41.886419" lon="-87.646101">
      </trkpt>
      <trkpt lat="41.891702" lon="-87.651689">
      </trkpt>
      <trkpt lat="41.896836" lon="-87.65868">
      </trkpt>
      <trkpt lat="41.906646" lon="-87.66137">
      </trkpt>
      <trkpt lat="41.917654" lon="-87.670146">
      </trkpt>
      <trkpt lat="41.940372" lon="-87.709927">
      </trkpt>
      <trkpt lat="41.94215" lon="-87.715306">
      </trkpt>
      <trkpt lat="41.947613" lon="-87.719592">
      </trkpt>
      <trkpt lat="41.95982" lon="-87.741635">
      </trkpt>
      <trkpt lat="41.963594" lon="-87.746287">
      </trkpt>
      <trkpt lat="41.980044" lon="-87.746614">
      </trkpt>
      <trkpt lat="41.987222" lon="-87.751348">
      </trkpt>
      <trkpt lat="41.989907" lon="-87.75017">
      </trkpt>
      <trkpt lat="41.990388" lon="-87.70943">
      </trkpt>
      <trkpt lat="41.990388" lon="-87.70943">
      </trkpt>
      <trkpt lat="41.990525" lon="-87.751817">
      </trkpt>
      <trkpt lat="41.991757" lon="-87.751942">
      </trkpt>
      <trkpt lat="41.986057" lon="-87.751225">
      </trkpt>
      <trkpt lat="41.980228" lon="-87.746835">
      </trkpt>
      <trkpt lat="41.966563" lon="-87.747223">
      </trkpt>
      <trkpt lat="41.962358" lon="-87.745232">
      </trkpt>
      <trkpt lat="41.947613" lon="-87.719592">
      </trkpt>
      <trkpt lat="41.94215" lon="-87.715306">
      </trkpt>
      <trkpt lat="41.940372" lon="-87.709927">
      </trkpt>
      <trkpt lat="41.917654" lon="-87.670146">
      </trkpt>
      <trkpt lat="41.906646" lon="-87.66137">
      </trkpt>
      <trkpt lat="41.897685" lon="-87.659246">
      </trkpt>
      <trkpt lat="41.888343" lon="-87.647531">
      </trkpt>
      <trkpt lat="41.881827" lon="-87.645999">
      </trkpt>
      <trkpt lat="41.880956" lon="-87.646134">
      </trkpt>
      <trkpt lat="41.879569" lon="-87.646145">
      </trkpt>
      <trkpt lat="41.878121" lon="-87.646166">
      </trkpt>
      <trkpt lat="41.876334" lon="-87.646815">
      </trkpt>
      <trkpt lat="41.875728" lon="-87.649135">
      </trkpt>
      <trkpt lat="41.875658" lon="-87.697235">
      </trkpt>
      <trkpt lat="41.874195" lon="-87.716326">
      </trkpt>
      <trkpt lat="41.874358" lon="-87.725442">
      </trkpt>
      <trkpt lat="41.853512" lon="-87.724813">
      </trkpt>
      <trkpt lat="41.853435" lon="-87.729676">
      </trkpt>
      <trkpt lat="41.852783" lon="-87.729656">
      </trkpt>
      <trkpt lat="41.852783" lon="-87.729656">
      </trkpt>
      <trkpt lat="41.854345" lon="-87.729703">
      </trkpt>
      <trkpt lat="41.85441" lon="-87.724836">
      </trkpt>
      <trkpt lat="41.866176" lon="-87.725178">
      </trkpt>
      <trkpt lat="41.866245" lon="-87.719558">
      </trkpt>
      <trkpt lat="41.868978" lon="-87.719649">
      </trkpt>
      <trkpt lat="41.868964" lon="-87.72019">
      </trkpt>
      <trkpt lat="41.868144" lon="-87.720162">
      </trkpt>
      <trkpt lat="41.868144" lon="-87.720162">
      </trkpt>
      <trkpt lat="41.866237" lon="-87.720097">
      </trkpt>
      <trkpt lat="41.866176" lon="-87.725178">
      </trkpt>
      <trkpt lat="41.757923" lon="-87.722268">
      </trkpt>
      <trkpt lat="41.758995" lon="-87.722094">
      </trkpt>
      <trkpt lat="41.758995" lon="-87.722094">
      </trkpt>
      <trkpt lat="41.802337" lon="-87.72342">
      </trkpt>
      <trkpt lat="41.81413" lon="-87.704218">
      </trkpt>
      <trkpt lat="41.820232" lon="-87.704434">
      </trkpt>
      <trkpt lat="41.820232" lon="-87.704434">
      </trkpt>
      <trkpt lat="41.884354" lon="-87.706225">
      </trkpt>
      <trkpt lat="41.885478" lon="-87.725794">
      </trkpt>
      <trkpt lat="41.886622" lon="-87.745503">
      </trkpt>
      <trkpt lat="41.885738" lon="-87.745471">
      </trkpt>
      <trkpt lat="41.885723" lon="-87.746689">
      </trkpt>
      <trkpt lat="41.884566" lon="-87.746644">
      </trkpt>
      <trkpt lat="41.884566" lon="-87.746644">
      </trkpt>
      <trkpt lat="41.884436" lon="-87.746639">
      </trkpt>
      <trkpt lat="41.884451" lon="-87.745425">
      </trkpt>
      <trkpt lat="41.886622" lon="-87.745503">
      </trkpt>
      <trkpt lat="41.886592" lon="-87.74525">
      </trkpt>
      <trkpt lat="41.885292" lon="-87.722476">
      </trkpt>
      <trkpt lat="41.886802" lon="-87.722522">
      </trkpt>
      <trkpt lat="41.886809" lon="-87.721861">
      </trkpt>
      <trkpt lat="41.886809" lon="-87.721861">
      </trkpt>
      <trkpt lat="41.886802" lon="-87.722522">
      </trkpt>
      <trkpt lat="41.885292" lon="-87.722476">
      </trkpt>
      <trkpt lat="41.885478" lon="-87.725794">
      </trkpt>
      <trkpt lat="41.887387" lon="-87.757813">
      </trkpt>
      <trkpt lat="41.887338" lon="-87.762446">
      </trkpt>
      <trkpt lat="41.887349" lon="-87.76325">
      </trkpt>
      <trkpt lat="41.88773" lon="-87.763296">
      </trkpt>
      <trkpt lat="41.887722" lon="-87.765123">
      </trkpt>
      <trkpt lat="41.894854" lon="-87.765388">
      </trkpt>
      <trkpt lat="41.89475" lon="-87.772298">
      </trkpt>
      <trkpt lat="41.896574" lon="-87.772354">
      </trkpt>
      <trkpt lat="41.896604" lon="-87.770319">
      </trkpt>
      <trkpt lat="41.89594" lon="-87.770298">
      </trkpt>
      <trkpt lat="41.89594" lon="-87.770298">
      </trkpt>
      <trkpt lat="41.894781" lon="-87.7702">
      </trkpt>
      <trkpt lat="41.894854" lon="-87.765388">
      </trkpt>
      <trkpt lat="41.902145" lon="-87.765658">
      </trkpt>
      <trkpt lat="41.902833" lon="-87.706787">
      </trkpt>
      <trkpt lat="41.924722" lon="-87.707229">
      </trkpt>
      <trkpt lat="41.924878" lon="-87.690086">
      </trkpt>
      <trkpt lat="41.925214" lon="-87.690094">
      </trkpt>
      <trkpt lat="41.925214" lon="-87.690094">
      </trkpt>
      <trkpt lat="41.926696" lon="-87.690149">
      </trkpt>
      <trkpt lat="41.926718" lon="-87.687704">
      </trkpt>
      <trkpt lat="41.926885" lon="-87.687672">
      </trkpt>
      <trkpt lat="41.927019" lon="-87.687339">
      </trkpt>
      <trkpt lat="41.926403" lon="-87.686023">
      </trkpt>
      <trkpt lat="41.924962" lon="-87.683686">
      </trkpt>
      <trkpt lat="41.924765" lon="-87.683325">
      </trkpt>
      <trkpt lat="41.923176" lon="-87.67993">
      </trkpt>
      <trkpt lat="41.918378" lon="-87.671496">
      </trkpt>
      <trkpt lat="41.915851" lon="-87.668499">
      </trkpt>
      <trkpt lat="41.909975" lon="-87.664752">
      </trkpt>
      <trkpt lat="41.906635" lon="-87.661559">
      </trkpt>
      <trkpt lat="41.905221" lon="-87.66114">
      </trkpt>
      <trkpt lat="41.902553" lon="-87.661288">
      </trkpt>
      <trkpt lat="41.900902" lon="-87.660921">
      </trkpt>
      <trkpt lat="41.896968" lon="-87.659049">
      </trkpt>
      <trkpt lat="41.895018" lon="-87.657114">
      </trkpt>
      <trkpt lat="41.89377" lon="-87.655657">
      </trkpt>
      <trkpt lat="41.89226" lon="-87.654831">
      </trkpt>
      <trkpt lat="41.891931" lon="-87.653963">
      </trkpt>
      <trkpt lat="41.892554" lon="-87.651034">
      </trkpt>
      <trkpt lat="41.892368" lon="-87.63704">
      </trkpt>
      <trkpt lat="41.896556" lon="-87.637178">
      </trkpt>
      <trkpt lat="41.896586" lon="-87.63421">
      </trkpt>
      <trkpt lat="41.898867" lon="-87.634293">
      </trkpt>
      <trkpt lat="41.898867" lon="-87.634293">
      </trkpt>
      <trkpt lat="41.898867" lon="-87.634293">
      </trkpt>
      <trkpt lat="41.898867" lon="-87.634293">
      </trkpt>
      <trkpt lat="41.896586" lon="-87.63421">
      </trkpt>
      <trkpt lat="41.896844" lon="-87.616893">
      </trkpt>
      <trkpt lat="41.892868" lon="-87.614264">
      </trkpt>
      <trkpt lat="41.885247" lon="-87.614081">
      </trkpt>
      <trkpt lat="41.884041" lon="-87.614645">
      </trkpt>
      <trkpt lat="41.882873" lon="-87.616685">
      </trkpt>
      <trkpt lat="41.882167" lon="-87.617321">
      </trkpt>
      <trkpt lat="41.878363" lon="-87.617442">
      </trkpt>
      <trkpt lat="41.878331" lon="-87.620697">
      </trkpt>
      <trkpt lat="41.875872" lon="-87.62062">
      </trkpt>
      <trkpt lat="41.875872" lon="-87.62062">
      </trkpt>
      <trkpt lat="41.875872" lon="-87.62062">
      </trkpt>
      <trkpt lat="41.875872" lon="-87.62062">
      </trkpt>
      <trkpt lat="41.873218" lon="-87.620589">
      </trkpt>
      <trkpt lat="41.873248" lon="-87.617318">
      </trkpt>
      <trkpt lat="41.869641" lon="-87.617289">
      </trkpt>
      <trkpt lat="41.865851" lon="-87.619563">
      </trkpt>
      <trkpt lat="41.853242" lon="-87.614728">
      </trkpt>
      <trkpt lat="41.849799" lon="-87.613506">
      </trkpt>
      <trkpt lat="41.848332" lon="-87.614886">
      </trkpt>
      <trkpt lat="41.847245" lon="-87.642108">
      </trkpt>
      <trkpt lat="41.845371" lon="-87.651464">
      </trkpt>
      <trkpt lat="41.837772" lon="-87.66744">
      </trkpt>
      <trkpt lat="41.836863" lon="-87.680834">
      </trkpt>
      <trkpt lat="41.818901" lon="-87.737915">
      </trkpt>
      <trkpt lat="41.817821" lon="-87.743523">
      </trkpt>
      <trkpt lat="41.793085" lon="-87.742068">
      </trkpt>
      <trkpt lat="41.793067" lon="-87.740354">
      </trkpt>
      <trkpt lat="41.794666" lon="-87.740478">
      </trkpt>
      <trkpt lat="41.794666" lon="-87.740478">
      </trkpt>
      <trkpt lat="41.793067" lon="-87.740354">
      </trkpt>
      <trkpt lat="41.793086" lon="-87.741856">
      </trkpt>
      <trkpt lat="41.817866" lon="-87.743337">
      </trkpt>
      <trkpt lat="41.796778" lon="-87.808237">
      </trkpt>
      <trkpt lat="41.796664" lon="-87.81334">
      </trkpt>
      <trkpt lat="41.796227" lon="-87.817561">
      </trkpt>
      <trkpt lat="41.795855" lon="-87.826783">
      </trkpt>
      <trkpt lat="41.797709" lon="-87.83142">
      </trkpt>
      <trkpt lat="41.800355" lon="-87.833218">
      </trkpt>
      <trkpt lat="41.817332" lon="-87.833777">
      </trkpt>
      <trkpt lat="41.825306" lon="-87.828739">
      </trkpt>
      <trkpt lat="41.835367" lon="-87.829256">
      </trkpt>
      <trkpt lat="41.839536" lon="-87.833513">
      </trkpt>
      <trkpt lat="41.849793" lon="-87.832726">
      </trkpt>
      <trkpt lat="41.93756" lon="-87.83606">
      </trkpt>
      <trkpt lat="41.937915" lon="-87.817738">
      </trkpt>
      <trkpt lat="41.941332" lon="-87.817861">
      </trkpt>
      <trkpt lat="41.941356" lon="-87.816652">
      </trkpt>
      <trkpt lat="41.941072" lon="-87.816641">
      </trkpt>
    </trkseg>
  </trk>
</gpx>