<?xml version="1.0" encoding="UTF-8"?>
<gpx xmlns="http://www.topografix.com/GPX/1/1" xmlns:xsi="http://www.w3.org/2001/XMLSchema-instance" xsi:schemaLocation="http://www.topografix.com/GPX/1/1 http://www.topografix.com/GPX/1/1/gpx.xsd" version="1.1" creator="gpx.py -- https://github.com/tkrajina/gpxpy">
  <trk>
    <trkseg>
      <trkpt lat="41.909631" lon="-87.658997">
      </trkpt>
      <trkpt lat="41.910768" lon="-87.658619">
      </trkpt>
      <trkpt lat="41.911172" lon="-87.633071">
      </trkpt>
      <trkpt lat="41.912903" lon="-87.633044">
      </trkpt>
      <trkpt lat="41.913237" lon="-87.632269">
      </trkpt>
      <trkpt lat="41.912247" lon="-87.628505">
      </trkpt>
      <trkpt lat="41.912475" lon="-87.626923">
      </trkpt>
      <trkpt lat="41.913347" lon="-87.626017">
      </trkpt>
      <trkpt lat="41.918036" lon="-87.628743">
      </trkpt>
      <trkpt lat="41.927967" lon="-87.631735">
      </trkpt>
      <trkpt lat="41.934989" lon="-87.632402">
      </trkpt>
      <trkpt lat="41.941219" lon="-87.638833">
      </trkpt>
      <trkpt lat="41.951086" lon="-87.644437">
      </trkpt>
      <trkpt lat="41.954749" lon="-87.644596">
      </trkpt>
      <trkpt lat="41.973046" lon="-87.648738">
      </trkpt>
      <trkpt lat="41.981039" lon="-87.652251">
      </trkpt>
      <trkpt lat="41.984951" lon="-87.652803">
      </trkpt>
      <trkpt lat="41.985586" lon="-87.654178">
      </trkpt>
      <trkpt lat="41.985105" lon="-87.662456">
      </trkpt>
      <trkpt lat="41.986679" lon="-87.665051">
      </trkpt>
      <trkpt lat="41.991183" lon="-87.66518">
      </trkpt>
      <trkpt lat="41.991183" lon="-87.66518">
      </trkpt>
      <trkpt lat="41.99177" lon="-87.665197">
      </trkpt>
      <trkpt lat="41.991831" lon="-87.660336">
      </trkpt>
      <trkpt lat="42.005442" lon="-87.660904">
      </trkpt>
      <trkpt lat="42.011614" lon="-87.662865">
      </trkpt>
      <trkpt lat="42.015024" lon="-87.664678">
      </trkpt>
      <trkpt lat="42.014978" lon="-87.667467">
      </trkpt>
      <trkpt lat="42.014978" lon="-87.667467">
      </trkpt>
      <trkpt lat="42.014929" lon="-87.670267">
      </trkpt>
      <trkpt lat="42.012718" lon="-87.670195">
      </trkpt>
      <trkpt lat="42.012511" lon="-87.682294">
      </trkpt>
      <trkpt lat="42.012621" lon="-87.682444">
      </trkpt>
      <trkpt lat="42.012217" lon="-87.6836">
      </trkpt>
      <trkpt lat="42.011822" lon="-87.711668">
      </trkpt>
      <trkpt lat="42.011856" lon="-87.75189">
      </trkpt>
      <trkpt lat="42.0122" lon="-87.752727">
      </trkpt>
      <trkpt lat="42.012826" lon="-87.752369">
      </trkpt>
      <trkpt lat="42.012508" lon="-87.751469">
      </trkpt>
      <trkpt lat="42.010726" lon="-87.750037">
      </trkpt>
      <trkpt lat="42.007194" lon="-87.748838">
      </trkpt>
      <trkpt lat="42.001046" lon="-87.748976">
      </trkpt>
      <trkpt lat="41.995176" lon="-87.750842">
      </trkpt>
      <trkpt lat="41.987847" lon="-87.751541">
      </trkpt>
      <trkpt lat="41.985727" lon="-87.75107">
      </trkpt>
      <trkpt lat="41.983428" lon="-87.749218">
      </trkpt>
      <trkpt lat="41.980346" lon="-87.748154">
      </trkpt>
      <trkpt lat="41.975339" lon="-87.747984">
      </trkpt>
      <trkpt lat="41.975314" lon="-87.74954">
      </trkpt>
      <trkpt lat="41.975314" lon="-87.74954">
      </trkpt>
      <trkpt lat="41.975317" lon="-87.749263">
      </trkpt>
      <trkpt lat="41.973672" lon="-87.749213">
      </trkpt>
      <trkpt lat="41.972794" lon="-87.747761">
      </trkpt>
      <trkpt lat="41.963263" lon="-87.746713">
      </trkpt>
      <trkpt lat="41.961682" lon="-87.74508">
      </trkpt>
      <trkpt lat="41.957103" lon="-87.73715">
      </trkpt>
      <trkpt lat="41.953617" lon="-87.731304">
      </trkpt>
      <trkpt lat="41.954634" lon="-87.645235">
      </trkpt>
      <trkpt lat="41.951093" lon="-87.644867">
      </trkpt>
      <trkpt lat="41.947363" lon="-87.642703">
      </trkpt>
    </trkseg>
  </trk>
</gpx>