<?xml version="1.0" encoding="UTF-8"?>
<gpx xmlns="http://www.topografix.com/GPX/1/1" xmlns:xsi="http://www.w3.org/2001/XMLSchema-instance" xsi:schemaLocation="http://www.topografix.com/GPX/1/1 http://www.topografix.com/GPX/1/1/gpx.xsd" version="1.1" creator="gpx.py -- https://github.com/tkrajina/gpxpy">
  <trk>
    <trkseg>
      <trkpt lat="41.968431" lon="-87.758399">
      </trkpt>
      <trkpt lat="41.967875" lon="-87.757622">
      </trkpt>
      <trkpt lat="41.968033" lon="-87.747723">
      </trkpt>
      <trkpt lat="41.972896" lon="-87.747918">
      </trkpt>
      <trkpt lat="41.972794" lon="-87.747761">
      </trkpt>
      <trkpt lat="41.966563" lon="-87.747223">
      </trkpt>
      <trkpt lat="41.963113" lon="-87.745961">
      </trkpt>
      <trkpt lat="41.960129" lon="-87.742125">
      </trkpt>
      <trkpt lat="41.947613" lon="-87.719592">
      </trkpt>
      <trkpt lat="41.94215" lon="-87.715306">
      </trkpt>
      <trkpt lat="41.940524" lon="-87.710219">
      </trkpt>
      <trkpt lat="41.933659" lon="-87.698173">
      </trkpt>
      <trkpt lat="41.927358" lon="-87.687291">
      </trkpt>
      <trkpt lat="41.925223" lon="-87.684125">
      </trkpt>
      <trkpt lat="41.924902" lon="-87.687645">
      </trkpt>
      <trkpt lat="41.917587" lon="-87.687413">
      </trkpt>
      <trkpt lat="41.917413" lon="-87.705789">
      </trkpt>
      <trkpt lat="41.917413" lon="-87.705789">
      </trkpt>
      <trkpt lat="41.917431" lon="-87.703944">
      </trkpt>
      <trkpt lat="41.915416" lon="-87.703892">
      </trkpt>
      <trkpt lat="41.915416" lon="-87.703892">
      </trkpt>
      <trkpt lat="41.913751" lon="-87.703857">
      </trkpt>
      <trkpt lat="41.913772" lon="-87.70233">
      </trkpt>
      <trkpt lat="41.912" lon="-87.702283">
      </trkpt>
      <trkpt lat="41.912147" lon="-87.701932">
      </trkpt>
      <trkpt lat="41.909559" lon="-87.701837">
      </trkpt>
      <trkpt lat="41.908237" lon="-87.701353">
      </trkpt>
      <trkpt lat="41.907279" lon="-87.701248">
      </trkpt>
      <trkpt lat="41.902886" lon="-87.702278">
      </trkpt>
      <trkpt lat="41.902888" lon="-87.701605">
      </trkpt>
      <trkpt lat="41.902888" lon="-87.701605">
      </trkpt>
      <trkpt lat="41.902886" lon="-87.702278">
      </trkpt>
      <trkpt lat="41.899238" lon="-87.702461">
      </trkpt>
      <trkpt lat="41.896575" lon="-87.702222">
      </trkpt>
      <trkpt lat="41.890657" lon="-87.687437">
      </trkpt>
      <trkpt lat="41.891061" lon="-87.65893">
      </trkpt>
      <trkpt lat="41.891345" lon="-87.658694">
      </trkpt>
      <trkpt lat="41.891345" lon="-87.658694">
      </trkpt>
      <trkpt lat="41.891822" lon="-87.658299">
      </trkpt>
      <trkpt lat="41.891837" lon="-87.657392">
      </trkpt>
      <trkpt lat="41.891076" lon="-87.657374">
      </trkpt>
      <trkpt lat="41.891059" lon="-87.659133">
      </trkpt>
      <trkpt lat="41.888289" lon="-87.661195">
      </trkpt>
      <trkpt lat="41.883985" lon="-87.663487">
      </trkpt>
      <trkpt lat="41.880792" lon="-87.666846">
      </trkpt>
      <trkpt lat="41.876354" lon="-87.666742">
      </trkpt>
      <trkpt lat="41.876309" lon="-87.669892">
      </trkpt>
      <trkpt lat="41.875914" lon="-87.672211">
      </trkpt>
      <trkpt lat="41.875633" lon="-87.697949">
      </trkpt>
      <trkpt lat="41.874348" lon="-87.708052">
      </trkpt>
      <trkpt lat="41.874195" lon="-87.716326">
      </trkpt>
      <trkpt lat="41.874448" lon="-87.720405">
      </trkpt>
      <trkpt lat="41.868047" lon="-87.720159">
      </trkpt>
      <trkpt lat="41.868023" lon="-87.722791">
      </trkpt>
      <trkpt lat="41.867116" lon="-87.722764">
      </trkpt>
      <trkpt lat="41.867118" lon="-87.722576">
      </trkpt>
      <trkpt lat="41.867118" lon="-87.722576">
      </trkpt>
      <trkpt lat="41.867146" lon="-87.720128">
      </trkpt>
      <trkpt lat="41.866237" lon="-87.720097">
      </trkpt>
      <trkpt lat="41.866176" lon="-87.725178">
      </trkpt>
      <trkpt lat="41.91717" lon="-87.726563">
      </trkpt>
      <trkpt lat="41.917096" lon="-87.732665">
      </trkpt>
      <trkpt lat="41.922586" lon="-87.732832">
      </trkpt>
      <trkpt lat="41.922606" lon="-87.731192">
      </trkpt>
    </trkseg>
  </trk>
</gpx>