<?xml version="1.0" encoding="UTF-8"?>
<gpx xmlns="http://www.topografix.com/GPX/1/1" xmlns:xsi="http://www.w3.org/2001/XMLSchema-instance" xsi:schemaLocation="http://www.topografix.com/GPX/1/1 http://www.topografix.com/GPX/1/1/gpx.xsd" version="1.1" creator="gpx.py -- https://github.com/tkrajina/gpxpy">
  <trk>
    <trkseg>
      <trkpt lat="41.931569" lon="-87.653827">
      </trkpt>
      <trkpt lat="41.929016" lon="-87.653741">
      </trkpt>
      <trkpt lat="41.925453" lon="-87.648766">
      </trkpt>
      <trkpt lat="41.926001" lon="-87.631853">
      </trkpt>
      <trkpt lat="41.912297" lon="-87.626142">
      </trkpt>
      <trkpt lat="41.902733" lon="-87.62421">
      </trkpt>
      <trkpt lat="41.901491" lon="-87.62264">
      </trkpt>
      <trkpt lat="41.900898" lon="-87.619617">
      </trkpt>
      <trkpt lat="41.892716" lon="-87.614229">
      </trkpt>
      <trkpt lat="41.884928" lon="-87.614127">
      </trkpt>
      <trkpt lat="41.881821" lon="-87.617453">
      </trkpt>
      <trkpt lat="41.869895" lon="-87.617247">
      </trkpt>
      <trkpt lat="41.86764" lon="-87.618862">
      </trkpt>
      <trkpt lat="41.867601" lon="-87.620423">
      </trkpt>
      <trkpt lat="41.865835" lon="-87.619968">
      </trkpt>
      <trkpt lat="41.864987" lon="-87.619558">
      </trkpt>
      <trkpt lat="41.865039" lon="-87.613948">
      </trkpt>
      <trkpt lat="41.866115" lon="-87.613754">
      </trkpt>
      <trkpt lat="41.866381" lon="-87.607427">
      </trkpt>
      <trkpt lat="41.866381" lon="-87.607427">
      </trkpt>
      <trkpt lat="41.866513" lon="-87.60743">
      </trkpt>
      <trkpt lat="41.866493" lon="-87.608624">
      </trkpt>
      <trkpt lat="41.866493" lon="-87.608624">
      </trkpt>
      <trkpt lat="41.866369" lon="-87.614013">
      </trkpt>
      <trkpt lat="41.86504" lon="-87.614089">
      </trkpt>
      <trkpt lat="41.864977" lon="-87.619403">
      </trkpt>
      <trkpt lat="41.838015" lon="-87.608419">
      </trkpt>
      <trkpt lat="41.832923" lon="-87.607384">
      </trkpt>
      <trkpt lat="41.82949" lon="-87.6048">
      </trkpt>
      <trkpt lat="41.825932" lon="-87.600839">
      </trkpt>
      <trkpt lat="41.821238" lon="-87.598516">
      </trkpt>
      <trkpt lat="41.815295" lon="-87.593977">
      </trkpt>
      <trkpt lat="41.806989" lon="-87.585968">
      </trkpt>
      <trkpt lat="41.803885" lon="-87.58209">
      </trkpt>
      <trkpt lat="41.799068" lon="-87.581347">
      </trkpt>
      <trkpt lat="41.796009" lon="-87.57922">
      </trkpt>
      <trkpt lat="41.794428" lon="-87.579597">
      </trkpt>
      <trkpt lat="41.792571" lon="-87.580573">
      </trkpt>
      <trkpt lat="41.792193" lon="-87.585251">
      </trkpt>
      <trkpt lat="41.788615" lon="-87.584985">
      </trkpt>
      <trkpt lat="41.787765" lon="-87.58578">
      </trkpt>
      <trkpt lat="41.787226" lon="-87.596362">
      </trkpt>
      <trkpt lat="41.787801" lon="-87.596376">
      </trkpt>
      <trkpt lat="41.78778" lon="-87.597993">
      </trkpt>
      <trkpt lat="41.789604" lon="-87.598034">
      </trkpt>
      <trkpt lat="41.789604" lon="-87.598034">
      </trkpt>
      <trkpt lat="41.795024" lon="-87.598131">
      </trkpt>
      <trkpt lat="41.795076" lon="-87.592718">
      </trkpt>
      <trkpt lat="41.79479" lon="-87.591983">
      </trkpt>
      <trkpt lat="41.794763" lon="-87.591623">
      </trkpt>
      <trkpt lat="41.794791" lon="-87.589648">
      </trkpt>
      <trkpt lat="41.795136" lon="-87.588925">
      </trkpt>
      <trkpt lat="41.795165" lon="-87.587482">
      </trkpt>
      <trkpt lat="41.797392" lon="-87.587196">
      </trkpt>
      <trkpt lat="41.799604" lon="-87.587227">
      </trkpt>
      <trkpt lat="41.799568" lon="-87.587777">
      </trkpt>
      <trkpt lat="41.799568" lon="-87.587777">
      </trkpt>
      <trkpt lat="41.799574" lon="-87.587364">
      </trkpt>
      <trkpt lat="41.793354" lon="-87.587936">
      </trkpt>
      <trkpt lat="41.793382" lon="-87.586641">
      </trkpt>
      <trkpt lat="41.780596" lon="-87.586523">
      </trkpt>
      <trkpt lat="41.780425" lon="-87.604644">
      </trkpt>
      <trkpt lat="41.776542" lon="-87.604614">
      </trkpt>
      <trkpt lat="41.776542" lon="-87.604614">
      </trkpt>
      <trkpt lat="41.774977" lon="-87.604581">
      </trkpt>
      <trkpt lat="41.774964" lon="-87.605806">
      </trkpt>
      <trkpt lat="41.785869" lon="-87.606048">
      </trkpt>
      <trkpt lat="41.785929" lon="-87.600093">
      </trkpt>
      <trkpt lat="41.785929" lon="-87.600093">
      </trkpt>
      <trkpt lat="41.786007" lon="-87.596334">
      </trkpt>
      <trkpt lat="41.786507" lon="-87.596345">
      </trkpt>
      <trkpt lat="41.786565" lon="-87.590964">
      </trkpt>
      <trkpt lat="41.786272" lon="-87.589512">
      </trkpt>
      <trkpt lat="41.786383" lon="-87.586567">
      </trkpt>
      <trkpt lat="41.791444" lon="-87.586717">
      </trkpt>
      <trkpt lat="41.793382" lon="-87.586641">
      </trkpt>
      <trkpt lat="41.793354" lon="-87.587936">
      </trkpt>
      <trkpt lat="41.795789" lon="-87.587367">
      </trkpt>
      <trkpt lat="41.795779" lon="-87.588172">
      </trkpt>
      <trkpt lat="41.795967" lon="-87.588226">
      </trkpt>
      <trkpt lat="41.795967" lon="-87.588226">
      </trkpt>
      <trkpt lat="41.795786" lon="-87.588201">
      </trkpt>
      <trkpt lat="41.795788" lon="-87.587498">
      </trkpt>
      <trkpt lat="41.793354" lon="-87.587936">
      </trkpt>
      <trkpt lat="41.793382" lon="-87.586641">
      </trkpt>
      <trkpt lat="41.780596" lon="-87.586523">
      </trkpt>
      <trkpt lat="41.780425" lon="-87.604644">
      </trkpt>
      <trkpt lat="41.776542" lon="-87.604614">
      </trkpt>
      <trkpt lat="41.776542" lon="-87.604614">
      </trkpt>
      <trkpt lat="41.774977" lon="-87.604581">
      </trkpt>
      <trkpt lat="41.774792" lon="-87.615497">
      </trkpt>
      <trkpt lat="41.772974" lon="-87.615455">
      </trkpt>
      <trkpt lat="41.772796" lon="-87.626772">
      </trkpt>
      <trkpt lat="41.772361" lon="-87.626748">
      </trkpt>
      <trkpt lat="41.768925" lon="-87.626239">
      </trkpt>
      <trkpt lat="41.72052" lon="-87.624621">
      </trkpt>
      <trkpt lat="41.716318" lon="-87.624396">
      </trkpt>
      <trkpt lat="41.713653" lon="-87.621065">
      </trkpt>
      <trkpt lat="41.713191" lon="-87.600337">
      </trkpt>
      <trkpt lat="41.711572" lon="-87.595871">
      </trkpt>
      <trkpt lat="41.70835" lon="-87.592768">
      </trkpt>
      <trkpt lat="41.703483" lon="-87.592406">
      </trkpt>
      <trkpt lat="41.685512" lon="-87.601798">
      </trkpt>
      <trkpt lat="41.676102" lon="-87.601627">
      </trkpt>
      <trkpt lat="41.649751" lon="-87.58023">
      </trkpt>
      <trkpt lat="41.636949" lon="-87.578542">
      </trkpt>
      <trkpt lat="41.635118" lon="-87.579716">
      </trkpt>
      <trkpt lat="41.635191" lon="-87.582089">
      </trkpt>
      <trkpt lat="41.63404" lon="-87.57669">
      </trkpt>
      <trkpt lat="41.626345" lon="-87.578382">
      </trkpt>
      <trkpt lat="41.62636" lon="-87.574794">
      </trkpt>
      <trkpt lat="41.624714" lon="-87.574783">
      </trkpt>
      <trkpt lat="41.624714" lon="-87.574783">
      </trkpt>
      <trkpt lat="41.624542" lon="-87.574782">
      </trkpt>
      <trkpt lat="41.624578" lon="-87.566369">
      </trkpt>
      <trkpt lat="41.626394" lon="-87.566401">
      </trkpt>
      <trkpt lat="41.626399" lon="-87.565192">
      </trkpt>
      <trkpt lat="41.625834" lon="-87.565183">
      </trkpt>
      <trkpt lat="41.625834" lon="-87.565183">
      </trkpt>
      <trkpt lat="41.622767" lon="-87.565155">
      </trkpt>
      <trkpt lat="41.62273" lon="-87.576116">
      </trkpt>
      <trkpt lat="41.62479" lon="-87.578766">
      </trkpt>
      <trkpt lat="41.648741" lon="-87.579456">
      </trkpt>
      <trkpt lat="41.675885" lon="-87.601403">
      </trkpt>
      <trkpt lat="41.685726" lon="-87.601563">
      </trkpt>
      <trkpt lat="41.69908" lon="-87.594329">
      </trkpt>
      <trkpt lat="41.70544" lon="-87.591514">
      </trkpt>
      <trkpt lat="41.711262" lon="-87.594846">
      </trkpt>
      <trkpt lat="41.71346" lon="-87.600437">
      </trkpt>
      <trkpt lat="41.713481" lon="-87.613061">
      </trkpt>
      <trkpt lat="41.713433" lon="-87.619081">
      </trkpt>
      <trkpt lat="41.716007" lon="-87.625874">
      </trkpt>
      <trkpt lat="41.713856" lon="-87.651124">
      </trkpt>
      <trkpt lat="41.710952" lon="-87.653357">
      </trkpt>
      <trkpt lat="41.700924" lon="-87.653382">
      </trkpt>
      <trkpt lat="41.695638" lon="-87.65921">
      </trkpt>
      <trkpt lat="41.684066" lon="-87.662318">
      </trkpt>
      <trkpt lat="41.677524" lon="-87.662461">
      </trkpt>
      <trkpt lat="41.677536" lon="-87.661368">
      </trkpt>
      <trkpt lat="41.681178" lon="-87.661483">
      </trkpt>
      <trkpt lat="41.681211" lon="-87.659069">
      </trkpt>
      <trkpt lat="41.682173" lon="-87.659097">
      </trkpt>
      <trkpt lat="41.682173" lon="-87.659097">
      </trkpt>
      <trkpt lat="41.683036" lon="-87.659123">
      </trkpt>
      <trkpt lat="41.683004" lon="-87.661541">
      </trkpt>
      <trkpt lat="41.692153" lon="-87.659731">
      </trkpt>
      <trkpt lat="41.700714" lon="-87.653084">
      </trkpt>
      <trkpt lat="41.713141" lon="-87.651609">
      </trkpt>
      <trkpt lat="41.714662" lon="-87.632642">
      </trkpt>
      <trkpt lat="41.715693" lon="-87.627057">
      </trkpt>
      <trkpt lat="41.719562" lon="-87.624177">
      </trkpt>
      <trkpt lat="41.769497" lon="-87.625651">
      </trkpt>
      <trkpt lat="41.779495" lon="-87.630747">
      </trkpt>
      <trkpt lat="41.838631" lon="-87.630667">
      </trkpt>
      <trkpt lat="41.844225" lon="-87.63193">
      </trkpt>
      <trkpt lat="41.847448" lon="-87.642221">
      </trkpt>
      <trkpt lat="41.851145" lon="-87.644991">
      </trkpt>
      <trkpt lat="41.887151" lon="-87.646457">
      </trkpt>
      <trkpt lat="41.896733" lon="-87.658396">
      </trkpt>
      <trkpt lat="41.906443" lon="-87.661061">
      </trkpt>
      <trkpt lat="41.916712" lon="-87.668818">
      </trkpt>
      <trkpt lat="41.922676" lon="-87.678438">
      </trkpt>
      <trkpt lat="41.924733" lon="-87.681513">
      </trkpt>
      <trkpt lat="41.924435" lon="-87.731667">
      </trkpt>
      <trkpt lat="41.922601" lon="-87.731611">
      </trkpt>
      <trkpt lat="41.922606" lon="-87.731192">
      </trkpt>
    </trkseg>
  </trk>
</gpx>