<?xml version="1.0" encoding="UTF-8"?>
<gpx xmlns="http://www.topografix.com/GPX/1/1" xmlns:xsi="http://www.w3.org/2001/XMLSchema-instance" xsi:schemaLocation="http://www.topografix.com/GPX/1/1 http://www.topografix.com/GPX/1/1/gpx.xsd" version="1.1" creator="gpx.py -- https://github.com/tkrajina/gpxpy">
  <trk>
    <trkseg>
      <trkpt lat="42.040976" lon="-87.707413">
      </trkpt>
      <trkpt lat="42.040938" lon="-87.763691">
      </trkpt>
      <trkpt lat="42.03371" lon="-87.768504">
      </trkpt>
      <trkpt lat="42.026512" lon="-87.768822">
      </trkpt>
      <trkpt lat="42.021309" lon="-87.765749">
      </trkpt>
      <trkpt lat="42.009007" lon="-87.749252">
      </trkpt>
      <trkpt lat="41.987219" lon="-87.751521">
      </trkpt>
      <trkpt lat="41.980228" lon="-87.746835">
      </trkpt>
      <trkpt lat="41.966563" lon="-87.747223">
      </trkpt>
      <trkpt lat="41.962358" lon="-87.745232">
      </trkpt>
      <trkpt lat="41.947613" lon="-87.719592">
      </trkpt>
      <trkpt lat="41.94215" lon="-87.715306">
      </trkpt>
      <trkpt lat="41.917654" lon="-87.670146">
      </trkpt>
      <trkpt lat="41.906646" lon="-87.66137">
      </trkpt>
      <trkpt lat="41.897685" lon="-87.659246">
      </trkpt>
      <trkpt lat="41.888343" lon="-87.647531">
      </trkpt>
      <trkpt lat="41.881827" lon="-87.645999">
      </trkpt>
      <trkpt lat="41.880956" lon="-87.646134">
      </trkpt>
      <trkpt lat="41.879569" lon="-87.646145">
      </trkpt>
      <trkpt lat="41.878121" lon="-87.646166">
      </trkpt>
      <trkpt lat="41.877218" lon="-87.646107">
      </trkpt>
      <trkpt lat="41.875057" lon="-87.646076">
      </trkpt>
      <trkpt lat="41.875521" lon="-87.630714">
      </trkpt>
      <trkpt lat="41.869035" lon="-87.630577">
      </trkpt>
      <trkpt lat="41.867327" lon="-87.630586">
      </trkpt>
      <trkpt lat="41.867398" lon="-87.624158">
      </trkpt>
      <trkpt lat="41.86095" lon="-87.624009">
      </trkpt>
      <trkpt lat="41.86095" lon="-87.624009">
      </trkpt>
      <trkpt lat="41.876966" lon="-87.624175">
      </trkpt>
      <trkpt lat="41.876964" lon="-87.627123">
      </trkpt>
      <trkpt lat="41.876964" lon="-87.627123">
      </trkpt>
      <trkpt lat="41.876898" lon="-87.629742">
      </trkpt>
      <trkpt lat="41.875705" lon="-87.629714">
      </trkpt>
      <trkpt lat="41.875632" lon="-87.64257">
      </trkpt>
      <trkpt lat="41.875942" lon="-87.644772">
      </trkpt>
      <trkpt lat="41.877134" lon="-87.645648">
      </trkpt>
      <trkpt lat="41.885013" lon="-87.645685">
      </trkpt>
      <trkpt lat="41.887382" lon="-87.646594">
      </trkpt>
      <trkpt lat="41.889615" lon="-87.64861">
      </trkpt>
      <trkpt lat="41.895181" lon="-87.656723">
      </trkpt>
      <trkpt lat="41.896733" lon="-87.658396">
      </trkpt>
      <trkpt lat="41.90111" lon="-87.66062">
      </trkpt>
      <trkpt lat="41.905872" lon="-87.66087">
      </trkpt>
      <trkpt lat="41.907951" lon="-87.662226">
      </trkpt>
      <trkpt lat="41.910674" lon="-87.664445">
      </trkpt>
      <trkpt lat="41.910848" lon="-87.653121">
      </trkpt>
      <trkpt lat="41.913746" lon="-87.653217">
      </trkpt>
      <trkpt lat="41.913806" lon="-87.649577">
      </trkpt>
      <trkpt lat="41.914943" lon="-87.649617">
      </trkpt>
      <trkpt lat="41.914943" lon="-87.649617">
      </trkpt>
      <trkpt lat="41.918159" lon="-87.649729">
      </trkpt>
      <trkpt lat="41.918178" lon="-87.648523">
      </trkpt>
      <trkpt lat="41.925453" lon="-87.648766">
      </trkpt>
      <trkpt lat="41.929016" lon="-87.653741">
      </trkpt>
      <trkpt lat="41.932636" lon="-87.653863">
      </trkpt>
      <trkpt lat="41.932598" lon="-87.65629">
      </trkpt>
      <trkpt lat="41.935584" lon="-87.656389">
      </trkpt>
      <trkpt lat="41.935584" lon="-87.656389">
      </trkpt>
      <trkpt lat="41.939878" lon="-87.65654">
      </trkpt>
      <trkpt lat="41.940268" lon="-87.638796">
      </trkpt>
      <trkpt lat="41.939931" lon="-87.638606">
      </trkpt>
      <trkpt lat="41.936955" lon="-87.634194">
      </trkpt>
      <trkpt lat="41.934639" lon="-87.632453">
      </trkpt>
      <trkpt lat="41.928427" lon="-87.632048">
      </trkpt>
      <trkpt lat="41.918735" lon="-87.629189">
      </trkpt>
      <trkpt lat="41.911998" lon="-87.62605">
      </trkpt>
      <trkpt lat="41.904908" lon="-87.624861">
      </trkpt>
      <trkpt lat="41.901978" lon="-87.624179">
      </trkpt>
      <trkpt lat="41.893335" lon="-87.624316">
      </trkpt>
      <trkpt lat="41.893255" lon="-87.629681">
      </trkpt>
      <trkpt lat="41.894584" lon="-87.629727">
      </trkpt>
      <trkpt lat="41.894584" lon="-87.629727">
      </trkpt>
      <trkpt lat="41.896655" lon="-87.62978">
      </trkpt>
      <trkpt lat="41.896613" lon="-87.632635">
      </trkpt>
      <trkpt lat="41.90389" lon="-87.632844">
      </trkpt>
      <trkpt lat="41.903768" lon="-87.639563">
      </trkpt>
      <trkpt lat="41.904375" lon="-87.6404">
      </trkpt>
      <trkpt lat="41.904515" lon="-87.64022">
      </trkpt>
      <trkpt lat="41.904149" lon="-87.639718">
      </trkpt>
      <trkpt lat="41.904149" lon="-87.639718">
      </trkpt>
      <trkpt lat="41.904515" lon="-87.64022">
      </trkpt>
      <trkpt lat="41.904375" lon="-87.6404">
      </trkpt>
      <trkpt lat="41.910013" lon="-87.648257">
      </trkpt>
      <trkpt lat="41.91731" lon="-87.648495">
      </trkpt>
      <trkpt lat="41.91731" lon="-87.648495">
      </trkpt>
      <trkpt lat="41.925453" lon="-87.648766">
      </trkpt>
      <trkpt lat="41.932557" lon="-87.658713">
      </trkpt>
      <trkpt lat="41.932567" lon="-87.65822">
      </trkpt>
      <trkpt lat="41.932567" lon="-87.65822">
      </trkpt>
      <trkpt lat="41.932557" lon="-87.658713">
      </trkpt>
      <trkpt lat="41.950599" lon="-87.659238">
      </trkpt>
      <trkpt lat="41.95438" lon="-87.662225">
      </trkpt>
      <trkpt lat="41.95446" lon="-87.656767">
      </trkpt>
      <trkpt lat="41.958194" lon="-87.656894">
      </trkpt>
      <trkpt lat="41.958194" lon="-87.656894">
      </trkpt>
      <trkpt lat="41.95446" lon="-87.656767">
      </trkpt>
      <trkpt lat="41.954086" lon="-87.688469">
      </trkpt>
      <trkpt lat="41.910324" lon="-87.687207">
      </trkpt>
      <trkpt lat="41.909857" lon="-87.727547">
      </trkpt>
      <trkpt lat="41.910437" lon="-87.727565">
      </trkpt>
    </trkseg>
  </trk>
</gpx>