<?xml version="1.0" encoding="UTF-8"?>
<gpx xmlns="http://www.topografix.com/GPX/1/1" xmlns:xsi="http://www.w3.org/2001/XMLSchema-instance" xsi:schemaLocation="http://www.topografix.com/GPX/1/1 http://www.topografix.com/GPX/1/1/gpx.xsd" version="1.1" creator="gpx.py -- https://github.com/tkrajina/gpxpy">
  <trk>
    <trkseg>
      <trkpt lat="41.99401" lon="-87.697261">
      </trkpt>
      <trkpt lat="41.993858" lon="-87.709257">
      </trkpt>
      <trkpt lat="41.99148" lon="-87.709047">
      </trkpt>
      <trkpt lat="42.004145" lon="-87.729559">
      </trkpt>
      <trkpt lat="42.018306" lon="-87.747721">
      </trkpt>
      <trkpt lat="42.021029" lon="-87.747579">
      </trkpt>
      <trkpt lat="42.024211" lon="-87.745785">
      </trkpt>
      <trkpt lat="42.02807" lon="-87.74737">
      </trkpt>
      <trkpt lat="42.033453" lon="-87.747227">
      </trkpt>
      <trkpt lat="42.033452" lon="-87.746349">
      </trkpt>
      <trkpt lat="42.033241" lon="-87.746346">
      </trkpt>
      <trkpt lat="42.033241" lon="-87.746346">
      </trkpt>
      <trkpt lat="42.033562" lon="-87.746348">
      </trkpt>
      <trkpt lat="42.033654" lon="-87.758776">
      </trkpt>
      <trkpt lat="42.034081" lon="-87.760248">
      </trkpt>
      <trkpt lat="42.034612" lon="-87.763377">
      </trkpt>
      <trkpt lat="42.034418" lon="-87.766578">
      </trkpt>
      <trkpt lat="42.034418" lon="-87.766578">
      </trkpt>
      <trkpt lat="42.034362" lon="-87.770458">
      </trkpt>
      <trkpt lat="42.034565" lon="-87.770453">
      </trkpt>
      <trkpt lat="42.034748" lon="-87.768524">
      </trkpt>
      <trkpt lat="42.03872" lon="-87.765243">
      </trkpt>
      <trkpt lat="42.040597" lon="-87.766613">
      </trkpt>
      <trkpt lat="42.040876" lon="-87.766604">
      </trkpt>
      <trkpt lat="42.040875" lon="-87.766072">
      </trkpt>
      <trkpt lat="42.039112" lon="-87.764985">
      </trkpt>
      <trkpt lat="42.03371" lon="-87.768504">
      </trkpt>
      <trkpt lat="42.02546" lon="-87.768573">
      </trkpt>
      <trkpt lat="42.020736" lon="-87.765062">
      </trkpt>
      <trkpt lat="42.013632" lon="-87.752686">
      </trkpt>
      <trkpt lat="42.010212" lon="-87.749733">
      </trkpt>
      <trkpt lat="42.001528" lon="-87.748936">
      </trkpt>
      <trkpt lat="41.987219" lon="-87.751521">
      </trkpt>
      <trkpt lat="41.980228" lon="-87.746835">
      </trkpt>
      <trkpt lat="41.964041" lon="-87.747042">
      </trkpt>
      <trkpt lat="41.957103" lon="-87.73715">
      </trkpt>
      <trkpt lat="41.953617" lon="-87.731304">
      </trkpt>
      <trkpt lat="41.95438" lon="-87.662225">
      </trkpt>
      <trkpt lat="41.951046" lon="-87.659594">
      </trkpt>
      <trkpt lat="41.95104" lon="-87.659966">
      </trkpt>
      <trkpt lat="41.95104" lon="-87.659966">
      </trkpt>
      <trkpt lat="41.951046" lon="-87.659594">
      </trkpt>
      <trkpt lat="41.950599" lon="-87.659238">
      </trkpt>
      <trkpt lat="41.938025" lon="-87.658915">
      </trkpt>
      <trkpt lat="41.937989" lon="-87.661294">
      </trkpt>
      <trkpt lat="41.936537" lon="-87.661241">
      </trkpt>
      <trkpt lat="41.936537" lon="-87.661241">
      </trkpt>
      <trkpt lat="41.932518" lon="-87.661134">
      </trkpt>
      <trkpt lat="41.9324" lon="-87.668452">
      </trkpt>
      <trkpt lat="41.921563" lon="-87.668616">
      </trkpt>
      <trkpt lat="41.921395" lon="-87.677255">
      </trkpt>
      <trkpt lat="41.918139" lon="-87.671115">
      </trkpt>
      <trkpt lat="41.915543" lon="-87.668247">
      </trkpt>
      <trkpt lat="41.909975" lon="-87.664752">
      </trkpt>
      <trkpt lat="41.906635" lon="-87.661559">
      </trkpt>
      <trkpt lat="41.901587" lon="-87.661131">
      </trkpt>
      <trkpt lat="41.896968" lon="-87.659049">
      </trkpt>
      <trkpt lat="41.888636" lon="-87.647794">
      </trkpt>
      <trkpt lat="41.886261" lon="-87.646315">
      </trkpt>
      <trkpt lat="41.882928" lon="-87.646015">
      </trkpt>
      <trkpt lat="41.880505" lon="-87.646395">
      </trkpt>
      <trkpt lat="41.880598" lon="-87.639693">
      </trkpt>
      <trkpt lat="41.881889" lon="-87.639706">
      </trkpt>
      <trkpt lat="41.881877" lon="-87.640505">
      </trkpt>
      <trkpt lat="41.881877" lon="-87.640505">
      </trkpt>
      <trkpt lat="41.881877" lon="-87.640505">
      </trkpt>
      <trkpt lat="41.881877" lon="-87.640505">
      </trkpt>
      <trkpt lat="41.88187" lon="-87.641227">
      </trkpt>
      <trkpt lat="41.876757" lon="-87.641048">
      </trkpt>
      <trkpt lat="41.876769" lon="-87.639817">
      </trkpt>
      <trkpt lat="41.875803" lon="-87.639823">
      </trkpt>
      <trkpt lat="41.875647" lon="-87.641365">
      </trkpt>
      <trkpt lat="41.875736" lon="-87.651991">
      </trkpt>
      <trkpt lat="41.876197" lon="-87.657603">
      </trkpt>
      <trkpt lat="41.875763" lon="-87.688313">
      </trkpt>
      <trkpt lat="41.875862" lon="-87.692409">
      </trkpt>
      <trkpt lat="41.875937" lon="-87.701067">
      </trkpt>
      <trkpt lat="41.889426" lon="-87.701479">
      </trkpt>
      <trkpt lat="41.891131" lon="-87.701974">
      </trkpt>
      <trkpt lat="41.897899" lon="-87.702431">
      </trkpt>
      <trkpt lat="41.902886" lon="-87.702278">
      </trkpt>
      <trkpt lat="41.902888" lon="-87.701605">
      </trkpt>
      <trkpt lat="41.902888" lon="-87.701605">
      </trkpt>
      <trkpt lat="41.902886" lon="-87.702278">
      </trkpt>
      <trkpt lat="41.907241" lon="-87.70125">
      </trkpt>
      <trkpt lat="41.910165" lon="-87.701875">
      </trkpt>
      <trkpt lat="41.911023" lon="-87.639789">
      </trkpt>
      <trkpt lat="41.907866" lon="-87.6397">
      </trkpt>
      <trkpt lat="41.907866" lon="-87.6397">
      </trkpt>
      <trkpt lat="41.906506" lon="-87.639662">
      </trkpt>
      <trkpt lat="41.906523" lon="-87.638435">
      </trkpt>
      <trkpt lat="41.911164" lon="-87.638583">
      </trkpt>
      <trkpt lat="41.910674" lon="-87.664445">
      </trkpt>
      <trkpt lat="41.915886" lon="-87.668091">
      </trkpt>
      <trkpt lat="41.918549" lon="-87.671196">
      </trkpt>
      <trkpt lat="41.937344" lon="-87.704001">
      </trkpt>
      <trkpt lat="41.943044" lon="-87.715981">
      </trkpt>
      <trkpt lat="41.94651" lon="-87.717815">
      </trkpt>
      <trkpt lat="41.946377" lon="-87.727395">
      </trkpt>
      <trkpt lat="41.943983" lon="-87.727326">
      </trkpt>
      <trkpt lat="41.943957" lon="-87.729523">
      </trkpt>
      <trkpt lat="41.943957" lon="-87.729523">
      </trkpt>
      <trkpt lat="41.94393" lon="-87.731197">
      </trkpt>
      <trkpt lat="41.943585" lon="-87.731215">
      </trkpt>
      <trkpt lat="41.935091" lon="-87.717283">
      </trkpt>
      <trkpt lat="41.909085" lon="-87.71676">
      </trkpt>
      <trkpt lat="41.909112" lon="-87.714329">
      </trkpt>
      <trkpt lat="41.909624" lon="-87.714347">
      </trkpt>
      <trkpt lat="41.909624" lon="-87.714347">
      </trkpt>
      <trkpt lat="41.910015" lon="-87.71436">
      </trkpt>
      <trkpt lat="41.910165" lon="-87.701875">
      </trkpt>
      <trkpt lat="41.907241" lon="-87.70125">
      </trkpt>
      <trkpt lat="41.904322" lon="-87.70207">
      </trkpt>
      <trkpt lat="41.902886" lon="-87.702278">
      </trkpt>
      <trkpt lat="41.903294" lon="-87.670839">
      </trkpt>
      <trkpt lat="41.903294" lon="-87.670839">
      </trkpt>
      <trkpt lat="41.90331" lon="-87.669955">
      </trkpt>
      <trkpt lat="41.900367" lon="-87.669869">
      </trkpt>
      <trkpt lat="41.900367" lon="-87.669869">
      </trkpt>
      <trkpt lat="41.899669" lon="-87.669849">
      </trkpt>
      <trkpt lat="41.899842" lon="-87.660982">
      </trkpt>
      <trkpt lat="41.896254" lon="-87.65541">
      </trkpt>
      <trkpt lat="41.896338" lon="-87.651173">
      </trkpt>
      <trkpt lat="41.895044" lon="-87.65115">
      </trkpt>
      <trkpt lat="41.89505" lon="-87.650724">
      </trkpt>
      <trkpt lat="41.89505" lon="-87.650724">
      </trkpt>
      <trkpt lat="41.895044" lon="-87.65115">
      </trkpt>
      <trkpt lat="41.894" lon="-87.651133">
      </trkpt>
      <trkpt lat="41.8937" lon="-87.651495">
      </trkpt>
      <trkpt lat="41.891194" lon="-87.647627">
      </trkpt>
      <trkpt lat="41.891239" lon="-87.643004">
      </trkpt>
      <trkpt lat="41.891506" lon="-87.639878">
      </trkpt>
      <trkpt lat="41.892288" lon="-87.640484">
      </trkpt>
      <trkpt lat="41.89231" lon="-87.639179">
      </trkpt>
      <trkpt lat="41.89231" lon="-87.639179">
      </trkpt>
      <trkpt lat="41.892288" lon="-87.640484">
      </trkpt>
      <trkpt lat="41.891506" lon="-87.639878">
      </trkpt>
      <trkpt lat="41.891225" lon="-87.644384">
      </trkpt>
      <trkpt lat="41.885699" lon="-87.644242">
      </trkpt>
      <trkpt lat="41.885686" lon="-87.645903">
      </trkpt>
      <trkpt lat="41.857367" lon="-87.644363">
      </trkpt>
      <trkpt lat="41.852447" lon="-87.645793">
      </trkpt>
      <trkpt lat="41.849097" lon="-87.644333">
      </trkpt>
      <trkpt lat="41.847746" lon="-87.643981">
      </trkpt>
      <trkpt lat="41.846776" lon="-87.644894">
      </trkpt>
      <trkpt lat="41.844955" lon="-87.652708">
      </trkpt>
      <trkpt lat="41.837862" lon="-87.667166">
      </trkpt>
      <trkpt lat="41.837095" lon="-87.679805">
      </trkpt>
      <trkpt lat="41.833938" lon="-87.690167">
      </trkpt>
      <trkpt lat="41.833938" lon="-87.690167">
      </trkpt>
      <trkpt lat="41.832287" lon="-87.695427">
      </trkpt>
      <trkpt lat="41.831418" lon="-87.698851">
      </trkpt>
      <trkpt lat="41.830863" lon="-87.700566">
      </trkpt>
      <trkpt lat="41.829715" lon="-87.704666">
      </trkpt>
      <trkpt lat="41.829034" lon="-87.704642">
      </trkpt>
      <trkpt lat="41.830574" lon="-87.699332">
      </trkpt>
      <trkpt lat="41.836711" lon="-87.680385">
      </trkpt>
      <trkpt lat="41.83747" lon="-87.66766">
      </trkpt>
      <trkpt lat="41.841885" lon="-87.658964">
      </trkpt>
      <trkpt lat="41.846659" lon="-87.642563">
      </trkpt>
      <trkpt lat="41.850742" lon="-87.644555">
      </trkpt>
      <trkpt lat="41.885931" lon="-87.64591">
      </trkpt>
      <trkpt lat="41.889375" lon="-87.648317">
      </trkpt>
      <trkpt lat="41.897003" lon="-87.6586">
      </trkpt>
      <trkpt lat="41.907951" lon="-87.662226">
      </trkpt>
      <trkpt lat="41.910674" lon="-87.664445">
      </trkpt>
      <trkpt lat="41.910715" lon="-87.66216">
      </trkpt>
      <trkpt lat="41.916455" lon="-87.666413">
      </trkpt>
      <trkpt lat="41.917114" lon="-87.66003">
      </trkpt>
      <trkpt lat="41.917518" lon="-87.660585">
      </trkpt>
      <trkpt lat="41.920912" lon="-87.659538">
      </trkpt>
    </trkseg>
  </trk>
</gpx>