<?xml version="1.0" encoding="UTF-8"?>
<gpx xmlns="http://www.topografix.com/GPX/1/1" xmlns:xsi="http://www.w3.org/2001/XMLSchema-instance" xsi:schemaLocation="http://www.topografix.com/GPX/1/1 http://www.topografix.com/GPX/1/1/gpx.xsd" version="1.1" creator="gpx.py -- https://github.com/tkrajina/gpxpy">
  <trk>
    <trkseg>
      <trkpt lat="41.956241" lon="-87.813854">
      </trkpt>
      <trkpt lat="41.956252" lon="-87.813381">
      </trkpt>
      <trkpt lat="41.959889" lon="-87.813354">
      </trkpt>
      <trkpt lat="41.960057" lon="-87.807225">
      </trkpt>
      <trkpt lat="41.968273" lon="-87.807176">
      </trkpt>
      <trkpt lat="41.96853" lon="-87.778289">
      </trkpt>
      <trkpt lat="41.967665" lon="-87.77728">
      </trkpt>
      <trkpt lat="41.968033" lon="-87.747723">
      </trkpt>
      <trkpt lat="41.972896" lon="-87.747918">
      </trkpt>
      <trkpt lat="41.972794" lon="-87.747761">
      </trkpt>
      <trkpt lat="41.966563" lon="-87.747223">
      </trkpt>
      <trkpt lat="41.963113" lon="-87.745961">
      </trkpt>
      <trkpt lat="41.960129" lon="-87.742125">
      </trkpt>
      <trkpt lat="41.947613" lon="-87.719592">
      </trkpt>
      <trkpt lat="41.94215" lon="-87.715306">
      </trkpt>
      <trkpt lat="41.940524" lon="-87.710219">
      </trkpt>
      <trkpt lat="41.933659" lon="-87.698173">
      </trkpt>
      <trkpt lat="41.918139" lon="-87.671115">
      </trkpt>
      <trkpt lat="41.915851" lon="-87.668499">
      </trkpt>
      <trkpt lat="41.913088" lon="-87.666712">
      </trkpt>
      <trkpt lat="41.910672" lon="-87.665662">
      </trkpt>
      <trkpt lat="41.910633" lon="-87.66776">
      </trkpt>
      <trkpt lat="41.899711" lon="-87.667457">
      </trkpt>
      <trkpt lat="41.899648" lon="-87.67107">
      </trkpt>
      <trkpt lat="41.900741" lon="-87.671103">
      </trkpt>
      <trkpt lat="41.900741" lon="-87.671103">
      </trkpt>
      <trkpt lat="41.900741" lon="-87.671103">
      </trkpt>
      <trkpt lat="41.900741" lon="-87.671103">
      </trkpt>
      <trkpt lat="41.903289" lon="-87.67118">
      </trkpt>
      <trkpt lat="41.903351" lon="-87.667439">
      </trkpt>
      <trkpt lat="41.916129" lon="-87.66782">
      </trkpt>
      <trkpt lat="41.917067" lon="-87.663815">
      </trkpt>
      <trkpt lat="41.917139" lon="-87.658378">
      </trkpt>
      <trkpt lat="41.921676" lon="-87.65834">
      </trkpt>
      <trkpt lat="41.921849" lon="-87.646223">
      </trkpt>
      <trkpt lat="41.92499" lon="-87.646319">
      </trkpt>
      <trkpt lat="41.92499" lon="-87.646319">
      </trkpt>
      <trkpt lat="41.925491" lon="-87.646336">
      </trkpt>
      <trkpt lat="41.925453" lon="-87.648766">
      </trkpt>
      <trkpt lat="41.919998" lon="-87.648584">
      </trkpt>
      <trkpt lat="41.919967" lon="-87.65059">
      </trkpt>
      <trkpt lat="41.919967" lon="-87.65059">
      </trkpt>
      <trkpt lat="41.919961" lon="-87.651004">
      </trkpt>
      <trkpt lat="41.918142" lon="-87.65094">
      </trkpt>
      <trkpt lat="41.918472" lon="-87.636131">
      </trkpt>
      <trkpt lat="41.913071" lon="-87.632796">
      </trkpt>
      <trkpt lat="41.913236" lon="-87.631046">
      </trkpt>
      <trkpt lat="41.912247" lon="-87.628505">
      </trkpt>
      <trkpt lat="41.912316" lon="-87.626932">
      </trkpt>
      <trkpt lat="41.912166" lon="-87.62645">
      </trkpt>
      <trkpt lat="41.911491" lon="-87.626204">
      </trkpt>
      <trkpt lat="41.90257" lon="-87.624114">
      </trkpt>
      <trkpt lat="41.901491" lon="-87.62264">
      </trkpt>
      <trkpt lat="41.900898" lon="-87.619617">
      </trkpt>
      <trkpt lat="41.893163" lon="-87.614374">
      </trkpt>
      <trkpt lat="41.886779" lon="-87.614132">
      </trkpt>
      <trkpt lat="41.884515" lon="-87.614444">
      </trkpt>
      <trkpt lat="41.884517" lon="-87.620609">
      </trkpt>
      <trkpt lat="41.886864" lon="-87.620668">
      </trkpt>
      <trkpt lat="41.886864" lon="-87.620668">
      </trkpt>
      <trkpt lat="41.886919" lon="-87.620667">
      </trkpt>
      <trkpt lat="41.886892" lon="-87.623674">
      </trkpt>
      <trkpt lat="41.886817" lon="-87.623818">
      </trkpt>
      <trkpt lat="41.886812" lon="-87.624639">
      </trkpt>
      <trkpt lat="41.884489" lon="-87.624571">
      </trkpt>
      <trkpt lat="41.884366" lon="-87.624344">
      </trkpt>
      <trkpt lat="41.884372" lon="-87.623414">
      </trkpt>
      <trkpt lat="41.884293" lon="-87.622907">
      </trkpt>
      <trkpt lat="41.884319" lon="-87.621085">
      </trkpt>
      <trkpt lat="41.884319" lon="-87.621085">
      </trkpt>
      <trkpt lat="41.884316" lon="-87.620576">
      </trkpt>
      <trkpt lat="41.884489" lon="-87.624571">
      </trkpt>
      <trkpt lat="41.875724" lon="-87.62435">
      </trkpt>
      <trkpt lat="41.875719" lon="-87.651339">
      </trkpt>
      <trkpt lat="41.876197" lon="-87.657603">
      </trkpt>
      <trkpt lat="41.875658" lon="-87.697235">
      </trkpt>
      <trkpt lat="41.874284" lon="-87.70915">
      </trkpt>
      <trkpt lat="41.873967" lon="-87.732948">
      </trkpt>
      <trkpt lat="41.871955" lon="-87.739541">
      </trkpt>
      <trkpt lat="41.871736" lon="-87.749896">
      </trkpt>
      <trkpt lat="41.871957" lon="-87.754752">
      </trkpt>
      <trkpt lat="41.871048" lon="-87.754713">
      </trkpt>
      <trkpt lat="41.871067" lon="-87.75319">
      </trkpt>
      <trkpt lat="41.870156" lon="-87.753168">
      </trkpt>
      <trkpt lat="41.870191" lon="-87.75023">
      </trkpt>
      <trkpt lat="41.870191" lon="-87.75023">
      </trkpt>
      <trkpt lat="41.870205" lon="-87.749049">
      </trkpt>
      <trkpt lat="41.869301" lon="-87.749017">
      </trkpt>
      <trkpt lat="41.86936" lon="-87.744865">
      </trkpt>
      <trkpt lat="41.865896" lon="-87.74475">
      </trkpt>
      <trkpt lat="41.866176" lon="-87.725178">
      </trkpt>
      <trkpt lat="41.847915" lon="-87.724669">
      </trkpt>
      <trkpt lat="41.847938" lon="-87.723422">
      </trkpt>
      <trkpt lat="41.848603" lon="-87.723444">
      </trkpt>
      <trkpt lat="41.848603" lon="-87.723444">
      </trkpt>
      <trkpt lat="41.847938" lon="-87.723422">
      </trkpt>
      <trkpt lat="41.847915" lon="-87.724669">
      </trkpt>
      <trkpt lat="41.873009" lon="-87.7254">
      </trkpt>
      <trkpt lat="41.873457" lon="-87.723774">
      </trkpt>
      <trkpt lat="41.873525" lon="-87.719121">
      </trkpt>
      <trkpt lat="41.875189" lon="-87.697594">
      </trkpt>
      <trkpt lat="41.875329" lon="-87.650308">
      </trkpt>
      <trkpt lat="41.875302" lon="-87.647601">
      </trkpt>
      <trkpt lat="41.874563" lon="-87.645452">
      </trkpt>
      <trkpt lat="41.875077" lon="-87.644482">
      </trkpt>
      <trkpt lat="41.876036" lon="-87.64458">
      </trkpt>
      <trkpt lat="41.880374" lon="-87.645275">
      </trkpt>
      <trkpt lat="41.881847" lon="-87.645355">
      </trkpt>
      <trkpt lat="41.882198" lon="-87.645393">
      </trkpt>
      <trkpt lat="41.883308" lon="-87.645396">
      </trkpt>
      <trkpt lat="41.885689" lon="-87.645365">
      </trkpt>
      <trkpt lat="41.885665" lon="-87.647482">
      </trkpt>
      <trkpt lat="41.890088" lon="-87.647611">
      </trkpt>
      <trkpt lat="41.890084" lon="-87.64819">
      </trkpt>
      <trkpt lat="41.889822" lon="-87.64819">
      </trkpt>
      <trkpt lat="41.889822" lon="-87.64819">
      </trkpt>
      <trkpt lat="41.890084" lon="-87.64819">
      </trkpt>
      <trkpt lat="41.890088" lon="-87.647611">
      </trkpt>
      <trkpt lat="41.885665" lon="-87.647482">
      </trkpt>
      <trkpt lat="41.885682" lon="-87.646258">
      </trkpt>
      <trkpt lat="41.885494" lon="-87.646031">
      </trkpt>
      <trkpt lat="41.884746" lon="-87.645922">
      </trkpt>
      <trkpt lat="41.881827" lon="-87.645999">
      </trkpt>
      <trkpt lat="41.880956" lon="-87.646134">
      </trkpt>
      <trkpt lat="41.879569" lon="-87.646145">
      </trkpt>
      <trkpt lat="41.877958" lon="-87.646296">
      </trkpt>
      <trkpt lat="41.878011" lon="-87.642529">
      </trkpt>
      <trkpt lat="41.878645" lon="-87.642548">
      </trkpt>
      <trkpt lat="41.878651" lon="-87.642115">
      </trkpt>
      <trkpt lat="41.878651" lon="-87.642115">
      </trkpt>
      <trkpt lat="41.878645" lon="-87.642548">
      </trkpt>
      <trkpt lat="41.879291" lon="-87.642566">
      </trkpt>
      <trkpt lat="41.879249" lon="-87.645368">
      </trkpt>
      <trkpt lat="41.881847" lon="-87.645355">
      </trkpt>
      <trkpt lat="41.882198" lon="-87.645393">
      </trkpt>
      <trkpt lat="41.885931" lon="-87.64591">
      </trkpt>
      <trkpt lat="41.888483" lon="-87.647404">
      </trkpt>
      <trkpt lat="41.897251" lon="-87.658783">
      </trkpt>
      <trkpt lat="41.901753" lon="-87.660805">
      </trkpt>
      <trkpt lat="41.906186" lon="-87.660967">
      </trkpt>
      <trkpt lat="41.907951" lon="-87.662226">
      </trkpt>
      <trkpt lat="41.910674" lon="-87.664445">
      </trkpt>
      <trkpt lat="41.910848" lon="-87.653121">
      </trkpt>
      <trkpt lat="41.931569" lon="-87.653827">
      </trkpt>
      <trkpt lat="41.931569" lon="-87.653827">
      </trkpt>
      <trkpt lat="41.932636" lon="-87.653863">
      </trkpt>
      <trkpt lat="41.932728" lon="-87.649013">
      </trkpt>
      <trkpt lat="41.939973" lon="-87.649275">
      </trkpt>
      <trkpt lat="41.940568" lon="-87.638088">
      </trkpt>
      <trkpt lat="41.951253" lon="-87.644496">
      </trkpt>
      <trkpt lat="41.973046" lon="-87.648738">
      </trkpt>
      <trkpt lat="41.984951" lon="-87.652803">
      </trkpt>
      <trkpt lat="41.985105" lon="-87.662456">
      </trkpt>
      <trkpt lat="41.992132" lon="-87.67531">
      </trkpt>
      <trkpt lat="42.012318" lon="-87.683076">
      </trkpt>
      <trkpt lat="42.014222" lon="-87.679075">
      </trkpt>
      <trkpt lat="42.016798" lon="-87.679061">
      </trkpt>
    </trkseg>
  </trk>
</gpx>