<?xml version="1.0" encoding="UTF-8"?>
<gpx xmlns="http://www.topografix.com/GPX/1/1" xmlns:xsi="http://www.w3.org/2001/XMLSchema-instance" xsi:schemaLocation="http://www.topografix.com/GPX/1/1 http://www.topografix.com/GPX/1/1/gpx.xsd" version="1.1" creator="gpx.py -- https://github.com/tkrajina/gpxpy">
  <trk>
    <trkseg>
      <trkpt lat="42.056866" lon="-87.677157">
      </trkpt>
      <trkpt lat="42.06163" lon="-87.677075">
      </trkpt>
      <trkpt lat="42.061705" lon="-87.683746">
      </trkpt>
      <trkpt lat="42.062092" lon="-87.6855">
      </trkpt>
      <trkpt lat="42.062211" lon="-87.69702">
      </trkpt>
      <trkpt lat="42.064341" lon="-87.698762">
      </trkpt>
      <trkpt lat="42.064611" lon="-87.728131">
      </trkpt>
      <trkpt lat="42.062484" lon="-87.730613">
      </trkpt>
      <trkpt lat="42.062551" lon="-87.75032">
      </trkpt>
      <trkpt lat="42.064858" lon="-87.750273">
      </trkpt>
      <trkpt lat="42.064862" lon="-87.75066">
      </trkpt>
      <trkpt lat="42.064862" lon="-87.75066">
      </trkpt>
      <trkpt lat="42.06483" lon="-87.751446">
      </trkpt>
      <trkpt lat="42.062559" lon="-87.751456">
      </trkpt>
      <trkpt lat="42.062565" lon="-87.756298">
      </trkpt>
      <trkpt lat="42.062895" lon="-87.757501">
      </trkpt>
      <trkpt lat="42.06337" lon="-87.757406">
      </trkpt>
      <trkpt lat="42.063707" lon="-87.756812">
      </trkpt>
      <trkpt lat="42.063667" lon="-87.755911">
      </trkpt>
      <trkpt lat="42.063244" lon="-87.755346">
      </trkpt>
      <trkpt lat="42.061288" lon="-87.755495">
      </trkpt>
      <trkpt lat="42.059533" lon="-87.756606">
      </trkpt>
      <trkpt lat="42.055592" lon="-87.76041">
      </trkpt>
      <trkpt lat="42.05296" lon="-87.761767">
      </trkpt>
      <trkpt lat="42.043235" lon="-87.762376">
      </trkpt>
      <trkpt lat="42.040632" lon="-87.763365">
      </trkpt>
      <trkpt lat="42.03996" lon="-87.764135">
      </trkpt>
      <trkpt lat="42.040232" lon="-87.764934">
      </trkpt>
      <trkpt lat="42.040812" lon="-87.76446">
      </trkpt>
      <trkpt lat="42.040838" lon="-87.759297">
      </trkpt>
      <trkpt lat="42.036943" lon="-87.759422">
      </trkpt>
      <trkpt lat="42.0343" lon="-87.761476">
      </trkpt>
      <trkpt lat="42.033575" lon="-87.758858">
      </trkpt>
      <trkpt lat="42.033133" lon="-87.75772">
      </trkpt>
      <trkpt lat="42.031102" lon="-87.756052">
      </trkpt>
      <trkpt lat="42.027262" lon="-87.754592">
      </trkpt>
      <trkpt lat="42.027256" lon="-87.753528">
      </trkpt>
      <trkpt lat="42.027256" lon="-87.753528">
      </trkpt>
      <trkpt lat="42.027262" lon="-87.754592">
      </trkpt>
      <trkpt lat="42.031102" lon="-87.756052">
      </trkpt>
      <trkpt lat="42.033206" lon="-87.757774">
      </trkpt>
      <trkpt lat="42.03364" lon="-87.75851">
      </trkpt>
      <trkpt lat="42.0343" lon="-87.761476">
      </trkpt>
      <trkpt lat="42.036943" lon="-87.759422">
      </trkpt>
      <trkpt lat="42.040921" lon="-87.759293">
      </trkpt>
      <trkpt lat="42.040926" lon="-87.759721">
      </trkpt>
      <trkpt lat="42.041165" lon="-87.760384">
      </trkpt>
      <trkpt lat="42.043059" lon="-87.762024">
      </trkpt>
      <trkpt lat="42.052043" lon="-87.761765">
      </trkpt>
      <trkpt lat="42.055579" lon="-87.760136">
      </trkpt>
      <trkpt lat="42.060438" lon="-87.755714">
      </trkpt>
      <trkpt lat="42.061803" lon="-87.754815">
      </trkpt>
      <trkpt lat="42.062463" lon="-87.754408">
      </trkpt>
      <trkpt lat="42.062415" lon="-87.74874">
      </trkpt>
      <trkpt lat="42.062415" lon="-87.74874">
      </trkpt>
      <trkpt lat="42.062416" lon="-87.746581">
      </trkpt>
      <trkpt lat="42.066052" lon="-87.746535">
      </trkpt>
      <trkpt lat="42.06625" lon="-87.745449">
      </trkpt>
      <trkpt lat="42.066692" lon="-87.743509">
      </trkpt>
      <trkpt lat="42.06751" lon="-87.74132">
      </trkpt>
      <trkpt lat="42.06751" lon="-87.74132">
      </trkpt>
      <trkpt lat="42.066034" lon="-87.746656">
      </trkpt>
      <trkpt lat="42.062539" lon="-87.74677">
      </trkpt>
      <trkpt lat="42.062565" lon="-87.756298">
      </trkpt>
      <trkpt lat="42.027501" lon="-87.768925">
      </trkpt>
      <trkpt lat="42.021928" lon="-87.766419">
      </trkpt>
      <trkpt lat="42.009007" lon="-87.749252">
      </trkpt>
      <trkpt lat="41.987219" lon="-87.751521">
      </trkpt>
      <trkpt lat="41.980228" lon="-87.746835">
      </trkpt>
      <trkpt lat="41.966563" lon="-87.747223">
      </trkpt>
      <trkpt lat="41.962358" lon="-87.745232">
      </trkpt>
      <trkpt lat="41.947613" lon="-87.719592">
      </trkpt>
      <trkpt lat="41.94215" lon="-87.715306">
      </trkpt>
      <trkpt lat="41.917654" lon="-87.670146">
      </trkpt>
      <trkpt lat="41.906646" lon="-87.66137">
      </trkpt>
      <trkpt lat="41.897685" lon="-87.659246">
      </trkpt>
      <trkpt lat="41.886261" lon="-87.646315">
      </trkpt>
      <trkpt lat="41.850609" lon="-87.644998">
      </trkpt>
      <trkpt lat="41.847255" lon="-87.642186">
      </trkpt>
      <trkpt lat="41.845323" lon="-87.634652">
      </trkpt>
      <trkpt lat="41.842703" lon="-87.631597">
      </trkpt>
      <trkpt lat="41.830548" lon="-87.631069">
      </trkpt>
      <trkpt lat="41.823664" lon="-87.631351">
      </trkpt>
      <trkpt lat="41.823783" lon="-87.621597">
      </trkpt>
      <trkpt lat="41.824244" lon="-87.621608">
      </trkpt>
      <trkpt lat="41.824244" lon="-87.621608">
      </trkpt>
      <trkpt lat="41.831064" lon="-87.621754">
      </trkpt>
      <trkpt lat="41.830961" lon="-87.629817">
      </trkpt>
      <trkpt lat="41.831311" lon="-87.629831">
      </trkpt>
      <trkpt lat="41.837743" lon="-87.630393">
      </trkpt>
      <trkpt lat="41.844144" lon="-87.631347">
      </trkpt>
      <trkpt lat="41.847354" lon="-87.642036">
      </trkpt>
      <trkpt lat="41.850908" lon="-87.644903">
      </trkpt>
      <trkpt lat="41.885013" lon="-87.645685">
      </trkpt>
      <trkpt lat="41.891702" lon="-87.651689">
      </trkpt>
      <trkpt lat="41.896836" lon="-87.65868">
      </trkpt>
      <trkpt lat="41.906646" lon="-87.66137">
      </trkpt>
      <trkpt lat="41.917654" lon="-87.670146">
      </trkpt>
      <trkpt lat="41.94215" lon="-87.715306">
      </trkpt>
      <trkpt lat="41.947613" lon="-87.719592">
      </trkpt>
      <trkpt lat="41.963594" lon="-87.746287">
      </trkpt>
      <trkpt lat="41.980044" lon="-87.746614">
      </trkpt>
      <trkpt lat="41.987222" lon="-87.751348">
      </trkpt>
      <trkpt lat="42.001506" lon="-87.748714">
      </trkpt>
      <trkpt lat="42.011931" lon="-87.750639">
      </trkpt>
      <trkpt lat="42.011989" lon="-87.77782">
      </trkpt>
      <trkpt lat="42.011989" lon="-87.77782">
      </trkpt>
      <trkpt lat="42.011959" lon="-87.773348">
      </trkpt>
      <trkpt lat="41.996715" lon="-87.765439">
      </trkpt>
      <trkpt lat="41.991079" lon="-87.753476">
      </trkpt>
      <trkpt lat="41.990159" lon="-87.75084">
      </trkpt>
      <trkpt lat="41.989843" lon="-87.748818">
      </trkpt>
      <trkpt lat="41.990446" lon="-87.699412">
      </trkpt>
      <trkpt lat="41.993982" lon="-87.699516">
      </trkpt>
      <trkpt lat="41.994013" lon="-87.69709">
      </trkpt>
      <trkpt lat="41.992791" lon="-87.697047">
      </trkpt>
      <trkpt lat="41.992791" lon="-87.697047">
      </trkpt>
      <trkpt lat="41.99221" lon="-87.697026">
      </trkpt>
      <trkpt lat="41.9922" lon="-87.698234">
      </trkpt>
      <trkpt lat="41.993998" lon="-87.698298">
      </trkpt>
      <trkpt lat="41.994028" lon="-87.695868">
      </trkpt>
      <trkpt lat="41.994166" lon="-87.695872">
      </trkpt>
      <trkpt lat="41.994166" lon="-87.695872">
      </trkpt>
      <trkpt lat="41.995828" lon="-87.695927">
      </trkpt>
      <trkpt lat="41.995845" lon="-87.69471">
      </trkpt>
      <trkpt lat="41.994043" lon="-87.694651">
      </trkpt>
      <trkpt lat="41.994352" lon="-87.675392">
      </trkpt>
      <trkpt lat="41.994982" lon="-87.675425">
      </trkpt>
      <trkpt lat="41.995752" lon="-87.675808">
      </trkpt>
      <trkpt lat="41.995752" lon="-87.675808">
      </trkpt>
      <trkpt lat="41.994982" lon="-87.675425">
      </trkpt>
      <trkpt lat="41.992132" lon="-87.67531">
      </trkpt>
      <trkpt lat="41.989576" lon="-87.669778">
      </trkpt>
      <trkpt lat="41.983631" lon="-87.660074">
      </trkpt>
      <trkpt lat="41.968906" lon="-87.659673">
      </trkpt>
      <trkpt lat="41.964503" lon="-87.656894">
      </trkpt>
      <trkpt lat="41.964503" lon="-87.656894">
      </trkpt>
      <trkpt lat="41.965401" lon="-87.657469">
      </trkpt>
      <trkpt lat="41.965499" lon="-87.648611">
      </trkpt>
      <trkpt lat="41.965774" lon="-87.646428">
      </trkpt>
      <trkpt lat="41.967291" lon="-87.647437">
      </trkpt>
      <trkpt lat="41.974381" lon="-87.649207">
      </trkpt>
      <trkpt lat="41.981297" lon="-87.652338">
      </trkpt>
      <trkpt lat="41.985125" lon="-87.652927">
      </trkpt>
      <trkpt lat="41.985586" lon="-87.654178">
      </trkpt>
      <trkpt lat="41.985463" lon="-87.660947">
      </trkpt>
      <trkpt lat="41.985105" lon="-87.662456">
      </trkpt>
      <trkpt lat="41.989705" lon="-87.6699">
      </trkpt>
      <trkpt lat="41.995652" lon="-87.67011">
      </trkpt>
      <trkpt lat="41.995623" lon="-87.671685">
      </trkpt>
      <trkpt lat="41.995623" lon="-87.671685">
      </trkpt>
      <trkpt lat="41.995593" lon="-87.673443">
      </trkpt>
      <trkpt lat="41.99439" lon="-87.673407">
      </trkpt>
      <trkpt lat="41.994451" lon="-87.670263">
      </trkpt>
      <trkpt lat="41.989706" lon="-87.670085">
      </trkpt>
      <trkpt lat="41.987608" lon="-87.669796">
      </trkpt>
      <trkpt lat="41.987519" lon="-87.669769">
      </trkpt>
      <trkpt lat="41.987519" lon="-87.669769">
      </trkpt>
      <trkpt lat="41.985433" lon="-87.669181">
      </trkpt>
      <trkpt lat="41.985603" lon="-87.663294">
      </trkpt>
      <trkpt lat="41.983631" lon="-87.660074">
      </trkpt>
      <trkpt lat="41.971482" lon="-87.659728">
      </trkpt>
      <trkpt lat="41.971565" lon="-87.656283">
      </trkpt>
      <trkpt lat="41.974712" lon="-87.656365">
      </trkpt>
      <trkpt lat="41.974712" lon="-87.656365">
      </trkpt>
      <trkpt lat="41.974712" lon="-87.656365">
      </trkpt>
      <trkpt lat="41.974712" lon="-87.656365">
      </trkpt>
      <trkpt lat="41.976381" lon="-87.656408">
      </trkpt>
      <trkpt lat="41.976453" lon="-87.651813">
      </trkpt>
      <trkpt lat="41.972134" lon="-87.648822">
      </trkpt>
      <trkpt lat="41.950978" lon="-87.644611">
      </trkpt>
      <trkpt lat="41.941067" lon="-87.638957">
      </trkpt>
      <trkpt lat="41.934639" lon="-87.632453">
      </trkpt>
      <trkpt lat="41.928427" lon="-87.632048">
      </trkpt>
      <trkpt lat="41.902733" lon="-87.62421">
      </trkpt>
      <trkpt lat="41.900898" lon="-87.619617">
      </trkpt>
      <trkpt lat="41.893955" lon="-87.614907">
      </trkpt>
      <trkpt lat="41.8919" lon="-87.614335">
      </trkpt>
      <trkpt lat="41.889771" lon="-87.61419">
      </trkpt>
      <trkpt lat="41.887652" lon="-87.615105">
      </trkpt>
      <trkpt lat="41.888319" lon="-87.625084">
      </trkpt>
      <trkpt lat="41.886918" lon="-87.62718">
      </trkpt>
      <trkpt lat="41.886919" lon="-87.63479">
      </trkpt>
      <trkpt lat="41.885732" lon="-87.634774">
      </trkpt>
      <trkpt lat="41.885735" lon="-87.634134">
      </trkpt>
      <trkpt lat="41.885735" lon="-87.634134">
      </trkpt>
      <trkpt lat="41.885755" lon="-87.627936">
      </trkpt>
      <trkpt lat="41.885755" lon="-87.627936">
      </trkpt>
      <trkpt lat="41.88577" lon="-87.624431">
      </trkpt>
      <trkpt lat="41.888194" lon="-87.624469">
      </trkpt>
      <trkpt lat="41.889969" lon="-87.624034">
      </trkpt>
      <trkpt lat="41.896271" lon="-87.624208">
      </trkpt>
      <trkpt lat="41.900014" lon="-87.624077">
      </trkpt>
      <trkpt lat="41.89998" lon="-87.626209">
      </trkpt>
      <trkpt lat="41.89998" lon="-87.626209">
      </trkpt>
      <trkpt lat="41.899945" lon="-87.62832">
      </trkpt>
      <trkpt lat="41.893025" lon="-87.628109">
      </trkpt>
      <trkpt lat="41.893025" lon="-87.628109">
      </trkpt>
      <trkpt lat="41.891667" lon="-87.628071">
      </trkpt>
      <trkpt lat="41.891225" lon="-87.644384">
      </trkpt>
      <trkpt lat="41.885699" lon="-87.644242">
      </trkpt>
      <trkpt lat="41.885686" lon="-87.645903">
      </trkpt>
      <trkpt lat="41.881827" lon="-87.645999">
      </trkpt>
      <trkpt lat="41.880956" lon="-87.646134">
      </trkpt>
      <trkpt lat="41.879569" lon="-87.646145">
      </trkpt>
      <trkpt lat="41.878121" lon="-87.646166">
      </trkpt>
      <trkpt lat="41.877218" lon="-87.646107">
      </trkpt>
      <trkpt lat="41.875597" lon="-87.646972">
      </trkpt>
      <trkpt lat="41.872433" lon="-87.645662">
      </trkpt>
      <trkpt lat="41.869682" lon="-87.645367">
      </trkpt>
      <trkpt lat="41.867138" lon="-87.645128">
      </trkpt>
      <trkpt lat="41.867183" lon="-87.642187">
      </trkpt>
      <trkpt lat="41.866585" lon="-87.642168">
      </trkpt>
      <trkpt lat="41.866585" lon="-87.642168">
      </trkpt>
      <trkpt lat="41.867285" lon="-87.64219">
      </trkpt>
      <trkpt lat="41.867254" lon="-87.644095">
      </trkpt>
      <trkpt lat="41.867888" lon="-87.644123">
      </trkpt>
      <trkpt lat="41.86961" lon="-87.644469">
      </trkpt>
      <trkpt lat="41.873521" lon="-87.644628">
      </trkpt>
      <trkpt lat="41.874907" lon="-87.644827">
      </trkpt>
      <trkpt lat="41.875725" lon="-87.645646">
      </trkpt>
      <trkpt lat="41.875961" lon="-87.646533">
      </trkpt>
      <trkpt lat="41.875863" lon="-87.649223">
      </trkpt>
      <trkpt lat="41.87589" lon="-87.651853">
      </trkpt>
      <trkpt lat="41.87787" lon="-87.651907">
      </trkpt>
      <trkpt lat="41.87789" lon="-87.650731">
      </trkpt>
      <trkpt lat="41.878179" lon="-87.650741">
      </trkpt>
      <trkpt lat="41.878179" lon="-87.650741">
      </trkpt>
      <trkpt lat="41.87789" lon="-87.650731">
      </trkpt>
      <trkpt lat="41.877963" lon="-87.645564">
      </trkpt>
      <trkpt lat="41.880374" lon="-87.645275">
      </trkpt>
      <trkpt lat="41.881847" lon="-87.645355">
      </trkpt>
      <trkpt lat="41.882198" lon="-87.645393">
      </trkpt>
      <trkpt lat="41.885306" lon="-87.645735">
      </trkpt>
      <trkpt lat="41.887151" lon="-87.646457">
      </trkpt>
      <trkpt lat="41.8891" lon="-87.648003">
      </trkpt>
      <trkpt lat="41.890597" lon="-87.650048">
      </trkpt>
      <trkpt lat="41.891699" lon="-87.651108">
      </trkpt>
      <trkpt lat="41.892164" lon="-87.650896">
      </trkpt>
      <trkpt lat="41.89242" lon="-87.65026">
      </trkpt>
      <trkpt lat="41.892476" lon="-87.628093">
      </trkpt>
      <trkpt lat="41.891667" lon="-87.628071">
      </trkpt>
      <trkpt lat="41.891657" lon="-87.628847">
      </trkpt>
      <trkpt lat="41.891657" lon="-87.628847">
      </trkpt>
      <trkpt lat="41.891543" lon="-87.637019">
      </trkpt>
      <trkpt lat="41.888771" lon="-87.636943">
      </trkpt>
      <trkpt lat="41.888455" lon="-87.636789">
      </trkpt>
      <trkpt lat="41.887983" lon="-87.63637">
      </trkpt>
      <trkpt lat="41.888006" lon="-87.638308">
      </trkpt>
      <trkpt lat="41.887933" lon="-87.638306">
      </trkpt>
      <trkpt lat="41.887943" lon="-87.637518">
      </trkpt>
      <trkpt lat="41.887943" lon="-87.637518">
      </trkpt>
      <trkpt lat="41.887983" lon="-87.63637">
      </trkpt>
      <trkpt lat="41.892795" lon="-87.637056">
      </trkpt>
      <trkpt lat="41.892522" lon="-87.64596">
      </trkpt>
      <trkpt lat="41.892674" lon="-87.65028">
      </trkpt>
      <trkpt lat="41.892622" lon="-87.653268">
      </trkpt>
      <trkpt lat="41.896481" lon="-87.658404">
      </trkpt>
      <trkpt lat="41.901399" lon="-87.660896">
      </trkpt>
      <trkpt lat="41.906646" lon="-87.66137">
      </trkpt>
      <trkpt lat="41.917654" lon="-87.670146">
      </trkpt>
      <trkpt lat="41.940372" lon="-87.709927">
      </trkpt>
      <trkpt lat="41.94215" lon="-87.715306">
      </trkpt>
      <trkpt lat="41.947613" lon="-87.719592">
      </trkpt>
      <trkpt lat="41.95982" lon="-87.741635">
      </trkpt>
      <trkpt lat="41.963594" lon="-87.746287">
      </trkpt>
      <trkpt lat="41.975724" lon="-87.747426">
      </trkpt>
      <trkpt lat="41.976396" lon="-87.74607">
      </trkpt>
      <trkpt lat="41.975364" lon="-87.745776">
      </trkpt>
      <trkpt lat="41.975339" lon="-87.747984">
      </trkpt>
      <trkpt lat="41.972896" lon="-87.747918">
      </trkpt>
      <trkpt lat="41.972794" lon="-87.747761">
      </trkpt>
      <trkpt lat="41.963263" lon="-87.746713">
      </trkpt>
      <trkpt lat="41.957103" lon="-87.73715">
      </trkpt>
      <trkpt lat="41.954216" lon="-87.732489">
      </trkpt>
      <trkpt lat="41.953606" lon="-87.732464">
      </trkpt>
      <trkpt lat="41.953587" lon="-87.733959">
      </trkpt>
      <trkpt lat="41.948121" lon="-87.733804">
      </trkpt>
      <trkpt lat="41.948077" lon="-87.736646">
      </trkpt>
      <trkpt lat="41.948162" lon="-87.736648">
      </trkpt>
      <trkpt lat="41.948162" lon="-87.736648">
      </trkpt>
      <trkpt lat="41.949925" lon="-87.736694">
      </trkpt>
      <trkpt lat="41.949908" lon="-87.738048">
      </trkpt>
      <trkpt lat="41.948431" lon="-87.738018">
      </trkpt>
      <trkpt lat="41.948006" lon="-87.73847">
      </trkpt>
      <trkpt lat="41.946271" lon="-87.735605">
      </trkpt>
      <trkpt lat="41.945882" lon="-87.766768">
      </trkpt>
      <trkpt lat="41.940397" lon="-87.76656">
      </trkpt>
      <trkpt lat="41.940315" lon="-87.773207">
      </trkpt>
      <trkpt lat="41.940315" lon="-87.773207">
      </trkpt>
      <trkpt lat="41.940315" lon="-87.773207">
      </trkpt>
      <trkpt lat="41.940315" lon="-87.773207">
      </trkpt>
      <trkpt lat="41.940307" lon="-87.773868">
      </trkpt>
      <trkpt lat="41.943056" lon="-87.773966">
      </trkpt>
      <trkpt lat="41.943137" lon="-87.766666">
      </trkpt>
      <trkpt lat="41.953168" lon="-87.767005">
      </trkpt>
      <trkpt lat="41.953985" lon="-87.688469">
      </trkpt>
      <trkpt lat="41.949742" lon="-87.688345">
      </trkpt>
      <trkpt lat="41.949742" lon="-87.688345">
      </trkpt>
      <trkpt lat="41.946744" lon="-87.688245">
      </trkpt>
      <trkpt lat="41.946565" lon="-87.712704">
      </trkpt>
      <trkpt lat="41.942239" lon="-87.712582">
      </trkpt>
      <trkpt lat="41.942252" lon="-87.714433">
      </trkpt>
      <trkpt lat="41.942862" lon="-87.715459">
      </trkpt>
      <trkpt lat="41.942862" lon="-87.715459">
      </trkpt>
      <trkpt lat="41.942239" lon="-87.712582">
      </trkpt>
      <trkpt lat="41.932003" lon="-87.712293">
      </trkpt>
      <trkpt lat="41.929168" lon="-87.707541">
      </trkpt>
      <trkpt lat="41.901143" lon="-87.706735">
      </trkpt>
      <trkpt lat="41.901143" lon="-87.706735">
      </trkpt>
      <trkpt lat="41.898325" lon="-87.706651">
      </trkpt>
      <trkpt lat="41.896575" lon="-87.702222">
      </trkpt>
      <trkpt lat="41.891131" lon="-87.701974">
      </trkpt>
      <trkpt lat="41.889426" lon="-87.701479">
      </trkpt>
      <trkpt lat="41.881942" lon="-87.701237">
      </trkpt>
      <trkpt lat="41.881992" lon="-87.696313">
      </trkpt>
      <trkpt lat="41.874902" lon="-87.696127">
      </trkpt>
      <trkpt lat="41.874908" lon="-87.695509">
      </trkpt>
      <trkpt lat="41.875125" lon="-87.690201">
      </trkpt>
      <trkpt lat="41.87561" lon="-87.659837">
      </trkpt>
      <trkpt lat="41.875329" lon="-87.650308">
      </trkpt>
      <trkpt lat="41.875302" lon="-87.647601">
      </trkpt>
      <trkpt lat="41.874563" lon="-87.645452">
      </trkpt>
      <trkpt lat="41.875077" lon="-87.644482">
      </trkpt>
      <trkpt lat="41.876036" lon="-87.64458">
      </trkpt>
      <trkpt lat="41.877863" lon="-87.645364">
      </trkpt>
      <trkpt lat="41.880374" lon="-87.645275">
      </trkpt>
      <trkpt lat="41.881847" lon="-87.645355">
      </trkpt>
      <trkpt lat="41.882198" lon="-87.645393">
      </trkpt>
      <trkpt lat="41.883308" lon="-87.645396">
      </trkpt>
      <trkpt lat="41.884407" lon="-87.645241">
      </trkpt>
      <trkpt lat="41.884406" lon="-87.646033">
      </trkpt>
      <trkpt lat="41.884406" lon="-87.646033">
      </trkpt>
      <trkpt lat="41.884415" lon="-87.647438">
      </trkpt>
      <trkpt lat="41.885665" lon="-87.647482">
      </trkpt>
      <trkpt lat="41.885682" lon="-87.646258">
      </trkpt>
      <trkpt lat="41.884746" lon="-87.645922">
      </trkpt>
      <trkpt lat="41.881827" lon="-87.645999">
      </trkpt>
      <trkpt lat="41.880956" lon="-87.646134">
      </trkpt>
      <trkpt lat="41.879569" lon="-87.646145">
      </trkpt>
      <trkpt lat="41.878121" lon="-87.646166">
      </trkpt>
      <trkpt lat="41.876334" lon="-87.646815">
      </trkpt>
      <trkpt lat="41.87588" lon="-87.647774">
      </trkpt>
      <trkpt lat="41.875728" lon="-87.649135">
      </trkpt>
      <trkpt lat="41.876197" lon="-87.657603">
      </trkpt>
      <trkpt lat="41.875763" lon="-87.688313">
      </trkpt>
      <trkpt lat="41.875862" lon="-87.692409">
      </trkpt>
      <trkpt lat="41.875983" lon="-87.696151">
      </trkpt>
      <trkpt lat="41.877434" lon="-87.696189">
      </trkpt>
      <trkpt lat="41.877461" lon="-87.693785">
      </trkpt>
      <trkpt lat="41.878371" lon="-87.693796">
      </trkpt>
      <trkpt lat="41.878346" lon="-87.696046">
      </trkpt>
      <trkpt lat="41.878346" lon="-87.696046">
      </trkpt>
      <trkpt lat="41.878344" lon="-87.696214">
      </trkpt>
      <trkpt lat="41.874902" lon="-87.696127">
      </trkpt>
      <trkpt lat="41.874908" lon="-87.695509">
      </trkpt>
      <trkpt lat="41.875125" lon="-87.690201">
      </trkpt>
      <trkpt lat="41.875329" lon="-87.650308">
      </trkpt>
      <trkpt lat="41.875302" lon="-87.647601">
      </trkpt>
      <trkpt lat="41.874563" lon="-87.645452">
      </trkpt>
      <trkpt lat="41.875077" lon="-87.644482">
      </trkpt>
      <trkpt lat="41.876036" lon="-87.64458">
      </trkpt>
      <trkpt lat="41.880374" lon="-87.645275">
      </trkpt>
      <trkpt lat="41.881847" lon="-87.645355">
      </trkpt>
      <trkpt lat="41.882198" lon="-87.645393">
      </trkpt>
      <trkpt lat="41.885931" lon="-87.64591">
      </trkpt>
      <trkpt lat="41.888483" lon="-87.647404">
      </trkpt>
      <trkpt lat="41.897251" lon="-87.658783">
      </trkpt>
      <trkpt lat="41.901753" lon="-87.660805">
      </trkpt>
      <trkpt lat="41.906443" lon="-87.661061">
      </trkpt>
      <trkpt lat="41.910145" lon="-87.664439">
      </trkpt>
      <trkpt lat="41.915739" lon="-87.667973">
      </trkpt>
      <trkpt lat="41.917898" lon="-87.66968">
      </trkpt>
      <trkpt lat="41.917936" lon="-87.667964">
      </trkpt>
      <trkpt lat="41.92163" lon="-87.66862">
      </trkpt>
      <trkpt lat="41.932402" lon="-87.668327">
      </trkpt>
      <trkpt lat="41.932567" lon="-87.65822">
      </trkpt>
      <trkpt lat="41.932567" lon="-87.65822">
      </trkpt>
      <trkpt lat="41.932598" lon="-87.65629">
      </trkpt>
      <trkpt lat="41.944445" lon="-87.656666">
      </trkpt>
      <trkpt lat="41.944527" lon="-87.649407">
      </trkpt>
      <trkpt lat="41.949128" lon="-87.649549">
      </trkpt>
      <trkpt lat="41.949147" lon="-87.648477">
      </trkpt>
      <trkpt lat="41.94974" lon="-87.646666">
      </trkpt>
      <trkpt lat="41.950014" lon="-87.646833">
      </trkpt>
    </trkseg>
  </trk>
</gpx>