<?xml version="1.0" encoding="UTF-8"?>
<gpx xmlns="http://www.topografix.com/GPX/1/1" xmlns:xsi="http://www.w3.org/2001/XMLSchema-instance" xsi:schemaLocation="http://www.topografix.com/GPX/1/1 http://www.topografix.com/GPX/1/1/gpx.xsd" version="1.1" creator="gpx.py -- https://github.com/tkrajina/gpxpy">
  <trk>
    <trkseg>
      <trkpt lat="41.932963" lon="-87.668473">
      </trkpt>
      <trkpt lat="41.921563" lon="-87.668616">
      </trkpt>
      <trkpt lat="41.921395" lon="-87.677255">
      </trkpt>
      <trkpt lat="41.918139" lon="-87.671115">
      </trkpt>
      <trkpt lat="41.915543" lon="-87.668247">
      </trkpt>
      <trkpt lat="41.909975" lon="-87.664752">
      </trkpt>
      <trkpt lat="41.906635" lon="-87.661559">
      </trkpt>
      <trkpt lat="41.900902" lon="-87.660921">
      </trkpt>
      <trkpt lat="41.896968" lon="-87.659049">
      </trkpt>
      <trkpt lat="41.895018" lon="-87.657114">
      </trkpt>
      <trkpt lat="41.891931" lon="-87.653963">
      </trkpt>
      <trkpt lat="41.892554" lon="-87.651034">
      </trkpt>
      <trkpt lat="41.892476" lon="-87.628093">
      </trkpt>
      <trkpt lat="41.893025" lon="-87.628109">
      </trkpt>
      <trkpt lat="41.893025" lon="-87.628109">
      </trkpt>
      <trkpt lat="41.890065" lon="-87.628018">
      </trkpt>
      <trkpt lat="41.890081" lon="-87.627058">
      </trkpt>
      <trkpt lat="41.890081" lon="-87.627058">
      </trkpt>
      <trkpt lat="41.890065" lon="-87.628018">
      </trkpt>
      <trkpt lat="41.893279" lon="-87.628116">
      </trkpt>
      <trkpt lat="41.893148" lon="-87.637063">
      </trkpt>
      <trkpt lat="41.892522" lon="-87.64596">
      </trkpt>
      <trkpt lat="41.892674" lon="-87.65028">
      </trkpt>
      <trkpt lat="41.892622" lon="-87.653268">
      </trkpt>
      <trkpt lat="41.896481" lon="-87.658404">
      </trkpt>
      <trkpt lat="41.901399" lon="-87.660896">
      </trkpt>
      <trkpt lat="41.906646" lon="-87.66137">
      </trkpt>
      <trkpt lat="41.917654" lon="-87.670146">
      </trkpt>
      <trkpt lat="41.940372" lon="-87.709927">
      </trkpt>
      <trkpt lat="41.94215" lon="-87.715306">
      </trkpt>
      <trkpt lat="41.947613" lon="-87.719592">
      </trkpt>
      <trkpt lat="41.95982" lon="-87.741635">
      </trkpt>
      <trkpt lat="41.963594" lon="-87.746287">
      </trkpt>
      <trkpt lat="41.975724" lon="-87.747426">
      </trkpt>
      <trkpt lat="41.976396" lon="-87.74607">
      </trkpt>
      <trkpt lat="41.975364" lon="-87.745776">
      </trkpt>
      <trkpt lat="41.975339" lon="-87.747984">
      </trkpt>
      <trkpt lat="41.931542" lon="-87.746595">
      </trkpt>
      <trkpt lat="41.93147" lon="-87.751741">
      </trkpt>
      <trkpt lat="41.93147" lon="-87.751741">
      </trkpt>
      <trkpt lat="41.931542" lon="-87.746595">
      </trkpt>
      <trkpt lat="41.946122" lon="-87.747072">
      </trkpt>
      <trkpt lat="41.946744" lon="-87.688245">
      </trkpt>
      <trkpt lat="41.949742" lon="-87.688345">
      </trkpt>
      <trkpt lat="41.949742" lon="-87.688345">
      </trkpt>
      <trkpt lat="41.946744" lon="-87.688245">
      </trkpt>
      <trkpt lat="41.946928" lon="-87.673726">
      </trkpt>
      <trkpt lat="41.939809" lon="-87.668729">
      </trkpt>
      <trkpt lat="41.936111" lon="-87.663682">
      </trkpt>
      <trkpt lat="41.936154" lon="-87.661245">
      </trkpt>
      <trkpt lat="41.936537" lon="-87.661241">
      </trkpt>
      <trkpt lat="41.936537" lon="-87.661241">
      </trkpt>
      <trkpt lat="41.934332" lon="-87.661195">
      </trkpt>
      <trkpt lat="41.930775" lon="-87.656205">
      </trkpt>
      <trkpt lat="41.9263" lon="-87.656071">
      </trkpt>
      <trkpt lat="41.926313" lon="-87.655572">
      </trkpt>
      <trkpt lat="41.926313" lon="-87.655572">
      </trkpt>
      <trkpt lat="41.926253" lon="-87.658497">
      </trkpt>
      <trkpt lat="41.917264" lon="-87.658201">
      </trkpt>
      <trkpt lat="41.916455" lon="-87.666413">
      </trkpt>
      <trkpt lat="41.910715" lon="-87.66216">
      </trkpt>
      <trkpt lat="41.910672" lon="-87.665662">
      </trkpt>
      <trkpt lat="41.910236" lon="-87.665325">
      </trkpt>
      <trkpt lat="41.906386" lon="-87.661439">
      </trkpt>
      <trkpt lat="41.901306" lon="-87.661057">
      </trkpt>
      <trkpt lat="41.896667" lon="-87.658834">
      </trkpt>
      <trkpt lat="41.889352" lon="-87.648602">
      </trkpt>
      <trkpt lat="41.886676" lon="-87.646473">
      </trkpt>
      <trkpt lat="41.861936" lon="-87.644538">
      </trkpt>
      <trkpt lat="41.857575" lon="-87.644794">
      </trkpt>
      <trkpt lat="41.857771" lon="-87.630236">
      </trkpt>
      <trkpt lat="41.867992" lon="-87.630401">
      </trkpt>
      <trkpt lat="41.867992" lon="-87.630401">
      </trkpt>
      <trkpt lat="41.872252" lon="-87.63061">
      </trkpt>
      <trkpt lat="41.87229" lon="-87.629121">
      </trkpt>
      <trkpt lat="41.877337" lon="-87.629268">
      </trkpt>
      <trkpt lat="41.877337" lon="-87.629268">
      </trkpt>
      <trkpt lat="41.878179" lon="-87.629291">
      </trkpt>
      <trkpt lat="41.878188" lon="-87.628769">
      </trkpt>
      <trkpt lat="41.875706" lon="-87.62871">
      </trkpt>
      <trkpt lat="41.875644" lon="-87.641651">
      </trkpt>
      <trkpt lat="41.876207" lon="-87.646562">
      </trkpt>
      <trkpt lat="41.872433" lon="-87.645662">
      </trkpt>
      <trkpt lat="41.857367" lon="-87.644363">
      </trkpt>
      <trkpt lat="41.850828" lon="-87.645091">
      </trkpt>
      <trkpt lat="41.847292" lon="-87.642257">
      </trkpt>
      <trkpt lat="41.845323" lon="-87.634652">
      </trkpt>
      <trkpt lat="41.843952" lon="-87.632305">
      </trkpt>
      <trkpt lat="41.841797" lon="-87.631511">
      </trkpt>
      <trkpt lat="41.834597" lon="-87.631593">
      </trkpt>
      <trkpt lat="41.834642" lon="-87.628886">
      </trkpt>
      <trkpt lat="41.833673" lon="-87.628847">
      </trkpt>
      <trkpt lat="41.833673" lon="-87.628847">
      </trkpt>
      <trkpt lat="41.832805" lon="-87.628812">
      </trkpt>
      <trkpt lat="41.832803" lon="-87.629032">
      </trkpt>
      <trkpt lat="41.830973" lon="-87.628964">
      </trkpt>
      <trkpt lat="41.830961" lon="-87.629817">
      </trkpt>
      <trkpt lat="41.831311" lon="-87.629831">
      </trkpt>
      <trkpt lat="41.837743" lon="-87.630393">
      </trkpt>
      <trkpt lat="41.841726" lon="-87.630492">
      </trkpt>
      <trkpt lat="41.844069" lon="-87.631001">
      </trkpt>
      <trkpt lat="41.845776" lon="-87.63096">
      </trkpt>
      <trkpt lat="41.846653" lon="-87.630081">
      </trkpt>
      <trkpt lat="41.847827" lon="-87.623841">
      </trkpt>
      <trkpt lat="41.847976" lon="-87.616851">
      </trkpt>
      <trkpt lat="41.847877" lon="-87.613703">
      </trkpt>
      <trkpt lat="41.847311" lon="-87.612514">
      </trkpt>
      <trkpt lat="41.841157" lon="-87.609757">
      </trkpt>
      <trkpt lat="41.839163" lon="-87.609375">
      </trkpt>
      <trkpt lat="41.838941" lon="-87.609615">
      </trkpt>
      <trkpt lat="41.839204" lon="-87.609914">
      </trkpt>
      <trkpt lat="41.840861" lon="-87.610065">
      </trkpt>
      <trkpt lat="41.854301" lon="-87.615619">
      </trkpt>
      <trkpt lat="41.855615" lon="-87.616027">
      </trkpt>
      <trkpt lat="41.855561" lon="-87.616271">
      </trkpt>
      <trkpt lat="41.854397" lon="-87.615604">
      </trkpt>
      <trkpt lat="41.854329" lon="-87.615902">
      </trkpt>
      <trkpt lat="41.854329" lon="-87.615902">
      </trkpt>
      <trkpt lat="41.854397" lon="-87.615604">
      </trkpt>
      <trkpt lat="41.855561" lon="-87.616271">
      </trkpt>
      <trkpt lat="41.855615" lon="-87.616027">
      </trkpt>
      <trkpt lat="41.854301" lon="-87.615619">
      </trkpt>
      <trkpt lat="41.85521" lon="-87.615992">
      </trkpt>
      <trkpt lat="41.854986" lon="-87.616959">
      </trkpt>
      <trkpt lat="41.85573" lon="-87.616876">
      </trkpt>
      <trkpt lat="41.856402" lon="-87.616543">
      </trkpt>
      <trkpt lat="41.857757" lon="-87.617503">
      </trkpt>
      <trkpt lat="41.858122" lon="-87.616068">
      </trkpt>
      <trkpt lat="41.861647" lon="-87.618159">
      </trkpt>
      <trkpt lat="41.866235" lon="-87.619248">
      </trkpt>
      <trkpt lat="41.869799" lon="-87.617003">
      </trkpt>
      <trkpt lat="41.881825" lon="-87.617167">
      </trkpt>
      <trkpt lat="41.884932" lon="-87.613613">
      </trkpt>
      <trkpt lat="41.892878" lon="-87.614041">
      </trkpt>
      <trkpt lat="41.89691" lon="-87.616735">
      </trkpt>
      <trkpt lat="41.896633" lon="-87.631243">
      </trkpt>
      <trkpt lat="41.895637" lon="-87.631219">
      </trkpt>
      <trkpt lat="41.895653" lon="-87.630373">
      </trkpt>
      <trkpt lat="41.895653" lon="-87.630373">
      </trkpt>
      <trkpt lat="41.895653" lon="-87.630373">
      </trkpt>
      <trkpt lat="41.895653" lon="-87.630373">
      </trkpt>
      <trkpt lat="41.895665" lon="-87.629762">
      </trkpt>
      <trkpt lat="41.896655" lon="-87.62978">
      </trkpt>
      <trkpt lat="41.896844" lon="-87.616893">
      </trkpt>
      <trkpt lat="41.892868" lon="-87.614264">
      </trkpt>
      <trkpt lat="41.885247" lon="-87.614081">
      </trkpt>
      <trkpt lat="41.884041" lon="-87.614645">
      </trkpt>
      <trkpt lat="41.881821" lon="-87.617453">
      </trkpt>
      <trkpt lat="41.869765" lon="-87.617261">
      </trkpt>
      <trkpt lat="41.866068" lon="-87.619589">
      </trkpt>
      <trkpt lat="41.853242" lon="-87.614728">
      </trkpt>
      <trkpt lat="41.849959" lon="-87.613521">
      </trkpt>
      <trkpt lat="41.84861" lon="-87.614264">
      </trkpt>
      <trkpt lat="41.848129" lon="-87.623007">
      </trkpt>
      <trkpt lat="41.847768" lon="-87.626571">
      </trkpt>
      <trkpt lat="41.847608" lon="-87.626978">
      </trkpt>
      <trkpt lat="41.836401" lon="-87.626711">
      </trkpt>
      <trkpt lat="41.836491" lon="-87.626276">
      </trkpt>
      <trkpt lat="41.836491" lon="-87.626276">
      </trkpt>
      <trkpt lat="41.836431" lon="-87.626539">
      </trkpt>
      <trkpt lat="41.838297" lon="-87.626578">
      </trkpt>
      <trkpt lat="41.838265" lon="-87.630021">
      </trkpt>
      <trkpt lat="41.841613" lon="-87.6301">
      </trkpt>
      <trkpt lat="41.844491" lon="-87.631814">
      </trkpt>
      <trkpt lat="41.847286" lon="-87.641891">
      </trkpt>
      <trkpt lat="41.850184" lon="-87.644549">
      </trkpt>
      <trkpt lat="41.867845" lon="-87.644517">
      </trkpt>
      <trkpt lat="41.873521" lon="-87.644628">
      </trkpt>
      <trkpt lat="41.875725" lon="-87.645646">
      </trkpt>
      <trkpt lat="41.875863" lon="-87.649223">
      </trkpt>
      <trkpt lat="41.875633" lon="-87.697949">
      </trkpt>
      <trkpt lat="41.874284" lon="-87.70915">
      </trkpt>
      <trkpt lat="41.873967" lon="-87.732948">
      </trkpt>
      <trkpt lat="41.87187" lon="-87.740374">
      </trkpt>
      <trkpt lat="41.871015" lon="-87.767488">
      </trkpt>
      <trkpt lat="41.873251" lon="-87.799298">
      </trkpt>
      <trkpt lat="41.87368" lon="-87.804441">
      </trkpt>
      <trkpt lat="41.934519" lon="-87.806613">
      </trkpt>
      <trkpt lat="41.93424" lon="-87.820654">
      </trkpt>
      <trkpt lat="41.934634" lon="-87.82067">
      </trkpt>
      <trkpt lat="41.934634" lon="-87.82067">
      </trkpt>
      <trkpt lat="41.93424" lon="-87.820654">
      </trkpt>
      <trkpt lat="41.934229" lon="-87.821275">
      </trkpt>
      <trkpt lat="41.937842" lon="-87.821404">
      </trkpt>
      <trkpt lat="41.938315" lon="-87.786046">
      </trkpt>
      <trkpt lat="41.945676" lon="-87.786299">
      </trkpt>
      <trkpt lat="41.946377" lon="-87.727395">
      </trkpt>
      <trkpt lat="41.947279" lon="-87.727423">
      </trkpt>
      <trkpt lat="41.94726" lon="-87.728921">
      </trkpt>
      <trkpt lat="41.94726" lon="-87.728921">
      </trkpt>
      <trkpt lat="41.947279" lon="-87.727423">
      </trkpt>
      <trkpt lat="41.946377" lon="-87.727395">
      </trkpt>
      <trkpt lat="41.946271" lon="-87.735605">
      </trkpt>
      <trkpt lat="41.9457" lon="-87.734699">
      </trkpt>
      <trkpt lat="41.941726" lon="-87.734646">
      </trkpt>
      <trkpt lat="41.941742" lon="-87.733458">
      </trkpt>
      <trkpt lat="41.941742" lon="-87.733458">
      </trkpt>
      <trkpt lat="41.941765" lon="-87.732106">
      </trkpt>
      <trkpt lat="41.94631" lon="-87.732228">
      </trkpt>
      <trkpt lat="41.946484" lon="-87.71959">
      </trkpt>
      <trkpt lat="41.944989" lon="-87.718156">
      </trkpt>
      <trkpt lat="41.942115" lon="-87.715518">
      </trkpt>
      <trkpt lat="41.939977" lon="-87.709442">
      </trkpt>
      <trkpt lat="41.918378" lon="-87.671496">
      </trkpt>
      <trkpt lat="41.916326" lon="-87.668918">
      </trkpt>
      <trkpt lat="41.913088" lon="-87.666712">
      </trkpt>
      <trkpt lat="41.910672" lon="-87.665662">
      </trkpt>
      <trkpt lat="41.911172" lon="-87.633071">
      </trkpt>
      <trkpt lat="41.912903" lon="-87.633044">
      </trkpt>
      <trkpt lat="41.913237" lon="-87.632269">
      </trkpt>
      <trkpt lat="41.912247" lon="-87.628505">
      </trkpt>
      <trkpt lat="41.912475" lon="-87.626923">
      </trkpt>
      <trkpt lat="41.913347" lon="-87.626017">
      </trkpt>
      <trkpt lat="41.917847" lon="-87.628668">
      </trkpt>
      <trkpt lat="41.926949" lon="-87.631417">
      </trkpt>
      <trkpt lat="41.926949" lon="-87.631417">
      </trkpt>
      <trkpt lat="41.926949" lon="-87.631417">
      </trkpt>
      <trkpt lat="41.926949" lon="-87.631417">
      </trkpt>
      <trkpt lat="41.934701" lon="-87.632273">
      </trkpt>
      <trkpt lat="41.936704" lon="-87.633661">
      </trkpt>
      <trkpt lat="41.939073" lon="-87.63676">
      </trkpt>
      <trkpt lat="41.940568" lon="-87.638088">
      </trkpt>
      <trkpt lat="41.940268" lon="-87.638796">
      </trkpt>
      <trkpt lat="41.939931" lon="-87.638606">
      </trkpt>
      <trkpt lat="41.936955" lon="-87.634194">
      </trkpt>
      <trkpt lat="41.934639" lon="-87.632453">
      </trkpt>
      <trkpt lat="41.928427" lon="-87.632048">
      </trkpt>
      <trkpt lat="41.918735" lon="-87.629189">
      </trkpt>
      <trkpt lat="41.911998" lon="-87.62605">
      </trkpt>
      <trkpt lat="41.904908" lon="-87.624861">
      </trkpt>
      <trkpt lat="41.901978" lon="-87.624179">
      </trkpt>
      <trkpt lat="41.892538" lon="-87.624293">
      </trkpt>
      <trkpt lat="41.892574" lon="-87.621881">
      </trkpt>
      <trkpt lat="41.892574" lon="-87.621881">
      </trkpt>
      <trkpt lat="41.892574" lon="-87.621881">
      </trkpt>
      <trkpt lat="41.892574" lon="-87.621881">
      </trkpt>
      <trkpt lat="41.892588" lon="-87.620263">
      </trkpt>
      <trkpt lat="41.876287" lon="-87.620625">
      </trkpt>
      <trkpt lat="41.875633" lon="-87.697949">
      </trkpt>
      <trkpt lat="41.874284" lon="-87.70915">
      </trkpt>
      <trkpt lat="41.873967" lon="-87.732948">
      </trkpt>
      <trkpt lat="41.87187" lon="-87.740374">
      </trkpt>
      <trkpt lat="41.871015" lon="-87.767488">
      </trkpt>
      <trkpt lat="41.873251" lon="-87.799298">
      </trkpt>
      <trkpt lat="41.87368" lon="-87.804441">
      </trkpt>
      <trkpt lat="41.934519" lon="-87.806613">
      </trkpt>
      <trkpt lat="41.93424" lon="-87.820654">
      </trkpt>
      <trkpt lat="41.934634" lon="-87.82067">
      </trkpt>
      <trkpt lat="41.934634" lon="-87.82067">
      </trkpt>
      <trkpt lat="41.934634" lon="-87.82067">
      </trkpt>
      <trkpt lat="41.934634" lon="-87.82067">
      </trkpt>
      <trkpt lat="41.93424" lon="-87.820654">
      </trkpt>
      <trkpt lat="41.934229" lon="-87.821275">
      </trkpt>
      <trkpt lat="41.937842" lon="-87.821404">
      </trkpt>
      <trkpt lat="41.938315" lon="-87.786046">
      </trkpt>
      <trkpt lat="41.945676" lon="-87.786299">
      </trkpt>
      <trkpt lat="41.946484" lon="-87.71959">
      </trkpt>
      <trkpt lat="41.944989" lon="-87.718156">
      </trkpt>
      <trkpt lat="41.942115" lon="-87.715518">
      </trkpt>
      <trkpt lat="41.940414" lon="-87.710267">
      </trkpt>
      <trkpt lat="41.927358" lon="-87.687291">
      </trkpt>
      <trkpt lat="41.924962" lon="-87.683686">
      </trkpt>
      <trkpt lat="41.925453" lon="-87.648766">
      </trkpt>
      <trkpt lat="41.929091" lon="-87.648892">
      </trkpt>
      <trkpt lat="41.929694" lon="-87.642943">
      </trkpt>
      <trkpt lat="41.928546" lon="-87.64223">
      </trkpt>
      <trkpt lat="41.928323" lon="-87.642977">
      </trkpt>
      <trkpt lat="41.928323" lon="-87.642977">
      </trkpt>
      <trkpt lat="41.928034" lon="-87.644207">
      </trkpt>
      <trkpt lat="41.927862" lon="-87.646422">
      </trkpt>
      <trkpt lat="41.929104" lon="-87.646454">
      </trkpt>
      <trkpt lat="41.929091" lon="-87.648892">
      </trkpt>
      <trkpt lat="41.932728" lon="-87.649013">
      </trkpt>
      <trkpt lat="41.932636" lon="-87.653863">
      </trkpt>
      <trkpt lat="41.937175" lon="-87.654016">
      </trkpt>
      <trkpt lat="41.937186" lon="-87.653552">
      </trkpt>
      <trkpt lat="41.937074" lon="-87.65355">
      </trkpt>
      <trkpt lat="41.937074" lon="-87.65355">
      </trkpt>
      <trkpt lat="41.937186" lon="-87.653552">
      </trkpt>
      <trkpt lat="41.937175" lon="-87.654016">
      </trkpt>
      <trkpt lat="41.932636" lon="-87.653863">
      </trkpt>
      <trkpt lat="41.932278" lon="-87.678134">
      </trkpt>
      <trkpt lat="41.925026" lon="-87.677893">
      </trkpt>
      <trkpt lat="41.924981" lon="-87.681912">
      </trkpt>
      <trkpt lat="41.926707" lon="-87.685177">
      </trkpt>
      <trkpt lat="41.940439" lon="-87.709664">
      </trkpt>
      <trkpt lat="41.942208" lon="-87.714861">
      </trkpt>
      <trkpt lat="41.947985" lon="-87.719618">
      </trkpt>
      <trkpt lat="41.958569" lon="-87.738838">
      </trkpt>
      <trkpt lat="41.960451" lon="-87.741371">
      </trkpt>
      <trkpt lat="41.960845" lon="-87.74187">
      </trkpt>
      <trkpt lat="41.960061" lon="-87.794287">
      </trkpt>
      <trkpt lat="41.946631" lon="-87.822074">
      </trkpt>
      <trkpt lat="41.937842" lon="-87.821404">
      </trkpt>
      <trkpt lat="41.937866" lon="-87.820185">
      </trkpt>
      <trkpt lat="41.936076" lon="-87.820102">
      </trkpt>
      <trkpt lat="41.936062" lon="-87.820727">
      </trkpt>
      <trkpt lat="41.934634" lon="-87.82067">
      </trkpt>
      <trkpt lat="41.934634" lon="-87.82067">
      </trkpt>
      <trkpt lat="41.934634" lon="-87.82067">
      </trkpt>
      <trkpt lat="41.934634" lon="-87.82067">
      </trkpt>
      <trkpt lat="41.93424" lon="-87.820654">
      </trkpt>
      <trkpt lat="41.934229" lon="-87.821275">
      </trkpt>
      <trkpt lat="41.937842" lon="-87.821404">
      </trkpt>
      <trkpt lat="41.938315" lon="-87.786046">
      </trkpt>
      <trkpt lat="41.945676" lon="-87.786299">
      </trkpt>
      <trkpt lat="41.945882" lon="-87.766768">
      </trkpt>
      <trkpt lat="41.953168" lon="-87.767005">
      </trkpt>
      <trkpt lat="41.953896" lon="-87.705584">
      </trkpt>
      <trkpt lat="41.959386" lon="-87.705748">
      </trkpt>
      <trkpt lat="41.959389" lon="-87.702918">
      </trkpt>
      <trkpt lat="41.959389" lon="-87.702918">
      </trkpt>
      <trkpt lat="41.959417" lon="-87.698419">
      </trkpt>
      <trkpt lat="41.939404" lon="-87.697818">
      </trkpt>
      <trkpt lat="41.939378" lon="-87.702718">
      </trkpt>
      <trkpt lat="41.91745" lon="-87.702101">
      </trkpt>
      <trkpt lat="41.917431" lon="-87.703944">
      </trkpt>
      <trkpt lat="41.915416" lon="-87.703892">
      </trkpt>
      <trkpt lat="41.915416" lon="-87.703892">
      </trkpt>
      <trkpt lat="41.913751" lon="-87.703857">
      </trkpt>
      <trkpt lat="41.913772" lon="-87.70233">
      </trkpt>
      <trkpt lat="41.912" lon="-87.702283">
      </trkpt>
      <trkpt lat="41.912147" lon="-87.701932">
      </trkpt>
      <trkpt lat="41.91745" lon="-87.702101">
      </trkpt>
      <trkpt lat="41.917587" lon="-87.687413">
      </trkpt>
      <trkpt lat="41.928661" lon="-87.687706">
      </trkpt>
      <trkpt lat="41.931491" lon="-87.684147">
      </trkpt>
      <trkpt lat="41.932222" lon="-87.683979">
      </trkpt>
      <trkpt lat="41.932257" lon="-87.680713">
      </trkpt>
      <trkpt lat="41.932073" lon="-87.680658">
      </trkpt>
      <trkpt lat="41.932073" lon="-87.680658">
      </trkpt>
      <trkpt lat="41.932257" lon="-87.680713">
      </trkpt>
      <trkpt lat="41.932278" lon="-87.678134">
      </trkpt>
      <trkpt lat="41.925026" lon="-87.677893">
      </trkpt>
      <trkpt lat="41.924981" lon="-87.681912">
      </trkpt>
      <trkpt lat="41.926707" lon="-87.685177">
      </trkpt>
      <trkpt lat="41.940439" lon="-87.709664">
      </trkpt>
      <trkpt lat="41.942387" lon="-87.715161">
      </trkpt>
      <trkpt lat="41.943551" lon="-87.716453">
      </trkpt>
      <trkpt lat="41.947406" lon="-87.71887">
      </trkpt>
      <trkpt lat="41.950079" lon="-87.723791">
      </trkpt>
      <trkpt lat="41.952511" lon="-87.727575">
      </trkpt>
      <trkpt lat="41.951378" lon="-87.727531">
      </trkpt>
      <trkpt lat="41.947686" lon="-87.720007">
      </trkpt>
      <trkpt lat="41.945898" lon="-87.718393">
      </trkpt>
      <trkpt lat="41.945898" lon="-87.718393">
      </trkpt>
      <trkpt lat="41.94319" lon="-87.716727">
      </trkpt>
      <trkpt lat="41.942115" lon="-87.715518">
      </trkpt>
      <trkpt lat="41.941459" lon="-87.714674">
      </trkpt>
      <trkpt lat="41.941087" lon="-87.713508">
      </trkpt>
      <trkpt lat="41.940478" lon="-87.712526">
      </trkpt>
      <trkpt lat="41.957384" lon="-87.713022">
      </trkpt>
      <trkpt lat="41.957384" lon="-87.713022">
      </trkpt>
      <trkpt lat="41.940478" lon="-87.712526">
      </trkpt>
      <trkpt lat="41.939977" lon="-87.709442">
      </trkpt>
      <trkpt lat="41.917456" lon="-87.670155">
      </trkpt>
      <trkpt lat="41.906635" lon="-87.661559">
      </trkpt>
      <trkpt lat="41.901587" lon="-87.661131">
      </trkpt>
      <trkpt lat="41.897534" lon="-87.659383">
      </trkpt>
      <trkpt lat="41.895016" lon="-87.657508">
      </trkpt>
      <trkpt lat="41.893069" lon="-87.657416">
      </trkpt>
      <trkpt lat="41.88891" lon="-87.660796">
      </trkpt>
      <trkpt lat="41.883985" lon="-87.663487">
      </trkpt>
      <trkpt lat="41.881475" lon="-87.666061">
      </trkpt>
      <trkpt lat="41.881324" lon="-87.679085">
      </trkpt>
      <trkpt lat="41.88126" lon="-87.678236">
      </trkpt>
      <trkpt lat="41.88126" lon="-87.678236">
      </trkpt>
      <trkpt lat="41.881323" lon="-87.676638">
      </trkpt>
      <trkpt lat="41.875016" lon="-87.676555">
      </trkpt>
      <trkpt lat="41.875021" lon="-87.676128">
      </trkpt>
      <trkpt lat="41.875431" lon="-87.673504">
      </trkpt>
      <trkpt lat="41.875604" lon="-87.6605">
      </trkpt>
      <trkpt lat="41.875318" lon="-87.651569">
      </trkpt>
      <trkpt lat="41.875546" lon="-87.629223">
      </trkpt>
      <trkpt lat="41.878179" lon="-87.629291">
      </trkpt>
      <trkpt lat="41.878293" lon="-87.624208">
      </trkpt>
      <trkpt lat="41.884366" lon="-87.624344">
      </trkpt>
      <trkpt lat="41.884372" lon="-87.623414">
      </trkpt>
      <trkpt lat="41.884406" lon="-87.617529">
      </trkpt>
      <trkpt lat="41.885524" lon="-87.617418">
      </trkpt>
      <trkpt lat="41.885561" lon="-87.616288">
      </trkpt>
      <trkpt lat="41.886523" lon="-87.616289">
      </trkpt>
      <trkpt lat="41.88653" lon="-87.618715">
      </trkpt>
      <trkpt lat="41.88653" lon="-87.618715">
      </trkpt>
      <trkpt lat="41.886506" lon="-87.619106">
      </trkpt>
      <trkpt lat="41.885527" lon="-87.6191">
      </trkpt>
      <trkpt lat="41.885524" lon="-87.617418">
      </trkpt>
      <trkpt lat="41.884538" lon="-87.617389">
      </trkpt>
      <trkpt lat="41.884484" lon="-87.624371">
      </trkpt>
      <trkpt lat="41.887965" lon="-87.624484">
      </trkpt>
      <trkpt lat="41.889969" lon="-87.624034">
      </trkpt>
      <trkpt lat="41.896741" lon="-87.624176">
      </trkpt>
      <trkpt lat="41.89684" lon="-87.617065">
      </trkpt>
      <trkpt lat="41.89823" lon="-87.618028">
      </trkpt>
      <trkpt lat="41.89823" lon="-87.618028">
      </trkpt>
      <trkpt lat="41.900878" lon="-87.619828">
      </trkpt>
      <trkpt lat="41.900824" lon="-87.624042">
      </trkpt>
      <trkpt lat="41.902709" lon="-87.623664">
      </trkpt>
      <trkpt lat="41.90867" lon="-87.625557">
      </trkpt>
      <trkpt lat="41.912141" lon="-87.62589">
      </trkpt>
      <trkpt lat="41.918036" lon="-87.628743">
      </trkpt>
      <trkpt lat="41.924159" lon="-87.630534">
      </trkpt>
      <trkpt lat="41.926223" lon="-87.63067">
      </trkpt>
      <trkpt lat="41.925697" lon="-87.634084">
      </trkpt>
      <trkpt lat="41.925491" lon="-87.646336">
      </trkpt>
      <trkpt lat="41.926694" lon="-87.64637">
      </trkpt>
      <trkpt lat="41.926753" lon="-87.642974">
      </trkpt>
      <trkpt lat="41.926753" lon="-87.642974">
      </trkpt>
      <trkpt lat="41.926767" lon="-87.642153">
      </trkpt>
      <trkpt lat="41.927017" lon="-87.641326">
      </trkpt>
      <trkpt lat="41.921963" lon="-87.638269">
      </trkpt>
      <trkpt lat="41.921954" lon="-87.638941">
      </trkpt>
      <trkpt lat="41.918322" lon="-87.638808">
      </trkpt>
      <trkpt lat="41.918106" lon="-87.638503">
      </trkpt>
      <trkpt lat="41.918106" lon="-87.638503">
      </trkpt>
      <trkpt lat="41.918322" lon="-87.638808">
      </trkpt>
      <trkpt lat="41.911164" lon="-87.638583">
      </trkpt>
      <trkpt lat="41.910674" lon="-87.664445">
      </trkpt>
      <trkpt lat="41.91815" lon="-87.670574">
      </trkpt>
      <trkpt lat="41.942208" lon="-87.714861">
      </trkpt>
      <trkpt lat="41.947985" lon="-87.719618">
      </trkpt>
      <trkpt lat="41.960998" lon="-87.742619">
      </trkpt>
      <trkpt lat="41.965012" lon="-87.746732">
      </trkpt>
      <trkpt lat="41.980044" lon="-87.746614">
      </trkpt>
      <trkpt lat="41.987222" lon="-87.751348">
      </trkpt>
      <trkpt lat="42.009518" lon="-87.749189">
      </trkpt>
      <trkpt lat="42.021217" lon="-87.765343">
      </trkpt>
      <trkpt lat="42.026582" lon="-87.768599">
      </trkpt>
      <trkpt lat="42.052877" lon="-87.761543">
      </trkpt>
      <trkpt lat="42.062763" lon="-87.754799">
      </trkpt>
      <trkpt lat="42.079722" lon="-87.758525">
      </trkpt>
      <trkpt lat="42.079588" lon="-87.761472">
      </trkpt>
      <trkpt lat="42.0832" lon="-87.761418">
      </trkpt>
      <trkpt lat="42.083212" lon="-87.762415">
      </trkpt>
      <trkpt lat="42.083212" lon="-87.762415">
      </trkpt>
      <trkpt lat="42.0832" lon="-87.761418">
      </trkpt>
      <trkpt lat="42.079501" lon="-87.761473">
      </trkpt>
      <trkpt lat="42.079494" lon="-87.761021">
      </trkpt>
      <trkpt lat="42.078768" lon="-87.758832">
      </trkpt>
      <trkpt lat="42.072344" lon="-87.758574">
      </trkpt>
      <trkpt lat="42.063156" lon="-87.75495">
      </trkpt>
      <trkpt lat="42.05296" lon="-87.761767">
      </trkpt>
      <trkpt lat="42.042734" lon="-87.762482">
      </trkpt>
      <trkpt lat="42.034858" lon="-87.768058">
      </trkpt>
      <trkpt lat="42.026512" lon="-87.768822">
      </trkpt>
      <trkpt lat="42.021309" lon="-87.765749">
      </trkpt>
      <trkpt lat="42.013632" lon="-87.752686">
      </trkpt>
      <trkpt lat="42.009007" lon="-87.749252">
      </trkpt>
      <trkpt lat="42.001046" lon="-87.748976">
      </trkpt>
      <trkpt lat="41.987219" lon="-87.751521">
      </trkpt>
      <trkpt lat="41.980228" lon="-87.746835">
      </trkpt>
      <trkpt lat="41.967806" lon="-87.747228">
      </trkpt>
      <trkpt lat="41.964382" lon="-87.747295">
      </trkpt>
      <trkpt lat="41.96438" lon="-87.747627">
      </trkpt>
      <trkpt lat="41.960724" lon="-87.747538">
      </trkpt>
      <trkpt lat="41.960061" lon="-87.794287">
      </trkpt>
      <trkpt lat="41.946631" lon="-87.822074">
      </trkpt>
      <trkpt lat="41.937842" lon="-87.821404">
      </trkpt>
      <trkpt lat="41.937866" lon="-87.820185">
      </trkpt>
      <trkpt lat="41.936076" lon="-87.820102">
      </trkpt>
      <trkpt lat="41.936062" lon="-87.820727">
      </trkpt>
      <trkpt lat="41.934634" lon="-87.82067">
      </trkpt>
      <trkpt lat="41.934634" lon="-87.82067">
      </trkpt>
      <trkpt lat="41.93424" lon="-87.820654">
      </trkpt>
      <trkpt lat="41.934229" lon="-87.821275">
      </trkpt>
      <trkpt lat="41.937842" lon="-87.821404">
      </trkpt>
      <trkpt lat="41.937819" lon="-87.822616">
      </trkpt>
      <trkpt lat="41.945136" lon="-87.82292">
      </trkpt>
      <trkpt lat="41.945095" lon="-87.824627">
      </trkpt>
      <trkpt lat="41.945399" lon="-87.824658">
      </trkpt>
      <trkpt lat="41.960061" lon="-87.794287">
      </trkpt>
      <trkpt lat="41.960205" lon="-87.786816">
      </trkpt>
      <trkpt lat="41.962988" lon="-87.786909">
      </trkpt>
      <trkpt lat="41.964752" lon="-87.788007">
      </trkpt>
      <trkpt lat="41.968414" lon="-87.788018">
      </trkpt>
      <trkpt lat="41.96853" lon="-87.778289">
      </trkpt>
      <trkpt lat="41.967665" lon="-87.77728">
      </trkpt>
      <trkpt lat="41.967822" lon="-87.765021">
      </trkpt>
      <trkpt lat="41.967596" lon="-87.761466">
      </trkpt>
      <trkpt lat="41.967869" lon="-87.760755">
      </trkpt>
      <trkpt lat="41.967875" lon="-87.757622">
      </trkpt>
      <trkpt lat="41.968431" lon="-87.758399">
      </trkpt>
      <trkpt lat="41.968431" lon="-87.758399">
      </trkpt>
      <trkpt lat="41.967875" lon="-87.757622">
      </trkpt>
      <trkpt lat="41.967991" lon="-87.750566">
      </trkpt>
      <trkpt lat="41.964718" lon="-87.750094">
      </trkpt>
      <trkpt lat="41.96438" lon="-87.747627">
      </trkpt>
      <trkpt lat="41.962872" lon="-87.747013">
      </trkpt>
      <trkpt lat="41.962173" lon="-87.747605">
      </trkpt>
      <trkpt lat="41.898691" lon="-87.7459">
      </trkpt>
      <trkpt lat="41.8989" lon="-87.733586">
      </trkpt>
      <trkpt lat="41.899819" lon="-87.733611">
      </trkpt>
      <trkpt lat="41.899795" lon="-87.735367">
      </trkpt>
      <trkpt lat="41.899795" lon="-87.735367">
      </trkpt>
      <trkpt lat="41.899785" lon="-87.736064">
      </trkpt>
      <trkpt lat="41.902516" lon="-87.736145">
      </trkpt>
      <trkpt lat="41.902357" lon="-87.745973">
      </trkpt>
      <trkpt lat="41.909683" lon="-87.746129">
      </trkpt>
      <trkpt lat="41.90959" lon="-87.749173">
      </trkpt>
      <trkpt lat="41.909507" lon="-87.755785">
      </trkpt>
      <trkpt lat="41.931408" lon="-87.756422">
      </trkpt>
      <trkpt lat="41.931344" lon="-87.761321">
      </trkpt>
      <trkpt lat="41.936816" lon="-87.761514">
      </trkpt>
      <trkpt lat="41.936824" lon="-87.760791">
      </trkpt>
      <trkpt lat="41.936824" lon="-87.760791">
      </trkpt>
      <trkpt lat="41.936878" lon="-87.756622">
      </trkpt>
      <trkpt lat="41.938708" lon="-87.756691">
      </trkpt>
      <trkpt lat="41.93884" lon="-87.746879">
      </trkpt>
      <trkpt lat="41.953418" lon="-87.747303">
      </trkpt>
      <trkpt lat="41.954302" lon="-87.66911">
      </trkpt>
      <trkpt lat="41.950641" lon="-87.669013">
      </trkpt>
      <trkpt lat="41.950633" lon="-87.669671">
      </trkpt>
    </trkseg>
  </trk>
</gpx>