<?xml version="1.0" encoding="UTF-8"?>
<gpx xmlns="http://www.topografix.com/GPX/1/1" xmlns:xsi="http://www.w3.org/2001/XMLSchema-instance" xsi:schemaLocation="http://www.topografix.com/GPX/1/1 http://www.topografix.com/GPX/1/1/gpx.xsd" version="1.1" creator="gpx.py -- https://github.com/tkrajina/gpxpy">
  <trk>
    <trkseg>
      <trkpt lat="42.012766" lon="-87.686196">
      </trkpt>
      <trkpt lat="42.012766" lon="-87.686196">
      </trkpt>
      <trkpt lat="42.012766" lon="-87.686196">
      </trkpt>
      <trkpt lat="42.012243" lon="-87.686154">
      </trkpt>
      <trkpt lat="42.012217" lon="-87.6836">
      </trkpt>
      <trkpt lat="42.012168" lon="-87.683023">
      </trkpt>
      <trkpt lat="42.008899" lon="-87.681855">
      </trkpt>
      <trkpt lat="42.004103" lon="-87.679672">
      </trkpt>
      <trkpt lat="42.004091" lon="-87.680339">
      </trkpt>
      <trkpt lat="42.004141" lon="-87.68034">
      </trkpt>
      <trkpt lat="42.004141" lon="-87.68034">
      </trkpt>
      <trkpt lat="42.004091" lon="-87.680339">
      </trkpt>
      <trkpt lat="42.004103" lon="-87.679672">
      </trkpt>
      <trkpt lat="42.005209" lon="-87.680175">
      </trkpt>
      <trkpt lat="42.0054" lon="-87.66937">
      </trkpt>
      <trkpt lat="42.001929" lon="-87.669283">
      </trkpt>
      <trkpt lat="42.001929" lon="-87.669283">
      </trkpt>
      <trkpt lat="41.998103" lon="-87.669168">
      </trkpt>
      <trkpt lat="41.998191" lon="-87.66054">
      </trkpt>
      <trkpt lat="41.971482" lon="-87.659728">
      </trkpt>
      <trkpt lat="41.971565" lon="-87.656283">
      </trkpt>
      <trkpt lat="41.974712" lon="-87.656365">
      </trkpt>
      <trkpt lat="41.974712" lon="-87.656365">
      </trkpt>
      <trkpt lat="41.976381" lon="-87.656408">
      </trkpt>
      <trkpt lat="41.976324" lon="-87.659864">
      </trkpt>
      <trkpt lat="42.005442" lon="-87.660904">
      </trkpt>
      <trkpt lat="42.021956" lon="-87.666816">
      </trkpt>
      <trkpt lat="42.023288" lon="-87.665345">
      </trkpt>
      <trkpt lat="42.026585" lon="-87.667277">
      </trkpt>
      <trkpt lat="42.027188" lon="-87.670647">
      </trkpt>
      <trkpt lat="42.033783" lon="-87.670571">
      </trkpt>
      <trkpt lat="42.033906" lon="-87.674774">
      </trkpt>
      <trkpt lat="42.037512" lon="-87.675011">
      </trkpt>
      <trkpt lat="42.037542" lon="-87.678628">
      </trkpt>
      <trkpt lat="42.038819" lon="-87.678821">
      </trkpt>
      <trkpt lat="42.038819" lon="-87.678821">
      </trkpt>
      <trkpt lat="42.038819" lon="-87.678821">
      </trkpt>
      <trkpt lat="42.038819" lon="-87.678821">
      </trkpt>
      <trkpt lat="42.037542" lon="-87.678628">
      </trkpt>
      <trkpt lat="42.037561" lon="-87.680093">
      </trkpt>
      <trkpt lat="42.026691" lon="-87.678089">
      </trkpt>
      <trkpt lat="42.016061" lon="-87.675204">
      </trkpt>
      <trkpt lat="42.012318" lon="-87.683076">
      </trkpt>
      <trkpt lat="42.010114" lon="-87.6823">
      </trkpt>
      <trkpt lat="42.010084" lon="-87.683995">
      </trkpt>
      <trkpt lat="42.0082" lon="-87.68395">
      </trkpt>
      <trkpt lat="42.0082" lon="-87.68395">
      </trkpt>
      <trkpt lat="42.0082" lon="-87.68395">
      </trkpt>
      <trkpt lat="42.0082" lon="-87.68395">
      </trkpt>
      <trkpt lat="42.008875" lon="-87.683963">
      </trkpt>
      <trkpt lat="42.008635" lon="-87.690155">
      </trkpt>
      <trkpt lat="42.019532" lon="-87.690179">
      </trkpt>
      <trkpt lat="42.019002" lon="-87.738043">
      </trkpt>
      <trkpt lat="42.015388" lon="-87.73813">
      </trkpt>
      <trkpt lat="42.015387" lon="-87.737792">
      </trkpt>
      <trkpt lat="42.015387" lon="-87.737792">
      </trkpt>
      <trkpt lat="42.015388" lon="-87.73813">
      </trkpt>
      <trkpt lat="42.011753" lon="-87.738232">
      </trkpt>
      <trkpt lat="42.011856" lon="-87.75189">
      </trkpt>
      <trkpt lat="42.007194" lon="-87.748838">
      </trkpt>
      <trkpt lat="41.987219" lon="-87.751521">
      </trkpt>
      <trkpt lat="41.980228" lon="-87.746835">
      </trkpt>
      <trkpt lat="41.966563" lon="-87.747223">
      </trkpt>
      <trkpt lat="41.962358" lon="-87.745232">
      </trkpt>
      <trkpt lat="41.947613" lon="-87.719592">
      </trkpt>
      <trkpt lat="41.94215" lon="-87.715306">
      </trkpt>
      <trkpt lat="41.917654" lon="-87.670146">
      </trkpt>
      <trkpt lat="41.906646" lon="-87.66137">
      </trkpt>
      <trkpt lat="41.897685" lon="-87.659246">
      </trkpt>
      <trkpt lat="41.886261" lon="-87.646315">
      </trkpt>
      <trkpt lat="41.857367" lon="-87.644363">
      </trkpt>
      <trkpt lat="41.849097" lon="-87.644333">
      </trkpt>
      <trkpt lat="41.846776" lon="-87.644894">
      </trkpt>
      <trkpt lat="41.837862" lon="-87.667166">
      </trkpt>
      <trkpt lat="41.833938" lon="-87.690167">
      </trkpt>
    </trkseg>
  </trk>
</gpx>