<?xml version="1.0" encoding="UTF-8"?>
<gpx xmlns="http://www.topografix.com/GPX/1/1" xmlns:xsi="http://www.w3.org/2001/XMLSchema-instance" xsi:schemaLocation="http://www.topografix.com/GPX/1/1 http://www.topografix.com/GPX/1/1/gpx.xsd" version="1.1" creator="gpx.py -- https://github.com/tkrajina/gpxpy">
  <trk>
    <trkseg>
      <trkpt lat="41.918404" lon="-87.683685">
      </trkpt>
      <trkpt lat="41.918381" lon="-87.684991">
      </trkpt>
      <trkpt lat="41.91763" lon="-87.684968">
      </trkpt>
      <trkpt lat="41.917871" lon="-87.671089">
      </trkpt>
      <trkpt lat="41.917216" lon="-87.670404">
      </trkpt>
      <trkpt lat="41.915355" lon="-87.66811">
      </trkpt>
      <trkpt lat="41.909975" lon="-87.664752">
      </trkpt>
      <trkpt lat="41.90696" lon="-87.661748">
      </trkpt>
      <trkpt lat="41.905495" lon="-87.661171">
      </trkpt>
      <trkpt lat="41.902553" lon="-87.661288">
      </trkpt>
      <trkpt lat="41.900902" lon="-87.660921">
      </trkpt>
      <trkpt lat="41.896968" lon="-87.659049">
      </trkpt>
      <trkpt lat="41.895018" lon="-87.657114">
      </trkpt>
      <trkpt lat="41.89377" lon="-87.655657">
      </trkpt>
      <trkpt lat="41.89226" lon="-87.654831">
      </trkpt>
      <trkpt lat="41.891931" lon="-87.653963">
      </trkpt>
      <trkpt lat="41.892554" lon="-87.651034">
      </trkpt>
      <trkpt lat="41.89242" lon="-87.632701">
      </trkpt>
      <trkpt lat="41.885741" lon="-87.632564">
      </trkpt>
      <trkpt lat="41.886462" lon="-87.632419">
      </trkpt>
      <trkpt lat="41.886462" lon="-87.632419">
      </trkpt>
      <trkpt lat="41.886819" lon="-87.632428">
      </trkpt>
      <trkpt lat="41.88682" lon="-87.631009">
      </trkpt>
      <trkpt lat="41.860127" lon="-87.630281">
      </trkpt>
      <trkpt lat="41.860146" lon="-87.628788">
      </trkpt>
      <trkpt lat="41.858982" lon="-87.628754">
      </trkpt>
      <trkpt lat="41.858965" lon="-87.630263">
      </trkpt>
      <trkpt lat="41.867992" lon="-87.630401">
      </trkpt>
      <trkpt lat="41.867992" lon="-87.630401">
      </trkpt>
      <trkpt lat="41.874518" lon="-87.630686">
      </trkpt>
      <trkpt lat="41.874459" lon="-87.63498">
      </trkpt>
      <trkpt lat="41.874529" lon="-87.635036">
      </trkpt>
      <trkpt lat="41.881924" lon="-87.635343">
      </trkpt>
      <trkpt lat="41.881877" lon="-87.640505">
      </trkpt>
      <trkpt lat="41.881877" lon="-87.640505">
      </trkpt>
      <trkpt lat="41.881877" lon="-87.640505">
      </trkpt>
      <trkpt lat="41.881877" lon="-87.640505">
      </trkpt>
      <trkpt lat="41.881801" lon="-87.64573">
      </trkpt>
      <trkpt lat="41.885013" lon="-87.645685">
      </trkpt>
      <trkpt lat="41.886906" lon="-87.646327">
      </trkpt>
      <trkpt lat="41.88874" lon="-87.647638">
      </trkpt>
      <trkpt lat="41.890597" lon="-87.650048">
      </trkpt>
      <trkpt lat="41.891699" lon="-87.651108">
      </trkpt>
      <trkpt lat="41.89225" lon="-87.650775">
      </trkpt>
      <trkpt lat="41.892434" lon="-87.65007">
      </trkpt>
      <trkpt lat="41.892486" lon="-87.639284">
      </trkpt>
      <trkpt lat="41.892368" lon="-87.63704">
      </trkpt>
      <trkpt lat="41.892566" lon="-87.62271">
      </trkpt>
      <trkpt lat="41.893947" lon="-87.622751">
      </trkpt>
      <trkpt lat="41.893947" lon="-87.622751">
      </trkpt>
      <trkpt lat="41.894164" lon="-87.622757">
      </trkpt>
      <trkpt lat="41.894214" lon="-87.620307">
      </trkpt>
      <trkpt lat="41.893412" lon="-87.620283">
      </trkpt>
      <trkpt lat="41.893376" lon="-87.621935">
      </trkpt>
      <trkpt lat="41.893376" lon="-87.621935">
      </trkpt>
      <trkpt lat="41.89336" lon="-87.622735">
      </trkpt>
      <trkpt lat="41.891751" lon="-87.622685">
      </trkpt>
      <trkpt lat="41.891657" lon="-87.628847">
      </trkpt>
      <trkpt lat="41.891657" lon="-87.628847">
      </trkpt>
      <trkpt lat="41.891657" lon="-87.628847">
      </trkpt>
      <trkpt lat="41.891657" lon="-87.628847">
      </trkpt>
      <trkpt lat="41.891621" lon="-87.631127">
      </trkpt>
      <trkpt lat="41.876886" lon="-87.630743">
      </trkpt>
      <trkpt lat="41.876812" lon="-87.636803">
      </trkpt>
      <trkpt lat="41.876812" lon="-87.636803">
      </trkpt>
      <trkpt lat="41.876812" lon="-87.636629">
      </trkpt>
      <trkpt lat="41.883223" lon="-87.636818">
      </trkpt>
      <trkpt lat="41.883235" lon="-87.629431">
      </trkpt>
      <trkpt lat="41.89084" lon="-87.629616">
      </trkpt>
      <trkpt lat="41.890871" lon="-87.628048">
      </trkpt>
      <trkpt lat="41.891667" lon="-87.628071">
      </trkpt>
      <trkpt lat="41.891657" lon="-87.628847">
      </trkpt>
      <trkpt lat="41.891657" lon="-87.628847">
      </trkpt>
      <trkpt lat="41.891506" lon="-87.639878">
      </trkpt>
      <trkpt lat="41.891225" lon="-87.644384">
      </trkpt>
      <trkpt lat="41.885699" lon="-87.644242">
      </trkpt>
      <trkpt lat="41.885686" lon="-87.645903">
      </trkpt>
      <trkpt lat="41.881827" lon="-87.645999">
      </trkpt>
      <trkpt lat="41.880956" lon="-87.646134">
      </trkpt>
      <trkpt lat="41.87924" lon="-87.64632">
      </trkpt>
      <trkpt lat="41.879181" lon="-87.649612">
      </trkpt>
      <trkpt lat="41.878315" lon="-87.649583">
      </trkpt>
      <trkpt lat="41.878307" lon="-87.649942">
      </trkpt>
      <trkpt lat="41.878307" lon="-87.649942">
      </trkpt>
      <trkpt lat="41.878315" lon="-87.649583">
      </trkpt>
      <trkpt lat="41.879181" lon="-87.649612">
      </trkpt>
      <trkpt lat="41.879138" lon="-87.651945">
      </trkpt>
      <trkpt lat="41.888087" lon="-87.652212">
      </trkpt>
      <trkpt lat="41.888087" lon="-87.652212">
      </trkpt>
      <trkpt lat="41.891135" lon="-87.652288">
      </trkpt>
      <trkpt lat="41.891239" lon="-87.643004">
      </trkpt>
      <trkpt lat="41.891501" lon="-87.640016">
      </trkpt>
      <trkpt lat="41.891576" lon="-87.634054">
      </trkpt>
      <trkpt lat="41.890774" lon="-87.634037">
      </trkpt>
      <trkpt lat="41.89093" lon="-87.624208">
      </trkpt>
      <trkpt lat="41.889788" lon="-87.624184">
      </trkpt>
      <trkpt lat="41.890058" lon="-87.623132">
      </trkpt>
      <trkpt lat="41.890058" lon="-87.623132">
      </trkpt>
      <trkpt lat="41.889275" lon="-87.62693">
      </trkpt>
      <trkpt lat="41.889242" lon="-87.629579">
      </trkpt>
      <trkpt lat="41.896655" lon="-87.62978">
      </trkpt>
      <trkpt lat="41.896613" lon="-87.632635">
      </trkpt>
      <trkpt lat="41.901829" lon="-87.632783">
      </trkpt>
      <trkpt lat="41.90184" lon="-87.631826">
      </trkpt>
      <trkpt lat="41.90184" lon="-87.631826">
      </trkpt>
      <trkpt lat="41.901845" lon="-87.631392">
      </trkpt>
      <trkpt lat="41.896633" lon="-87.631243">
      </trkpt>
      <trkpt lat="41.896737" lon="-87.624345">
      </trkpt>
      <trkpt lat="41.889927" lon="-87.624211">
      </trkpt>
      <trkpt lat="41.887869" lon="-87.624661">
      </trkpt>
      <trkpt lat="41.884489" lon="-87.624571">
      </trkpt>
      <trkpt lat="41.884366" lon="-87.624344">
      </trkpt>
      <trkpt lat="41.884372" lon="-87.623414">
      </trkpt>
      <trkpt lat="41.884319" lon="-87.621085">
      </trkpt>
      <trkpt lat="41.884319" lon="-87.621085">
      </trkpt>
      <trkpt lat="41.884316" lon="-87.620576">
      </trkpt>
      <trkpt lat="41.884503" lon="-87.620586">
      </trkpt>
      <trkpt lat="41.884484" lon="-87.624371">
      </trkpt>
      <trkpt lat="41.88577" lon="-87.624431">
      </trkpt>
      <trkpt lat="41.88576" lon="-87.626286">
      </trkpt>
      <trkpt lat="41.887032" lon="-87.626374">
      </trkpt>
      <trkpt lat="41.887382" lon="-87.626488">
      </trkpt>
      <trkpt lat="41.888453" lon="-87.627125">
      </trkpt>
      <trkpt lat="41.888758" lon="-87.627082">
      </trkpt>
      <trkpt lat="41.889309" lon="-87.626679">
      </trkpt>
      <trkpt lat="41.889909" lon="-87.626665">
      </trkpt>
      <trkpt lat="41.889909" lon="-87.626665">
      </trkpt>
      <trkpt lat="41.886804" lon="-87.626312">
      </trkpt>
      <trkpt lat="41.886817" lon="-87.623818">
      </trkpt>
      <trkpt lat="41.886797" lon="-87.620759">
      </trkpt>
      <trkpt lat="41.880871" lon="-87.620794">
      </trkpt>
      <trkpt lat="41.88092" lon="-87.617506">
      </trkpt>
      <trkpt lat="41.869765" lon="-87.617261">
      </trkpt>
      <trkpt lat="41.866068" lon="-87.619589">
      </trkpt>
      <trkpt lat="41.853242" lon="-87.614728">
      </trkpt>
      <trkpt lat="41.848506" lon="-87.614444">
      </trkpt>
      <trkpt lat="41.84732" lon="-87.626818">
      </trkpt>
      <trkpt lat="41.847855" lon="-87.631727">
      </trkpt>
      <trkpt lat="41.843118" lon="-87.631351">
      </trkpt>
      <trkpt lat="41.79178" lon="-87.631289">
      </trkpt>
      <trkpt lat="41.783322" lon="-87.631532">
      </trkpt>
      <trkpt lat="41.779372" lon="-87.631833">
      </trkpt>
      <trkpt lat="41.779366" lon="-87.632128">
      </trkpt>
      <trkpt lat="41.778543" lon="-87.632538">
      </trkpt>
      <trkpt lat="41.778543" lon="-87.632538">
      </trkpt>
      <trkpt lat="41.779366" lon="-87.632128">
      </trkpt>
      <trkpt lat="41.779372" lon="-87.631833">
      </trkpt>
      <trkpt lat="41.778124" lon="-87.631812">
      </trkpt>
      <trkpt lat="41.778077" lon="-87.635009">
      </trkpt>
      <trkpt lat="41.779907" lon="-87.635057">
      </trkpt>
      <trkpt lat="41.779931" lon="-87.630139">
      </trkpt>
      <trkpt lat="41.780433" lon="-87.630149">
      </trkpt>
      <trkpt lat="41.807989" lon="-87.63142">
      </trkpt>
      <trkpt lat="41.812785" lon="-87.629665">
      </trkpt>
      <trkpt lat="41.837743" lon="-87.630393">
      </trkpt>
      <trkpt lat="41.844069" lon="-87.631001">
      </trkpt>
      <trkpt lat="41.846653" lon="-87.630081">
      </trkpt>
      <trkpt lat="41.847976" lon="-87.616851">
      </trkpt>
      <trkpt lat="41.848153" lon="-87.613392">
      </trkpt>
      <trkpt lat="41.84938" lon="-87.612168">
      </trkpt>
      <trkpt lat="41.8661" lon="-87.619244">
      </trkpt>
      <trkpt lat="41.869799" lon="-87.617003">
      </trkpt>
      <trkpt lat="41.881825" lon="-87.617167">
      </trkpt>
      <trkpt lat="41.884762" lon="-87.613645">
      </trkpt>
      <trkpt lat="41.892577" lon="-87.613978">
      </trkpt>
      <trkpt lat="41.900921" lon="-87.619441">
      </trkpt>
      <trkpt lat="41.902638" lon="-87.623907">
      </trkpt>
      <trkpt lat="41.909833" lon="-87.625717">
      </trkpt>
      <trkpt lat="41.913347" lon="-87.626017">
      </trkpt>
      <trkpt lat="41.912344" lon="-87.627835">
      </trkpt>
      <trkpt lat="41.913169" lon="-87.632856">
      </trkpt>
      <trkpt lat="41.918472" lon="-87.636131">
      </trkpt>
      <trkpt lat="41.918199" lon="-87.647123">
      </trkpt>
      <trkpt lat="41.918199" lon="-87.647123">
      </trkpt>
      <trkpt lat="41.91825" lon="-87.643665">
      </trkpt>
      <trkpt lat="41.910977" lon="-87.643444">
      </trkpt>
      <trkpt lat="41.911171" lon="-87.633223">
      </trkpt>
      <trkpt lat="41.881953" lon="-87.632362">
      </trkpt>
      <trkpt lat="41.881953" lon="-87.632362">
      </trkpt>
      <trkpt lat="41.881801" lon="-87.64573">
      </trkpt>
      <trkpt lat="41.887752" lon="-87.646837">
      </trkpt>
      <trkpt lat="41.896733" lon="-87.658396">
      </trkpt>
      <trkpt lat="41.906799" lon="-87.661253">
      </trkpt>
      <trkpt lat="41.91737" lon="-87.669547">
      </trkpt>
      <trkpt lat="41.937344" lon="-87.704001">
      </trkpt>
      <trkpt lat="41.942387" lon="-87.715161">
      </trkpt>
      <trkpt lat="41.947985" lon="-87.719618">
      </trkpt>
      <trkpt lat="41.960998" lon="-87.742619">
      </trkpt>
      <trkpt lat="41.982348" lon="-87.783994">
      </trkpt>
      <trkpt lat="41.982443" lon="-87.812691">
      </trkpt>
      <trkpt lat="41.984517" lon="-87.826001">
      </trkpt>
      <trkpt lat="41.984836" lon="-87.831845">
      </trkpt>
      <trkpt lat="41.984644" lon="-87.836934">
      </trkpt>
      <trkpt lat="41.984101" lon="-87.847951">
      </trkpt>
      <trkpt lat="41.984286" lon="-87.870366">
      </trkpt>
      <trkpt lat="41.979456" lon="-87.882894">
      </trkpt>
      <trkpt lat="41.97844" lon="-87.887146">
      </trkpt>
      <trkpt lat="41.979573" lon="-87.887383">
      </trkpt>
      <trkpt lat="41.979868" lon="-87.885754">
      </trkpt>
      <trkpt lat="41.976618" lon="-87.88593">
      </trkpt>
      <trkpt lat="41.976593" lon="-87.884582">
      </trkpt>
      <trkpt lat="41.976587" lon="-87.883381">
      </trkpt>
      <trkpt lat="41.976868" lon="-87.879599">
      </trkpt>
      <trkpt lat="41.973127" lon="-87.878473">
      </trkpt>
      <trkpt lat="41.971023" lon="-87.877847">
      </trkpt>
      <trkpt lat="41.971023" lon="-87.877847">
      </trkpt>
      <trkpt lat="41.973127" lon="-87.878473">
      </trkpt>
      <trkpt lat="41.973343" lon="-87.878319">
      </trkpt>
      <trkpt lat="41.976855" lon="-87.879459">
      </trkpt>
      <trkpt lat="41.976958" lon="-87.879761">
      </trkpt>
      <trkpt lat="41.97664" lon="-87.880432">
      </trkpt>
      <trkpt lat="41.97665" lon="-87.88336">
      </trkpt>
      <trkpt lat="41.976872" lon="-87.883842">
      </trkpt>
      <trkpt lat="41.977925" lon="-87.883667">
      </trkpt>
      <trkpt lat="41.978546" lon="-87.88323">
      </trkpt>
      <trkpt lat="41.978948" lon="-87.882424">
      </trkpt>
      <trkpt lat="41.979016" lon="-87.881622">
      </trkpt>
      <trkpt lat="41.978852" lon="-87.880863">
      </trkpt>
      <trkpt lat="41.977747" lon="-87.879345">
      </trkpt>
      <trkpt lat="41.977365" lon="-87.879409">
      </trkpt>
      <trkpt lat="41.974393" lon="-87.878237">
      </trkpt>
      <trkpt lat="41.968801" lon="-87.876618">
      </trkpt>
      <trkpt lat="41.966949" lon="-87.876529">
      </trkpt>
      <trkpt lat="41.965555" lon="-87.876789">
      </trkpt>
      <trkpt lat="41.965841" lon="-87.863052">
      </trkpt>
      <trkpt lat="41.966414" lon="-87.846488">
      </trkpt>
      <trkpt lat="41.971295" lon="-87.84649">
      </trkpt>
      <trkpt lat="41.970356" lon="-87.846599">
      </trkpt>
      <trkpt lat="41.970356" lon="-87.846599">
      </trkpt>
      <trkpt lat="41.962337" lon="-87.846645">
      </trkpt>
      <trkpt lat="41.960616" lon="-87.845816">
      </trkpt>
      <trkpt lat="41.959275" lon="-87.842977">
      </trkpt>
      <trkpt lat="41.959316" lon="-87.836696">
      </trkpt>
      <trkpt lat="41.908385" lon="-87.835067">
      </trkpt>
      <trkpt lat="41.909582" lon="-87.746127">
      </trkpt>
      <trkpt lat="41.902357" lon="-87.745973">
      </trkpt>
      <trkpt lat="41.902687" lon="-87.725083">
      </trkpt>
      <trkpt lat="41.900672" lon="-87.72502">
      </trkpt>
    </trkseg>
  </trk>
</gpx>