<?xml version="1.0" encoding="UTF-8"?>
<gpx xmlns="http://www.topografix.com/GPX/1/1" xmlns:xsi="http://www.w3.org/2001/XMLSchema-instance" xsi:schemaLocation="http://www.topografix.com/GPX/1/1 http://www.topografix.com/GPX/1/1/gpx.xsd" version="1.1" creator="gpx.py -- https://github.com/tkrajina/gpxpy">
  <trk>
    <trkseg>
      <trkpt lat="42.048046" lon="-87.724487">
      </trkpt>
      <trkpt lat="42.048379" lon="-87.699097">
      </trkpt>
      <trkpt lat="42.048591" lon="-87.693603">
      </trkpt>
      <trkpt lat="42.048544" lon="-87.690141">
      </trkpt>
      <trkpt lat="42.044647" lon="-87.690207">
      </trkpt>
      <trkpt lat="42.044647" lon="-87.690207">
      </trkpt>
      <trkpt lat="42.05225" lon="-87.690075">
      </trkpt>
      <trkpt lat="42.05196" lon="-87.706397">
      </trkpt>
      <trkpt lat="42.052539" lon="-87.709349">
      </trkpt>
      <trkpt lat="42.055334" lon="-87.715818">
      </trkpt>
      <trkpt lat="42.055257" lon="-87.727398">
      </trkpt>
      <trkpt lat="42.064969" lon="-87.727381">
      </trkpt>
      <trkpt lat="42.065952" lon="-87.728615">
      </trkpt>
      <trkpt lat="42.070171" lon="-87.731968">
      </trkpt>
      <trkpt lat="42.071927" lon="-87.732364">
      </trkpt>
      <trkpt lat="42.07193" lon="-87.732694">
      </trkpt>
      <trkpt lat="42.072011" lon="-87.737809">
      </trkpt>
      <trkpt lat="42.072011" lon="-87.737809">
      </trkpt>
      <trkpt lat="42.071853" lon="-87.734543">
      </trkpt>
      <trkpt lat="42.071681" lon="-87.734454">
      </trkpt>
      <trkpt lat="42.071927" lon="-87.732364">
      </trkpt>
      <trkpt lat="42.070171" lon="-87.731968">
      </trkpt>
      <trkpt lat="42.064758" lon="-87.727345">
      </trkpt>
      <trkpt lat="42.018989" lon="-87.728471">
      </trkpt>
      <trkpt lat="42.019106" lon="-87.712298">
      </trkpt>
      <trkpt lat="42.019106" lon="-87.712298">
      </trkpt>
      <trkpt lat="42.019532" lon="-87.690179">
      </trkpt>
      <trkpt lat="42.01941" lon="-87.676332">
      </trkpt>
      <trkpt lat="42.017327" lon="-87.675457">
      </trkpt>
      <trkpt lat="42.015907" lon="-87.675179">
      </trkpt>
      <trkpt lat="42.015959" lon="-87.67248">
      </trkpt>
      <trkpt lat="42.015255" lon="-87.672456">
      </trkpt>
      <trkpt lat="42.015255" lon="-87.672456">
      </trkpt>
      <trkpt lat="42.012681" lon="-87.672368">
      </trkpt>
      <trkpt lat="42.012644" lon="-87.674631">
      </trkpt>
      <trkpt lat="42.005339" lon="-87.673112">
      </trkpt>
      <trkpt lat="42.005209" lon="-87.680175">
      </trkpt>
      <trkpt lat="42.004103" lon="-87.679672">
      </trkpt>
      <trkpt lat="42.004091" lon="-87.680339">
      </trkpt>
      <trkpt lat="42.000154" lon="-87.680219">
      </trkpt>
      <trkpt lat="42.000135" lon="-87.681431">
      </trkpt>
      <trkpt lat="42.000225" lon="-87.681434">
      </trkpt>
      <trkpt lat="42.000225" lon="-87.681434">
      </trkpt>
      <trkpt lat="41.99968" lon="-87.681418">
      </trkpt>
      <trkpt lat="41.999699" lon="-87.6802">
      </trkpt>
      <trkpt lat="42.00032" lon="-87.680225">
      </trkpt>
      <trkpt lat="42.00037" lon="-87.677934">
      </trkpt>
      <trkpt lat="42.012318" lon="-87.683076">
      </trkpt>
      <trkpt lat="42.016061" lon="-87.675204">
      </trkpt>
      <trkpt lat="42.01941" lon="-87.676332">
      </trkpt>
      <trkpt lat="42.028177" lon="-87.678285">
      </trkpt>
      <trkpt lat="42.028177" lon="-87.678285">
      </trkpt>
      <trkpt lat="42.027266" lon="-87.678155">
      </trkpt>
      <trkpt lat="42.027274" lon="-87.678958">
      </trkpt>
      <trkpt lat="42.026622" lon="-87.678877">
      </trkpt>
      <trkpt lat="42.02625" lon="-87.728255">
      </trkpt>
      <trkpt lat="42.018989" lon="-87.728471">
      </trkpt>
      <trkpt lat="42.019116" lon="-87.759649">
      </trkpt>
      <trkpt lat="42.011954" lon="-87.761686">
      </trkpt>
      <trkpt lat="42.011989" lon="-87.77782">
      </trkpt>
      <trkpt lat="42.011989" lon="-87.77782">
      </trkpt>
      <trkpt lat="42.011959" lon="-87.773348">
      </trkpt>
      <trkpt lat="41.996715" lon="-87.765439">
      </trkpt>
      <trkpt lat="41.991079" lon="-87.753476">
      </trkpt>
      <trkpt lat="41.980228" lon="-87.746835">
      </trkpt>
      <trkpt lat="41.966563" lon="-87.747223">
      </trkpt>
      <trkpt lat="41.963113" lon="-87.745961">
      </trkpt>
      <trkpt lat="41.960129" lon="-87.742125">
      </trkpt>
      <trkpt lat="41.947613" lon="-87.719592">
      </trkpt>
      <trkpt lat="41.94215" lon="-87.715306">
      </trkpt>
      <trkpt lat="41.933659" lon="-87.698173">
      </trkpt>
      <trkpt lat="41.927358" lon="-87.687291">
      </trkpt>
      <trkpt lat="41.925223" lon="-87.684125">
      </trkpt>
      <trkpt lat="41.924722" lon="-87.707229">
      </trkpt>
      <trkpt lat="41.9174" lon="-87.70705">
      </trkpt>
      <trkpt lat="41.917363" lon="-87.710267">
      </trkpt>
      <trkpt lat="41.914054" lon="-87.710199">
      </trkpt>
      <trkpt lat="41.914054" lon="-87.710199">
      </trkpt>
      <trkpt lat="41.913804" lon="-87.710192">
      </trkpt>
      <trkpt lat="41.910066" lon="-87.710069">
      </trkpt>
      <trkpt lat="41.910672" lon="-87.665662">
      </trkpt>
      <trkpt lat="41.910236" lon="-87.665325">
      </trkpt>
      <trkpt lat="41.906635" lon="-87.661559">
      </trkpt>
      <trkpt lat="41.900902" lon="-87.660921">
      </trkpt>
      <trkpt lat="41.896968" lon="-87.659049">
      </trkpt>
      <trkpt lat="41.895018" lon="-87.657114">
      </trkpt>
      <trkpt lat="41.891931" lon="-87.653963">
      </trkpt>
      <trkpt lat="41.892554" lon="-87.651034">
      </trkpt>
      <trkpt lat="41.892541" lon="-87.624121">
      </trkpt>
      <trkpt lat="41.897586" lon="-87.624066">
      </trkpt>
      <trkpt lat="41.897618" lon="-87.621852">
      </trkpt>
      <trkpt lat="41.899027" lon="-87.62188">
      </trkpt>
      <trkpt lat="41.899027" lon="-87.62188">
      </trkpt>
      <trkpt lat="41.899027" lon="-87.62188">
      </trkpt>
      <trkpt lat="41.899027" lon="-87.62188">
      </trkpt>
      <trkpt lat="41.900045" lon="-87.621902">
      </trkpt>
      <trkpt lat="41.900012" lon="-87.624245">
      </trkpt>
      <trkpt lat="41.897917" lon="-87.624198">
      </trkpt>
      <trkpt lat="41.896443" lon="-87.624388">
      </trkpt>
      <trkpt lat="41.893335" lon="-87.624316">
      </trkpt>
      <trkpt lat="41.893255" lon="-87.629681">
      </trkpt>
      <trkpt lat="41.894584" lon="-87.629727">
      </trkpt>
      <trkpt lat="41.894584" lon="-87.629727">
      </trkpt>
      <trkpt lat="41.895665" lon="-87.629762">
      </trkpt>
      <trkpt lat="41.895692" lon="-87.628179">
      </trkpt>
      <trkpt lat="41.893025" lon="-87.628109">
      </trkpt>
      <trkpt lat="41.893025" lon="-87.628109">
      </trkpt>
      <trkpt lat="41.890871" lon="-87.628048">
      </trkpt>
      <trkpt lat="41.89093" lon="-87.624208">
      </trkpt>
      <trkpt lat="41.888229" lon="-87.624567">
      </trkpt>
      <trkpt lat="41.887462" lon="-87.615811">
      </trkpt>
      <trkpt lat="41.887175" lon="-87.614014">
      </trkpt>
      <trkpt lat="41.885252" lon="-87.613921">
      </trkpt>
      <trkpt lat="41.881821" lon="-87.617453">
      </trkpt>
      <trkpt lat="41.869895" lon="-87.617247">
      </trkpt>
      <trkpt lat="41.866665" lon="-87.619505">
      </trkpt>
      <trkpt lat="41.863883" lon="-87.619138">
      </trkpt>
      <trkpt lat="41.838015" lon="-87.608419">
      </trkpt>
      <trkpt lat="41.832923" lon="-87.607384">
      </trkpt>
      <trkpt lat="41.82949" lon="-87.6048">
      </trkpt>
      <trkpt lat="41.827252" lon="-87.60211">
      </trkpt>
      <trkpt lat="41.82517" lon="-87.600903">
      </trkpt>
      <trkpt lat="41.824226" lon="-87.604296">
      </trkpt>
      <trkpt lat="41.823783" lon="-87.621597">
      </trkpt>
      <trkpt lat="41.824244" lon="-87.621608">
      </trkpt>
      <trkpt lat="41.824244" lon="-87.621608">
      </trkpt>
      <trkpt lat="41.831064" lon="-87.621754">
      </trkpt>
      <trkpt lat="41.830961" lon="-87.629817">
      </trkpt>
      <trkpt lat="41.831311" lon="-87.629831">
      </trkpt>
      <trkpt lat="41.837743" lon="-87.630393">
      </trkpt>
      <trkpt lat="41.844144" lon="-87.631347">
      </trkpt>
      <trkpt lat="41.847354" lon="-87.642036">
      </trkpt>
      <trkpt lat="41.850908" lon="-87.644903">
      </trkpt>
      <trkpt lat="41.885013" lon="-87.645685">
      </trkpt>
      <trkpt lat="41.891702" lon="-87.651689">
      </trkpt>
      <trkpt lat="41.896836" lon="-87.65868">
      </trkpt>
      <trkpt lat="41.906646" lon="-87.66137">
      </trkpt>
      <trkpt lat="41.917654" lon="-87.670146">
      </trkpt>
      <trkpt lat="41.94215" lon="-87.715306">
      </trkpt>
      <trkpt lat="41.947613" lon="-87.719592">
      </trkpt>
      <trkpt lat="41.963594" lon="-87.746287">
      </trkpt>
      <trkpt lat="41.980044" lon="-87.746614">
      </trkpt>
      <trkpt lat="41.98759" lon="-87.751368">
      </trkpt>
      <trkpt lat="42.006167" lon="-87.748589">
      </trkpt>
      <trkpt lat="42.010101" lon="-87.748003">
      </trkpt>
      <trkpt lat="42.019034" lon="-87.747705">
      </trkpt>
      <trkpt lat="42.019106" lon="-87.712298">
      </trkpt>
    </trkseg>
  </trk>
</gpx>