<?xml version="1.0" encoding="UTF-8"?>
<gpx xmlns="http://www.topografix.com/GPX/1/1" xmlns:xsi="http://www.w3.org/2001/XMLSchema-instance" xsi:schemaLocation="http://www.topografix.com/GPX/1/1 http://www.topografix.com/GPX/1/1/gpx.xsd" version="1.1" creator="gpx.py -- https://github.com/tkrajina/gpxpy">
  <trk>
    <trkseg>
      <trkpt lat="41.93209" lon="-87.724532">
      </trkpt>
      <trkpt lat="41.931828" lon="-87.724523">
      </trkpt>
      <trkpt lat="41.932116" lon="-87.696547">
      </trkpt>
      <trkpt lat="41.927358" lon="-87.687291">
      </trkpt>
      <trkpt lat="41.924962" lon="-87.683686">
      </trkpt>
      <trkpt lat="41.925139" lon="-87.669348">
      </trkpt>
      <trkpt lat="41.921608" lon="-87.664379">
      </trkpt>
      <trkpt lat="41.921657" lon="-87.659737">
      </trkpt>
      <trkpt lat="41.921657" lon="-87.659737">
      </trkpt>
      <trkpt lat="41.921676" lon="-87.65834">
      </trkpt>
      <trkpt lat="41.928024" lon="-87.658558">
      </trkpt>
      <trkpt lat="41.92805" lon="-87.657193">
      </trkpt>
      <trkpt lat="41.92805" lon="-87.657193">
      </trkpt>
      <trkpt lat="41.928024" lon="-87.658558">
      </trkpt>
      <trkpt lat="41.917264" lon="-87.658201">
      </trkpt>
      <trkpt lat="41.916455" lon="-87.666413">
      </trkpt>
      <trkpt lat="41.910715" lon="-87.66216">
      </trkpt>
      <trkpt lat="41.910672" lon="-87.665662">
      </trkpt>
      <trkpt lat="41.910236" lon="-87.665325">
      </trkpt>
      <trkpt lat="41.906386" lon="-87.661439">
      </trkpt>
      <trkpt lat="41.901306" lon="-87.661057">
      </trkpt>
      <trkpt lat="41.896667" lon="-87.658834">
      </trkpt>
      <trkpt lat="41.889096" lon="-87.6483">
      </trkpt>
      <trkpt lat="41.885119" lon="-87.646108">
      </trkpt>
      <trkpt lat="41.883144" lon="-87.646413">
      </trkpt>
      <trkpt lat="41.883178" lon="-87.641266">
      </trkpt>
      <trkpt lat="41.883185" lon="-87.639745">
      </trkpt>
      <trkpt lat="41.883223" lon="-87.636818">
      </trkpt>
      <trkpt lat="41.88597" lon="-87.636645">
      </trkpt>
      <trkpt lat="41.886821" lon="-87.634232">
      </trkpt>
      <trkpt lat="41.886821" lon="-87.634232">
      </trkpt>
      <trkpt lat="41.886809" lon="-87.627383">
      </trkpt>
      <trkpt lat="41.888194" lon="-87.624469">
      </trkpt>
      <trkpt lat="41.900824" lon="-87.624042">
      </trkpt>
      <trkpt lat="41.902709" lon="-87.623664">
      </trkpt>
      <trkpt lat="41.912141" lon="-87.62589">
      </trkpt>
      <trkpt lat="41.918036" lon="-87.628743">
      </trkpt>
      <trkpt lat="41.928415" lon="-87.631851">
      </trkpt>
      <trkpt lat="41.934381" lon="-87.632152">
      </trkpt>
      <trkpt lat="41.936704" lon="-87.633661">
      </trkpt>
      <trkpt lat="41.939073" lon="-87.63676">
      </trkpt>
      <trkpt lat="41.940568" lon="-87.638088">
      </trkpt>
      <trkpt lat="41.940119" lon="-87.639537">
      </trkpt>
      <trkpt lat="41.939838" lon="-87.658974">
      </trkpt>
      <trkpt lat="41.941664" lon="-87.659024">
      </trkpt>
      <trkpt lat="41.941681" lon="-87.657794">
      </trkpt>
      <trkpt lat="41.940121" lon="-87.657753">
      </trkpt>
      <trkpt lat="41.940121" lon="-87.657753">
      </trkpt>
      <trkpt lat="41.939858" lon="-87.657746">
      </trkpt>
      <trkpt lat="41.939838" lon="-87.658974">
      </trkpt>
      <trkpt lat="41.932557" lon="-87.658713">
      </trkpt>
      <trkpt lat="41.925453" lon="-87.648766">
      </trkpt>
      <trkpt lat="41.91731" lon="-87.648495">
      </trkpt>
      <trkpt lat="41.91731" lon="-87.648495">
      </trkpt>
      <trkpt lat="41.925453" lon="-87.648766">
      </trkpt>
      <trkpt lat="41.936111" lon="-87.663682">
      </trkpt>
      <trkpt lat="41.945247" lon="-87.663953">
      </trkpt>
      <trkpt lat="41.945239" lon="-87.664502">
      </trkpt>
      <trkpt lat="41.945239" lon="-87.664502">
      </trkpt>
      <trkpt lat="41.945247" lon="-87.663953">
      </trkpt>
      <trkpt lat="41.954357" lon="-87.664217">
      </trkpt>
      <trkpt lat="41.954561" lon="-87.649713">
      </trkpt>
      <trkpt lat="41.961373" lon="-87.649905">
      </trkpt>
      <trkpt lat="41.961373" lon="-87.649905">
      </trkpt>
      <trkpt lat="41.958494" lon="-87.649824">
      </trkpt>
      <trkpt lat="41.958406" lon="-87.656021">
      </trkpt>
      <trkpt lat="41.958318" lon="-87.656048">
      </trkpt>
      <trkpt lat="41.958251" lon="-87.656157">
      </trkpt>
      <trkpt lat="41.95822" lon="-87.656867">
      </trkpt>
      <trkpt lat="41.958194" lon="-87.656894">
      </trkpt>
      <trkpt lat="41.958194" lon="-87.656894">
      </trkpt>
      <trkpt lat="41.95446" lon="-87.656767">
      </trkpt>
      <trkpt lat="41.954634" lon="-87.645235">
      </trkpt>
      <trkpt lat="41.950978" lon="-87.644611">
      </trkpt>
      <trkpt lat="41.941594" lon="-87.639315">
      </trkpt>
      <trkpt lat="41.93482" lon="-87.632527">
      </trkpt>
      <trkpt lat="41.928427" lon="-87.632048">
      </trkpt>
      <trkpt lat="41.918735" lon="-87.629189">
      </trkpt>
      <trkpt lat="41.911998" lon="-87.62605">
      </trkpt>
      <trkpt lat="41.904908" lon="-87.624861">
      </trkpt>
      <trkpt lat="41.901978" lon="-87.624179">
      </trkpt>
      <trkpt lat="41.892538" lon="-87.624293">
      </trkpt>
      <trkpt lat="41.892574" lon="-87.621881">
      </trkpt>
      <trkpt lat="41.892574" lon="-87.621881">
      </trkpt>
      <trkpt lat="41.892574" lon="-87.621881">
      </trkpt>
      <trkpt lat="41.892574" lon="-87.621881">
      </trkpt>
      <trkpt lat="41.892588" lon="-87.620263">
      </trkpt>
      <trkpt lat="41.890695" lon="-87.620232">
      </trkpt>
      <trkpt lat="41.887957" lon="-87.620761">
      </trkpt>
      <trkpt lat="41.884519" lon="-87.620718">
      </trkpt>
      <trkpt lat="41.884489" lon="-87.627902">
      </trkpt>
      <trkpt lat="41.882046" lon="-87.627799">
      </trkpt>
      <trkpt lat="41.881984" lon="-87.630875">
      </trkpt>
      <trkpt lat="41.876886" lon="-87.630743">
      </trkpt>
      <trkpt lat="41.876812" lon="-87.636803">
      </trkpt>
      <trkpt lat="41.876812" lon="-87.636803">
      </trkpt>
      <trkpt lat="41.876812" lon="-87.636629">
      </trkpt>
      <trkpt lat="41.881915" lon="-87.636785">
      </trkpt>
      <trkpt lat="41.881877" lon="-87.640505">
      </trkpt>
      <trkpt lat="41.881877" lon="-87.640505">
      </trkpt>
      <trkpt lat="41.8818" lon="-87.645827">
      </trkpt>
      <trkpt lat="41.857367" lon="-87.644363">
      </trkpt>
      <trkpt lat="41.852447" lon="-87.645793">
      </trkpt>
      <trkpt lat="41.849097" lon="-87.644333">
      </trkpt>
      <trkpt lat="41.847022" lon="-87.643039">
      </trkpt>
      <trkpt lat="41.846546" lon="-87.641933">
      </trkpt>
      <trkpt lat="41.847063" lon="-87.638623">
      </trkpt>
      <trkpt lat="41.84669" lon="-87.634629">
      </trkpt>
      <trkpt lat="41.847362" lon="-87.632091">
      </trkpt>
      <trkpt lat="41.846918" lon="-87.628234">
      </trkpt>
      <trkpt lat="41.847827" lon="-87.623841">
      </trkpt>
      <trkpt lat="41.847976" lon="-87.616851">
      </trkpt>
      <trkpt lat="41.847877" lon="-87.613703">
      </trkpt>
      <trkpt lat="41.847086" lon="-87.612314">
      </trkpt>
      <trkpt lat="41.838015" lon="-87.608419">
      </trkpt>
      <trkpt lat="41.832923" lon="-87.607384">
      </trkpt>
      <trkpt lat="41.827907" lon="-87.602929">
      </trkpt>
      <trkpt lat="41.827907" lon="-87.602929">
      </trkpt>
      <trkpt lat="41.827907" lon="-87.602929">
      </trkpt>
      <trkpt lat="41.827907" lon="-87.602929">
      </trkpt>
      <trkpt lat="41.827252" lon="-87.60211">
      </trkpt>
      <trkpt lat="41.82517" lon="-87.600903">
      </trkpt>
      <trkpt lat="41.825435" lon="-87.599849">
      </trkpt>
      <trkpt lat="41.829367" lon="-87.604294">
      </trkpt>
      <trkpt lat="41.833032" lon="-87.607125">
      </trkpt>
      <trkpt lat="41.838145" lon="-87.608141">
      </trkpt>
      <trkpt lat="41.852437" lon="-87.613467">
      </trkpt>
      <trkpt lat="41.862131" lon="-87.618329">
      </trkpt>
      <trkpt lat="41.866344" lon="-87.619249">
      </trkpt>
      <trkpt lat="41.869799" lon="-87.617003">
      </trkpt>
      <trkpt lat="41.880924" lon="-87.617244">
      </trkpt>
      <trkpt lat="41.880871" lon="-87.620794">
      </trkpt>
      <trkpt lat="41.884517" lon="-87.620609">
      </trkpt>
      <trkpt lat="41.884483" lon="-87.629468">
      </trkpt>
      <trkpt lat="41.890042" lon="-87.629598">
      </trkpt>
      <trkpt lat="41.890022" lon="-87.631091">
      </trkpt>
      <trkpt lat="41.889473" lon="-87.631072">
      </trkpt>
      <trkpt lat="41.889473" lon="-87.631072">
      </trkpt>
      <trkpt lat="41.886949" lon="-87.631015">
      </trkpt>
      <trkpt lat="41.886947" lon="-87.632499">
      </trkpt>
      <trkpt lat="41.886743" lon="-87.632569">
      </trkpt>
      <trkpt lat="41.884474" lon="-87.632527">
      </trkpt>
      <trkpt lat="41.884465" lon="-87.635401">
      </trkpt>
      <trkpt lat="41.886768" lon="-87.635439">
      </trkpt>
      <trkpt lat="41.886821" lon="-87.635158">
      </trkpt>
      <trkpt lat="41.886821" lon="-87.634232">
      </trkpt>
      <trkpt lat="41.886821" lon="-87.634232">
      </trkpt>
      <trkpt lat="41.886821" lon="-87.633975">
      </trkpt>
      <trkpt lat="41.884468" lon="-87.633916">
      </trkpt>
      <trkpt lat="41.884408" lon="-87.645482">
      </trkpt>
      <trkpt lat="41.851399" lon="-87.645288">
      </trkpt>
      <trkpt lat="41.847384" lon="-87.642429">
      </trkpt>
      <trkpt lat="41.845323" lon="-87.634652">
      </trkpt>
      <trkpt lat="41.84209" lon="-87.63091">
      </trkpt>
      <trkpt lat="41.79178" lon="-87.631289">
      </trkpt>
      <trkpt lat="41.778978" lon="-87.631289">
      </trkpt>
      <trkpt lat="41.773198" lon="-87.626564">
      </trkpt>
      <trkpt lat="41.768925" lon="-87.626239">
      </trkpt>
      <trkpt lat="41.766175" lon="-87.626556">
      </trkpt>
      <trkpt lat="41.7655" lon="-87.626545">
      </trkpt>
      <trkpt lat="41.764421" lon="-87.700374">
      </trkpt>
      <trkpt lat="41.760784" lon="-87.700272">
      </trkpt>
      <trkpt lat="41.760765" lon="-87.701487">
      </trkpt>
      <trkpt lat="41.761634" lon="-87.701512">
      </trkpt>
      <trkpt lat="41.761634" lon="-87.701512">
      </trkpt>
      <trkpt lat="41.76258" lon="-87.701539">
      </trkpt>
      <trkpt lat="41.762561" lon="-87.702751">
      </trkpt>
      <trkpt lat="41.797178" lon="-87.703674">
      </trkpt>
      <trkpt lat="41.797229" lon="-87.70061">
      </trkpt>
      <trkpt lat="41.798046" lon="-87.700636">
      </trkpt>
      <trkpt lat="41.798046" lon="-87.700636">
      </trkpt>
      <trkpt lat="41.798046" lon="-87.700636">
      </trkpt>
      <trkpt lat="41.798046" lon="-87.700636">
      </trkpt>
      <trkpt lat="41.799055" lon="-87.700668">
      </trkpt>
      <trkpt lat="41.799044" lon="-87.701263">
      </trkpt>
      <trkpt lat="41.800876" lon="-87.701315">
      </trkpt>
      <trkpt lat="41.801244" lon="-87.674511">
      </trkpt>
      <trkpt lat="41.798037" lon="-87.674422">
      </trkpt>
      <trkpt lat="41.797986" lon="-87.678647">
      </trkpt>
      <trkpt lat="41.797986" lon="-87.678647">
      </trkpt>
      <trkpt lat="41.798037" lon="-87.674422">
      </trkpt>
      <trkpt lat="41.801244" lon="-87.674511">
      </trkpt>
      <trkpt lat="41.801133" lon="-87.683684">
      </trkpt>
      <trkpt lat="41.81444" lon="-87.684021">
      </trkpt>
      <trkpt lat="41.815784" lon="-87.684053">
      </trkpt>
      <trkpt lat="41.815975" lon="-87.684058">
      </trkpt>
      <trkpt lat="41.815975" lon="-87.684058">
      </trkpt>
      <trkpt lat="41.819343" lon="-87.684139">
      </trkpt>
      <trkpt lat="41.822995" lon="-87.684228">
      </trkpt>
      <trkpt lat="41.823066" lon="-87.684754">
      </trkpt>
      <trkpt lat="41.832477" lon="-87.685095">
      </trkpt>
      <trkpt lat="41.835142" lon="-87.684513">
      </trkpt>
      <trkpt lat="41.839081" lon="-87.68523">
      </trkpt>
      <trkpt lat="41.897571" lon="-87.686881">
      </trkpt>
      <trkpt lat="41.897617" lon="-87.684007">
      </trkpt>
      <trkpt lat="41.897617" lon="-87.684007">
      </trkpt>
      <trkpt lat="41.897649" lon="-87.681995">
      </trkpt>
      <trkpt lat="41.896746" lon="-87.681969">
      </trkpt>
      <trkpt lat="41.896666" lon="-87.686858">
      </trkpt>
      <trkpt lat="41.903025" lon="-87.687018">
      </trkpt>
      <trkpt lat="41.902888" lon="-87.701605">
      </trkpt>
      <trkpt lat="41.902888" lon="-87.701605">
      </trkpt>
      <trkpt lat="41.903184" lon="-87.677276">
      </trkpt>
      <trkpt lat="41.899544" lon="-87.677161">
      </trkpt>
      <trkpt lat="41.899648" lon="-87.67107">
      </trkpt>
      <trkpt lat="41.900741" lon="-87.671103">
      </trkpt>
      <trkpt lat="41.900741" lon="-87.671103">
      </trkpt>
      <trkpt lat="41.903289" lon="-87.67118">
      </trkpt>
      <trkpt lat="41.903364" lon="-87.666488">
      </trkpt>
      <trkpt lat="41.899711" lon="-87.660843">
      </trkpt>
      <trkpt lat="41.896667" lon="-87.658834">
      </trkpt>
      <trkpt lat="41.895493" lon="-87.657719">
      </trkpt>
      <trkpt lat="41.889964" lon="-87.649448">
      </trkpt>
      <trkpt lat="41.888636" lon="-87.647794">
      </trkpt>
      <trkpt lat="41.886973" lon="-87.646614">
      </trkpt>
      <trkpt lat="41.885119" lon="-87.646108">
      </trkpt>
      <trkpt lat="41.883144" lon="-87.646413">
      </trkpt>
      <trkpt lat="41.883178" lon="-87.641266">
      </trkpt>
      <trkpt lat="41.883185" lon="-87.639745">
      </trkpt>
      <trkpt lat="41.887994" lon="-87.639953">
      </trkpt>
      <trkpt lat="41.88801" lon="-87.640199">
      </trkpt>
      <trkpt lat="41.88801" lon="-87.640199">
      </trkpt>
      <trkpt lat="41.887994" lon="-87.639953">
      </trkpt>
      <trkpt lat="41.889064" lon="-87.64001">
      </trkpt>
      <trkpt lat="41.889102" lon="-87.641432">
      </trkpt>
      <trkpt lat="41.868867" lon="-87.640765">
      </trkpt>
      <trkpt lat="41.868867" lon="-87.640765">
      </trkpt>
      <trkpt lat="41.867205" lon="-87.640721">
      </trkpt>
      <trkpt lat="41.867398" lon="-87.624158">
      </trkpt>
      <trkpt lat="41.887965" lon="-87.624484">
      </trkpt>
      <trkpt lat="41.891505" lon="-87.624094">
      </trkpt>
      <trkpt lat="41.891505" lon="-87.624094">
      </trkpt>
      <trkpt lat="41.894143" lon="-87.624162">
      </trkpt>
      <trkpt lat="41.894176" lon="-87.62188">
      </trkpt>
      <trkpt lat="41.894176" lon="-87.62188">
      </trkpt>
      <trkpt lat="41.894214" lon="-87.620307">
      </trkpt>
      <trkpt lat="41.890902" lon="-87.620212">
      </trkpt>
      <trkpt lat="41.887957" lon="-87.620761">
      </trkpt>
      <trkpt lat="41.888311" lon="-87.625188">
      </trkpt>
      <trkpt lat="41.886918" lon="-87.62718">
      </trkpt>
      <trkpt lat="41.886721" lon="-87.635761">
      </trkpt>
      <trkpt lat="41.886077" lon="-87.636719">
      </trkpt>
      <trkpt lat="41.885505" lon="-87.636963">
      </trkpt>
      <trkpt lat="41.878024" lon="-87.636895">
      </trkpt>
      <trkpt lat="41.876121" lon="-87.636543">
      </trkpt>
      <trkpt lat="41.875927" lon="-87.635908">
      </trkpt>
      <trkpt lat="41.876336" lon="-87.634264">
      </trkpt>
      <trkpt lat="41.87588" lon="-87.634064">
      </trkpt>
      <trkpt lat="41.875615" lon="-87.643841">
      </trkpt>
      <trkpt lat="41.875736" lon="-87.651991">
      </trkpt>
      <trkpt lat="41.876197" lon="-87.657603">
      </trkpt>
      <trkpt lat="41.875763" lon="-87.688313">
      </trkpt>
      <trkpt lat="41.875862" lon="-87.692409">
      </trkpt>
      <trkpt lat="41.875983" lon="-87.696151">
      </trkpt>
      <trkpt lat="41.880169" lon="-87.696261">
      </trkpt>
      <trkpt lat="41.880173" lon="-87.695733">
      </trkpt>
      <trkpt lat="41.880173" lon="-87.695733">
      </trkpt>
      <trkpt lat="41.880169" lon="-87.696261">
      </trkpt>
      <trkpt lat="41.874902" lon="-87.696127">
      </trkpt>
      <trkpt lat="41.874908" lon="-87.695509">
      </trkpt>
      <trkpt lat="41.875125" lon="-87.690201">
      </trkpt>
      <trkpt lat="41.87561" lon="-87.659837">
      </trkpt>
      <trkpt lat="41.875329" lon="-87.650308">
      </trkpt>
      <trkpt lat="41.875302" lon="-87.647601">
      </trkpt>
      <trkpt lat="41.874563" lon="-87.645452">
      </trkpt>
      <trkpt lat="41.875077" lon="-87.644482">
      </trkpt>
      <trkpt lat="41.876036" lon="-87.64458">
      </trkpt>
      <trkpt lat="41.877863" lon="-87.645364">
      </trkpt>
      <trkpt lat="41.880374" lon="-87.645275">
      </trkpt>
      <trkpt lat="41.881847" lon="-87.645355">
      </trkpt>
      <trkpt lat="41.883151" lon="-87.645213">
      </trkpt>
      <trkpt lat="41.883178" lon="-87.641266">
      </trkpt>
      <trkpt lat="41.883185" lon="-87.639745">
      </trkpt>
      <trkpt lat="41.883243" lon="-87.633501">
      </trkpt>
      <trkpt lat="41.883243" lon="-87.633501">
      </trkpt>
      <trkpt lat="41.883243" lon="-87.632417">
      </trkpt>
      <trkpt lat="41.913071" lon="-87.632796">
      </trkpt>
      <trkpt lat="41.915623" lon="-87.634358">
      </trkpt>
      <trkpt lat="41.915479" lon="-87.634849">
      </trkpt>
      <trkpt lat="41.932557" lon="-87.658713">
      </trkpt>
      <trkpt lat="41.932567" lon="-87.65822">
      </trkpt>
      <trkpt lat="41.932567" lon="-87.65822">
      </trkpt>
      <trkpt lat="41.932557" lon="-87.658713">
      </trkpt>
      <trkpt lat="41.936111" lon="-87.663682">
      </trkpt>
      <trkpt lat="41.938211" lon="-87.663758">
      </trkpt>
      <trkpt lat="41.938211" lon="-87.663758">
      </trkpt>
      <trkpt lat="41.932479" lon="-87.66355">
      </trkpt>
      <trkpt lat="41.932278" lon="-87.678134">
      </trkpt>
      <trkpt lat="41.925026" lon="-87.677893">
      </trkpt>
      <trkpt lat="41.923585" lon="-87.79707">
      </trkpt>
      <trkpt lat="41.923215" lon="-87.797058">
      </trkpt>
      <trkpt lat="41.923215" lon="-87.797058">
      </trkpt>
      <trkpt lat="41.923585" lon="-87.79707">
      </trkpt>
      <trkpt lat="41.92364" lon="-87.789403">
      </trkpt>
      <trkpt lat="41.925151" lon="-87.66815">
      </trkpt>
      <trkpt lat="41.936057" lon="-87.668463">
      </trkpt>
      <trkpt lat="41.936111" lon="-87.663682">
      </trkpt>
      <trkpt lat="41.938211" lon="-87.663758">
      </trkpt>
      <trkpt lat="41.938211" lon="-87.663758">
      </trkpt>
      <trkpt lat="41.93521" lon="-87.663649">
      </trkpt>
      <trkpt lat="41.935144" lon="-87.668549">
      </trkpt>
      <trkpt lat="41.921138" lon="-87.668644">
      </trkpt>
      <trkpt lat="41.917197" lon="-87.667771">
      </trkpt>
      <trkpt lat="41.886129" lon="-87.667053">
      </trkpt>
      <trkpt lat="41.885323" lon="-87.667085">
      </trkpt>
      <trkpt lat="41.88498" lon="-87.676739">
      </trkpt>
      <trkpt lat="41.881323" lon="-87.676638">
      </trkpt>
      <trkpt lat="41.881324" lon="-87.679085">
      </trkpt>
      <trkpt lat="41.88126" lon="-87.678236">
      </trkpt>
      <trkpt lat="41.88126" lon="-87.678236">
      </trkpt>
      <trkpt lat="41.88126" lon="-87.678236">
      </trkpt>
      <trkpt lat="41.88126" lon="-87.678236">
      </trkpt>
      <trkpt lat="41.881323" lon="-87.676638">
      </trkpt>
      <trkpt lat="41.899544" lon="-87.677161">
      </trkpt>
      <trkpt lat="41.899597" lon="-87.674089">
      </trkpt>
      <trkpt lat="41.90052" lon="-87.67412">
      </trkpt>
      <trkpt lat="41.90052" lon="-87.67412">
      </trkpt>
      <trkpt lat="41.901415" lon="-87.67415">
      </trkpt>
      <trkpt lat="41.901438" lon="-87.672337">
      </trkpt>
      <trkpt lat="41.903268" lon="-87.67239">
      </trkpt>
      <trkpt lat="41.903374" lon="-87.665045">
      </trkpt>
      <trkpt lat="41.903929" lon="-87.665061">
      </trkpt>
      <trkpt lat="41.903929" lon="-87.665061">
      </trkpt>
      <trkpt lat="41.90517" lon="-87.665099">
      </trkpt>
      <trkpt lat="41.905187" lon="-87.663885">
      </trkpt>
      <trkpt lat="41.903391" lon="-87.663823">
      </trkpt>
      <trkpt lat="41.903435" lon="-87.661667">
      </trkpt>
      <trkpt lat="41.896333" lon="-87.658563">
      </trkpt>
      <trkpt lat="41.889352" lon="-87.648602">
      </trkpt>
      <trkpt lat="41.886261" lon="-87.646315">
      </trkpt>
      <trkpt lat="41.857367" lon="-87.644363">
      </trkpt>
      <trkpt lat="41.852447" lon="-87.645793">
      </trkpt>
      <trkpt lat="41.849097" lon="-87.644333">
      </trkpt>
      <trkpt lat="41.846776" lon="-87.644894">
      </trkpt>
      <trkpt lat="41.845121" lon="-87.652275">
      </trkpt>
      <trkpt lat="41.837422" lon="-87.669478">
      </trkpt>
      <trkpt lat="41.837483" lon="-87.674176">
      </trkpt>
      <trkpt lat="41.836888" lon="-87.675521">
      </trkpt>
      <trkpt lat="41.831825" lon="-87.675328">
      </trkpt>
      <trkpt lat="41.826276" lon="-87.68435">
      </trkpt>
      <trkpt lat="41.822995" lon="-87.684228">
      </trkpt>
      <trkpt lat="41.819343" lon="-87.684139">
      </trkpt>
      <trkpt lat="41.819316" lon="-87.682902">
      </trkpt>
      <trkpt lat="41.819191" lon="-87.682872">
      </trkpt>
      <trkpt lat="41.819191" lon="-87.682872">
      </trkpt>
      <trkpt lat="41.819316" lon="-87.682902">
      </trkpt>
      <trkpt lat="41.819343" lon="-87.684139">
      </trkpt>
      <trkpt lat="41.830623" lon="-87.684413">
      </trkpt>
      <trkpt lat="41.838241" lon="-87.685309">
      </trkpt>
      <trkpt lat="41.838663" lon="-87.68599">
      </trkpt>
      <trkpt lat="41.838261" lon="-87.687114">
      </trkpt>
      <trkpt lat="41.838169" lon="-87.689299">
      </trkpt>
      <trkpt lat="41.837489" lon="-87.691315">
      </trkpt>
      <trkpt lat="41.837151" lon="-87.709699">
      </trkpt>
      <trkpt lat="41.846282" lon="-87.709955">
      </trkpt>
      <trkpt lat="41.846285" lon="-87.709696">
      </trkpt>
      <trkpt lat="41.846285" lon="-87.709696">
      </trkpt>
      <trkpt lat="41.846282" lon="-87.709955">
      </trkpt>
      <trkpt lat="41.851717" lon="-87.710116">
      </trkpt>
      <trkpt lat="41.851661" lon="-87.710877">
      </trkpt>
      <trkpt lat="41.851938" lon="-87.711165">
      </trkpt>
      <trkpt lat="41.851642" lon="-87.724764">
      </trkpt>
      <trkpt lat="41.92265" lon="-87.72708">
      </trkpt>
      <trkpt lat="41.92266" lon="-87.726455">
      </trkpt>
      <trkpt lat="41.93727" lon="-87.727137">
      </trkpt>
      <trkpt lat="41.93668" lon="-87.72492">
      </trkpt>
      <trkpt lat="41.936972" lon="-87.724596">
      </trkpt>
      <trkpt lat="41.936972" lon="-87.724596">
      </trkpt>
      <trkpt lat="41.938161" lon="-87.723275">
      </trkpt>
      <trkpt lat="41.938682" lon="-87.724127">
      </trkpt>
      <trkpt lat="41.938682" lon="-87.724127">
      </trkpt>
      <trkpt lat="41.938668" lon="-87.724728">
      </trkpt>
      <trkpt lat="41.939128" lon="-87.724742">
      </trkpt>
      <trkpt lat="41.937915" lon="-87.817738">
      </trkpt>
      <trkpt lat="41.934301" lon="-87.817616">
      </trkpt>
      <trkpt lat="41.93424" lon="-87.820654">
      </trkpt>
      <trkpt lat="41.934634" lon="-87.82067">
      </trkpt>
      <trkpt lat="41.934634" lon="-87.82067">
      </trkpt>
      <trkpt lat="41.93424" lon="-87.820654">
      </trkpt>
      <trkpt lat="41.934519" lon="-87.806613">
      </trkpt>
      <trkpt lat="41.873618" lon="-87.804598">
      </trkpt>
      <trkpt lat="41.87064" lon="-87.769061">
      </trkpt>
      <trkpt lat="41.871594" lon="-87.739969">
      </trkpt>
      <trkpt lat="41.87362" lon="-87.733001">
      </trkpt>
      <trkpt lat="41.873948" lon="-87.708909">
      </trkpt>
      <trkpt lat="41.875134" lon="-87.699066">
      </trkpt>
      <trkpt lat="41.875358" lon="-87.680246">
      </trkpt>
      <trkpt lat="41.875016" lon="-87.676418">
      </trkpt>
      <trkpt lat="41.897728" lon="-87.677112">
      </trkpt>
      <trkpt lat="41.897747" lon="-87.675884">
      </trkpt>
      <trkpt lat="41.899493" lon="-87.67594">
      </trkpt>
      <trkpt lat="41.899493" lon="-87.67594">
      </trkpt>
      <trkpt lat="41.899565" lon="-87.675943">
      </trkpt>
      <trkpt lat="41.899544" lon="-87.677161">
      </trkpt>
      <trkpt lat="41.925026" lon="-87.677893">
      </trkpt>
      <trkpt lat="41.925151" lon="-87.66815">
      </trkpt>
      <trkpt lat="41.945181" lon="-87.66875">
      </trkpt>
      <trkpt lat="41.945239" lon="-87.664502">
      </trkpt>
      <trkpt lat="41.945239" lon="-87.664502">
      </trkpt>
      <trkpt lat="41.945247" lon="-87.663953">
      </trkpt>
      <trkpt lat="41.936111" lon="-87.663682">
      </trkpt>
      <trkpt lat="41.932557" lon="-87.658713">
      </trkpt>
      <trkpt lat="41.932636" lon="-87.653863">
      </trkpt>
      <trkpt lat="41.931569" lon="-87.653827">
      </trkpt>
      <trkpt lat="41.931569" lon="-87.653827">
      </trkpt>
      <trkpt lat="41.937175" lon="-87.654016">
      </trkpt>
      <trkpt lat="41.937186" lon="-87.653552">
      </trkpt>
      <trkpt lat="41.937074" lon="-87.65355">
      </trkpt>
      <trkpt lat="41.937074" lon="-87.65355">
      </trkpt>
      <trkpt lat="41.937186" lon="-87.653552">
      </trkpt>
      <trkpt lat="41.937175" lon="-87.654016">
      </trkpt>
      <trkpt lat="41.936284" lon="-87.653987">
      </trkpt>
      <trkpt lat="41.936154" lon="-87.661245">
      </trkpt>
      <trkpt lat="41.936537" lon="-87.661241">
      </trkpt>
      <trkpt lat="41.936537" lon="-87.661241">
      </trkpt>
      <trkpt lat="41.932518" lon="-87.661134">
      </trkpt>
      <trkpt lat="41.932278" lon="-87.678134">
      </trkpt>
      <trkpt lat="41.925026" lon="-87.677893">
      </trkpt>
      <trkpt lat="41.924981" lon="-87.681912">
      </trkpt>
      <trkpt lat="41.926707" lon="-87.685177">
      </trkpt>
      <trkpt lat="41.940439" lon="-87.709664">
      </trkpt>
      <trkpt lat="41.942208" lon="-87.714861">
      </trkpt>
      <trkpt lat="41.947985" lon="-87.719618">
      </trkpt>
      <trkpt lat="41.958569" lon="-87.738838">
      </trkpt>
      <trkpt lat="41.960451" lon="-87.741371">
      </trkpt>
      <trkpt lat="41.960845" lon="-87.74187">
      </trkpt>
      <trkpt lat="41.960081" lon="-87.794161">
      </trkpt>
      <trkpt lat="41.949144" lon="-87.816945">
      </trkpt>
      <trkpt lat="41.941072" lon="-87.816641">
      </trkpt>
      <trkpt lat="41.941072" lon="-87.816641">
      </trkpt>
      <trkpt lat="41.939617" lon="-87.816587">
      </trkpt>
      <trkpt lat="41.939594" lon="-87.817797">
      </trkpt>
      <trkpt lat="41.948419" lon="-87.818384">
      </trkpt>
      <trkpt lat="41.958438" lon="-87.797713">
      </trkpt>
      <trkpt lat="41.968342" lon="-87.797737">
      </trkpt>
      <trkpt lat="41.96853" lon="-87.778289">
      </trkpt>
      <trkpt lat="41.967665" lon="-87.77728">
      </trkpt>
      <trkpt lat="41.968033" lon="-87.747723">
      </trkpt>
      <trkpt lat="41.972896" lon="-87.747918">
      </trkpt>
      <trkpt lat="41.972794" lon="-87.747761">
      </trkpt>
      <trkpt lat="41.966563" lon="-87.747223">
      </trkpt>
      <trkpt lat="41.963113" lon="-87.745961">
      </trkpt>
      <trkpt lat="41.960129" lon="-87.742125">
      </trkpt>
      <trkpt lat="41.947613" lon="-87.719592">
      </trkpt>
      <trkpt lat="41.94215" lon="-87.715306">
      </trkpt>
      <trkpt lat="41.940524" lon="-87.710219">
      </trkpt>
      <trkpt lat="41.933659" lon="-87.698173">
      </trkpt>
      <trkpt lat="41.919706" lon="-87.673831">
      </trkpt>
      <trkpt lat="41.918264" lon="-87.671882">
      </trkpt>
      <trkpt lat="41.917859" lon="-87.671887">
      </trkpt>
      <trkpt lat="41.917803" lon="-87.675204">
      </trkpt>
      <trkpt lat="41.910862" lon="-87.675032">
      </trkpt>
      <trkpt lat="41.910856" lon="-87.675379">
      </trkpt>
      <trkpt lat="41.910856" lon="-87.675379">
      </trkpt>
      <trkpt lat="41.910843" lon="-87.676261">
      </trkpt>
      <trkpt lat="41.912324" lon="-87.676282">
      </trkpt>
      <trkpt lat="41.912304" lon="-87.677521">
      </trkpt>
      <trkpt lat="41.91776" lon="-87.677621">
      </trkpt>
      <trkpt lat="41.91763" lon="-87.684968">
      </trkpt>
      <trkpt lat="41.918313" lon="-87.684989">
      </trkpt>
      <trkpt lat="41.918313" lon="-87.684989">
      </trkpt>
      <trkpt lat="41.918381" lon="-87.684991">
      </trkpt>
      <trkpt lat="41.918337" lon="-87.687437">
      </trkpt>
      <trkpt lat="41.924902" lon="-87.687645">
      </trkpt>
      <trkpt lat="41.924857" lon="-87.69252">
      </trkpt>
      <trkpt lat="41.926673" lon="-87.692584">
      </trkpt>
      <trkpt lat="41.926684" lon="-87.691381">
      </trkpt>
      <trkpt lat="41.926611" lon="-87.691379">
      </trkpt>
      <trkpt lat="41.926611" lon="-87.691379">
      </trkpt>
      <trkpt lat="41.924867" lon="-87.691319">
      </trkpt>
      <trkpt lat="41.924978" lon="-87.682301">
      </trkpt>
      <trkpt lat="41.926707" lon="-87.685177">
      </trkpt>
      <trkpt lat="41.940439" lon="-87.709664">
      </trkpt>
      <trkpt lat="41.942208" lon="-87.714861">
      </trkpt>
      <trkpt lat="41.947985" lon="-87.719618">
      </trkpt>
      <trkpt lat="41.958569" lon="-87.738838">
      </trkpt>
      <trkpt lat="41.960451" lon="-87.741371">
      </trkpt>
      <trkpt lat="41.960845" lon="-87.74187">
      </trkpt>
      <trkpt lat="41.960061" lon="-87.794287">
      </trkpt>
      <trkpt lat="41.946631" lon="-87.822074">
      </trkpt>
      <trkpt lat="41.937842" lon="-87.821404">
      </trkpt>
      <trkpt lat="41.937866" lon="-87.820185">
      </trkpt>
      <trkpt lat="41.936076" lon="-87.820102">
      </trkpt>
      <trkpt lat="41.936062" lon="-87.820727">
      </trkpt>
      <trkpt lat="41.934634" lon="-87.82067">
      </trkpt>
      <trkpt lat="41.934634" lon="-87.82067">
      </trkpt>
      <trkpt lat="41.934634" lon="-87.82067">
      </trkpt>
      <trkpt lat="41.934634" lon="-87.82067">
      </trkpt>
      <trkpt lat="41.93424" lon="-87.820654">
      </trkpt>
      <trkpt lat="41.934519" lon="-87.806613">
      </trkpt>
      <trkpt lat="41.873618" lon="-87.804598">
      </trkpt>
      <trkpt lat="41.87064" lon="-87.769061">
      </trkpt>
      <trkpt lat="41.871594" lon="-87.739969">
      </trkpt>
      <trkpt lat="41.87362" lon="-87.733001">
      </trkpt>
      <trkpt lat="41.873948" lon="-87.708909">
      </trkpt>
      <trkpt lat="41.875134" lon="-87.699066">
      </trkpt>
      <trkpt lat="41.875358" lon="-87.680246">
      </trkpt>
      <trkpt lat="41.875065" lon="-87.673671">
      </trkpt>
      <trkpt lat="41.882852" lon="-87.664612">
      </trkpt>
      <trkpt lat="41.88287" lon="-87.663613">
      </trkpt>
      <trkpt lat="41.88287" lon="-87.663613">
      </trkpt>
      <trkpt lat="41.882992" lon="-87.656698">
      </trkpt>
      <trkpt lat="41.88163" lon="-87.656689">
      </trkpt>
      <trkpt lat="41.8818" lon="-87.645827">
      </trkpt>
      <trkpt lat="41.877697" lon="-87.645988">
      </trkpt>
      <trkpt lat="41.867365" lon="-87.644752">
      </trkpt>
      <trkpt lat="41.861936" lon="-87.644538">
      </trkpt>
      <trkpt lat="41.855528" lon="-87.645083">
      </trkpt>
      <trkpt lat="41.854689" lon="-87.64655">
      </trkpt>
      <trkpt lat="41.844914" lon="-87.646443">
      </trkpt>
      <trkpt lat="41.844758" lon="-87.646255">
      </trkpt>
      <trkpt lat="41.844758" lon="-87.646255">
      </trkpt>
      <trkpt lat="41.844917" lon="-87.646335">
      </trkpt>
      <trkpt lat="41.844914" lon="-87.646443">
      </trkpt>
      <trkpt lat="41.852666" lon="-87.646499">
      </trkpt>
      <trkpt lat="41.852672" lon="-87.64473">
      </trkpt>
      <trkpt lat="41.855471" lon="-87.643738">
      </trkpt>
      <trkpt lat="41.857758" lon="-87.643778">
      </trkpt>
      <trkpt lat="41.867845" lon="-87.644517">
      </trkpt>
      <trkpt lat="41.873521" lon="-87.644628">
      </trkpt>
      <trkpt lat="41.874907" lon="-87.644827">
      </trkpt>
      <trkpt lat="41.875725" lon="-87.645646">
      </trkpt>
      <trkpt lat="41.875961" lon="-87.646533">
      </trkpt>
      <trkpt lat="41.875863" lon="-87.649223">
      </trkpt>
      <trkpt lat="41.87589" lon="-87.651853">
      </trkpt>
      <trkpt lat="41.874411" lon="-87.651812">
      </trkpt>
      <trkpt lat="41.874248" lon="-87.661786">
      </trkpt>
      <trkpt lat="41.87336" lon="-87.661763">
      </trkpt>
      <trkpt lat="41.873338" lon="-87.663339">
      </trkpt>
      <trkpt lat="41.873338" lon="-87.663339">
      </trkpt>
      <trkpt lat="41.87336" lon="-87.661763">
      </trkpt>
      <trkpt lat="41.876439" lon="-87.661848">
      </trkpt>
      <trkpt lat="41.876401" lon="-87.664278">
      </trkpt>
      <trkpt lat="41.881502" lon="-87.66442">
      </trkpt>
      <trkpt lat="41.881565" lon="-87.660565">
      </trkpt>
      <trkpt lat="41.881752" lon="-87.66057">
      </trkpt>
      <trkpt lat="41.881752" lon="-87.66057">
      </trkpt>
      <trkpt lat="41.887939" lon="-87.66082">
      </trkpt>
      <trkpt lat="41.888286" lon="-87.660981">
      </trkpt>
      <trkpt lat="41.889971" lon="-87.659834">
      </trkpt>
      <trkpt lat="41.896273" lon="-87.654527">
      </trkpt>
      <trkpt lat="41.896586" lon="-87.63421">
      </trkpt>
      <trkpt lat="41.898867" lon="-87.634293">
      </trkpt>
      <trkpt lat="41.898867" lon="-87.634293">
      </trkpt>
      <trkpt lat="41.903857" lon="-87.634474">
      </trkpt>
      <trkpt lat="41.903768" lon="-87.639563">
      </trkpt>
      <trkpt lat="41.910013" lon="-87.648257">
      </trkpt>
      <trkpt lat="41.91731" lon="-87.648495">
      </trkpt>
      <trkpt lat="41.91731" lon="-87.648495">
      </trkpt>
      <trkpt lat="41.925453" lon="-87.648766">
      </trkpt>
      <trkpt lat="41.937916" lon="-87.666175">
      </trkpt>
      <trkpt lat="41.939729" lon="-87.666233">
      </trkpt>
      <trkpt lat="41.939644" lon="-87.673369">
      </trkpt>
      <trkpt lat="41.939644" lon="-87.673369">
      </trkpt>
      <trkpt lat="41.939696" lon="-87.668727">
      </trkpt>
      <trkpt lat="41.932963" lon="-87.668473">
      </trkpt>
      <trkpt lat="41.932963" lon="-87.668473">
      </trkpt>
      <trkpt lat="41.9324" lon="-87.668452">
      </trkpt>
      <trkpt lat="41.939697" lon="-87.668609">
      </trkpt>
      <trkpt lat="41.940119" lon="-87.639537">
      </trkpt>
      <trkpt lat="41.940568" lon="-87.638088">
      </trkpt>
      <trkpt lat="41.951253" lon="-87.644496">
      </trkpt>
      <trkpt lat="41.954749" lon="-87.644596">
      </trkpt>
      <trkpt lat="41.973046" lon="-87.648738">
      </trkpt>
      <trkpt lat="41.981039" lon="-87.652251">
      </trkpt>
      <trkpt lat="41.984951" lon="-87.652803">
      </trkpt>
      <trkpt lat="41.985582" lon="-87.653995">
      </trkpt>
      <trkpt lat="41.985467" lon="-87.660132">
      </trkpt>
      <trkpt lat="41.990006" lon="-87.660278">
      </trkpt>
      <trkpt lat="41.989936" lon="-87.665002">
      </trkpt>
      <trkpt lat="41.989936" lon="-87.665002">
      </trkpt>
      <trkpt lat="41.989946" lon="-87.665145">
      </trkpt>
      <trkpt lat="41.997321" lon="-87.665374">
      </trkpt>
      <trkpt lat="41.998048" lon="-87.665408">
      </trkpt>
      <trkpt lat="41.998206" lon="-87.665513">
      </trkpt>
      <trkpt lat="41.999968" lon="-87.665572">
      </trkpt>
      <trkpt lat="41.999957" lon="-87.667137">
      </trkpt>
      <trkpt lat="41.999957" lon="-87.667137">
      </trkpt>
      <trkpt lat="41.999939" lon="-87.66922">
      </trkpt>
      <trkpt lat="41.998103" lon="-87.669168">
      </trkpt>
      <trkpt lat="41.998011" lon="-87.655748">
      </trkpt>
      <trkpt lat="41.985556" lon="-87.655253">
      </trkpt>
      <trkpt lat="41.984999" lon="-87.653157">
      </trkpt>
      <trkpt lat="41.973006" lon="-87.649079">
      </trkpt>
      <trkpt lat="41.950978" lon="-87.644611">
      </trkpt>
      <trkpt lat="41.941067" lon="-87.638957">
      </trkpt>
      <trkpt lat="41.93482" lon="-87.632527">
      </trkpt>
      <trkpt lat="41.928427" lon="-87.632048">
      </trkpt>
      <trkpt lat="41.915117" lon="-87.627538">
      </trkpt>
      <trkpt lat="41.913042" lon="-87.627206">
      </trkpt>
      <trkpt lat="41.912907" lon="-87.633196">
      </trkpt>
      <trkpt lat="41.900546" lon="-87.632901">
      </trkpt>
      <trkpt lat="41.90053" lon="-87.63435">
      </trkpt>
      <trkpt lat="41.898867" lon="-87.634293">
      </trkpt>
      <trkpt lat="41.898867" lon="-87.634293">
      </trkpt>
      <trkpt lat="41.898867" lon="-87.634293">
      </trkpt>
      <trkpt lat="41.898867" lon="-87.634293">
      </trkpt>
      <trkpt lat="41.896586" lon="-87.63421">
      </trkpt>
      <trkpt lat="41.896254" lon="-87.65541">
      </trkpt>
      <trkpt lat="41.899842" lon="-87.660982">
      </trkpt>
      <trkpt lat="41.899379" lon="-87.686926">
      </trkpt>
      <trkpt lat="41.903025" lon="-87.687018">
      </trkpt>
      <trkpt lat="41.902888" lon="-87.701605">
      </trkpt>
      <trkpt lat="41.902888" lon="-87.701605">
      </trkpt>
      <trkpt lat="41.903364" lon="-87.666488">
      </trkpt>
      <trkpt lat="41.899711" lon="-87.660843">
      </trkpt>
      <trkpt lat="41.896667" lon="-87.658834">
      </trkpt>
      <trkpt lat="41.895018" lon="-87.657114">
      </trkpt>
      <trkpt lat="41.89377" lon="-87.655657">
      </trkpt>
      <trkpt lat="41.89226" lon="-87.654831">
      </trkpt>
      <trkpt lat="41.891931" lon="-87.653963">
      </trkpt>
      <trkpt lat="41.892554" lon="-87.651034">
      </trkpt>
      <trkpt lat="41.892423" lon="-87.632511">
      </trkpt>
      <trkpt lat="41.895614" lon="-87.632605">
      </trkpt>
      <trkpt lat="41.895727" lon="-87.625488">
      </trkpt>
      <trkpt lat="41.89638" lon="-87.625513">
      </trkpt>
      <trkpt lat="41.89638" lon="-87.625513">
      </trkpt>
      <trkpt lat="41.896714" lon="-87.625592">
      </trkpt>
      <trkpt lat="41.896844" lon="-87.616893">
      </trkpt>
      <trkpt lat="41.892868" lon="-87.614264">
      </trkpt>
      <trkpt lat="41.885247" lon="-87.614081">
      </trkpt>
      <trkpt lat="41.881821" lon="-87.617453">
      </trkpt>
      <trkpt lat="41.869765" lon="-87.617261">
      </trkpt>
      <trkpt lat="41.866208" lon="-87.619588">
      </trkpt>
      <trkpt lat="41.862252" lon="-87.618646">
      </trkpt>
      <trkpt lat="41.832576" lon="-87.607188">
      </trkpt>
      <trkpt lat="41.825932" lon="-87.600839">
      </trkpt>
      <trkpt lat="41.815295" lon="-87.593977">
      </trkpt>
      <trkpt lat="41.803885" lon="-87.58209">
      </trkpt>
      <trkpt lat="41.794428" lon="-87.579597">
      </trkpt>
      <trkpt lat="41.792571" lon="-87.580573">
      </trkpt>
      <trkpt lat="41.792193" lon="-87.585251">
      </trkpt>
      <trkpt lat="41.787765" lon="-87.58578">
      </trkpt>
      <trkpt lat="41.787226" lon="-87.596362">
      </trkpt>
      <trkpt lat="41.78543" lon="-87.59632">
      </trkpt>
      <trkpt lat="41.78543" lon="-87.59632">
      </trkpt>
      <trkpt lat="41.786507" lon="-87.596345">
      </trkpt>
      <trkpt lat="41.786383" lon="-87.586567">
      </trkpt>
      <trkpt lat="41.787644" lon="-87.586575">
      </trkpt>
      <trkpt lat="41.788306" lon="-87.585076">
      </trkpt>
      <trkpt lat="41.79231" lon="-87.585122">
      </trkpt>
      <trkpt lat="41.792433" lon="-87.580163">
      </trkpt>
      <trkpt lat="41.795899" lon="-87.579065">
      </trkpt>
      <trkpt lat="41.803976" lon="-87.581975">
      </trkpt>
      <trkpt lat="41.815381" lon="-87.593676">
      </trkpt>
      <trkpt lat="41.826403" lon="-87.600955">
      </trkpt>
      <trkpt lat="41.832668" lon="-87.606909">
      </trkpt>
      <trkpt lat="41.843509" lon="-87.610426">
      </trkpt>
      <trkpt lat="41.848604" lon="-87.612641">
      </trkpt>
      <trkpt lat="41.847424" lon="-87.630973">
      </trkpt>
      <trkpt lat="41.847736" lon="-87.641219">
      </trkpt>
      <trkpt lat="41.850742" lon="-87.644555">
      </trkpt>
      <trkpt lat="41.867845" lon="-87.644517">
      </trkpt>
      <trkpt lat="41.873521" lon="-87.644628">
      </trkpt>
      <trkpt lat="41.875725" lon="-87.645646">
      </trkpt>
      <trkpt lat="41.875863" lon="-87.649223">
      </trkpt>
      <trkpt lat="41.875763" lon="-87.688313">
      </trkpt>
      <trkpt lat="41.875862" lon="-87.692409">
      </trkpt>
      <trkpt lat="41.875937" lon="-87.701067">
      </trkpt>
      <trkpt lat="41.915629" lon="-87.702035">
      </trkpt>
      <trkpt lat="41.915612" lon="-87.703717">
      </trkpt>
      <trkpt lat="41.915612" lon="-87.703717">
      </trkpt>
      <trkpt lat="41.915629" lon="-87.702035">
      </trkpt>
      <trkpt lat="41.91745" lon="-87.702101">
      </trkpt>
      <trkpt lat="41.917587" lon="-87.687413">
      </trkpt>
      <trkpt lat="41.928661" lon="-87.687706">
      </trkpt>
      <trkpt lat="41.931491" lon="-87.684147">
      </trkpt>
      <trkpt lat="41.932222" lon="-87.683979">
      </trkpt>
      <trkpt lat="41.932848" lon="-87.642737">
      </trkpt>
      <trkpt lat="41.934284" lon="-87.64278">
      </trkpt>
      <trkpt lat="41.934301" lon="-87.641783">
      </trkpt>
      <trkpt lat="41.935387" lon="-87.64182">
      </trkpt>
      <trkpt lat="41.935387" lon="-87.64182">
      </trkpt>
      <trkpt lat="41.934301" lon="-87.641783">
      </trkpt>
      <trkpt lat="41.934344" lon="-87.639351">
      </trkpt>
      <trkpt lat="41.932914" lon="-87.63931">
      </trkpt>
      <trkpt lat="41.932293" lon="-87.638681">
      </trkpt>
      <trkpt lat="41.931592" lon="-87.638993">
      </trkpt>
      <trkpt lat="41.930111" lon="-87.638762">
      </trkpt>
      <trkpt lat="41.927795" lon="-87.638765">
      </trkpt>
      <trkpt lat="41.926736" lon="-87.63794">
      </trkpt>
      <trkpt lat="41.926079" lon="-87.636833">
      </trkpt>
      <trkpt lat="41.925892" lon="-87.636155">
      </trkpt>
      <trkpt lat="41.925673" lon="-87.636058">
      </trkpt>
      <trkpt lat="41.925658" lon="-87.636586">
      </trkpt>
      <trkpt lat="41.92199" lon="-87.63646">
      </trkpt>
      <trkpt lat="41.921954" lon="-87.638941">
      </trkpt>
      <trkpt lat="41.918322" lon="-87.638808">
      </trkpt>
      <trkpt lat="41.918106" lon="-87.638503">
      </trkpt>
      <trkpt lat="41.918106" lon="-87.638503">
      </trkpt>
      <trkpt lat="41.939512" lon="-87.668425">
      </trkpt>
      <trkpt lat="41.955092" lon="-87.679402">
      </trkpt>
      <trkpt lat="41.95505" lon="-87.682665">
      </trkpt>
      <trkpt lat="41.95505" lon="-87.682665">
      </trkpt>
      <trkpt lat="41.955036" lon="-87.683641">
      </trkpt>
      <trkpt lat="41.954151" lon="-87.683613">
      </trkpt>
      <trkpt lat="41.954086" lon="-87.688469">
      </trkpt>
      <trkpt lat="41.932176" lon="-87.687986">
      </trkpt>
      <trkpt lat="41.932039" lon="-87.707434">
      </trkpt>
      <trkpt lat="41.930261" lon="-87.707505">
      </trkpt>
      <trkpt lat="41.929332" lon="-87.707814">
      </trkpt>
      <trkpt lat="41.929168" lon="-87.707541">
      </trkpt>
      <trkpt lat="41.9174" lon="-87.70705">
      </trkpt>
      <trkpt lat="41.917363" lon="-87.710267">
      </trkpt>
      <trkpt lat="41.914054" lon="-87.710199">
      </trkpt>
      <trkpt lat="41.914054" lon="-87.710199">
      </trkpt>
      <trkpt lat="41.913804" lon="-87.710192">
      </trkpt>
      <trkpt lat="41.911905" lon="-87.71013">
      </trkpt>
      <trkpt lat="41.911946" lon="-87.706862">
      </trkpt>
      <trkpt lat="41.898325" lon="-87.706651">
      </trkpt>
      <trkpt lat="41.890657" lon="-87.687437">
      </trkpt>
      <trkpt lat="41.890972" lon="-87.667205">
      </trkpt>
      <trkpt lat="41.886129" lon="-87.667053">
      </trkpt>
      <trkpt lat="41.885325" lon="-87.666996">
      </trkpt>
      <trkpt lat="41.885544" lon="-87.654782">
      </trkpt>
      <trkpt lat="41.885544" lon="-87.654782">
      </trkpt>
      <trkpt lat="41.885568" lon="-87.653297">
      </trkpt>
      <trkpt lat="41.887743" lon="-87.653361">
      </trkpt>
      <trkpt lat="41.887755" lon="-87.652203">
      </trkpt>
      <trkpt lat="41.888087" lon="-87.652212">
      </trkpt>
      <trkpt lat="41.888087" lon="-87.652212">
      </trkpt>
      <trkpt lat="41.891135" lon="-87.652288">
      </trkpt>
      <trkpt lat="41.890825" lon="-87.676904">
      </trkpt>
      <trkpt lat="41.908257" lon="-87.677416">
      </trkpt>
      <trkpt lat="41.908243" lon="-87.678238">
      </trkpt>
      <trkpt lat="41.908243" lon="-87.678238">
      </trkpt>
      <trkpt lat="41.908215" lon="-87.679848">
      </trkpt>
      <trkpt lat="41.910446" lon="-87.679912">
      </trkpt>
      <trkpt lat="41.910469" lon="-87.677494">
      </trkpt>
      <trkpt lat="41.909501" lon="-87.676073">
      </trkpt>
      <trkpt lat="41.909501" lon="-87.676073">
      </trkpt>
      <trkpt lat="41.911499" lon="-87.679212">
      </trkpt>
      <trkpt lat="41.911241" lon="-87.68002">
      </trkpt>
      <trkpt lat="41.910445" lon="-87.679992">
      </trkpt>
      <trkpt lat="41.909828" lon="-87.729987">
      </trkpt>
      <trkpt lat="41.910403" lon="-87.729996">
      </trkpt>
      <trkpt lat="41.910403" lon="-87.729996">
      </trkpt>
      <trkpt lat="41.917126" lon="-87.730221">
      </trkpt>
      <trkpt lat="41.917345" lon="-87.711906">
      </trkpt>
      <trkpt lat="41.942239" lon="-87.712582">
      </trkpt>
      <trkpt lat="41.942252" lon="-87.714433">
      </trkpt>
      <trkpt lat="41.942862" lon="-87.715459">
      </trkpt>
      <trkpt lat="41.942862" lon="-87.715459">
      </trkpt>
      <trkpt lat="41.942252" lon="-87.714433">
      </trkpt>
      <trkpt lat="41.942239" lon="-87.712582">
      </trkpt>
      <trkpt lat="41.940478" lon="-87.712526">
      </trkpt>
      <trkpt lat="41.94053" lon="-87.711309">
      </trkpt>
      <trkpt lat="41.939977" lon="-87.709442">
      </trkpt>
      <trkpt lat="41.930594" lon="-87.693566">
      </trkpt>
      <trkpt lat="41.927358" lon="-87.687291">
      </trkpt>
      <trkpt lat="41.924962" lon="-87.683686">
      </trkpt>
      <trkpt lat="41.925453" lon="-87.648766">
      </trkpt>
      <trkpt lat="41.929091" lon="-87.648892">
      </trkpt>
      <trkpt lat="41.929095" lon="-87.647955">
      </trkpt>
      <trkpt lat="41.929095" lon="-87.647955">
      </trkpt>
      <trkpt lat="41.929091" lon="-87.648892">
      </trkpt>
      <trkpt lat="41.925453" lon="-87.648766">
      </trkpt>
      <trkpt lat="41.924902" lon="-87.687645">
      </trkpt>
      <trkpt lat="41.917587" lon="-87.687413">
      </trkpt>
      <trkpt lat="41.91745" lon="-87.702101">
      </trkpt>
      <trkpt lat="41.915629" lon="-87.702035">
      </trkpt>
      <trkpt lat="41.915612" lon="-87.703717">
      </trkpt>
    </trkseg>
  </trk>
</gpx>