<?xml version="1.0" encoding="UTF-8"?>
<gpx xmlns="http://www.topografix.com/GPX/1/1" xmlns:xsi="http://www.w3.org/2001/XMLSchema-instance" xsi:schemaLocation="http://www.topografix.com/GPX/1/1 http://www.topografix.com/GPX/1/1/gpx.xsd" version="1.1" creator="gpx.py -- https://github.com/tkrajina/gpxpy">
  <trk>
    <trkseg>
      <trkpt lat="41.968431" lon="-87.758399">
      </trkpt>
      <trkpt lat="41.967938" lon="-87.757623">
      </trkpt>
      <trkpt lat="41.967781" lon="-87.767479">
      </trkpt>
      <trkpt lat="41.909384" lon="-87.765733">
      </trkpt>
      <trkpt lat="41.909259" lon="-87.775538">
      </trkpt>
      <trkpt lat="41.891864" lon="-87.775037">
      </trkpt>
      <trkpt lat="41.891796" lon="-87.776438">
      </trkpt>
      <trkpt lat="41.891796" lon="-87.776438">
      </trkpt>
      <trkpt lat="41.891864" lon="-87.775037">
      </trkpt>
      <trkpt lat="41.898363" lon="-87.775245">
      </trkpt>
      <trkpt lat="41.898494" lon="-87.765522">
      </trkpt>
      <trkpt lat="41.904848" lon="-87.765752">
      </trkpt>
      <trkpt lat="41.904908" lon="-87.761038">
      </trkpt>
      <trkpt lat="41.905814" lon="-87.76106">
      </trkpt>
      <trkpt lat="41.905844" lon="-87.758514">
      </trkpt>
      <trkpt lat="41.905844" lon="-87.758514">
      </trkpt>
      <trkpt lat="41.905844" lon="-87.758514">
      </trkpt>
      <trkpt lat="41.905844" lon="-87.758514">
      </trkpt>
      <trkpt lat="41.905876" lon="-87.755859">
      </trkpt>
      <trkpt lat="41.894936" lon="-87.755593">
      </trkpt>
      <trkpt lat="41.895007" lon="-87.745806">
      </trkpt>
      <trkpt lat="41.894061" lon="-87.745771">
      </trkpt>
      <trkpt lat="41.894049" lon="-87.747307">
      </trkpt>
      <trkpt lat="41.894049" lon="-87.747307">
      </trkpt>
      <trkpt lat="41.894041" lon="-87.748226">
      </trkpt>
      <trkpt lat="41.893149" lon="-87.748192">
      </trkpt>
      <trkpt lat="41.893174" lon="-87.74574">
      </trkpt>
      <trkpt lat="41.872067" lon="-87.745008">
      </trkpt>
      <trkpt lat="41.872052" lon="-87.746045">
      </trkpt>
      <trkpt lat="41.871077" lon="-87.771005">
      </trkpt>
      <trkpt lat="41.874235" lon="-87.810299">
      </trkpt>
      <trkpt lat="41.872304" lon="-87.820222">
      </trkpt>
      <trkpt lat="41.871869" lon="-87.829649">
      </trkpt>
      <trkpt lat="41.871771" lon="-87.833709">
      </trkpt>
      <trkpt lat="41.864475" lon="-87.8334">
      </trkpt>
      <trkpt lat="41.864376" lon="-87.838829">
      </trkpt>
      <trkpt lat="41.864007" lon="-87.838302">
      </trkpt>
      <trkpt lat="41.862155" lon="-87.839325">
      </trkpt>
      <trkpt lat="41.862127" lon="-87.840758">
      </trkpt>
      <trkpt lat="41.862335" lon="-87.84077">
      </trkpt>
      <trkpt lat="41.862338" lon="-87.840576">
      </trkpt>
      <trkpt lat="41.863313" lon="-87.840613">
      </trkpt>
      <trkpt lat="41.863313" lon="-87.840613">
      </trkpt>
      <trkpt lat="41.862968" lon="-87.840601">
      </trkpt>
      <trkpt lat="41.862334" lon="-87.840855">
      </trkpt>
      <trkpt lat="41.862124" lon="-87.840847">
      </trkpt>
      <trkpt lat="41.862155" lon="-87.839325">
      </trkpt>
      <trkpt lat="41.864007" lon="-87.838302">
      </trkpt>
      <trkpt lat="41.864475" lon="-87.8334">
      </trkpt>
      <trkpt lat="41.870006" lon="-87.833629">
      </trkpt>
      <trkpt lat="41.870895" lon="-87.833203">
      </trkpt>
      <trkpt lat="41.871614" lon="-87.830438">
      </trkpt>
      <trkpt lat="41.872275" lon="-87.819357">
      </trkpt>
      <trkpt lat="41.874026" lon="-87.811298">
      </trkpt>
      <trkpt lat="41.87064" lon="-87.769061">
      </trkpt>
      <trkpt lat="41.871594" lon="-87.739969">
      </trkpt>
      <trkpt lat="41.87362" lon="-87.733001">
      </trkpt>
      <trkpt lat="41.873948" lon="-87.708909">
      </trkpt>
      <trkpt lat="41.874481" lon="-87.704448">
      </trkpt>
      <trkpt lat="41.874345" lon="-87.701026">
      </trkpt>
      <trkpt lat="41.877385" lon="-87.70111">
      </trkpt>
      <trkpt lat="41.877408" lon="-87.69832">
      </trkpt>
      <trkpt lat="41.877408" lon="-87.69832">
      </trkpt>
      <trkpt lat="41.877547" lon="-87.686341">
      </trkpt>
      <trkpt lat="41.875885" lon="-87.68639">
      </trkpt>
      <trkpt lat="41.868999" lon="-87.686177">
      </trkpt>
      <trkpt lat="41.869069" lon="-87.680351">
      </trkpt>
      <trkpt lat="41.867711" lon="-87.68031">
      </trkpt>
      <trkpt lat="41.867711" lon="-87.68031">
      </trkpt>
      <trkpt lat="41.866638" lon="-87.680277">
      </trkpt>
      <trkpt lat="41.866694" lon="-87.676349">
      </trkpt>
      <trkpt lat="41.849401" lon="-87.675765">
      </trkpt>
      <trkpt lat="41.849401" lon="-87.675765">
      </trkpt>
      <trkpt lat="41.869112" lon="-87.676199">
      </trkpt>
      <trkpt lat="41.8692" lon="-87.670488">
      </trkpt>
      <trkpt lat="41.8692" lon="-87.670488">
      </trkpt>
      <trkpt lat="41.869112" lon="-87.676199">
      </trkpt>
      <trkpt lat="41.894092" lon="-87.677004">
      </trkpt>
      <trkpt lat="41.893977" lon="-87.684163">
      </trkpt>
      <trkpt lat="41.893977" lon="-87.684163">
      </trkpt>
      <trkpt lat="41.893973" lon="-87.684348">
      </trkpt>
      <trkpt lat="41.89579" lon="-87.684398">
      </trkpt>
      <trkpt lat="41.896254" lon="-87.65541">
      </trkpt>
      <trkpt lat="41.893035" lon="-87.650448">
      </trkpt>
      <trkpt lat="41.893035" lon="-87.650448">
      </trkpt>
      <trkpt lat="41.893342" lon="-87.650924">
      </trkpt>
      <trkpt lat="41.893426" lon="-87.650987">
      </trkpt>
      <trkpt lat="41.8937" lon="-87.651495">
      </trkpt>
      <trkpt lat="41.894" lon="-87.651133">
      </trkpt>
      <trkpt lat="41.895044" lon="-87.65115">
      </trkpt>
      <trkpt lat="41.89505" lon="-87.650724">
      </trkpt>
      <trkpt lat="41.89505" lon="-87.650724">
      </trkpt>
      <trkpt lat="41.895044" lon="-87.65115">
      </trkpt>
      <trkpt lat="41.894" lon="-87.651133">
      </trkpt>
      <trkpt lat="41.8937" lon="-87.651495">
      </trkpt>
      <trkpt lat="41.891194" lon="-87.647627">
      </trkpt>
      <trkpt lat="41.885665" lon="-87.647482">
      </trkpt>
      <trkpt lat="41.885682" lon="-87.646258">
      </trkpt>
      <trkpt lat="41.885494" lon="-87.646031">
      </trkpt>
      <trkpt lat="41.884746" lon="-87.645922">
      </trkpt>
      <trkpt lat="41.881827" lon="-87.645999">
      </trkpt>
      <trkpt lat="41.880956" lon="-87.646134">
      </trkpt>
      <trkpt lat="41.879569" lon="-87.646145">
      </trkpt>
      <trkpt lat="41.878121" lon="-87.646166">
      </trkpt>
      <trkpt lat="41.877218" lon="-87.646107">
      </trkpt>
      <trkpt lat="41.876551" lon="-87.646063">
      </trkpt>
      <trkpt lat="41.875649" lon="-87.646733">
      </trkpt>
      <trkpt lat="41.875257" lon="-87.646541">
      </trkpt>
      <trkpt lat="41.875057" lon="-87.646076">
      </trkpt>
      <trkpt lat="41.875457" lon="-87.644423">
      </trkpt>
      <trkpt lat="41.875572" lon="-87.635788">
      </trkpt>
      <trkpt lat="41.875312" lon="-87.634246">
      </trkpt>
      <trkpt lat="41.874981" lon="-87.634155">
      </trkpt>
      <trkpt lat="41.874721" lon="-87.634438">
      </trkpt>
      <trkpt lat="41.874834" lon="-87.635124">
      </trkpt>
      <trkpt lat="41.875828" lon="-87.635957">
      </trkpt>
      <trkpt lat="41.876812" lon="-87.636629">
      </trkpt>
      <trkpt lat="41.876812" lon="-87.636803">
      </trkpt>
      <trkpt lat="41.876812" lon="-87.636803">
      </trkpt>
      <trkpt lat="41.876812" lon="-87.636629">
      </trkpt>
      <trkpt lat="41.881915" lon="-87.636785">
      </trkpt>
      <trkpt lat="41.881877" lon="-87.640505">
      </trkpt>
      <trkpt lat="41.881877" lon="-87.640505">
      </trkpt>
      <trkpt lat="41.881847" lon="-87.642638">
      </trkpt>
      <trkpt lat="41.885711" lon="-87.642764">
      </trkpt>
      <trkpt lat="41.885588" lon="-87.652141">
      </trkpt>
      <trkpt lat="41.888087" lon="-87.652212">
      </trkpt>
      <trkpt lat="41.888087" lon="-87.652212">
      </trkpt>
      <trkpt lat="41.887755" lon="-87.652203">
      </trkpt>
      <trkpt lat="41.88773" lon="-87.654529">
      </trkpt>
      <trkpt lat="41.888297" lon="-87.654546">
      </trkpt>
      <trkpt lat="41.888297" lon="-87.654546">
      </trkpt>
      <trkpt lat="41.891105" lon="-87.654625">
      </trkpt>
      <trkpt lat="41.891239" lon="-87.643004">
      </trkpt>
      <trkpt lat="41.891501" lon="-87.640016">
      </trkpt>
      <trkpt lat="41.891543" lon="-87.637019">
      </trkpt>
      <trkpt lat="41.892368" lon="-87.63704">
      </trkpt>
      <trkpt lat="41.892541" lon="-87.624121">
      </trkpt>
      <trkpt lat="41.894143" lon="-87.624162">
      </trkpt>
      <trkpt lat="41.894176" lon="-87.62188">
      </trkpt>
      <trkpt lat="41.894176" lon="-87.62188">
      </trkpt>
      <trkpt lat="41.894214" lon="-87.620307">
      </trkpt>
      <trkpt lat="41.891803" lon="-87.620235">
      </trkpt>
      <trkpt lat="41.891194" lon="-87.647627">
      </trkpt>
      <trkpt lat="41.896254" lon="-87.65541">
      </trkpt>
      <trkpt lat="41.89579" lon="-87.684398">
      </trkpt>
      <trkpt lat="41.89851" lon="-87.684464">
      </trkpt>
      <trkpt lat="41.898492" lon="-87.685574">
      </trkpt>
      <trkpt lat="41.898492" lon="-87.685574">
      </trkpt>
      <trkpt lat="41.89847" lon="-87.686903">
      </trkpt>
      <trkpt lat="41.899379" lon="-87.686926">
      </trkpt>
      <trkpt lat="41.899842" lon="-87.660982">
      </trkpt>
      <trkpt lat="41.899711" lon="-87.660843">
      </trkpt>
      <trkpt lat="41.895493" lon="-87.657719">
      </trkpt>
      <trkpt lat="41.888636" lon="-87.647794">
      </trkpt>
      <trkpt lat="41.886973" lon="-87.646614">
      </trkpt>
      <trkpt lat="41.885119" lon="-87.646108">
      </trkpt>
      <trkpt lat="41.883144" lon="-87.646413">
      </trkpt>
      <trkpt lat="41.883178" lon="-87.641266">
      </trkpt>
      <trkpt lat="41.883185" lon="-87.639745">
      </trkpt>
      <trkpt lat="41.883257" lon="-87.624233">
      </trkpt>
      <trkpt lat="41.884366" lon="-87.624344">
      </trkpt>
      <trkpt lat="41.884372" lon="-87.623414">
      </trkpt>
      <trkpt lat="41.884406" lon="-87.617529">
      </trkpt>
      <trkpt lat="41.885524" lon="-87.617418">
      </trkpt>
      <trkpt lat="41.885561" lon="-87.616288">
      </trkpt>
      <trkpt lat="41.886523" lon="-87.616289">
      </trkpt>
      <trkpt lat="41.88653" lon="-87.618715">
      </trkpt>
      <trkpt lat="41.88653" lon="-87.618715">
      </trkpt>
      <trkpt lat="41.886506" lon="-87.619106">
      </trkpt>
      <trkpt lat="41.885527" lon="-87.6191">
      </trkpt>
      <trkpt lat="41.885524" lon="-87.617418">
      </trkpt>
      <trkpt lat="41.884538" lon="-87.617389">
      </trkpt>
      <trkpt lat="41.884484" lon="-87.624371">
      </trkpt>
      <trkpt lat="41.887965" lon="-87.624484">
      </trkpt>
      <trkpt lat="41.889969" lon="-87.624034">
      </trkpt>
      <trkpt lat="41.896271" lon="-87.624208">
      </trkpt>
      <trkpt lat="41.897586" lon="-87.624066">
      </trkpt>
      <trkpt lat="41.897599" lon="-87.623421">
      </trkpt>
      <trkpt lat="41.897599" lon="-87.623421">
      </trkpt>
      <trkpt lat="41.897618" lon="-87.621852">
      </trkpt>
      <trkpt lat="41.896766" lon="-87.621834">
      </trkpt>
      <trkpt lat="41.896737" lon="-87.624345">
      </trkpt>
      <trkpt lat="41.889927" lon="-87.624211">
      </trkpt>
      <trkpt lat="41.88832" lon="-87.624581">
      </trkpt>
      <trkpt lat="41.888239" lon="-87.625491">
      </trkpt>
      <trkpt lat="41.887226" lon="-87.626463">
      </trkpt>
      <trkpt lat="41.886971" lon="-87.627041">
      </trkpt>
      <trkpt lat="41.886947" lon="-87.632499">
      </trkpt>
      <trkpt lat="41.885741" lon="-87.632564">
      </trkpt>
      <trkpt lat="41.885742" lon="-87.632386">
      </trkpt>
      <trkpt lat="41.886462" lon="-87.632419">
      </trkpt>
      <trkpt lat="41.886462" lon="-87.632419">
      </trkpt>
      <trkpt lat="41.90389" lon="-87.632844">
      </trkpt>
      <trkpt lat="41.903768" lon="-87.639563">
      </trkpt>
      <trkpt lat="41.920731" lon="-87.663168">
      </trkpt>
      <trkpt lat="41.933389" lon="-87.663583">
      </trkpt>
      <trkpt lat="41.933396" lon="-87.663146">
      </trkpt>
      <trkpt lat="41.933396" lon="-87.663146">
      </trkpt>
      <trkpt lat="41.933389" lon="-87.663583">
      </trkpt>
      <trkpt lat="41.936111" lon="-87.663682">
      </trkpt>
      <trkpt lat="41.939697" lon="-87.668609">
      </trkpt>
      <trkpt lat="41.976174" lon="-87.669543">
      </trkpt>
      <trkpt lat="41.975964" lon="-87.684288">
      </trkpt>
      <trkpt lat="41.977792" lon="-87.684347">
      </trkpt>
      <trkpt lat="41.977786" lon="-87.684838">
      </trkpt>
      <trkpt lat="41.977786" lon="-87.684838">
      </trkpt>
      <trkpt lat="41.977758" lon="-87.686799">
      </trkpt>
      <trkpt lat="41.97593" lon="-87.686732">
      </trkpt>
      <trkpt lat="41.976173" lon="-87.66966">
      </trkpt>
      <trkpt lat="41.947004" lon="-87.66892">
      </trkpt>
      <trkpt lat="41.946986" lon="-87.670073">
      </trkpt>
      <trkpt lat="41.948188" lon="-87.670101">
      </trkpt>
      <trkpt lat="41.948188" lon="-87.670101">
      </trkpt>
      <trkpt lat="41.94881" lon="-87.670116">
      </trkpt>
      <trkpt lat="41.94882" lon="-87.66897">
      </trkpt>
      <trkpt lat="41.939809" lon="-87.668729">
      </trkpt>
      <trkpt lat="41.939697" lon="-87.668609">
      </trkpt>
      <trkpt lat="41.939918" lon="-87.654106">
      </trkpt>
      <trkpt lat="41.937175" lon="-87.654016">
      </trkpt>
      <trkpt lat="41.937186" lon="-87.653552">
      </trkpt>
      <trkpt lat="41.937074" lon="-87.65355">
      </trkpt>
      <trkpt lat="41.937074" lon="-87.65355">
      </trkpt>
      <trkpt lat="41.937186" lon="-87.653552">
      </trkpt>
      <trkpt lat="41.937175" lon="-87.654016">
      </trkpt>
      <trkpt lat="41.913568" lon="-87.653211">
      </trkpt>
      <trkpt lat="41.906457" lon="-87.643295">
      </trkpt>
      <trkpt lat="41.905061" lon="-87.64326">
      </trkpt>
      <trkpt lat="41.905034" lon="-87.645485">
      </trkpt>
      <trkpt lat="41.904488" lon="-87.645767">
      </trkpt>
      <trkpt lat="41.904488" lon="-87.645767">
      </trkpt>
      <trkpt lat="41.905034" lon="-87.645485">
      </trkpt>
      <trkpt lat="41.905061" lon="-87.64326">
      </trkpt>
      <trkpt lat="41.903716" lon="-87.643216">
      </trkpt>
      <trkpt lat="41.903886" lon="-87.633004">
      </trkpt>
      <trkpt lat="41.882849" lon="-87.6324">
      </trkpt>
      <trkpt lat="41.882849" lon="-87.6324">
      </trkpt>
      <trkpt lat="41.881953" lon="-87.632362">
      </trkpt>
      <trkpt lat="41.881916" lon="-87.637022">
      </trkpt>
      <trkpt lat="41.878078" lon="-87.636932">
      </trkpt>
      <trkpt lat="41.876812" lon="-87.636803">
      </trkpt>
      <trkpt lat="41.876812" lon="-87.636803">
      </trkpt>
      <trkpt lat="41.876812" lon="-87.636629">
      </trkpt>
      <trkpt lat="41.87809" lon="-87.636693">
      </trkpt>
      <trkpt lat="41.878293" lon="-87.624208">
      </trkpt>
      <trkpt lat="41.887965" lon="-87.624484">
      </trkpt>
      <trkpt lat="41.889922" lon="-87.624038">
      </trkpt>
      <trkpt lat="41.891505" lon="-87.624094">
      </trkpt>
      <trkpt lat="41.891505" lon="-87.624094">
      </trkpt>
      <trkpt lat="41.896741" lon="-87.624176">
      </trkpt>
      <trkpt lat="41.896757" lon="-87.622557">
      </trkpt>
      <trkpt lat="41.896757" lon="-87.622557">
      </trkpt>
      <trkpt lat="41.896741" lon="-87.624176">
      </trkpt>
      <trkpt lat="41.900824" lon="-87.624042">
      </trkpt>
      <trkpt lat="41.902709" lon="-87.623664">
      </trkpt>
      <trkpt lat="41.90867" lon="-87.625557">
      </trkpt>
      <trkpt lat="41.912141" lon="-87.62589">
      </trkpt>
      <trkpt lat="41.918036" lon="-87.628743">
      </trkpt>
      <trkpt lat="41.924159" lon="-87.630534">
      </trkpt>
      <trkpt lat="41.926223" lon="-87.63067">
      </trkpt>
      <trkpt lat="41.925694" lon="-87.634154">
      </trkpt>
      <trkpt lat="41.925453" lon="-87.648766">
      </trkpt>
      <trkpt lat="41.929995" lon="-87.655107">
      </trkpt>
      <trkpt lat="41.93032" lon="-87.655116">
      </trkpt>
      <trkpt lat="41.93032" lon="-87.655116">
      </trkpt>
      <trkpt lat="41.93032" lon="-87.655116">
      </trkpt>
      <trkpt lat="41.93032" lon="-87.655116">
      </trkpt>
      <trkpt lat="41.929995" lon="-87.655107">
      </trkpt>
      <trkpt lat="41.925453" lon="-87.648766">
      </trkpt>
      <trkpt lat="41.925687" lon="-87.63436">
      </trkpt>
      <trkpt lat="41.926001" lon="-87.631853">
      </trkpt>
      <trkpt lat="41.923776" lon="-87.630603">
      </trkpt>
      <trkpt lat="41.917816" lon="-87.628851">
      </trkpt>
      <trkpt lat="41.912297" lon="-87.626142">
      </trkpt>
      <trkpt lat="41.909073" lon="-87.62586">
      </trkpt>
      <trkpt lat="41.904908" lon="-87.624861">
      </trkpt>
      <trkpt lat="41.901978" lon="-87.624179">
      </trkpt>
      <trkpt lat="41.894143" lon="-87.624336">
      </trkpt>
      <trkpt lat="41.894164" lon="-87.622757">
      </trkpt>
      <trkpt lat="41.893947" lon="-87.622751">
      </trkpt>
      <trkpt lat="41.893947" lon="-87.622751">
      </trkpt>
      <trkpt lat="41.893947" lon="-87.622751">
      </trkpt>
      <trkpt lat="41.893947" lon="-87.622751">
      </trkpt>
      <trkpt lat="41.894975" lon="-87.62278">
      </trkpt>
      <trkpt lat="41.89495" lon="-87.624182">
      </trkpt>
      <trkpt lat="41.900824" lon="-87.624042">
      </trkpt>
      <trkpt lat="41.902709" lon="-87.623664">
      </trkpt>
      <trkpt lat="41.912141" lon="-87.62589">
      </trkpt>
      <trkpt lat="41.918036" lon="-87.628743">
      </trkpt>
      <trkpt lat="41.928415" lon="-87.631851">
      </trkpt>
      <trkpt lat="41.934381" lon="-87.632152">
      </trkpt>
      <trkpt lat="41.936704" lon="-87.633661">
      </trkpt>
      <trkpt lat="41.939073" lon="-87.63676">
      </trkpt>
      <trkpt lat="41.940568" lon="-87.638088">
      </trkpt>
      <trkpt lat="41.940119" lon="-87.639537">
      </trkpt>
      <trkpt lat="41.942251" lon="-87.63992">
      </trkpt>
      <trkpt lat="41.947363" lon="-87.642703">
      </trkpt>
      <trkpt lat="41.947363" lon="-87.642703">
      </trkpt>
      <trkpt lat="41.951093" lon="-87.644867">
      </trkpt>
      <trkpt lat="41.954634" lon="-87.645235">
      </trkpt>
      <trkpt lat="41.954667" lon="-87.644162">
      </trkpt>
      <trkpt lat="41.956216" lon="-87.644999">
      </trkpt>
      <trkpt lat="41.958305" lon="-87.645792">
      </trkpt>
      <trkpt lat="41.961907" lon="-87.646226">
      </trkpt>
      <trkpt lat="41.964019" lon="-87.64669">
      </trkpt>
      <trkpt lat="41.965774" lon="-87.646428">
      </trkpt>
      <trkpt lat="41.965499" lon="-87.648611">
      </trkpt>
      <trkpt lat="41.965847" lon="-87.648701">
      </trkpt>
      <trkpt lat="41.965847" lon="-87.648701">
      </trkpt>
      <trkpt lat="41.965499" lon="-87.648611">
      </trkpt>
      <trkpt lat="41.965571" lon="-87.647973">
      </trkpt>
      <trkpt lat="41.963721" lon="-87.646868">
      </trkpt>
      <trkpt lat="41.950757" lon="-87.644507">
      </trkpt>
      <trkpt lat="41.941067" lon="-87.638957">
      </trkpt>
      <trkpt lat="41.936608" lon="-87.633807">
      </trkpt>
      <trkpt lat="41.934639" lon="-87.632453">
      </trkpt>
      <trkpt lat="41.928427" lon="-87.632048">
      </trkpt>
      <trkpt lat="41.918735" lon="-87.629189">
      </trkpt>
      <trkpt lat="41.911998" lon="-87.62605">
      </trkpt>
      <trkpt lat="41.904908" lon="-87.624861">
      </trkpt>
      <trkpt lat="41.901978" lon="-87.624179">
      </trkpt>
      <trkpt lat="41.893335" lon="-87.624316">
      </trkpt>
      <trkpt lat="41.893295" lon="-87.626758">
      </trkpt>
      <trkpt lat="41.889909" lon="-87.626665">
      </trkpt>
      <trkpt lat="41.889909" lon="-87.626665">
      </trkpt>
      <trkpt lat="41.889386" lon="-87.626684">
      </trkpt>
      <trkpt lat="41.889565" lon="-87.625442">
      </trkpt>
      <trkpt lat="41.890076" lon="-87.62303">
      </trkpt>
      <trkpt lat="41.890126" lon="-87.62195">
      </trkpt>
      <trkpt lat="41.890967" lon="-87.62196">
      </trkpt>
      <trkpt lat="41.891141" lon="-87.61158">
      </trkpt>
      <trkpt lat="41.891968" lon="-87.611597">
      </trkpt>
      <trkpt lat="41.891945" lon="-87.612627">
      </trkpt>
      <trkpt lat="41.891945" lon="-87.612627">
      </trkpt>
      <trkpt lat="41.8919" lon="-87.614335">
      </trkpt>
      <trkpt lat="41.889771" lon="-87.61419">
      </trkpt>
      <trkpt lat="41.887811" lon="-87.6142">
      </trkpt>
      <trkpt lat="41.887652" lon="-87.615105">
      </trkpt>
      <trkpt lat="41.887835" lon="-87.619542">
      </trkpt>
      <trkpt lat="41.888296" lon="-87.623281">
      </trkpt>
      <trkpt lat="41.888311" lon="-87.625188">
      </trkpt>
      <trkpt lat="41.88815" lon="-87.625586">
      </trkpt>
      <trkpt lat="41.887194" lon="-87.626429">
      </trkpt>
      <trkpt lat="41.886941" lon="-87.627036">
      </trkpt>
      <trkpt lat="41.886919" lon="-87.635171">
      </trkpt>
      <trkpt lat="41.886721" lon="-87.635761">
      </trkpt>
      <trkpt lat="41.88588" lon="-87.636873">
      </trkpt>
      <trkpt lat="41.884459" lon="-87.636965">
      </trkpt>
      <trkpt lat="41.884462" lon="-87.637084">
      </trkpt>
      <trkpt lat="41.881916" lon="-87.637022">
      </trkpt>
      <trkpt lat="41.881877" lon="-87.640505">
      </trkpt>
      <trkpt lat="41.881877" lon="-87.640505">
      </trkpt>
      <trkpt lat="41.881877" lon="-87.640505">
      </trkpt>
      <trkpt lat="41.881877" lon="-87.640505">
      </trkpt>
      <trkpt lat="41.8818" lon="-87.645827">
      </trkpt>
      <trkpt lat="41.851247" lon="-87.645245">
      </trkpt>
      <trkpt lat="41.847384" lon="-87.642429">
      </trkpt>
      <trkpt lat="41.845323" lon="-87.634652">
      </trkpt>
      <trkpt lat="41.84209" lon="-87.63091">
      </trkpt>
      <trkpt lat="41.779686" lon="-87.631207">
      </trkpt>
      <trkpt lat="41.772555" lon="-87.62615">
      </trkpt>
      <trkpt lat="41.740605" lon="-87.625104">
      </trkpt>
      <trkpt lat="41.740446" lon="-87.625189">
      </trkpt>
      <trkpt lat="41.729026" lon="-87.625227">
      </trkpt>
      <trkpt lat="41.729048" lon="-87.623931">
      </trkpt>
      <trkpt lat="41.729484" lon="-87.623978">
      </trkpt>
      <trkpt lat="41.729484" lon="-87.623978">
      </trkpt>
      <trkpt lat="41.736392" lon="-87.624173">
      </trkpt>
      <trkpt lat="41.736375" lon="-87.625449">
      </trkpt>
      <trkpt lat="41.735162" lon="-87.625397">
      </trkpt>
      <trkpt lat="41.72052" lon="-87.624621">
      </trkpt>
      <trkpt lat="41.716318" lon="-87.624396">
      </trkpt>
      <trkpt lat="41.713653" lon="-87.621065">
      </trkpt>
      <trkpt lat="41.713111" lon="-87.618098">
      </trkpt>
      <trkpt lat="41.713191" lon="-87.600337">
      </trkpt>
      <trkpt lat="41.711572" lon="-87.595871">
      </trkpt>
      <trkpt lat="41.708673" lon="-87.592948">
      </trkpt>
      <trkpt lat="41.706208" lon="-87.592093">
      </trkpt>
      <trkpt lat="41.703483" lon="-87.592406">
      </trkpt>
      <trkpt lat="41.685512" lon="-87.601798">
      </trkpt>
      <trkpt lat="41.676933" lon="-87.601728">
      </trkpt>
      <trkpt lat="41.67318" lon="-87.600256">
      </trkpt>
      <trkpt lat="41.660202" lon="-87.589096">
      </trkpt>
      <trkpt lat="41.659004" lon="-87.589407">
      </trkpt>
      <trkpt lat="41.659512" lon="-87.59119">
      </trkpt>
      <trkpt lat="41.660292" lon="-87.59067">
      </trkpt>
      <trkpt lat="41.660368" lon="-87.5874">
      </trkpt>
      <trkpt lat="41.659223" lon="-87.581596">
      </trkpt>
      <trkpt lat="41.658851" lon="-87.560717">
      </trkpt>
      <trkpt lat="41.656176" lon="-87.555878">
      </trkpt>
      <trkpt lat="41.65737" lon="-87.555649">
      </trkpt>
      <trkpt lat="41.65736" lon="-87.553811">
      </trkpt>
      <trkpt lat="41.656889" lon="-87.553812">
      </trkpt>
      <trkpt lat="41.656889" lon="-87.553812">
      </trkpt>
      <trkpt lat="41.65736" lon="-87.553811">
      </trkpt>
      <trkpt lat="41.657281" lon="-87.557102">
      </trkpt>
      <trkpt lat="41.660149" lon="-87.585314">
      </trkpt>
      <trkpt lat="41.662478" lon="-87.590822">
      </trkpt>
      <trkpt lat="41.675885" lon="-87.601403">
      </trkpt>
      <trkpt lat="41.685726" lon="-87.601563">
      </trkpt>
      <trkpt lat="41.69908" lon="-87.594329">
      </trkpt>
      <trkpt lat="41.705863" lon="-87.591535">
      </trkpt>
      <trkpt lat="41.711823" lon="-87.595707">
      </trkpt>
      <trkpt lat="41.713575" lon="-87.618809">
      </trkpt>
      <trkpt lat="41.717096" lon="-87.62372">
      </trkpt>
      <trkpt lat="41.769497" lon="-87.625651">
      </trkpt>
      <trkpt lat="41.779495" lon="-87.630747">
      </trkpt>
      <trkpt lat="41.838631" lon="-87.630667">
      </trkpt>
      <trkpt lat="41.844225" lon="-87.63193">
      </trkpt>
      <trkpt lat="41.847448" lon="-87.642221">
      </trkpt>
      <trkpt lat="41.850987" lon="-87.644933">
      </trkpt>
      <trkpt lat="41.885013" lon="-87.645685">
      </trkpt>
      <trkpt lat="41.890597" lon="-87.650048">
      </trkpt>
      <trkpt lat="41.89242" lon="-87.65026">
      </trkpt>
      <trkpt lat="41.892368" lon="-87.63704">
      </trkpt>
      <trkpt lat="41.896556" lon="-87.637178">
      </trkpt>
      <trkpt lat="41.896586" lon="-87.63421">
      </trkpt>
      <trkpt lat="41.898867" lon="-87.634293">
      </trkpt>
      <trkpt lat="41.898867" lon="-87.634293">
      </trkpt>
      <trkpt lat="41.896586" lon="-87.63421">
      </trkpt>
      <trkpt lat="41.896269" lon="-87.654734">
      </trkpt>
      <trkpt lat="41.89501" lon="-87.655808">
      </trkpt>
      <trkpt lat="41.89596" lon="-87.657675">
      </trkpt>
      <trkpt lat="41.898217" lon="-87.65932">
      </trkpt>
      <trkpt lat="41.901753" lon="-87.660805">
      </trkpt>
      <trkpt lat="41.906799" lon="-87.661253">
      </trkpt>
      <trkpt lat="41.91737" lon="-87.669547">
      </trkpt>
      <trkpt lat="41.937344" lon="-87.704001">
      </trkpt>
      <trkpt lat="41.940632" lon="-87.710036">
      </trkpt>
      <trkpt lat="41.942387" lon="-87.715161">
      </trkpt>
      <trkpt lat="41.947406" lon="-87.71887">
      </trkpt>
      <trkpt lat="41.950079" lon="-87.723791">
      </trkpt>
      <trkpt lat="41.952511" lon="-87.727575">
      </trkpt>
      <trkpt lat="41.95365" lon="-87.727612">
      </trkpt>
      <trkpt lat="41.953712" lon="-87.719156">
      </trkpt>
      <trkpt lat="41.953111" lon="-87.718284">
      </trkpt>
      <trkpt lat="41.953111" lon="-87.718284">
      </trkpt>
      <trkpt lat="41.953712" lon="-87.719156">
      </trkpt>
      <trkpt lat="41.954553" lon="-87.650527">
      </trkpt>
      <trkpt lat="41.955464" lon="-87.651109">
      </trkpt>
      <trkpt lat="41.955455" lon="-87.652078">
      </trkpt>
      <trkpt lat="41.955455" lon="-87.652078">
      </trkpt>
      <trkpt lat="41.955432" lon="-87.654573">
      </trkpt>
      <trkpt lat="41.954492" lon="-87.654549">
      </trkpt>
      <trkpt lat="41.954634" lon="-87.645235">
      </trkpt>
      <trkpt lat="41.950978" lon="-87.644611">
      </trkpt>
      <trkpt lat="41.942042" lon="-87.639566">
      </trkpt>
      <trkpt lat="41.940268" lon="-87.638796">
      </trkpt>
      <trkpt lat="41.940119" lon="-87.639537">
      </trkpt>
      <trkpt lat="41.932914" lon="-87.63931">
      </trkpt>
      <trkpt lat="41.932848" lon="-87.642737">
      </trkpt>
      <trkpt lat="41.934143" lon="-87.642776">
      </trkpt>
      <trkpt lat="41.934143" lon="-87.642776">
      </trkpt>
      <trkpt lat="41.934284" lon="-87.64278">
      </trkpt>
      <trkpt lat="41.934308" lon="-87.641392">
      </trkpt>
      <trkpt lat="41.932875" lon="-87.641357">
      </trkpt>
      <trkpt lat="41.932278" lon="-87.678134">
      </trkpt>
      <trkpt lat="41.925026" lon="-87.677893">
      </trkpt>
      <trkpt lat="41.924981" lon="-87.681912">
      </trkpt>
      <trkpt lat="41.926707" lon="-87.685177">
      </trkpt>
      <trkpt lat="41.940439" lon="-87.709664">
      </trkpt>
      <trkpt lat="41.942387" lon="-87.715161">
      </trkpt>
      <trkpt lat="41.947985" lon="-87.719618">
      </trkpt>
      <trkpt lat="41.960998" lon="-87.742619">
      </trkpt>
      <trkpt lat="41.966033" lon="-87.752403">
      </trkpt>
      <trkpt lat="41.967937" lon="-87.75503">
      </trkpt>
      <trkpt lat="41.967938" lon="-87.757623">
      </trkpt>
      <trkpt lat="41.968431" lon="-87.758399">
      </trkpt>
      <trkpt lat="41.968431" lon="-87.758399">
      </trkpt>
      <trkpt lat="41.967875" lon="-87.757622">
      </trkpt>
      <trkpt lat="41.967916" lon="-87.756709">
      </trkpt>
      <trkpt lat="41.966268" lon="-87.753264">
      </trkpt>
      <trkpt lat="41.964121" lon="-87.749887">
      </trkpt>
      <trkpt lat="41.962708" lon="-87.746242">
      </trkpt>
      <trkpt lat="41.957103" lon="-87.73715">
      </trkpt>
      <trkpt lat="41.953617" lon="-87.731304">
      </trkpt>
      <trkpt lat="41.953985" lon="-87.688469">
      </trkpt>
      <trkpt lat="41.949742" lon="-87.688345">
      </trkpt>
      <trkpt lat="41.949742" lon="-87.688345">
      </trkpt>
      <trkpt lat="41.910324" lon="-87.687207">
      </trkpt>
      <trkpt lat="41.910165" lon="-87.701875">
      </trkpt>
      <trkpt lat="41.907241" lon="-87.70125">
      </trkpt>
      <trkpt lat="41.902886" lon="-87.702278">
      </trkpt>
      <trkpt lat="41.902888" lon="-87.701605">
      </trkpt>
      <trkpt lat="41.902888" lon="-87.701605">
      </trkpt>
      <trkpt lat="41.902888" lon="-87.701605">
      </trkpt>
      <trkpt lat="41.902888" lon="-87.701605">
      </trkpt>
      <trkpt lat="41.902886" lon="-87.702278">
      </trkpt>
      <trkpt lat="41.907241" lon="-87.70125">
      </trkpt>
      <trkpt lat="41.910165" lon="-87.701875">
      </trkpt>
      <trkpt lat="41.911172" lon="-87.633071">
      </trkpt>
      <trkpt lat="41.912903" lon="-87.633044">
      </trkpt>
      <trkpt lat="41.913237" lon="-87.632269">
      </trkpt>
      <trkpt lat="41.912247" lon="-87.628505">
      </trkpt>
      <trkpt lat="41.912475" lon="-87.626923">
      </trkpt>
      <trkpt lat="41.913347" lon="-87.626017">
      </trkpt>
      <trkpt lat="41.918036" lon="-87.628743">
      </trkpt>
      <trkpt lat="41.927967" lon="-87.631735">
      </trkpt>
      <trkpt lat="41.934701" lon="-87.632273">
      </trkpt>
      <trkpt lat="41.936704" lon="-87.633661">
      </trkpt>
      <trkpt lat="41.941219" lon="-87.638833">
      </trkpt>
      <trkpt lat="41.950931" lon="-87.644376">
      </trkpt>
      <trkpt lat="41.960253" lon="-87.646094">
      </trkpt>
      <trkpt lat="41.962086" lon="-87.645534">
      </trkpt>
      <trkpt lat="41.961843" lon="-87.649918">
      </trkpt>
      <trkpt lat="41.961373" lon="-87.649905">
      </trkpt>
      <trkpt lat="41.961373" lon="-87.649905">
      </trkpt>
      <trkpt lat="41.96095" lon="-87.649893">
      </trkpt>
      <trkpt lat="41.960955" lon="-87.649583">
      </trkpt>
      <trkpt lat="41.960955" lon="-87.649583">
      </trkpt>
      <trkpt lat="41.961" lon="-87.646837">
      </trkpt>
      <trkpt lat="41.961908" lon="-87.646878">
      </trkpt>
      <trkpt lat="41.950757" lon="-87.644507">
      </trkpt>
      <trkpt lat="41.941067" lon="-87.638957">
      </trkpt>
      <trkpt lat="41.934639" lon="-87.632453">
      </trkpt>
      <trkpt lat="41.928427" lon="-87.632048">
      </trkpt>
      <trkpt lat="41.902733" lon="-87.62421">
      </trkpt>
      <trkpt lat="41.900898" lon="-87.619617">
      </trkpt>
      <trkpt lat="41.892985" lon="-87.614304">
      </trkpt>
      <trkpt lat="41.884928" lon="-87.614127">
      </trkpt>
      <trkpt lat="41.882167" lon="-87.617321">
      </trkpt>
      <trkpt lat="41.878363" lon="-87.617442">
      </trkpt>
      <trkpt lat="41.878331" lon="-87.620697">
      </trkpt>
      <trkpt lat="41.876287" lon="-87.620625">
      </trkpt>
      <trkpt lat="41.875658" lon="-87.697235">
      </trkpt>
      <trkpt lat="41.874284" lon="-87.70915">
      </trkpt>
      <trkpt lat="41.874016" lon="-87.730503">
      </trkpt>
      <trkpt lat="41.874233" lon="-87.735243">
      </trkpt>
      <trkpt lat="41.87697" lon="-87.735339">
      </trkpt>
      <trkpt lat="41.876802" lon="-87.745148">
      </trkpt>
      <trkpt lat="41.892282" lon="-87.745708">
      </trkpt>
      <trkpt lat="41.892263" lon="-87.747237">
      </trkpt>
      <trkpt lat="41.892263" lon="-87.747237">
      </trkpt>
      <trkpt lat="41.892224" lon="-87.750606">
      </trkpt>
      <trkpt lat="41.894973" lon="-87.750705">
      </trkpt>
      <trkpt lat="41.894936" lon="-87.755593">
      </trkpt>
      <trkpt lat="41.962461" lon="-87.75745">
      </trkpt>
      <trkpt lat="41.962474" lon="-87.756072">
      </trkpt>
      <trkpt lat="41.964761" lon="-87.758052">
      </trkpt>
      <trkpt lat="41.964985" lon="-87.757599">
      </trkpt>
      <trkpt lat="41.967874" lon="-87.757708">
      </trkpt>
      <trkpt lat="41.967875" lon="-87.757622">
      </trkpt>
      <trkpt lat="41.968431" lon="-87.758399">
      </trkpt>
      <trkpt lat="41.968431" lon="-87.758399">
      </trkpt>
      <trkpt lat="41.967875" lon="-87.757622">
      </trkpt>
      <trkpt lat="41.968033" lon="-87.747723">
      </trkpt>
      <trkpt lat="41.972896" lon="-87.747918">
      </trkpt>
      <trkpt lat="41.972794" lon="-87.747761">
      </trkpt>
      <trkpt lat="41.966563" lon="-87.747223">
      </trkpt>
      <trkpt lat="41.962358" lon="-87.745232">
      </trkpt>
      <trkpt lat="41.947613" lon="-87.719592">
      </trkpt>
      <trkpt lat="41.94215" lon="-87.715306">
      </trkpt>
      <trkpt lat="41.940372" lon="-87.709927">
      </trkpt>
      <trkpt lat="41.917654" lon="-87.670146">
      </trkpt>
      <trkpt lat="41.906646" lon="-87.66137">
      </trkpt>
      <trkpt lat="41.897685" lon="-87.659246">
      </trkpt>
      <trkpt lat="41.886676" lon="-87.646473">
      </trkpt>
      <trkpt lat="41.861936" lon="-87.644538">
      </trkpt>
      <trkpt lat="41.852672" lon="-87.645911">
      </trkpt>
      <trkpt lat="41.852781" lon="-87.631057">
      </trkpt>
      <trkpt lat="41.852781" lon="-87.631057">
      </trkpt>
      <trkpt lat="41.852791" lon="-87.630056">
      </trkpt>
      <trkpt lat="41.852935" lon="-87.631144">
      </trkpt>
      <trkpt lat="41.850453" lon="-87.631153">
      </trkpt>
      <trkpt lat="41.848628" lon="-87.631272">
      </trkpt>
      <trkpt lat="41.848007" lon="-87.631882">
      </trkpt>
      <trkpt lat="41.847416" lon="-87.636061">
      </trkpt>
      <trkpt lat="41.847207" lon="-87.642476">
      </trkpt>
      <trkpt lat="41.845946" lon="-87.646714">
      </trkpt>
      <trkpt lat="41.845286" lon="-87.651785">
      </trkpt>
      <trkpt lat="41.84185" lon="-87.659721">
      </trkpt>
      <trkpt lat="41.838058" lon="-87.666643">
      </trkpt>
      <trkpt lat="41.837422" lon="-87.669478">
      </trkpt>
      <trkpt lat="41.837483" lon="-87.674176">
      </trkpt>
      <trkpt lat="41.837336" lon="-87.675122">
      </trkpt>
      <trkpt lat="41.836888" lon="-87.675521">
      </trkpt>
      <trkpt lat="41.831825" lon="-87.675328">
      </trkpt>
      <trkpt lat="41.818401" lon="-87.697256">
      </trkpt>
      <trkpt lat="41.818401" lon="-87.697256">
      </trkpt>
      <trkpt lat="41.831825" lon="-87.675328">
      </trkpt>
      <trkpt lat="41.836727" lon="-87.675396">
      </trkpt>
      <trkpt lat="41.837104" lon="-87.675559">
      </trkpt>
      <trkpt lat="41.837401" lon="-87.676143">
      </trkpt>
      <trkpt lat="41.837227" lon="-87.679879">
      </trkpt>
      <trkpt lat="41.836804" lon="-87.681545">
      </trkpt>
      <trkpt lat="41.834187" lon="-87.689378">
      </trkpt>
      <trkpt lat="41.834187" lon="-87.689378">
      </trkpt>
      <trkpt lat="41.834187" lon="-87.689378">
      </trkpt>
      <trkpt lat="41.834187" lon="-87.689378">
      </trkpt>
      <trkpt lat="41.832287" lon="-87.695427">
      </trkpt>
      <trkpt lat="41.831418" lon="-87.698851">
      </trkpt>
      <trkpt lat="41.830863" lon="-87.700566">
      </trkpt>
      <trkpt lat="41.829715" lon="-87.704666">
      </trkpt>
      <trkpt lat="41.829034" lon="-87.704642">
      </trkpt>
      <trkpt lat="41.828882" lon="-87.704288">
      </trkpt>
      <trkpt lat="41.830574" lon="-87.699332">
      </trkpt>
      <trkpt lat="41.835377" lon="-87.684658">
      </trkpt>
      <trkpt lat="41.836225" lon="-87.681522">
      </trkpt>
      <trkpt lat="41.836693" lon="-87.678968">
      </trkpt>
      <trkpt lat="41.836759" lon="-87.67351">
      </trkpt>
      <trkpt lat="41.836845" lon="-87.670249">
      </trkpt>
      <trkpt lat="41.837728" lon="-87.668669">
      </trkpt>
      <trkpt lat="41.838015" lon="-87.667347">
      </trkpt>
      <trkpt lat="41.836958" lon="-87.666956">
      </trkpt>
      <trkpt lat="41.839215" lon="-87.663035">
      </trkpt>
      <trkpt lat="41.837825" lon="-87.661734">
      </trkpt>
      <trkpt lat="41.837946" lon="-87.653576">
      </trkpt>
      <trkpt lat="41.834904" lon="-87.653493">
      </trkpt>
      <trkpt lat="41.834904" lon="-87.653493">
      </trkpt>
      <trkpt lat="41.830651" lon="-87.653402">
      </trkpt>
      <trkpt lat="41.830961" lon="-87.629817">
      </trkpt>
      <trkpt lat="41.831311" lon="-87.629831">
      </trkpt>
      <trkpt lat="41.837743" lon="-87.630393">
      </trkpt>
      <trkpt lat="41.842376" lon="-87.630317">
      </trkpt>
      <trkpt lat="41.844144" lon="-87.631347">
      </trkpt>
      <trkpt lat="41.84523" lon="-87.633465">
      </trkpt>
      <trkpt lat="41.847354" lon="-87.642036">
      </trkpt>
      <trkpt lat="41.850908" lon="-87.644903">
      </trkpt>
      <trkpt lat="41.857362" lon="-87.644156">
      </trkpt>
      <trkpt lat="41.873493" lon="-87.644854">
      </trkpt>
      <trkpt lat="41.87559" lon="-87.644167">
      </trkpt>
      <trkpt lat="41.877863" lon="-87.645364">
      </trkpt>
      <trkpt lat="41.880374" lon="-87.645275">
      </trkpt>
      <trkpt lat="41.881847" lon="-87.645355">
      </trkpt>
      <trkpt lat="41.882198" lon="-87.645393">
      </trkpt>
      <trkpt lat="41.883308" lon="-87.645396">
      </trkpt>
      <trkpt lat="41.885689" lon="-87.645365">
      </trkpt>
      <trkpt lat="41.885665" lon="-87.647482">
      </trkpt>
      <trkpt lat="41.90987" lon="-87.648252">
      </trkpt>
      <trkpt lat="41.909856" lon="-87.649122">
      </trkpt>
      <trkpt lat="41.909856" lon="-87.649122">
      </trkpt>
      <trkpt lat="41.90987" lon="-87.648252">
      </trkpt>
      <trkpt lat="41.925453" lon="-87.648766">
      </trkpt>
      <trkpt lat="41.929995" lon="-87.655107">
      </trkpt>
      <trkpt lat="41.93032" lon="-87.655116">
      </trkpt>
      <trkpt lat="41.93032" lon="-87.655116">
      </trkpt>
      <trkpt lat="41.929995" lon="-87.655107">
      </trkpt>
      <trkpt lat="41.925453" lon="-87.648766">
      </trkpt>
      <trkpt lat="41.91731" lon="-87.648495">
      </trkpt>
      <trkpt lat="41.91731" lon="-87.648495">
      </trkpt>
      <trkpt lat="41.910927" lon="-87.648286">
      </trkpt>
      <trkpt lat="41.910672" lon="-87.665662">
      </trkpt>
      <trkpt lat="41.910236" lon="-87.665325">
      </trkpt>
      <trkpt lat="41.906635" lon="-87.661559">
      </trkpt>
      <trkpt lat="41.905221" lon="-87.66114">
      </trkpt>
      <trkpt lat="41.901306" lon="-87.661057">
      </trkpt>
      <trkpt lat="41.896333" lon="-87.658563">
      </trkpt>
      <trkpt lat="41.895018" lon="-87.657114">
      </trkpt>
      <trkpt lat="41.889352" lon="-87.648602">
      </trkpt>
      <trkpt lat="41.887778" lon="-87.647099">
      </trkpt>
      <trkpt lat="41.885929" lon="-87.646219">
      </trkpt>
      <trkpt lat="41.881827" lon="-87.645999">
      </trkpt>
      <trkpt lat="41.880956" lon="-87.646134">
      </trkpt>
      <trkpt lat="41.87924" lon="-87.64632">
      </trkpt>
      <trkpt lat="41.879181" lon="-87.649612">
      </trkpt>
      <trkpt lat="41.878315" lon="-87.649583">
      </trkpt>
      <trkpt lat="41.878315" lon="-87.649583">
      </trkpt>
      <trkpt lat="41.877909" lon="-87.64957">
      </trkpt>
      <trkpt lat="41.877963" lon="-87.645564">
      </trkpt>
      <trkpt lat="41.880374" lon="-87.645275">
      </trkpt>
      <trkpt lat="41.881847" lon="-87.645355">
      </trkpt>
      <trkpt lat="41.882198" lon="-87.645393">
      </trkpt>
      <trkpt lat="41.883308" lon="-87.645396">
      </trkpt>
      <trkpt lat="41.884407" lon="-87.645241">
      </trkpt>
      <trkpt lat="41.884406" lon="-87.646033">
      </trkpt>
      <trkpt lat="41.884406" lon="-87.646033">
      </trkpt>
      <trkpt lat="41.884415" lon="-87.647438">
      </trkpt>
      <trkpt lat="41.881782" lon="-87.64736">
      </trkpt>
      <trkpt lat="41.881801" lon="-87.64573">
      </trkpt>
      <trkpt lat="41.885306" lon="-87.645735">
      </trkpt>
      <trkpt lat="41.888483" lon="-87.647404">
      </trkpt>
      <trkpt lat="41.897251" lon="-87.658783">
      </trkpt>
      <trkpt lat="41.901753" lon="-87.660805">
      </trkpt>
      <trkpt lat="41.906443" lon="-87.661061">
      </trkpt>
      <trkpt lat="41.910145" lon="-87.664439">
      </trkpt>
      <trkpt lat="41.915739" lon="-87.667973">
      </trkpt>
      <trkpt lat="41.91815" lon="-87.670574">
      </trkpt>
      <trkpt lat="41.922676" lon="-87.678438">
      </trkpt>
      <trkpt lat="41.924733" lon="-87.681513">
      </trkpt>
      <trkpt lat="41.924814" lon="-87.697423">
      </trkpt>
      <trkpt lat="41.921696" lon="-87.697316">
      </trkpt>
      <trkpt lat="41.921694" lon="-87.697816">
      </trkpt>
      <trkpt lat="41.921694" lon="-87.697816">
      </trkpt>
      <trkpt lat="41.921462" lon="-87.707109">
      </trkpt>
      <trkpt lat="41.924722" lon="-87.707229">
      </trkpt>
      <trkpt lat="41.923585" lon="-87.79707">
      </trkpt>
      <trkpt lat="41.923215" lon="-87.797058">
      </trkpt>
      <trkpt lat="41.923215" lon="-87.797058">
      </trkpt>
      <trkpt lat="41.923585" lon="-87.79707">
      </trkpt>
      <trkpt lat="41.92364" lon="-87.789403">
      </trkpt>
      <trkpt lat="41.924814" lon="-87.697423">
      </trkpt>
      <trkpt lat="41.919535" lon="-87.697253">
      </trkpt>
      <trkpt lat="41.918462" lon="-87.695499">
      </trkpt>
      <trkpt lat="41.918462" lon="-87.695499">
      </trkpt>
      <trkpt lat="41.917679" lon="-87.694217">
      </trkpt>
      <trkpt lat="41.91752" lon="-87.694174">
      </trkpt>
      <trkpt lat="41.917494" lon="-87.697194">
      </trkpt>
      <trkpt lat="41.910223" lon="-87.697029">
      </trkpt>
      <trkpt lat="41.910241" lon="-87.695773">
      </trkpt>
      <trkpt lat="41.911942" lon="-87.69582">
      </trkpt>
      <trkpt lat="41.911942" lon="-87.69582">
      </trkpt>
      <trkpt lat="41.912067" lon="-87.695823">
      </trkpt>
      <trkpt lat="41.912148" lon="-87.687269">
      </trkpt>
      <trkpt lat="41.917587" lon="-87.687413">
      </trkpt>
      <trkpt lat="41.917673" lon="-87.682516">
      </trkpt>
      <trkpt lat="41.918425" lon="-87.682542">
      </trkpt>
      <trkpt lat="41.918404" lon="-87.683685">
      </trkpt>
      <trkpt lat="41.918404" lon="-87.683685">
      </trkpt>
      <trkpt lat="41.918337" lon="-87.687437">
      </trkpt>
      <trkpt lat="41.924902" lon="-87.687645">
      </trkpt>
      <trkpt lat="41.924978" lon="-87.682301">
      </trkpt>
      <trkpt lat="41.926707" lon="-87.685177">
      </trkpt>
      <trkpt lat="41.937344" lon="-87.704001">
      </trkpt>
      <trkpt lat="41.939348" lon="-87.706845">
      </trkpt>
      <trkpt lat="41.93936" lon="-87.706369">
      </trkpt>
      <trkpt lat="41.944519" lon="-87.706551">
      </trkpt>
      <trkpt lat="41.944803" lon="-87.706177">
      </trkpt>
      <trkpt lat="41.944219" lon="-87.705317">
      </trkpt>
      <trkpt lat="41.943085" lon="-87.705281">
      </trkpt>
      <trkpt lat="41.943085" lon="-87.705281">
      </trkpt>
      <trkpt lat="41.939366" lon="-87.705182">
      </trkpt>
      <trkpt lat="41.939339" lon="-87.707702">
      </trkpt>
      <trkpt lat="41.930261" lon="-87.707505">
      </trkpt>
      <trkpt lat="41.929332" lon="-87.707814">
      </trkpt>
      <trkpt lat="41.929168" lon="-87.707541">
      </trkpt>
      <trkpt lat="41.928361" lon="-87.707825">
      </trkpt>
      <trkpt lat="41.927605" lon="-87.707315">
      </trkpt>
      <trkpt lat="41.9174" lon="-87.70705">
      </trkpt>
      <trkpt lat="41.917363" lon="-87.710267">
      </trkpt>
      <trkpt lat="41.914054" lon="-87.710199">
      </trkpt>
      <trkpt lat="41.914054" lon="-87.710199">
      </trkpt>
      <trkpt lat="41.913804" lon="-87.710192">
      </trkpt>
      <trkpt lat="41.911905" lon="-87.71013">
      </trkpt>
      <trkpt lat="41.911947" lon="-87.706762">
      </trkpt>
      <trkpt lat="41.917401" lon="-87.706934">
      </trkpt>
      <trkpt lat="41.917413" lon="-87.705789">
      </trkpt>
      <trkpt lat="41.917413" lon="-87.705789">
      </trkpt>
      <trkpt lat="41.917871" lon="-87.671089">
      </trkpt>
      <trkpt lat="41.917216" lon="-87.670404">
      </trkpt>
      <trkpt lat="41.906635" lon="-87.661559">
      </trkpt>
      <trkpt lat="41.896667" lon="-87.658834">
      </trkpt>
      <trkpt lat="41.886973" lon="-87.646614">
      </trkpt>
      <trkpt lat="41.851247" lon="-87.645245">
      </trkpt>
      <trkpt lat="41.847384" lon="-87.642429">
      </trkpt>
      <trkpt lat="41.845323" lon="-87.634652">
      </trkpt>
      <trkpt lat="41.84209" lon="-87.63091">
      </trkpt>
      <trkpt lat="41.779686" lon="-87.631207">
      </trkpt>
      <trkpt lat="41.772231" lon="-87.626113">
      </trkpt>
      <trkpt lat="41.72052" lon="-87.624621">
      </trkpt>
      <trkpt lat="41.713653" lon="-87.621065">
      </trkpt>
      <trkpt lat="41.713191" lon="-87.600337">
      </trkpt>
      <trkpt lat="41.708673" lon="-87.592948">
      </trkpt>
      <trkpt lat="41.703483" lon="-87.592406">
      </trkpt>
      <trkpt lat="41.685512" lon="-87.601798">
      </trkpt>
      <trkpt lat="41.676933" lon="-87.601728">
      </trkpt>
      <trkpt lat="41.660202" lon="-87.589096">
      </trkpt>
      <trkpt lat="41.659512" lon="-87.59119">
      </trkpt>
      <trkpt lat="41.658851" lon="-87.560717">
      </trkpt>
      <trkpt lat="41.656176" lon="-87.555878">
      </trkpt>
      <trkpt lat="41.65737" lon="-87.555649">
      </trkpt>
      <trkpt lat="41.65736" lon="-87.553811">
      </trkpt>
      <trkpt lat="41.656889" lon="-87.553812">
      </trkpt>
      <trkpt lat="41.656889" lon="-87.553812">
      </trkpt>
      <trkpt lat="41.65736" lon="-87.553811">
      </trkpt>
      <trkpt lat="41.657281" lon="-87.557102">
      </trkpt>
      <trkpt lat="41.660149" lon="-87.585314">
      </trkpt>
      <trkpt lat="41.662478" lon="-87.590822">
      </trkpt>
      <trkpt lat="41.675885" lon="-87.601403">
      </trkpt>
      <trkpt lat="41.685726" lon="-87.601563">
      </trkpt>
      <trkpt lat="41.69908" lon="-87.594329">
      </trkpt>
      <trkpt lat="41.705863" lon="-87.591535">
      </trkpt>
      <trkpt lat="41.711823" lon="-87.595707">
      </trkpt>
      <trkpt lat="41.713575" lon="-87.618809">
      </trkpt>
      <trkpt lat="41.717096" lon="-87.62372">
      </trkpt>
      <trkpt lat="41.769497" lon="-87.625651">
      </trkpt>
      <trkpt lat="41.779578" lon="-87.630526">
      </trkpt>
      <trkpt lat="41.823852" lon="-87.630064">
      </trkpt>
      <trkpt lat="41.834623" lon="-87.629907">
      </trkpt>
      <trkpt lat="41.834684" lon="-87.626674">
      </trkpt>
      <trkpt lat="41.833703" lon="-87.626661">
      </trkpt>
      <trkpt lat="41.833703" lon="-87.626661">
      </trkpt>
      <trkpt lat="41.831006" lon="-87.62663">
      </trkpt>
      <trkpt lat="41.830961" lon="-87.629817">
      </trkpt>
      <trkpt lat="41.831311" lon="-87.629831">
      </trkpt>
      <trkpt lat="41.837743" lon="-87.630393">
      </trkpt>
      <trkpt lat="41.844069" lon="-87.631001">
      </trkpt>
      <trkpt lat="41.846653" lon="-87.630081">
      </trkpt>
      <trkpt lat="41.847976" lon="-87.616851">
      </trkpt>
      <trkpt lat="41.847086" lon="-87.612314">
      </trkpt>
      <trkpt lat="41.832576" lon="-87.607188">
      </trkpt>
      <trkpt lat="41.825932" lon="-87.600839">
      </trkpt>
      <trkpt lat="41.815295" lon="-87.593977">
      </trkpt>
      <trkpt lat="41.803502" lon="-87.581876">
      </trkpt>
      <trkpt lat="41.796009" lon="-87.57922">
      </trkpt>
      <trkpt lat="41.791662" lon="-87.58022">
      </trkpt>
      <trkpt lat="41.780709" lon="-87.574786">
      </trkpt>
      <trkpt lat="41.773651" lon="-87.576478">
      </trkpt>
      <trkpt lat="41.755247" lon="-87.576068">
      </trkpt>
      <trkpt lat="41.755293" lon="-87.572409">
      </trkpt>
      <trkpt lat="41.756654" lon="-87.572439">
      </trkpt>
      <trkpt lat="41.756654" lon="-87.572439">
      </trkpt>
      <trkpt lat="41.757108" lon="-87.572449">
      </trkpt>
      <trkpt lat="41.757066" lon="-87.576106">
      </trkpt>
      <trkpt lat="41.780713" lon="-87.574628">
      </trkpt>
      <trkpt lat="41.80353" lon="-87.581733">
      </trkpt>
      <trkpt lat="41.832668" lon="-87.606909">
      </trkpt>
      <trkpt lat="41.843509" lon="-87.610426">
      </trkpt>
      <trkpt lat="41.848604" lon="-87.612641">
      </trkpt>
      <trkpt lat="41.847424" lon="-87.630973">
      </trkpt>
      <trkpt lat="41.847736" lon="-87.641219">
      </trkpt>
      <trkpt lat="41.850742" lon="-87.644555">
      </trkpt>
      <trkpt lat="41.887752" lon="-87.646837">
      </trkpt>
      <trkpt lat="41.896733" lon="-87.658396">
      </trkpt>
      <trkpt lat="41.906443" lon="-87.661061">
      </trkpt>
      <trkpt lat="41.917096" lon="-87.669227">
      </trkpt>
      <trkpt lat="41.937344" lon="-87.704001">
      </trkpt>
      <trkpt lat="41.939132" lon="-87.706803">
      </trkpt>
      <trkpt lat="41.939166" lon="-87.721875">
      </trkpt>
      <trkpt lat="41.93793" lon="-87.721927">
      </trkpt>
      <trkpt lat="41.937887" lon="-87.721857">
      </trkpt>
      <trkpt lat="41.935463" lon="-87.724624">
      </trkpt>
      <trkpt lat="41.93209" lon="-87.724532">
      </trkpt>
    </trkseg>
  </trk>
</gpx>