<?xml version="1.0" encoding="UTF-8"?>
<gpx xmlns="http://www.topografix.com/GPX/1/1" xmlns:xsi="http://www.w3.org/2001/XMLSchema-instance" xsi:schemaLocation="http://www.topografix.com/GPX/1/1 http://www.topografix.com/GPX/1/1/gpx.xsd" version="1.1" creator="gpx.py -- https://github.com/tkrajina/gpxpy">
  <trk>
    <trkseg>
      <trkpt lat="42.017138" lon="-87.683005">
      </trkpt>
      <trkpt lat="42.019473" lon="-87.682991">
      </trkpt>
      <trkpt lat="42.019034" lon="-87.747705">
      </trkpt>
      <trkpt lat="42.011817" lon="-87.747939">
      </trkpt>
      <trkpt lat="42.011856" lon="-87.75189">
      </trkpt>
      <trkpt lat="42.007194" lon="-87.748838">
      </trkpt>
      <trkpt lat="41.987219" lon="-87.751521">
      </trkpt>
      <trkpt lat="41.980228" lon="-87.746835">
      </trkpt>
      <trkpt lat="41.966563" lon="-87.747223">
      </trkpt>
      <trkpt lat="41.962358" lon="-87.745232">
      </trkpt>
      <trkpt lat="41.947613" lon="-87.719592">
      </trkpt>
      <trkpt lat="41.94215" lon="-87.715306">
      </trkpt>
      <trkpt lat="41.917654" lon="-87.670146">
      </trkpt>
      <trkpt lat="41.906646" lon="-87.66137">
      </trkpt>
      <trkpt lat="41.897685" lon="-87.659246">
      </trkpt>
      <trkpt lat="41.888343" lon="-87.647531">
      </trkpt>
      <trkpt lat="41.881827" lon="-87.645999">
      </trkpt>
      <trkpt lat="41.880956" lon="-87.646134">
      </trkpt>
      <trkpt lat="41.879569" lon="-87.646145">
      </trkpt>
      <trkpt lat="41.878121" lon="-87.646166">
      </trkpt>
      <trkpt lat="41.875728" lon="-87.649135">
      </trkpt>
      <trkpt lat="41.874195" lon="-87.716326">
      </trkpt>
      <trkpt lat="41.874358" lon="-87.725442">
      </trkpt>
      <trkpt lat="41.851087" lon="-87.72475">
      </trkpt>
      <trkpt lat="41.848648" lon="-87.73165">
      </trkpt>
      <trkpt lat="41.848648" lon="-87.73165">
      </trkpt>
      <trkpt lat="41.847679" lon="-87.734395">
      </trkpt>
      <trkpt lat="41.872889" lon="-87.735214">
      </trkpt>
      <trkpt lat="41.873657" lon="-87.731862">
      </trkpt>
      <trkpt lat="41.873948" lon="-87.708909">
      </trkpt>
      <trkpt lat="41.875189" lon="-87.697594">
      </trkpt>
      <trkpt lat="41.875329" lon="-87.650308">
      </trkpt>
      <trkpt lat="41.875302" lon="-87.647601">
      </trkpt>
      <trkpt lat="41.874563" lon="-87.645452">
      </trkpt>
      <trkpt lat="41.875077" lon="-87.644482">
      </trkpt>
      <trkpt lat="41.876036" lon="-87.64458">
      </trkpt>
      <trkpt lat="41.880374" lon="-87.645275">
      </trkpt>
      <trkpt lat="41.881847" lon="-87.645355">
      </trkpt>
      <trkpt lat="41.882198" lon="-87.645393">
      </trkpt>
      <trkpt lat="41.883308" lon="-87.645396">
      </trkpt>
      <trkpt lat="41.885689" lon="-87.645365">
      </trkpt>
      <trkpt lat="41.885665" lon="-87.647482">
      </trkpt>
      <trkpt lat="41.891194" lon="-87.647627">
      </trkpt>
      <trkpt lat="41.893035" lon="-87.650448">
      </trkpt>
      <trkpt lat="41.893035" lon="-87.650448">
      </trkpt>
      <trkpt lat="41.899842" lon="-87.660982">
      </trkpt>
      <trkpt lat="41.899597" lon="-87.674089">
      </trkpt>
      <trkpt lat="41.90052" lon="-87.67412">
      </trkpt>
      <trkpt lat="41.90052" lon="-87.67412">
      </trkpt>
      <trkpt lat="41.899597" lon="-87.674089">
      </trkpt>
      <trkpt lat="41.899669" lon="-87.669849">
      </trkpt>
      <trkpt lat="41.900367" lon="-87.669869">
      </trkpt>
      <trkpt lat="41.900367" lon="-87.669869">
      </trkpt>
      <trkpt lat="41.90331" lon="-87.669955">
      </trkpt>
      <trkpt lat="41.903184" lon="-87.677276">
      </trkpt>
      <trkpt lat="41.910469" lon="-87.677494">
      </trkpt>
      <trkpt lat="41.917571" lon="-87.688592">
      </trkpt>
      <trkpt lat="41.917536" lon="-87.692301">
      </trkpt>
      <trkpt lat="41.917031" lon="-87.692287">
      </trkpt>
      <trkpt lat="41.917031" lon="-87.692287">
      </trkpt>
      <trkpt lat="41.917536" lon="-87.692301">
      </trkpt>
      <trkpt lat="41.91793" lon="-87.667505">
      </trkpt>
      <trkpt lat="41.916455" lon="-87.666413">
      </trkpt>
      <trkpt lat="41.917067" lon="-87.663815">
      </trkpt>
      <trkpt lat="41.917139" lon="-87.658378">
      </trkpt>
      <trkpt lat="41.918041" lon="-87.658214">
      </trkpt>
      <trkpt lat="41.918322" lon="-87.638808">
      </trkpt>
      <trkpt lat="41.918106" lon="-87.638503">
      </trkpt>
      <trkpt lat="41.918106" lon="-87.638503">
      </trkpt>
      <trkpt lat="41.918322" lon="-87.638808">
      </trkpt>
      <trkpt lat="41.921954" lon="-87.638941">
      </trkpt>
      <trkpt lat="41.92199" lon="-87.63646">
      </trkpt>
      <trkpt lat="41.925658" lon="-87.636586">
      </trkpt>
      <trkpt lat="41.926223" lon="-87.63067">
      </trkpt>
      <trkpt lat="41.928415" lon="-87.631851">
      </trkpt>
      <trkpt lat="41.935386" lon="-87.632612">
      </trkpt>
      <trkpt lat="41.941219" lon="-87.638833">
      </trkpt>
      <trkpt lat="41.950931" lon="-87.644376">
      </trkpt>
      <trkpt lat="41.967723" lon="-87.647541">
      </trkpt>
      <trkpt lat="41.969474" lon="-87.647273">
      </trkpt>
      <trkpt lat="41.96851" lon="-87.702871">
      </trkpt>
      <trkpt lat="41.966694" lon="-87.701541">
      </trkpt>
      <trkpt lat="41.966691" lon="-87.701889">
      </trkpt>
      <trkpt lat="41.966227" lon="-87.701875">
      </trkpt>
      <trkpt lat="41.966208" lon="-87.703687">
      </trkpt>
      <trkpt lat="41.966208" lon="-87.703687">
      </trkpt>
      <trkpt lat="41.966208" lon="-87.703687">
      </trkpt>
      <trkpt lat="41.966208" lon="-87.703687">
      </trkpt>
      <trkpt lat="41.966209" lon="-87.703517">
      </trkpt>
      <trkpt lat="41.968503" lon="-87.703607">
      </trkpt>
      <trkpt lat="41.968411" lon="-87.713373">
      </trkpt>
      <trkpt lat="41.975692" lon="-87.713554">
      </trkpt>
      <trkpt lat="41.975364" lon="-87.745776">
      </trkpt>
      <trkpt lat="41.977435" lon="-87.746921">
      </trkpt>
      <trkpt lat="41.980645" lon="-87.746796">
      </trkpt>
      <trkpt lat="41.985324" lon="-87.750643">
      </trkpt>
      <trkpt lat="41.987222" lon="-87.751348">
      </trkpt>
      <trkpt lat="41.995203" lon="-87.750649">
      </trkpt>
      <trkpt lat="42.001506" lon="-87.748714">
      </trkpt>
      <trkpt lat="42.007768" lon="-87.748691">
      </trkpt>
      <trkpt lat="42.011931" lon="-87.750639">
      </trkpt>
      <trkpt lat="42.013105" lon="-87.750297">
      </trkpt>
      <trkpt lat="42.012339" lon="-87.749434">
      </trkpt>
      <trkpt lat="42.011836" lon="-87.750189">
      </trkpt>
      <trkpt lat="42.011989" lon="-87.77782">
      </trkpt>
      <trkpt lat="42.011989" lon="-87.77782">
      </trkpt>
      <trkpt lat="42.011989" lon="-87.77782">
      </trkpt>
      <trkpt lat="42.011989" lon="-87.77782">
      </trkpt>
      <trkpt lat="42.011818" lon="-87.761544">
      </trkpt>
      <trkpt lat="42.01425" lon="-87.761273">
      </trkpt>
      <trkpt lat="42.020929" lon="-87.759027">
      </trkpt>
      <trkpt lat="42.021831" lon="-87.758439">
      </trkpt>
      <trkpt lat="42.021804" lon="-87.752383">
      </trkpt>
      <trkpt lat="42.022149" lon="-87.751923">
      </trkpt>
      <trkpt lat="42.024493" lon="-87.751862">
      </trkpt>
      <trkpt lat="42.024475" lon="-87.749772">
      </trkpt>
      <trkpt lat="42.024475" lon="-87.749772">
      </trkpt>
      <trkpt lat="42.024493" lon="-87.751862">
      </trkpt>
      <trkpt lat="42.022149" lon="-87.751923">
      </trkpt>
      <trkpt lat="42.021926" lon="-87.752216">
      </trkpt>
      <trkpt lat="42.01904" lon="-87.748642">
      </trkpt>
      <trkpt lat="42.018987" lon="-87.728246">
      </trkpt>
      <trkpt lat="42.019488" lon="-87.684645">
      </trkpt>
      <trkpt lat="42.015152" lon="-87.684067">
      </trkpt>
      <trkpt lat="42.008899" lon="-87.681855">
      </trkpt>
      <trkpt lat="42.004103" lon="-87.679672">
      </trkpt>
      <trkpt lat="42.004091" lon="-87.680339">
      </trkpt>
      <trkpt lat="42.004141" lon="-87.68034">
      </trkpt>
      <trkpt lat="42.004141" lon="-87.68034">
      </trkpt>
      <trkpt lat="42.004091" lon="-87.680339">
      </trkpt>
      <trkpt lat="42.004103" lon="-87.679672">
      </trkpt>
      <trkpt lat="42.005209" lon="-87.680175">
      </trkpt>
      <trkpt lat="42.004672" lon="-87.709343">
      </trkpt>
      <trkpt lat="41.997394" lon="-87.709354">
      </trkpt>
      <trkpt lat="41.997339" lon="-87.748324">
      </trkpt>
      <trkpt lat="41.975339" lon="-87.747984">
      </trkpt>
      <trkpt lat="41.975246" lon="-87.755278">
      </trkpt>
      <trkpt lat="41.974331" lon="-87.755249">
      </trkpt>
      <trkpt lat="41.974319" lon="-87.756662">
      </trkpt>
      <trkpt lat="41.974319" lon="-87.756662">
      </trkpt>
      <trkpt lat="41.974311" lon="-87.757731">
      </trkpt>
      <trkpt lat="41.969737" lon="-87.757586">
      </trkpt>
      <trkpt lat="41.969704" lon="-87.758408">
      </trkpt>
      <trkpt lat="41.969369" lon="-87.759449">
      </trkpt>
      <trkpt lat="41.968432" lon="-87.761242">
      </trkpt>
      <trkpt lat="41.964478" lon="-87.757803">
      </trkpt>
      <trkpt lat="41.964478" lon="-87.757803">
      </trkpt>
      <trkpt lat="41.964761" lon="-87.758052">
      </trkpt>
      <trkpt lat="41.964985" lon="-87.757599">
      </trkpt>
      <trkpt lat="41.967874" lon="-87.757708">
      </trkpt>
      <trkpt lat="41.968033" lon="-87.747723">
      </trkpt>
      <trkpt lat="41.972896" lon="-87.747918">
      </trkpt>
      <trkpt lat="41.972794" lon="-87.747761">
      </trkpt>
      <trkpt lat="41.966563" lon="-87.747223">
      </trkpt>
      <trkpt lat="41.964261" lon="-87.746728">
      </trkpt>
      <trkpt lat="41.962358" lon="-87.745232">
      </trkpt>
      <trkpt lat="41.959634" lon="-87.741323">
      </trkpt>
      <trkpt lat="41.947613" lon="-87.719592">
      </trkpt>
      <trkpt lat="41.94215" lon="-87.715306">
      </trkpt>
      <trkpt lat="41.940372" lon="-87.709927">
      </trkpt>
      <trkpt lat="41.917654" lon="-87.670146">
      </trkpt>
      <trkpt lat="41.906646" lon="-87.66137">
      </trkpt>
      <trkpt lat="41.901658" lon="-87.660965">
      </trkpt>
      <trkpt lat="41.897394" lon="-87.659066">
      </trkpt>
      <trkpt lat="41.892534" lon="-87.653065">
      </trkpt>
      <trkpt lat="41.892368" lon="-87.63704">
      </trkpt>
      <trkpt lat="41.891543" lon="-87.637019">
      </trkpt>
      <trkpt lat="41.891194" lon="-87.647627">
      </trkpt>
      <trkpt lat="41.893035" lon="-87.650448">
      </trkpt>
      <trkpt lat="41.893035" lon="-87.650448">
      </trkpt>
      <trkpt lat="41.893342" lon="-87.650924">
      </trkpt>
      <trkpt lat="41.89336" lon="-87.647667">
      </trkpt>
      <trkpt lat="41.903643" lon="-87.648086">
      </trkpt>
      <trkpt lat="41.903768" lon="-87.639563">
      </trkpt>
      <trkpt lat="41.904375" lon="-87.6404">
      </trkpt>
      <trkpt lat="41.904515" lon="-87.64022">
      </trkpt>
      <trkpt lat="41.904149" lon="-87.639718">
      </trkpt>
      <trkpt lat="41.904149" lon="-87.639718">
      </trkpt>
      <trkpt lat="41.904515" lon="-87.64022">
      </trkpt>
      <trkpt lat="41.904375" lon="-87.6404">
      </trkpt>
      <trkpt lat="41.903768" lon="-87.639563">
      </trkpt>
      <trkpt lat="41.903886" lon="-87.633004">
      </trkpt>
      <trkpt lat="41.890793" lon="-87.632683">
      </trkpt>
      <trkpt lat="41.890814" lon="-87.631109">
      </trkpt>
      <trkpt lat="41.889473" lon="-87.631072">
      </trkpt>
      <trkpt lat="41.889473" lon="-87.631072">
      </trkpt>
      <trkpt lat="41.889473" lon="-87.631072">
      </trkpt>
      <trkpt lat="41.889473" lon="-87.631072">
      </trkpt>
      <trkpt lat="41.889218" lon="-87.631063">
      </trkpt>
      <trkpt lat="41.889242" lon="-87.629579">
      </trkpt>
      <trkpt lat="41.903925" lon="-87.629995">
      </trkpt>
      <trkpt lat="41.903945" lon="-87.628691">
      </trkpt>
      <trkpt lat="41.907482" lon="-87.628786">
      </trkpt>
      <trkpt lat="41.907482" lon="-87.628786">
      </trkpt>
      <trkpt lat="41.909484" lon="-87.62884">
      </trkpt>
      <trkpt lat="41.90953" lon="-87.626169">
      </trkpt>
      <trkpt lat="41.912316" lon="-87.626932">
      </trkpt>
      <trkpt lat="41.90257" lon="-87.624114">
      </trkpt>
      <trkpt lat="41.900898" lon="-87.619617">
      </trkpt>
      <trkpt lat="41.892716" lon="-87.614229">
      </trkpt>
      <trkpt lat="41.884928" lon="-87.614127">
      </trkpt>
      <trkpt lat="41.881821" lon="-87.617453">
      </trkpt>
      <trkpt lat="41.869765" lon="-87.617261">
      </trkpt>
      <trkpt lat="41.866208" lon="-87.619588">
      </trkpt>
      <trkpt lat="41.853242" lon="-87.614728">
      </trkpt>
      <trkpt lat="41.848506" lon="-87.614444">
      </trkpt>
      <trkpt lat="41.84732" lon="-87.626818">
      </trkpt>
      <trkpt lat="41.847855" lon="-87.631727">
      </trkpt>
      <trkpt lat="41.843118" lon="-87.631351">
      </trkpt>
      <trkpt lat="41.79178" lon="-87.631289">
      </trkpt>
      <trkpt lat="41.783322" lon="-87.631532">
      </trkpt>
      <trkpt lat="41.779372" lon="-87.631833">
      </trkpt>
      <trkpt lat="41.779366" lon="-87.632128">
      </trkpt>
      <trkpt lat="41.778543" lon="-87.632538">
      </trkpt>
      <trkpt lat="41.778543" lon="-87.632538">
      </trkpt>
      <trkpt lat="41.779366" lon="-87.632128">
      </trkpt>
      <trkpt lat="41.779372" lon="-87.631833">
      </trkpt>
      <trkpt lat="41.778124" lon="-87.631812">
      </trkpt>
      <trkpt lat="41.778077" lon="-87.635009">
      </trkpt>
      <trkpt lat="41.779907" lon="-87.635057">
      </trkpt>
      <trkpt lat="41.779931" lon="-87.630139">
      </trkpt>
      <trkpt lat="41.780433" lon="-87.630149">
      </trkpt>
      <trkpt lat="41.807989" lon="-87.63142">
      </trkpt>
      <trkpt lat="41.812785" lon="-87.629665">
      </trkpt>
      <trkpt lat="41.837743" lon="-87.630393">
      </trkpt>
      <trkpt lat="41.844144" lon="-87.631347">
      </trkpt>
      <trkpt lat="41.847354" lon="-87.642036">
      </trkpt>
      <trkpt lat="41.850632" lon="-87.644778">
      </trkpt>
      <trkpt lat="41.885816" lon="-87.645875">
      </trkpt>
      <trkpt lat="41.8891" lon="-87.648003">
      </trkpt>
      <trkpt lat="41.897251" lon="-87.658783">
      </trkpt>
      <trkpt lat="41.899938" lon="-87.659701">
      </trkpt>
      <trkpt lat="41.899648" lon="-87.67107">
      </trkpt>
      <trkpt lat="41.900741" lon="-87.671103">
      </trkpt>
      <trkpt lat="41.900741" lon="-87.671103">
      </trkpt>
      <trkpt lat="41.903289" lon="-87.67118">
      </trkpt>
      <trkpt lat="41.903351" lon="-87.667439">
      </trkpt>
      <trkpt lat="41.917197" lon="-87.667771">
      </trkpt>
      <trkpt lat="41.92163" lon="-87.66862">
      </trkpt>
      <trkpt lat="41.926065" lon="-87.668113">
      </trkpt>
      <trkpt lat="41.976174" lon="-87.669543">
      </trkpt>
      <trkpt lat="41.976095" lon="-87.674927">
      </trkpt>
      <trkpt lat="41.974623" lon="-87.67488">
      </trkpt>
      <trkpt lat="41.974623" lon="-87.67488">
      </trkpt>
      <trkpt lat="41.97335" lon="-87.674845">
      </trkpt>
      <trkpt lat="41.973436" lon="-87.669592">
      </trkpt>
      <trkpt lat="41.961591" lon="-87.669293">
      </trkpt>
      <trkpt lat="41.961638" lon="-87.665949">
      </trkpt>
      <trkpt lat="41.958026" lon="-87.664497">
      </trkpt>
      <trkpt lat="41.954753" lon="-87.662484">
      </trkpt>
      <trkpt lat="41.944458" lon="-87.654273">
      </trkpt>
      <trkpt lat="41.937175" lon="-87.654016">
      </trkpt>
      <trkpt lat="41.937186" lon="-87.653552">
      </trkpt>
      <trkpt lat="41.937074" lon="-87.65355">
      </trkpt>
      <trkpt lat="41.937074" lon="-87.65355">
      </trkpt>
      <trkpt lat="41.937186" lon="-87.653552">
      </trkpt>
      <trkpt lat="41.937175" lon="-87.654016">
      </trkpt>
      <trkpt lat="41.939918" lon="-87.654106">
      </trkpt>
      <trkpt lat="41.939838" lon="-87.658974">
      </trkpt>
      <trkpt lat="41.945319" lon="-87.659122">
      </trkpt>
      <trkpt lat="41.945239" lon="-87.664502">
      </trkpt>
      <trkpt lat="41.945239" lon="-87.664502">
      </trkpt>
      <trkpt lat="41.945247" lon="-87.663953">
      </trkpt>
      <trkpt lat="41.944336" lon="-87.66393">
      </trkpt>
      <trkpt lat="41.944458" lon="-87.654273">
      </trkpt>
      <trkpt lat="41.939965" lon="-87.650679">
      </trkpt>
      <trkpt lat="41.940268" lon="-87.638796">
      </trkpt>
      <trkpt lat="41.939931" lon="-87.638606">
      </trkpt>
      <trkpt lat="41.936955" lon="-87.634194">
      </trkpt>
      <trkpt lat="41.934639" lon="-87.632453">
      </trkpt>
      <trkpt lat="41.928427" lon="-87.632048">
      </trkpt>
      <trkpt lat="41.918735" lon="-87.629189">
      </trkpt>
      <trkpt lat="41.911998" lon="-87.62605">
      </trkpt>
      <trkpt lat="41.904908" lon="-87.624861">
      </trkpt>
      <trkpt lat="41.901978" lon="-87.624179">
      </trkpt>
      <trkpt lat="41.894946" lon="-87.624357">
      </trkpt>
      <trkpt lat="41.894826" lon="-87.631577">
      </trkpt>
      <trkpt lat="41.894826" lon="-87.631577">
      </trkpt>
      <trkpt lat="41.894813" lon="-87.632582">
      </trkpt>
      <trkpt lat="41.900548" lon="-87.632751">
      </trkpt>
      <trkpt lat="41.9006" lon="-87.628335">
      </trkpt>
      <trkpt lat="41.900747" lon="-87.62834">
      </trkpt>
      <trkpt lat="41.900824" lon="-87.624042">
      </trkpt>
      <trkpt lat="41.902709" lon="-87.623664">
      </trkpt>
      <trkpt lat="41.912141" lon="-87.62589">
      </trkpt>
      <trkpt lat="41.918036" lon="-87.628743">
      </trkpt>
      <trkpt lat="41.928415" lon="-87.631851">
      </trkpt>
      <trkpt lat="41.934381" lon="-87.632152">
      </trkpt>
      <trkpt lat="41.936704" lon="-87.633661">
      </trkpt>
      <trkpt lat="41.941219" lon="-87.638833">
      </trkpt>
      <trkpt lat="41.950931" lon="-87.644376">
      </trkpt>
      <trkpt lat="41.960253" lon="-87.646094">
      </trkpt>
      <trkpt lat="41.962086" lon="-87.645534">
      </trkpt>
      <trkpt lat="41.961772" lon="-87.655148">
      </trkpt>
      <trkpt lat="41.964503" lon="-87.656894">
      </trkpt>
    </trkseg>
  </trk>
</gpx>