<?xml version="1.0" encoding="UTF-8"?>
<gpx xmlns="http://www.topografix.com/GPX/1/1" xmlns:xsi="http://www.w3.org/2001/XMLSchema-instance" xsi:schemaLocation="http://www.topografix.com/GPX/1/1 http://www.topografix.com/GPX/1/1/gpx.xsd" version="1.1" creator="gpx.py -- https://github.com/tkrajina/gpxpy">
  <trk>
    <trkseg>
      <trkpt lat="41.935883" lon="-87.658824">
      </trkpt>
      <trkpt lat="41.935883" lon="-87.658824">
      </trkpt>
      <trkpt lat="41.935883" lon="-87.658824">
      </trkpt>
      <trkpt lat="41.932557" lon="-87.658713">
      </trkpt>
      <trkpt lat="41.932479" lon="-87.66355">
      </trkpt>
      <trkpt lat="41.927039" lon="-87.663383">
      </trkpt>
      <trkpt lat="41.927018" lon="-87.664639">
      </trkpt>
      <trkpt lat="41.926889" lon="-87.664634">
      </trkpt>
      <trkpt lat="41.926889" lon="-87.664634">
      </trkpt>
      <trkpt lat="41.925197" lon="-87.664567">
      </trkpt>
      <trkpt lat="41.924981" lon="-87.681912">
      </trkpt>
      <trkpt lat="41.926707" lon="-87.685177">
      </trkpt>
      <trkpt lat="41.937344" lon="-87.704001">
      </trkpt>
      <trkpt lat="41.939332" lon="-87.707163">
      </trkpt>
      <trkpt lat="41.939599" lon="-87.707595">
      </trkpt>
      <trkpt lat="41.953885" lon="-87.708014">
      </trkpt>
      <trkpt lat="41.953889" lon="-87.706798">
      </trkpt>
      <trkpt lat="41.952356" lon="-87.706753">
      </trkpt>
      <trkpt lat="41.952356" lon="-87.706753">
      </trkpt>
      <trkpt lat="41.945366" lon="-87.706972">
      </trkpt>
      <trkpt lat="41.94223" lon="-87.702467">
      </trkpt>
      <trkpt lat="41.935677" lon="-87.702616">
      </trkpt>
      <trkpt lat="41.917124" lon="-87.669746">
      </trkpt>
      <trkpt lat="41.906635" lon="-87.661559">
      </trkpt>
      <trkpt lat="41.896667" lon="-87.658834">
      </trkpt>
      <trkpt lat="41.887778" lon="-87.647099">
      </trkpt>
      <trkpt lat="41.857367" lon="-87.644363">
      </trkpt>
      <trkpt lat="41.852447" lon="-87.645793">
      </trkpt>
      <trkpt lat="41.849097" lon="-87.644333">
      </trkpt>
      <trkpt lat="41.846776" lon="-87.644894">
      </trkpt>
      <trkpt lat="41.844955" lon="-87.652708">
      </trkpt>
      <trkpt lat="41.837862" lon="-87.667166">
      </trkpt>
      <trkpt lat="41.837095" lon="-87.679805">
      </trkpt>
      <trkpt lat="41.833938" lon="-87.690167">
      </trkpt>
      <trkpt lat="41.833938" lon="-87.690167">
      </trkpt>
      <trkpt lat="41.832287" lon="-87.695427">
      </trkpt>
      <trkpt lat="41.831418" lon="-87.698851">
      </trkpt>
      <trkpt lat="41.830863" lon="-87.700566">
      </trkpt>
      <trkpt lat="41.829715" lon="-87.704666">
      </trkpt>
      <trkpt lat="41.829034" lon="-87.704642">
      </trkpt>
      <trkpt lat="41.830574" lon="-87.699332">
      </trkpt>
      <trkpt lat="41.836711" lon="-87.680385">
      </trkpt>
      <trkpt lat="41.83747" lon="-87.66766">
      </trkpt>
      <trkpt lat="41.841885" lon="-87.658964">
      </trkpt>
      <trkpt lat="41.844952" lon="-87.651204">
      </trkpt>
      <trkpt lat="41.846659" lon="-87.642563">
      </trkpt>
      <trkpt lat="41.847625" lon="-87.642133">
      </trkpt>
      <trkpt lat="41.850742" lon="-87.644555">
      </trkpt>
      <trkpt lat="41.865805" lon="-87.644417">
      </trkpt>
      <trkpt lat="41.885931" lon="-87.64591">
      </trkpt>
      <trkpt lat="41.889375" lon="-87.648317">
      </trkpt>
      <trkpt lat="41.897003" lon="-87.6586">
      </trkpt>
      <trkpt lat="41.901753" lon="-87.660805">
      </trkpt>
      <trkpt lat="41.906186" lon="-87.660967">
      </trkpt>
      <trkpt lat="41.907951" lon="-87.662226">
      </trkpt>
      <trkpt lat="41.910674" lon="-87.664445">
      </trkpt>
      <trkpt lat="41.910646" lon="-87.667084">
      </trkpt>
      <trkpt lat="41.910411" lon="-87.667076">
      </trkpt>
      <trkpt lat="41.910411" lon="-87.667076">
      </trkpt>
      <trkpt lat="41.910646" lon="-87.667084">
      </trkpt>
      <trkpt lat="41.910674" lon="-87.664445">
      </trkpt>
      <trkpt lat="41.915886" lon="-87.668091">
      </trkpt>
      <trkpt lat="41.91815" lon="-87.670574">
      </trkpt>
      <trkpt lat="41.929581" lon="-87.690595">
      </trkpt>
      <trkpt lat="41.932133" lon="-87.694122">
      </trkpt>
      <trkpt lat="41.932179" lon="-87.687832">
      </trkpt>
      <trkpt lat="41.949742" lon="-87.688345">
      </trkpt>
      <trkpt lat="41.949742" lon="-87.688345">
      </trkpt>
      <trkpt lat="41.939587" lon="-87.688146">
      </trkpt>
      <trkpt lat="41.932278" lon="-87.678134">
      </trkpt>
      <trkpt lat="41.92139" lon="-87.677765">
      </trkpt>
      <trkpt lat="41.921395" lon="-87.677255">
      </trkpt>
      <trkpt lat="41.916326" lon="-87.668918">
      </trkpt>
      <trkpt lat="41.906635" lon="-87.661559">
      </trkpt>
      <trkpt lat="41.896667" lon="-87.658834">
      </trkpt>
      <trkpt lat="41.886973" lon="-87.646614">
      </trkpt>
      <trkpt lat="41.857367" lon="-87.644363">
      </trkpt>
      <trkpt lat="41.852447" lon="-87.645793">
      </trkpt>
      <trkpt lat="41.849097" lon="-87.644333">
      </trkpt>
      <trkpt lat="41.846776" lon="-87.644894">
      </trkpt>
      <trkpt lat="41.844955" lon="-87.652708">
      </trkpt>
      <trkpt lat="41.837862" lon="-87.667166">
      </trkpt>
      <trkpt lat="41.837032" lon="-87.680151">
      </trkpt>
      <trkpt lat="41.832287" lon="-87.695427">
      </trkpt>
      <trkpt lat="41.831418" lon="-87.698851">
      </trkpt>
      <trkpt lat="41.830863" lon="-87.700566">
      </trkpt>
      <trkpt lat="41.83001" lon="-87.70462">
      </trkpt>
      <trkpt lat="41.837239" lon="-87.704823">
      </trkpt>
      <trkpt lat="41.836956" lon="-87.720693">
      </trkpt>
      <trkpt lat="41.839057" lon="-87.720749">
      </trkpt>
      <trkpt lat="41.839057" lon="-87.720749">
      </trkpt>
      <trkpt lat="41.840624" lon="-87.720791">
      </trkpt>
      <trkpt lat="41.840566" lon="-87.724458">
      </trkpt>
      <trkpt lat="41.851087" lon="-87.72475">
      </trkpt>
      <trkpt lat="41.861781" lon="-87.694461">
      </trkpt>
      <trkpt lat="41.862438" lon="-87.694519">
      </trkpt>
      <trkpt lat="41.862438" lon="-87.694519">
      </trkpt>
      <trkpt lat="41.861781" lon="-87.694461">
      </trkpt>
      <trkpt lat="41.86479" lon="-87.685988">
      </trkpt>
      <trkpt lat="41.872865" lon="-87.676298">
      </trkpt>
      <trkpt lat="41.875016" lon="-87.676418">
      </trkpt>
      <trkpt lat="41.875021" lon="-87.676128">
      </trkpt>
      <trkpt lat="41.875604" lon="-87.6605">
      </trkpt>
      <trkpt lat="41.875329" lon="-87.650308">
      </trkpt>
      <trkpt lat="41.875302" lon="-87.647601">
      </trkpt>
      <trkpt lat="41.874563" lon="-87.645452">
      </trkpt>
      <trkpt lat="41.875077" lon="-87.644482">
      </trkpt>
      <trkpt lat="41.876036" lon="-87.64458">
      </trkpt>
      <trkpt lat="41.877925" lon="-87.64558">
      </trkpt>
      <trkpt lat="41.886212" lon="-87.646015">
      </trkpt>
      <trkpt lat="41.88874" lon="-87.647638">
      </trkpt>
      <trkpt lat="41.890597" lon="-87.650048">
      </trkpt>
      <trkpt lat="41.891699" lon="-87.651108">
      </trkpt>
      <trkpt lat="41.89242" lon="-87.65026">
      </trkpt>
      <trkpt lat="41.892368" lon="-87.63704">
      </trkpt>
      <trkpt lat="41.903798" lon="-87.637466">
      </trkpt>
      <trkpt lat="41.903768" lon="-87.639563">
      </trkpt>
      <trkpt lat="41.904375" lon="-87.6404">
      </trkpt>
      <trkpt lat="41.904515" lon="-87.64022">
      </trkpt>
      <trkpt lat="41.904149" lon="-87.639718">
      </trkpt>
      <trkpt lat="41.904149" lon="-87.639718">
      </trkpt>
      <trkpt lat="41.904515" lon="-87.64022">
      </trkpt>
      <trkpt lat="41.904375" lon="-87.6404">
      </trkpt>
      <trkpt lat="41.903768" lon="-87.639563">
      </trkpt>
      <trkpt lat="41.903643" lon="-87.648086">
      </trkpt>
      <trkpt lat="41.896403" lon="-87.64782">
      </trkpt>
      <trkpt lat="41.896269" lon="-87.654734">
      </trkpt>
      <trkpt lat="41.891059" lon="-87.659133">
      </trkpt>
      <trkpt lat="41.890972" lon="-87.667205">
      </trkpt>
      <trkpt lat="41.886928" lon="-87.667087">
      </trkpt>
      <trkpt lat="41.886827" lon="-87.673532">
      </trkpt>
      <trkpt lat="41.886827" lon="-87.673532">
      </trkpt>
      <trkpt lat="41.886776" lon="-87.676791">
      </trkpt>
      <trkpt lat="41.91776" lon="-87.677621">
      </trkpt>
      <trkpt lat="41.91763" lon="-87.684968">
      </trkpt>
      <trkpt lat="41.918313" lon="-87.684989">
      </trkpt>
      <trkpt lat="41.918313" lon="-87.684989">
      </trkpt>
      <trkpt lat="41.918381" lon="-87.684991">
      </trkpt>
      <trkpt lat="41.918337" lon="-87.687437">
      </trkpt>
      <trkpt lat="41.949742" lon="-87.688345">
      </trkpt>
      <trkpt lat="41.949742" lon="-87.688345">
      </trkpt>
      <trkpt lat="41.954086" lon="-87.688469">
      </trkpt>
      <trkpt lat="41.953974" lon="-87.709352">
      </trkpt>
      <trkpt lat="41.95365" lon="-87.727612">
      </trkpt>
      <trkpt lat="41.952511" lon="-87.727575">
      </trkpt>
      <trkpt lat="41.952328" lon="-87.727757">
      </trkpt>
      <trkpt lat="41.951616" lon="-87.727738">
      </trkpt>
      <trkpt lat="41.951378" lon="-87.727531">
      </trkpt>
      <trkpt lat="41.947686" lon="-87.720007">
      </trkpt>
      <trkpt lat="41.94685" lon="-87.719002">
      </trkpt>
      <trkpt lat="41.945898" lon="-87.718393">
      </trkpt>
      <trkpt lat="41.945898" lon="-87.718393">
      </trkpt>
      <trkpt lat="41.94319" lon="-87.716727">
      </trkpt>
      <trkpt lat="41.942115" lon="-87.715518">
      </trkpt>
      <trkpt lat="41.941459" lon="-87.714674">
      </trkpt>
      <trkpt lat="41.941087" lon="-87.713508">
      </trkpt>
      <trkpt lat="41.940478" lon="-87.712526">
      </trkpt>
      <trkpt lat="41.946565" lon="-87.712704">
      </trkpt>
      <trkpt lat="41.946711" lon="-87.694882">
      </trkpt>
      <trkpt lat="41.947669" lon="-87.694885">
      </trkpt>
      <trkpt lat="41.947669" lon="-87.694885">
      </trkpt>
      <trkpt lat="41.946711" lon="-87.694882">
      </trkpt>
      <trkpt lat="41.946686" lon="-87.698037">
      </trkpt>
      <trkpt lat="41.932108" lon="-87.697602">
      </trkpt>
      <trkpt lat="41.932116" lon="-87.696547">
      </trkpt>
      <trkpt lat="41.917456" lon="-87.670155">
      </trkpt>
      <trkpt lat="41.905802" lon="-87.661229">
      </trkpt>
      <trkpt lat="41.903435" lon="-87.661667">
      </trkpt>
      <trkpt lat="41.903492" lon="-87.658338">
      </trkpt>
      <trkpt lat="41.901311" lon="-87.6567">
      </trkpt>
      <trkpt lat="41.896984" lon="-87.656554">
      </trkpt>
      <trkpt lat="41.893035" lon="-87.650448">
      </trkpt>
      <trkpt lat="41.893035" lon="-87.650448">
      </trkpt>
      <trkpt lat="41.893342" lon="-87.650924">
      </trkpt>
      <trkpt lat="41.893426" lon="-87.650987">
      </trkpt>
      <trkpt lat="41.8937" lon="-87.651495">
      </trkpt>
      <trkpt lat="41.896254" lon="-87.65541">
      </trkpt>
      <trkpt lat="41.896233" lon="-87.657506">
      </trkpt>
      <trkpt lat="41.897142" lon="-87.65753">
      </trkpt>
      <trkpt lat="41.897137" lon="-87.658055">
      </trkpt>
      <trkpt lat="41.897137" lon="-87.658055">
      </trkpt>
      <trkpt lat="41.897142" lon="-87.65753">
      </trkpt>
      <trkpt lat="41.896233" lon="-87.657506">
      </trkpt>
      <trkpt lat="41.896254" lon="-87.65541">
      </trkpt>
      <trkpt lat="41.891194" lon="-87.647627">
      </trkpt>
      <trkpt lat="41.890088" lon="-87.647611">
      </trkpt>
      <trkpt lat="41.890082" lon="-87.64876">
      </trkpt>
      <trkpt lat="41.889662" lon="-87.648752">
      </trkpt>
      <trkpt lat="41.889662" lon="-87.648752">
      </trkpt>
      <trkpt lat="41.889017" lon="-87.648718">
      </trkpt>
      <trkpt lat="41.889054" lon="-87.644337">
      </trkpt>
      <trkpt lat="41.884425" lon="-87.644184">
      </trkpt>
      <trkpt lat="41.884406" lon="-87.646033">
      </trkpt>
      <trkpt lat="41.884406" lon="-87.646033">
      </trkpt>
      <trkpt lat="41.884415" lon="-87.647438">
      </trkpt>
      <trkpt lat="41.881782" lon="-87.64736">
      </trkpt>
      <trkpt lat="41.881801" lon="-87.64573">
      </trkpt>
      <trkpt lat="41.885306" lon="-87.645735">
      </trkpt>
      <trkpt lat="41.888483" lon="-87.647404">
      </trkpt>
      <trkpt lat="41.897251" lon="-87.658783">
      </trkpt>
      <trkpt lat="41.901753" lon="-87.660805">
      </trkpt>
      <trkpt lat="41.906443" lon="-87.661061">
      </trkpt>
      <trkpt lat="41.910145" lon="-87.664439">
      </trkpt>
      <trkpt lat="41.916712" lon="-87.668818">
      </trkpt>
      <trkpt lat="41.929581" lon="-87.690595">
      </trkpt>
      <trkpt lat="41.932133" lon="-87.694122">
      </trkpt>
      <trkpt lat="41.932142" lon="-87.692784">
      </trkpt>
      <trkpt lat="41.935622" lon="-87.692831">
      </trkpt>
      <trkpt lat="41.937288" lon="-87.695239">
      </trkpt>
      <trkpt lat="41.941333" lon="-87.695292">
      </trkpt>
      <trkpt lat="41.94133" lon="-87.696049">
      </trkpt>
      <trkpt lat="41.94108" lon="-87.696047">
      </trkpt>
      <trkpt lat="41.94108" lon="-87.696047">
      </trkpt>
      <trkpt lat="41.94133" lon="-87.696049">
      </trkpt>
      <trkpt lat="41.941333" lon="-87.695292">
      </trkpt>
      <trkpt lat="41.939421" lon="-87.695268">
      </trkpt>
      <trkpt lat="41.939404" lon="-87.697818">
      </trkpt>
      <trkpt lat="41.933955" lon="-87.697682">
      </trkpt>
      <trkpt lat="41.940632" lon="-87.710036">
      </trkpt>
      <trkpt lat="41.941688" lon="-87.713685">
      </trkpt>
      <trkpt lat="41.942387" lon="-87.715161">
      </trkpt>
      <trkpt lat="41.943551" lon="-87.716453">
      </trkpt>
      <trkpt lat="41.946743" lon="-87.718308">
      </trkpt>
      <trkpt lat="41.947406" lon="-87.71887">
      </trkpt>
      <trkpt lat="41.948144" lon="-87.719888">
      </trkpt>
      <trkpt lat="41.948955" lon="-87.721756">
      </trkpt>
      <trkpt lat="41.950079" lon="-87.723791">
      </trkpt>
      <trkpt lat="41.952511" lon="-87.727575">
      </trkpt>
      <trkpt lat="41.952328" lon="-87.727757">
      </trkpt>
      <trkpt lat="41.951616" lon="-87.727738">
      </trkpt>
      <trkpt lat="41.951378" lon="-87.727531">
      </trkpt>
      <trkpt lat="41.947686" lon="-87.720007">
      </trkpt>
      <trkpt lat="41.94685" lon="-87.719002">
      </trkpt>
      <trkpt lat="41.945898" lon="-87.718393">
      </trkpt>
      <trkpt lat="41.945898" lon="-87.718393">
      </trkpt>
      <trkpt lat="41.94319" lon="-87.716727">
      </trkpt>
      <trkpt lat="41.942115" lon="-87.715518">
      </trkpt>
      <trkpt lat="41.940478" lon="-87.712526">
      </trkpt>
      <trkpt lat="41.939288" lon="-87.712487">
      </trkpt>
      <trkpt lat="41.939096" lon="-87.727187">
      </trkpt>
      <trkpt lat="41.924493" lon="-87.726763">
      </trkpt>
      <trkpt lat="41.923585" lon="-87.79707">
      </trkpt>
      <trkpt lat="41.923215" lon="-87.797058">
      </trkpt>
      <trkpt lat="41.923215" lon="-87.797058">
      </trkpt>
      <trkpt lat="41.923585" lon="-87.79707">
      </trkpt>
      <trkpt lat="41.92364" lon="-87.789403">
      </trkpt>
      <trkpt lat="41.924902" lon="-87.687645">
      </trkpt>
      <trkpt lat="41.928661" lon="-87.687706">
      </trkpt>
      <trkpt lat="41.932222" lon="-87.683979">
      </trkpt>
      <trkpt lat="41.932257" lon="-87.680713">
      </trkpt>
      <trkpt lat="41.932073" lon="-87.680658">
      </trkpt>
      <trkpt lat="41.932073" lon="-87.680658">
      </trkpt>
      <trkpt lat="41.932257" lon="-87.680713">
      </trkpt>
      <trkpt lat="41.932278" lon="-87.678134">
      </trkpt>
      <trkpt lat="41.925839" lon="-87.677923">
      </trkpt>
      <trkpt lat="41.925628" lon="-87.675559">
      </trkpt>
      <trkpt lat="41.923391" lon="-87.675053">
      </trkpt>
      <trkpt lat="41.918251" lon="-87.667757">
      </trkpt>
      <trkpt lat="41.908679" lon="-87.660908">
      </trkpt>
      <trkpt lat="41.908679" lon="-87.660908">
      </trkpt>
      <trkpt lat="41.907139" lon="-87.659943">
      </trkpt>
      <trkpt lat="41.904542" lon="-87.659389">
      </trkpt>
      <trkpt lat="41.903014" lon="-87.657866">
      </trkpt>
      <trkpt lat="41.901311" lon="-87.6567">
      </trkpt>
      <trkpt lat="41.896984" lon="-87.656554">
      </trkpt>
      <trkpt lat="41.893035" lon="-87.650448">
      </trkpt>
      <trkpt lat="41.893035" lon="-87.650448">
      </trkpt>
      <trkpt lat="41.895983" lon="-87.654976">
      </trkpt>
      <trkpt lat="41.89501" lon="-87.655808">
      </trkpt>
      <trkpt lat="41.91766" lon="-87.669906">
      </trkpt>
      <trkpt lat="41.960998" lon="-87.742619">
      </trkpt>
      <trkpt lat="41.987222" lon="-87.751348">
      </trkpt>
      <trkpt lat="42.009518" lon="-87.749189">
      </trkpt>
      <trkpt lat="42.026582" lon="-87.768599">
      </trkpt>
      <trkpt lat="42.062763" lon="-87.754799">
      </trkpt>
      <trkpt lat="42.086787" lon="-87.75864">
      </trkpt>
      <trkpt lat="42.140407" lon="-87.790096">
      </trkpt>
      <trkpt lat="42.218048" lon="-87.845415">
      </trkpt>
      <trkpt lat="42.221904" lon="-87.874841">
      </trkpt>
      <trkpt lat="42.22053" lon="-87.873988">
      </trkpt>
      <trkpt lat="42.220188" lon="-87.875556">
      </trkpt>
      <trkpt lat="42.2188" lon="-87.875633">
      </trkpt>
      <trkpt lat="42.219001" lon="-87.873909">
      </trkpt>
      <trkpt lat="42.219001" lon="-87.873909">
      </trkpt>
      <trkpt lat="42.219064" lon="-87.873985">
      </trkpt>
      <trkpt lat="42.2188" lon="-87.875633">
      </trkpt>
      <trkpt lat="42.220188" lon="-87.875556">
      </trkpt>
      <trkpt lat="42.22053" lon="-87.873988">
      </trkpt>
      <trkpt lat="42.221904" lon="-87.874841">
      </trkpt>
      <trkpt lat="42.22171" lon="-87.866571">
      </trkpt>
      <trkpt lat="42.218278" lon="-87.861321">
      </trkpt>
      <trkpt lat="42.21805" lon="-87.845636">
      </trkpt>
      <trkpt lat="42.180055" lon="-87.818144">
      </trkpt>
      <trkpt lat="42.166139" lon="-87.811916">
      </trkpt>
      <trkpt lat="42.136654" lon="-87.787387">
      </trkpt>
      <trkpt lat="42.126982" lon="-87.784412">
      </trkpt>
      <trkpt lat="42.088171" lon="-87.75931">
      </trkpt>
      <trkpt lat="42.063156" lon="-87.75495">
      </trkpt>
      <trkpt lat="42.05296" lon="-87.761767">
      </trkpt>
      <trkpt lat="42.026512" lon="-87.768822">
      </trkpt>
      <trkpt lat="42.020736" lon="-87.765062">
      </trkpt>
      <trkpt lat="42.01165" lon="-87.750699">
      </trkpt>
      <trkpt lat="42.012287" lon="-87.69024">
      </trkpt>
      <trkpt lat="42.006264" lon="-87.6901">
      </trkpt>
      <trkpt lat="42.006428" lon="-87.681335">
      </trkpt>
    </trkseg>
  </trk>
</gpx>