<?xml version="1.0" encoding="UTF-8"?>
<gpx xmlns="http://www.topografix.com/GPX/1/1" xmlns:xsi="http://www.w3.org/2001/XMLSchema-instance" xsi:schemaLocation="http://www.topografix.com/GPX/1/1 http://www.topografix.com/GPX/1/1/gpx.xsd" version="1.1" creator="gpx.py -- https://github.com/tkrajina/gpxpy">
  <trk>
    <trkseg>
      <trkpt lat="41.927956" lon="-87.641881">
      </trkpt>
      <trkpt lat="41.92558" lon="-87.640463">
      </trkpt>
      <trkpt lat="41.926001" lon="-87.631853">
      </trkpt>
      <trkpt lat="41.892868" lon="-87.614264">
      </trkpt>
      <trkpt lat="41.853242" lon="-87.614728">
      </trkpt>
      <trkpt lat="41.84732" lon="-87.626818">
      </trkpt>
      <trkpt lat="41.843118" lon="-87.631351">
      </trkpt>
      <trkpt lat="41.72052" lon="-87.624621">
      </trkpt>
      <trkpt lat="41.711591" lon="-87.653181">
      </trkpt>
      <trkpt lat="41.636998" lon="-87.662544">
      </trkpt>
      <trkpt lat="41.570233" lon="-87.743713">
      </trkpt>
      <trkpt lat="41.499211" lon="-87.742861">
      </trkpt>
      <trkpt lat="41.408869" lon="-87.761111">
      </trkpt>
      <trkpt lat="41.351385" lon="-87.814721">
      </trkpt>
      <trkpt lat="41.219237" lon="-87.867101">
      </trkpt>
      <trkpt lat="41.175878" lon="-87.865799">
      </trkpt>
      <trkpt lat="41.164011" lon="-87.844903">
      </trkpt>
      <trkpt lat="41.122686" lon="-87.835896">
      </trkpt>
      <trkpt lat="41.119015" lon="-87.836688">
      </trkpt>
      <trkpt lat="41.119243" lon="-87.854097">
      </trkpt>
      <trkpt lat="41.121841" lon="-87.853612">
      </trkpt>
      <trkpt lat="41.121902" lon="-87.854171">
      </trkpt>
      <trkpt lat="41.121902" lon="-87.854171">
      </trkpt>
      <trkpt lat="41.121424" lon="-87.849746">
      </trkpt>
      <trkpt lat="41.118883" lon="-87.849699">
      </trkpt>
      <trkpt lat="41.118921" lon="-87.834861">
      </trkpt>
      <trkpt lat="41.164218" lon="-87.84476">
      </trkpt>
      <trkpt lat="41.175771" lon="-87.865433">
      </trkpt>
      <trkpt lat="41.220462" lon="-87.866302">
      </trkpt>
      <trkpt lat="41.35146" lon="-87.814319">
      </trkpt>
      <trkpt lat="41.409124" lon="-87.760648">
      </trkpt>
      <trkpt lat="41.574355" lon="-87.742012">
      </trkpt>
      <trkpt lat="41.636784" lon="-87.662381">
      </trkpt>
      <trkpt lat="41.711489" lon="-87.652822">
      </trkpt>
      <trkpt lat="41.714662" lon="-87.632642">
      </trkpt>
      <trkpt lat="41.769497" lon="-87.625651">
      </trkpt>
      <trkpt lat="41.838631" lon="-87.630667">
      </trkpt>
      <trkpt lat="41.850987" lon="-87.644933">
      </trkpt>
      <trkpt lat="41.890597" lon="-87.650048">
      </trkpt>
      <trkpt lat="41.892476" lon="-87.628093">
      </trkpt>
      <trkpt lat="41.893025" lon="-87.628109">
      </trkpt>
      <trkpt lat="41.893025" lon="-87.628109">
      </trkpt>
      <trkpt lat="41.891667" lon="-87.628071">
      </trkpt>
      <trkpt lat="41.891194" lon="-87.647627">
      </trkpt>
      <trkpt lat="41.895983" lon="-87.654976">
      </trkpt>
      <trkpt lat="41.89501" lon="-87.655808">
      </trkpt>
      <trkpt lat="41.89596" lon="-87.657675">
      </trkpt>
      <trkpt lat="41.898217" lon="-87.65932">
      </trkpt>
      <trkpt lat="41.901753" lon="-87.660805">
      </trkpt>
      <trkpt lat="41.905559" lon="-87.660803">
      </trkpt>
      <trkpt lat="41.907216" lon="-87.661536">
      </trkpt>
      <trkpt lat="41.910145" lon="-87.664439">
      </trkpt>
      <trkpt lat="41.916712" lon="-87.668818">
      </trkpt>
      <trkpt lat="41.91815" lon="-87.670574">
      </trkpt>
      <trkpt lat="41.920831" lon="-87.675191">
      </trkpt>
      <trkpt lat="41.922669" lon="-87.677815">
      </trkpt>
      <trkpt lat="41.925026" lon="-87.677893">
      </trkpt>
      <trkpt lat="41.925139" lon="-87.669348">
      </trkpt>
      <trkpt lat="41.928671" lon="-87.673993">
      </trkpt>
      <trkpt lat="41.928727" lon="-87.67202">
      </trkpt>
      <trkpt lat="41.929481" lon="-87.67204">
      </trkpt>
      <trkpt lat="41.929473" lon="-87.672722">
      </trkpt>
      <trkpt lat="41.930377" lon="-87.672778">
      </trkpt>
      <trkpt lat="41.930377" lon="-87.672778">
      </trkpt>
      <trkpt lat="41.931121" lon="-87.672803">
      </trkpt>
      <trkpt lat="41.931161" lon="-87.670783">
      </trkpt>
      <trkpt lat="41.93237" lon="-87.670818">
      </trkpt>
      <trkpt lat="41.932567" lon="-87.65822">
      </trkpt>
      <trkpt lat="41.932567" lon="-87.65822">
      </trkpt>
      <trkpt lat="41.932278" lon="-87.678134">
      </trkpt>
      <trkpt lat="41.925026" lon="-87.677893">
      </trkpt>
      <trkpt lat="41.924902" lon="-87.687645">
      </trkpt>
      <trkpt lat="41.910324" lon="-87.687207">
      </trkpt>
      <trkpt lat="41.909964" lon="-87.718643">
      </trkpt>
      <trkpt lat="41.909964" lon="-87.718643">
      </trkpt>
      <trkpt lat="41.90987" lon="-87.726341">
      </trkpt>
      <trkpt lat="41.92265" lon="-87.72708">
      </trkpt>
      <trkpt lat="41.92266" lon="-87.726455">
      </trkpt>
      <trkpt lat="41.960957" lon="-87.727814">
      </trkpt>
      <trkpt lat="41.960944" lon="-87.729042">
      </trkpt>
      <trkpt lat="41.961132" lon="-87.729046">
      </trkpt>
      <trkpt lat="41.961132" lon="-87.729046">
      </trkpt>
      <trkpt lat="41.960944" lon="-87.729042">
      </trkpt>
      <trkpt lat="41.960937" lon="-87.729684">
      </trkpt>
      <trkpt lat="41.972794" lon="-87.747761">
      </trkpt>
      <trkpt lat="41.966563" lon="-87.747223">
      </trkpt>
      <trkpt lat="41.962358" lon="-87.745232">
      </trkpt>
      <trkpt lat="41.947613" lon="-87.719592">
      </trkpt>
      <trkpt lat="41.94215" lon="-87.715306">
      </trkpt>
      <trkpt lat="41.940372" lon="-87.709927">
      </trkpt>
      <trkpt lat="41.917654" lon="-87.670146">
      </trkpt>
      <trkpt lat="41.906646" lon="-87.66137">
      </trkpt>
      <trkpt lat="41.897685" lon="-87.659246">
      </trkpt>
      <trkpt lat="41.888636" lon="-87.647794">
      </trkpt>
      <trkpt lat="41.885119" lon="-87.646108">
      </trkpt>
      <trkpt lat="41.883144" lon="-87.646413">
      </trkpt>
      <trkpt lat="41.883172" lon="-87.642677">
      </trkpt>
      <trkpt lat="41.884435" lon="-87.642712">
      </trkpt>
      <trkpt lat="41.884406" lon="-87.646033">
      </trkpt>
      <trkpt lat="41.884406" lon="-87.646033">
      </trkpt>
      <trkpt lat="41.884415" lon="-87.647438">
      </trkpt>
      <trkpt lat="41.885665" lon="-87.647482">
      </trkpt>
      <trkpt lat="41.885682" lon="-87.646258">
      </trkpt>
      <trkpt lat="41.884746" lon="-87.645922">
      </trkpt>
      <trkpt lat="41.881827" lon="-87.645999">
      </trkpt>
      <trkpt lat="41.880956" lon="-87.646134">
      </trkpt>
      <trkpt lat="41.879569" lon="-87.646145">
      </trkpt>
      <trkpt lat="41.878121" lon="-87.646166">
      </trkpt>
      <trkpt lat="41.876602" lon="-87.646544">
      </trkpt>
      <trkpt lat="41.875847" lon="-87.647927">
      </trkpt>
      <trkpt lat="41.876121" lon="-87.662425">
      </trkpt>
      <trkpt lat="41.876354" lon="-87.666742">
      </trkpt>
      <trkpt lat="41.861471" lon="-87.666314">
      </trkpt>
      <trkpt lat="41.861503" lon="-87.663866">
      </trkpt>
      <trkpt lat="41.862144" lon="-87.663879">
      </trkpt>
      <trkpt lat="41.862144" lon="-87.663879">
      </trkpt>
      <trkpt lat="41.861503" lon="-87.663866">
      </trkpt>
      <trkpt lat="41.861408" lon="-87.671155">
      </trkpt>
      <trkpt lat="41.863211" lon="-87.671247">
      </trkpt>
      <trkpt lat="41.863132" lon="-87.676146">
      </trkpt>
      <trkpt lat="41.864954" lon="-87.676219">
      </trkpt>
      <trkpt lat="41.86479" lon="-87.685988">
      </trkpt>
      <trkpt lat="41.857973" lon="-87.705425">
      </trkpt>
      <trkpt lat="41.851772" lon="-87.705261">
      </trkpt>
      <trkpt lat="41.85173" lon="-87.708913">
      </trkpt>
      <trkpt lat="41.851213" lon="-87.708893">
      </trkpt>
      <trkpt lat="41.851213" lon="-87.708893">
      </trkpt>
      <trkpt lat="41.84991" lon="-87.708842">
      </trkpt>
      <trkpt lat="41.849894" lon="-87.710062">
      </trkpt>
      <trkpt lat="41.851717" lon="-87.710116">
      </trkpt>
      <trkpt lat="41.851661" lon="-87.710877">
      </trkpt>
      <trkpt lat="41.851938" lon="-87.711165">
      </trkpt>
      <trkpt lat="41.8517" lon="-87.712591">
      </trkpt>
      <trkpt lat="41.851584" lon="-87.729621">
      </trkpt>
      <trkpt lat="41.854963" lon="-87.729722">
      </trkpt>
      <trkpt lat="41.854983" lon="-87.728188">
      </trkpt>
      <trkpt lat="41.854983" lon="-87.728188">
      </trkpt>
      <trkpt lat="41.855016" lon="-87.724851">
      </trkpt>
      <trkpt lat="41.92265" lon="-87.72708">
      </trkpt>
      <trkpt lat="41.92266" lon="-87.726455">
      </trkpt>
      <trkpt lat="41.931796" lon="-87.726988">
      </trkpt>
      <trkpt lat="41.93186" lon="-87.722071">
      </trkpt>
      <trkpt lat="41.929231" lon="-87.721999">
      </trkpt>
      <trkpt lat="41.929231" lon="-87.721999">
      </trkpt>
      <trkpt lat="41.928206" lon="-87.721971">
      </trkpt>
      <trkpt lat="41.928261" lon="-87.71708">
      </trkpt>
      <trkpt lat="41.931929" lon="-87.717188">
      </trkpt>
      <trkpt lat="41.932108" lon="-87.697602">
      </trkpt>
      <trkpt lat="41.940244" lon="-87.697848">
      </trkpt>
      <trkpt lat="41.940262" lon="-87.695246">
      </trkpt>
      <trkpt lat="41.940229" lon="-87.69448">
      </trkpt>
      <trkpt lat="41.940836" lon="-87.694671">
      </trkpt>
      <trkpt lat="41.940836" lon="-87.694671">
      </trkpt>
      <trkpt lat="41.940307" lon="-87.694511">
      </trkpt>
      <trkpt lat="41.940262" lon="-87.695246">
      </trkpt>
      <trkpt lat="41.939421" lon="-87.695268">
      </trkpt>
      <trkpt lat="41.939468" lon="-87.688003">
      </trkpt>
      <trkpt lat="41.932278" lon="-87.678134">
      </trkpt>
      <trkpt lat="41.932636" lon="-87.653863">
      </trkpt>
      <trkpt lat="41.931569" lon="-87.653827">
      </trkpt>
      <trkpt lat="41.931569" lon="-87.653827">
      </trkpt>
      <trkpt lat="41.932636" lon="-87.653863">
      </trkpt>
      <trkpt lat="41.932728" lon="-87.649013">
      </trkpt>
      <trkpt lat="41.939973" lon="-87.649275">
      </trkpt>
      <trkpt lat="41.940568" lon="-87.638088">
      </trkpt>
      <trkpt lat="41.951253" lon="-87.644496">
      </trkpt>
      <trkpt lat="41.954749" lon="-87.644596">
      </trkpt>
      <trkpt lat="41.973046" lon="-87.648738">
      </trkpt>
      <trkpt lat="41.981039" lon="-87.652251">
      </trkpt>
      <trkpt lat="41.984951" lon="-87.652803">
      </trkpt>
      <trkpt lat="41.985586" lon="-87.654178">
      </trkpt>
      <trkpt lat="41.985105" lon="-87.662456">
      </trkpt>
      <trkpt lat="41.987189" lon="-87.665884">
      </trkpt>
      <trkpt lat="41.987146" lon="-87.669585">
      </trkpt>
      <trkpt lat="41.988054" lon="-87.669707">
      </trkpt>
      <trkpt lat="41.987608" lon="-87.669796">
      </trkpt>
      <trkpt lat="41.987519" lon="-87.669769">
      </trkpt>
      <trkpt lat="41.987519" lon="-87.669769">
      </trkpt>
      <trkpt lat="41.985953" lon="-87.669343">
      </trkpt>
      <trkpt lat="41.985945" lon="-87.669821">
      </trkpt>
      <trkpt lat="41.989705" lon="-87.6699">
      </trkpt>
      <trkpt lat="41.990845" lon="-87.672385">
      </trkpt>
      <trkpt lat="41.989946" lon="-87.749135">
      </trkpt>
      <trkpt lat="41.991161" lon="-87.753543">
      </trkpt>
      <trkpt lat="41.99731" lon="-87.766713">
      </trkpt>
      <trkpt lat="41.997348" lon="-87.787876">
      </trkpt>
      <trkpt lat="41.996914" lon="-87.787492">
      </trkpt>
      <trkpt lat="41.964947" lon="-87.788044">
      </trkpt>
      <trkpt lat="41.962988" lon="-87.786909">
      </trkpt>
      <trkpt lat="41.960205" lon="-87.786816">
      </trkpt>
      <trkpt lat="41.960061" lon="-87.794287">
      </trkpt>
      <trkpt lat="41.946631" lon="-87.822074">
      </trkpt>
      <trkpt lat="41.937842" lon="-87.821404">
      </trkpt>
      <trkpt lat="41.937866" lon="-87.820185">
      </trkpt>
      <trkpt lat="41.936076" lon="-87.820102">
      </trkpt>
      <trkpt lat="41.936062" lon="-87.820727">
      </trkpt>
      <trkpt lat="41.934634" lon="-87.82067">
      </trkpt>
      <trkpt lat="41.934634" lon="-87.82067">
      </trkpt>
      <trkpt lat="41.93424" lon="-87.820654">
      </trkpt>
      <trkpt lat="41.934421" lon="-87.81151">
      </trkpt>
      <trkpt lat="41.924776" lon="-87.811185">
      </trkpt>
      <trkpt lat="41.923552" lon="-87.803157">
      </trkpt>
      <trkpt lat="41.92364" lon="-87.789403">
      </trkpt>
      <trkpt lat="41.924722" lon="-87.707229">
      </trkpt>
      <trkpt lat="41.9174" lon="-87.70705">
      </trkpt>
      <trkpt lat="41.917479" lon="-87.698748">
      </trkpt>
      <trkpt lat="41.917288" lon="-87.698742">
      </trkpt>
      <trkpt lat="41.917288" lon="-87.698742">
      </trkpt>
      <trkpt lat="41.917479" lon="-87.698748">
      </trkpt>
      <trkpt lat="41.917494" lon="-87.697194">
      </trkpt>
      <trkpt lat="41.899282" lon="-87.696795">
      </trkpt>
      <trkpt lat="41.89942" lon="-87.684486">
      </trkpt>
      <trkpt lat="41.89851" lon="-87.684464">
      </trkpt>
      <trkpt lat="41.898492" lon="-87.685574">
      </trkpt>
      <trkpt lat="41.898492" lon="-87.685574">
      </trkpt>
      <trkpt lat="41.89847" lon="-87.686903">
      </trkpt>
      <trkpt lat="41.899379" lon="-87.686926">
      </trkpt>
      <trkpt lat="41.899117" lon="-87.715822">
      </trkpt>
      <trkpt lat="41.899117" lon="-87.715822">
      </trkpt>
      <trkpt lat="41.899192" lon="-87.706677">
      </trkpt>
      <trkpt lat="41.902833" lon="-87.706787">
      </trkpt>
      <trkpt lat="41.903145" lon="-87.679708">
      </trkpt>
      <trkpt lat="41.903748" lon="-87.679724">
      </trkpt>
      <trkpt lat="41.903748" lon="-87.679724">
      </trkpt>
      <trkpt lat="41.904077" lon="-87.679734">
      </trkpt>
      <trkpt lat="41.904122" lon="-87.677302">
      </trkpt>
      <trkpt lat="41.91776" lon="-87.677621">
      </trkpt>
      <trkpt lat="41.91763" lon="-87.684968">
      </trkpt>
      <trkpt lat="41.920656" lon="-87.685062">
      </trkpt>
      <trkpt lat="41.920667" lon="-87.684471">
      </trkpt>
      <trkpt lat="41.920667" lon="-87.684471">
      </trkpt>
      <trkpt lat="41.920683" lon="-87.683659">
      </trkpt>
      <trkpt lat="41.921904" lon="-87.683684">
      </trkpt>
      <trkpt lat="41.921892" lon="-87.684684">
      </trkpt>
      <trkpt lat="41.922659" lon="-87.684702">
      </trkpt>
      <trkpt lat="41.922653" lon="-87.685139">
      </trkpt>
      <trkpt lat="41.924938" lon="-87.685228">
      </trkpt>
      <trkpt lat="41.924978" lon="-87.682301">
      </trkpt>
      <trkpt lat="41.926707" lon="-87.685177">
      </trkpt>
      <trkpt lat="41.940439" lon="-87.709664">
      </trkpt>
      <trkpt lat="41.942387" lon="-87.715161">
      </trkpt>
      <trkpt lat="41.947985" lon="-87.719618">
      </trkpt>
      <trkpt lat="41.960998" lon="-87.742619">
      </trkpt>
      <trkpt lat="41.965012" lon="-87.746732">
      </trkpt>
      <trkpt lat="41.975724" lon="-87.747426">
      </trkpt>
      <trkpt lat="41.980044" lon="-87.746614">
      </trkpt>
      <trkpt lat="41.987222" lon="-87.751348">
      </trkpt>
      <trkpt lat="41.989843" lon="-87.750485">
      </trkpt>
      <trkpt lat="41.989895" lon="-87.744669">
      </trkpt>
      <trkpt lat="41.991188" lon="-87.744389">
      </trkpt>
      <trkpt lat="41.990723" lon="-87.743344">
      </trkpt>
      <trkpt lat="41.993573" lon="-87.740932">
      </trkpt>
      <trkpt lat="41.993573" lon="-87.740932">
      </trkpt>
      <trkpt lat="41.994849" lon="-87.739854">
      </trkpt>
      <trkpt lat="41.997203" lon="-87.739841">
      </trkpt>
      <trkpt lat="41.997354" lon="-87.711691">
      </trkpt>
      <trkpt lat="42.019113" lon="-87.711292">
      </trkpt>
      <trkpt lat="42.019449" lon="-87.680446">
      </trkpt>
      <trkpt lat="42.021214" lon="-87.680444">
      </trkpt>
      <trkpt lat="42.021202" lon="-87.677991">
      </trkpt>
      <trkpt lat="42.0203" lon="-87.67799">
      </trkpt>
      <trkpt lat="42.0203" lon="-87.67799">
      </trkpt>
      <trkpt lat="42.019426" lon="-87.677995">
      </trkpt>
      <trkpt lat="42.01941" lon="-87.676332">
      </trkpt>
      <trkpt lat="42.017327" lon="-87.675457">
      </trkpt>
      <trkpt lat="42.011412" lon="-87.674444">
      </trkpt>
      <trkpt lat="42.011487" lon="-87.670155">
      </trkpt>
      <trkpt lat="42.011246" lon="-87.670148">
      </trkpt>
      <trkpt lat="42.011246" lon="-87.670148">
      </trkpt>
      <trkpt lat="42.009056" lon="-87.670076">
      </trkpt>
      <trkpt lat="42.008851" lon="-87.681698">
      </trkpt>
      <trkpt lat="42.00895" lon="-87.682247">
      </trkpt>
      <trkpt lat="42.00895" lon="-87.682247">
      </trkpt>
      <trkpt lat="42.008959" lon="-87.682033">
      </trkpt>
      <trkpt lat="42.008899" lon="-87.681855">
      </trkpt>
      <trkpt lat="42.007344" lon="-87.681159">
      </trkpt>
      <trkpt lat="42.007313" lon="-87.682735">
      </trkpt>
      <trkpt lat="42.007313" lon="-87.682735">
      </trkpt>
      <trkpt lat="42.007166" lon="-87.690121">
      </trkpt>
      <trkpt lat="41.997738" lon="-87.689893">
      </trkpt>
      <trkpt lat="41.997691" lon="-87.692332">
      </trkpt>
      <trkpt lat="41.996985" lon="-87.69231">
      </trkpt>
      <trkpt lat="41.996985" lon="-87.69231">
      </trkpt>
      <trkpt lat="41.994073" lon="-87.692218">
      </trkpt>
      <trkpt lat="41.994104" lon="-87.689782">
      </trkpt>
      <trkpt lat="41.955627" lon="-87.688512">
      </trkpt>
      <trkpt lat="41.939587" lon="-87.688146">
      </trkpt>
      <trkpt lat="41.932278" lon="-87.678134">
      </trkpt>
      <trkpt lat="41.894261" lon="-87.677009">
      </trkpt>
      <trkpt lat="41.894261" lon="-87.677009">
      </trkpt>
      <trkpt lat="41.895912" lon="-87.677057">
      </trkpt>
      <trkpt lat="41.89575" lon="-87.686835">
      </trkpt>
      <trkpt lat="41.903025" lon="-87.687018">
      </trkpt>
      <trkpt lat="41.902888" lon="-87.701605">
      </trkpt>
      <trkpt lat="41.902888" lon="-87.701605">
      </trkpt>
      <trkpt lat="41.902886" lon="-87.702278">
      </trkpt>
      <trkpt lat="41.910165" lon="-87.701875">
      </trkpt>
      <trkpt lat="41.911172" lon="-87.633071">
      </trkpt>
      <trkpt lat="41.913237" lon="-87.632269">
      </trkpt>
      <trkpt lat="41.912247" lon="-87.628505">
      </trkpt>
      <trkpt lat="41.913347" lon="-87.626017">
      </trkpt>
      <trkpt lat="41.927967" lon="-87.631735">
      </trkpt>
      <trkpt lat="41.934989" lon="-87.632402">
      </trkpt>
      <trkpt lat="41.941219" lon="-87.638833">
      </trkpt>
      <trkpt lat="41.950931" lon="-87.644376">
      </trkpt>
      <trkpt lat="41.973046" lon="-87.648738">
      </trkpt>
      <trkpt lat="41.984951" lon="-87.652803">
      </trkpt>
      <trkpt lat="41.985556" lon="-87.655253">
      </trkpt>
      <trkpt lat="41.987812" lon="-87.655324">
      </trkpt>
      <trkpt lat="41.987812" lon="-87.655324">
      </trkpt>
      <trkpt lat="41.985556" lon="-87.655253">
      </trkpt>
      <trkpt lat="41.984999" lon="-87.653157">
      </trkpt>
      <trkpt lat="41.981232" lon="-87.652706">
      </trkpt>
      <trkpt lat="41.972134" lon="-87.648822">
      </trkpt>
      <trkpt lat="41.955203" lon="-87.644905">
      </trkpt>
      <trkpt lat="41.951193" lon="-87.64469">
      </trkpt>
      <trkpt lat="41.942042" lon="-87.639566">
      </trkpt>
      <trkpt lat="41.940268" lon="-87.638796">
      </trkpt>
      <trkpt lat="41.940119" lon="-87.639537">
      </trkpt>
      <trkpt lat="41.932914" lon="-87.63931">
      </trkpt>
      <trkpt lat="41.932636" lon="-87.653863">
      </trkpt>
      <trkpt lat="41.931569" lon="-87.653827">
      </trkpt>
      <trkpt lat="41.931569" lon="-87.653827">
      </trkpt>
      <trkpt lat="41.932636" lon="-87.653863">
      </trkpt>
      <trkpt lat="41.932807" lon="-87.644906">
      </trkpt>
      <trkpt lat="41.931849" lon="-87.644577">
      </trkpt>
      <trkpt lat="41.93012" lon="-87.643564">
      </trkpt>
      <trkpt lat="41.92963" lon="-87.642875">
      </trkpt>
      <trkpt lat="41.927956" lon="-87.641881">
      </trkpt>
      <trkpt lat="41.927956" lon="-87.641881">
      </trkpt>
      <trkpt lat="41.92558" lon="-87.640463">
      </trkpt>
      <trkpt lat="41.925527" lon="-87.643933">
      </trkpt>
      <trkpt lat="41.903716" lon="-87.643216">
      </trkpt>
      <trkpt lat="41.903578" lon="-87.652552">
      </trkpt>
      <trkpt lat="41.906934" lon="-87.655438">
      </trkpt>
      <trkpt lat="41.907169" lon="-87.655446">
      </trkpt>
      <trkpt lat="41.907157" lon="-87.655968">
      </trkpt>
      <trkpt lat="41.907157" lon="-87.655968">
      </trkpt>
      <trkpt lat="41.907144" lon="-87.656617">
      </trkpt>
      <trkpt lat="41.904795" lon="-87.656534">
      </trkpt>
      <trkpt lat="41.903534" lon="-87.655448">
      </trkpt>
      <trkpt lat="41.903349" lon="-87.667572">
      </trkpt>
      <trkpt lat="41.899711" lon="-87.667457">
      </trkpt>
      <trkpt lat="41.899117" lon="-87.715822">
      </trkpt>
      <trkpt lat="41.899117" lon="-87.715822">
      </trkpt>
      <trkpt lat="41.899238" lon="-87.702461">
      </trkpt>
      <trkpt lat="41.903831" lon="-87.702158">
      </trkpt>
      <trkpt lat="41.907241" lon="-87.70125">
      </trkpt>
      <trkpt lat="41.910165" lon="-87.701875">
      </trkpt>
      <trkpt lat="41.910324" lon="-87.687207">
      </trkpt>
      <trkpt lat="41.924902" lon="-87.687645">
      </trkpt>
      <trkpt lat="41.925491" lon="-87.646336">
      </trkpt>
      <trkpt lat="41.926694" lon="-87.64637">
      </trkpt>
      <trkpt lat="41.926767" lon="-87.642153">
      </trkpt>
      <trkpt lat="41.927017" lon="-87.641326">
      </trkpt>
      <trkpt lat="41.927956" lon="-87.641881">
      </trkpt>
      <trkpt lat="41.927956" lon="-87.641881">
      </trkpt>
      <trkpt lat="41.92558" lon="-87.640463">
      </trkpt>
      <trkpt lat="41.925527" lon="-87.643933">
      </trkpt>
      <trkpt lat="41.911054" lon="-87.643446">
      </trkpt>
      <trkpt lat="41.910903" lon="-87.649501">
      </trkpt>
      <trkpt lat="41.911812" lon="-87.650775">
      </trkpt>
      <trkpt lat="41.911782" lon="-87.652094">
      </trkpt>
      <trkpt lat="41.911782" lon="-87.652094">
      </trkpt>
      <trkpt lat="41.911758" lon="-87.65315">
      </trkpt>
      <trkpt lat="41.910848" lon="-87.653121">
      </trkpt>
      <trkpt lat="41.910715" lon="-87.66216">
      </trkpt>
      <trkpt lat="41.908679" lon="-87.660908">
      </trkpt>
      <trkpt lat="41.908679" lon="-87.660908">
      </trkpt>
      <trkpt lat="41.918251" lon="-87.667757">
      </trkpt>
      <trkpt lat="41.923391" lon="-87.675053">
      </trkpt>
      <trkpt lat="41.925628" lon="-87.675559">
      </trkpt>
      <trkpt lat="41.925839" lon="-87.677923">
      </trkpt>
      <trkpt lat="41.932278" lon="-87.678134">
      </trkpt>
      <trkpt lat="41.932257" lon="-87.680713">
      </trkpt>
      <trkpt lat="41.932073" lon="-87.680658">
      </trkpt>
      <trkpt lat="41.932073" lon="-87.680658">
      </trkpt>
      <trkpt lat="41.932257" lon="-87.680713">
      </trkpt>
      <trkpt lat="41.932222" lon="-87.683979">
      </trkpt>
      <trkpt lat="41.931491" lon="-87.684147">
      </trkpt>
      <trkpt lat="41.928591" lon="-87.687862">
      </trkpt>
      <trkpt lat="41.910324" lon="-87.687207">
      </trkpt>
      <trkpt lat="41.910165" lon="-87.701875">
      </trkpt>
      <trkpt lat="41.907241" lon="-87.70125">
      </trkpt>
      <trkpt lat="41.902886" lon="-87.702278">
      </trkpt>
      <trkpt lat="41.902886" lon="-87.701828">
      </trkpt>
      <trkpt lat="41.90106" lon="-87.701786">
      </trkpt>
      <trkpt lat="41.901064" lon="-87.701311">
      </trkpt>
      <trkpt lat="41.901064" lon="-87.701311">
      </trkpt>
      <trkpt lat="41.901072" lon="-87.700519">
      </trkpt>
      <trkpt lat="41.902897" lon="-87.700566">
      </trkpt>
      <trkpt lat="41.903025" lon="-87.687018">
      </trkpt>
      <trkpt lat="41.924902" lon="-87.687645">
      </trkpt>
      <trkpt lat="41.924978" lon="-87.682301">
      </trkpt>
      <trkpt lat="41.926707" lon="-87.685177">
      </trkpt>
      <trkpt lat="41.940439" lon="-87.709664">
      </trkpt>
      <trkpt lat="41.942387" lon="-87.715161">
      </trkpt>
      <trkpt lat="41.947985" lon="-87.719618">
      </trkpt>
      <trkpt lat="41.960998" lon="-87.742619">
      </trkpt>
      <trkpt lat="41.966033" lon="-87.752403">
      </trkpt>
      <trkpt lat="41.967937" lon="-87.75503">
      </trkpt>
      <trkpt lat="41.967938" lon="-87.757623">
      </trkpt>
      <trkpt lat="41.968431" lon="-87.758399">
      </trkpt>
      <trkpt lat="41.968431" lon="-87.758399">
      </trkpt>
      <trkpt lat="41.967875" lon="-87.757622">
      </trkpt>
      <trkpt lat="41.968033" lon="-87.747723">
      </trkpt>
      <trkpt lat="41.972896" lon="-87.747918">
      </trkpt>
      <trkpt lat="41.972794" lon="-87.747761">
      </trkpt>
      <trkpt lat="41.966563" lon="-87.747223">
      </trkpt>
      <trkpt lat="41.963113" lon="-87.745961">
      </trkpt>
      <trkpt lat="41.960129" lon="-87.742125">
      </trkpt>
      <trkpt lat="41.947613" lon="-87.719592">
      </trkpt>
      <trkpt lat="41.94215" lon="-87.715306">
      </trkpt>
      <trkpt lat="41.940524" lon="-87.710219">
      </trkpt>
      <trkpt lat="41.933659" lon="-87.698173">
      </trkpt>
      <trkpt lat="41.927358" lon="-87.687291">
      </trkpt>
      <trkpt lat="41.925223" lon="-87.684125">
      </trkpt>
      <trkpt lat="41.924902" lon="-87.687645">
      </trkpt>
      <trkpt lat="41.917587" lon="-87.687413">
      </trkpt>
      <trkpt lat="41.91745" lon="-87.702101">
      </trkpt>
      <trkpt lat="41.915629" lon="-87.702035">
      </trkpt>
      <trkpt lat="41.915612" lon="-87.703717">
      </trkpt>
      <trkpt lat="41.915612" lon="-87.703717">
      </trkpt>
      <trkpt lat="41.915629" lon="-87.702035">
      </trkpt>
      <trkpt lat="41.909737" lon="-87.701859">
      </trkpt>
      <trkpt lat="41.907558" lon="-87.701241">
      </trkpt>
      <trkpt lat="41.902886" lon="-87.702278">
      </trkpt>
      <trkpt lat="41.903268" lon="-87.67239">
      </trkpt>
      <trkpt lat="41.903498" lon="-87.672395">
      </trkpt>
      <trkpt lat="41.903498" lon="-87.672395">
      </trkpt>
      <trkpt lat="41.899627" lon="-87.672284">
      </trkpt>
      <trkpt lat="41.899544" lon="-87.677161">
      </trkpt>
      <trkpt lat="41.894261" lon="-87.677009">
      </trkpt>
      <trkpt lat="41.894261" lon="-87.677009">
      </trkpt>
      <trkpt lat="41.895912" lon="-87.677057">
      </trkpt>
      <trkpt lat="41.89575" lon="-87.686835">
      </trkpt>
      <trkpt lat="41.910324" lon="-87.687207">
      </trkpt>
      <trkpt lat="41.910165" lon="-87.701875">
      </trkpt>
      <trkpt lat="41.915629" lon="-87.702035">
      </trkpt>
      <trkpt lat="41.915612" lon="-87.703717">
      </trkpt>
      <trkpt lat="41.915612" lon="-87.703717">
      </trkpt>
      <trkpt lat="41.915629" lon="-87.702035">
      </trkpt>
      <trkpt lat="41.909737" lon="-87.701859">
      </trkpt>
      <trkpt lat="41.907558" lon="-87.701241">
      </trkpt>
      <trkpt lat="41.902777" lon="-87.702311">
      </trkpt>
      <trkpt lat="41.896575" lon="-87.702222">
      </trkpt>
      <trkpt lat="41.895625" lon="-87.699899">
      </trkpt>
      <trkpt lat="41.895912" lon="-87.677057">
      </trkpt>
      <trkpt lat="41.894261" lon="-87.677009">
      </trkpt>
      <trkpt lat="41.894261" lon="-87.677009">
      </trkpt>
      <trkpt lat="41.895912" lon="-87.677057">
      </trkpt>
      <trkpt lat="41.896071" lon="-87.667222">
      </trkpt>
      <trkpt lat="41.899713" lon="-87.667339">
      </trkpt>
      <trkpt lat="41.899842" lon="-87.660982">
      </trkpt>
      <trkpt lat="41.899711" lon="-87.660843">
      </trkpt>
      <trkpt lat="41.896667" lon="-87.658834">
      </trkpt>
      <trkpt lat="41.895018" lon="-87.657114">
      </trkpt>
      <trkpt lat="41.89377" lon="-87.655657">
      </trkpt>
      <trkpt lat="41.89226" lon="-87.654831">
      </trkpt>
      <trkpt lat="41.891931" lon="-87.653963">
      </trkpt>
      <trkpt lat="41.892554" lon="-87.651034">
      </trkpt>
      <trkpt lat="41.892476" lon="-87.628093">
      </trkpt>
      <trkpt lat="41.893025" lon="-87.628109">
      </trkpt>
      <trkpt lat="41.893025" lon="-87.628109">
      </trkpt>
      <trkpt lat="41.891667" lon="-87.628071">
      </trkpt>
      <trkpt lat="41.891506" lon="-87.639878">
      </trkpt>
      <trkpt lat="41.891239" lon="-87.643004">
      </trkpt>
      <trkpt lat="41.891225" lon="-87.644384">
      </trkpt>
      <trkpt lat="41.884425" lon="-87.644184">
      </trkpt>
      <trkpt lat="41.884406" lon="-87.646033">
      </trkpt>
      <trkpt lat="41.884406" lon="-87.646033">
      </trkpt>
      <trkpt lat="41.884415" lon="-87.647438">
      </trkpt>
      <trkpt lat="41.881782" lon="-87.64736">
      </trkpt>
      <trkpt lat="41.881801" lon="-87.64573">
      </trkpt>
      <trkpt lat="41.885013" lon="-87.645685">
      </trkpt>
      <trkpt lat="41.886906" lon="-87.646327">
      </trkpt>
      <trkpt lat="41.88874" lon="-87.647638">
      </trkpt>
      <trkpt lat="41.890597" lon="-87.650048">
      </trkpt>
      <trkpt lat="41.891699" lon="-87.651108">
      </trkpt>
      <trkpt lat="41.892164" lon="-87.650896">
      </trkpt>
      <trkpt lat="41.89242" lon="-87.65026">
      </trkpt>
      <trkpt lat="41.892457" lon="-87.62966">
      </trkpt>
      <trkpt lat="41.894584" lon="-87.629727">
      </trkpt>
      <trkpt lat="41.894584" lon="-87.629727">
      </trkpt>
      <trkpt lat="41.896655" lon="-87.62978">
      </trkpt>
      <trkpt lat="41.896586" lon="-87.63421">
      </trkpt>
      <trkpt lat="41.898867" lon="-87.634293">
      </trkpt>
      <trkpt lat="41.898867" lon="-87.634293">
      </trkpt>
      <trkpt lat="41.90053" lon="-87.63435">
      </trkpt>
      <trkpt lat="41.9006" lon="-87.628335">
      </trkpt>
      <trkpt lat="41.900747" lon="-87.62834">
      </trkpt>
      <trkpt lat="41.900824" lon="-87.624042">
      </trkpt>
      <trkpt lat="41.902709" lon="-87.623664">
      </trkpt>
      <trkpt lat="41.912141" lon="-87.62589">
      </trkpt>
      <trkpt lat="41.918036" lon="-87.628743">
      </trkpt>
      <trkpt lat="41.928415" lon="-87.631851">
      </trkpt>
      <trkpt lat="41.934701" lon="-87.632273">
      </trkpt>
      <trkpt lat="41.941399" lon="-87.638962">
      </trkpt>
      <trkpt lat="41.950931" lon="-87.644376">
      </trkpt>
      <trkpt lat="41.952992" lon="-87.644572">
      </trkpt>
      <trkpt lat="41.954667" lon="-87.644162">
      </trkpt>
      <trkpt lat="41.954634" lon="-87.645235">
      </trkpt>
      <trkpt lat="41.952339" lon="-87.645043">
      </trkpt>
      <trkpt lat="41.951155" lon="-87.652017">
      </trkpt>
      <trkpt lat="41.950002" lon="-87.651976">
      </trkpt>
      <trkpt lat="41.950002" lon="-87.651976">
      </trkpt>
      <trkpt lat="41.949085" lon="-87.651956">
      </trkpt>
      <trkpt lat="41.949128" lon="-87.649549">
      </trkpt>
      <trkpt lat="41.91731" lon="-87.648495">
      </trkpt>
      <trkpt lat="41.91731" lon="-87.648495">
      </trkpt>
      <trkpt lat="41.885665" lon="-87.647482">
      </trkpt>
      <trkpt lat="41.885682" lon="-87.646258">
      </trkpt>
      <trkpt lat="41.857367" lon="-87.644363">
      </trkpt>
      <trkpt lat="41.851247" lon="-87.645245">
      </trkpt>
      <trkpt lat="41.847384" lon="-87.642429">
      </trkpt>
      <trkpt lat="41.845323" lon="-87.634652">
      </trkpt>
      <trkpt lat="41.842858" lon="-87.63164">
      </trkpt>
      <trkpt lat="41.834246" lon="-87.631163">
      </trkpt>
      <trkpt lat="41.830937" lon="-87.631513">
      </trkpt>
      <trkpt lat="41.831008" lon="-87.626457">
      </trkpt>
      <trkpt lat="41.83283" lon="-87.626475">
      </trkpt>
      <trkpt lat="41.832863" lon="-87.625023">
      </trkpt>
      <trkpt lat="41.832863" lon="-87.625023">
      </trkpt>
      <trkpt lat="41.83283" lon="-87.626475">
      </trkpt>
      <trkpt lat="41.852928" lon="-87.627095">
      </trkpt>
      <trkpt lat="41.852946" lon="-87.630071">
      </trkpt>
      <trkpt lat="41.867992" lon="-87.630401">
      </trkpt>
      <trkpt lat="41.867992" lon="-87.630401">
      </trkpt>
      <trkpt lat="41.874518" lon="-87.630686">
      </trkpt>
      <trkpt lat="41.874483" lon="-87.633036">
      </trkpt>
      <trkpt lat="41.875667" lon="-87.633082">
      </trkpt>
      <trkpt lat="41.875632" lon="-87.64257">
      </trkpt>
      <trkpt lat="41.875843" lon="-87.644538">
      </trkpt>
      <trkpt lat="41.87654" lon="-87.645372">
      </trkpt>
      <trkpt lat="41.877665" lon="-87.645711">
      </trkpt>
      <trkpt lat="41.885931" lon="-87.64591">
      </trkpt>
      <trkpt lat="41.888483" lon="-87.647404">
      </trkpt>
      <trkpt lat="41.890597" lon="-87.650048">
      </trkpt>
      <trkpt lat="41.891699" lon="-87.651108">
      </trkpt>
      <trkpt lat="41.892164" lon="-87.650896">
      </trkpt>
      <trkpt lat="41.89242" lon="-87.65026">
      </trkpt>
      <trkpt lat="41.892386" lon="-87.635611">
      </trkpt>
      <trkpt lat="41.891816" lon="-87.635594">
      </trkpt>
      <trkpt lat="41.891816" lon="-87.635594">
      </trkpt>
      <trkpt lat="41.890754" lon="-87.635571">
      </trkpt>
      <trkpt lat="41.890814" lon="-87.631109">
      </trkpt>
      <trkpt lat="41.885747" lon="-87.630986">
      </trkpt>
      <trkpt lat="41.885755" lon="-87.627936">
      </trkpt>
      <trkpt lat="41.885755" lon="-87.627936">
      </trkpt>
      <trkpt lat="41.882046" lon="-87.627799">
      </trkpt>
      <trkpt lat="41.881984" lon="-87.630875">
      </trkpt>
      <trkpt lat="41.875701" lon="-87.630715">
      </trkpt>
      <trkpt lat="41.875719" lon="-87.651339">
      </trkpt>
      <trkpt lat="41.876197" lon="-87.657603">
      </trkpt>
      <trkpt lat="41.875763" lon="-87.688313">
      </trkpt>
      <trkpt lat="41.875862" lon="-87.692409">
      </trkpt>
      <trkpt lat="41.875983" lon="-87.696151">
      </trkpt>
      <trkpt lat="41.861327" lon="-87.695753">
      </trkpt>
      <trkpt lat="41.857973" lon="-87.705425">
      </trkpt>
      <trkpt lat="41.851772" lon="-87.705261">
      </trkpt>
      <trkpt lat="41.851569" lon="-87.711325">
      </trkpt>
      <trkpt lat="41.849683" lon="-87.711271">
      </trkpt>
      <trkpt lat="41.849683" lon="-87.711271">
      </trkpt>
      <trkpt lat="41.837129" lon="-87.710916">
      </trkpt>
      <trkpt lat="41.837239" lon="-87.704823">
      </trkpt>
      <trkpt lat="41.829034" lon="-87.704642">
      </trkpt>
      <trkpt lat="41.830574" lon="-87.699332">
      </trkpt>
      <trkpt lat="41.836711" lon="-87.680385">
      </trkpt>
      <trkpt lat="41.83747" lon="-87.66766">
      </trkpt>
      <trkpt lat="41.844887" lon="-87.651867">
      </trkpt>
      <trkpt lat="41.846989" lon="-87.642887">
      </trkpt>
      <trkpt lat="41.847976" lon="-87.616851">
      </trkpt>
      <trkpt lat="41.848153" lon="-87.613392">
      </trkpt>
      <trkpt lat="41.84938" lon="-87.612168">
      </trkpt>
      <trkpt lat="41.8661" lon="-87.619244">
      </trkpt>
      <trkpt lat="41.869799" lon="-87.617003">
      </trkpt>
      <trkpt lat="41.881825" lon="-87.617167">
      </trkpt>
      <trkpt lat="41.884762" lon="-87.613645">
      </trkpt>
      <trkpt lat="41.89273" lon="-87.614003">
      </trkpt>
      <trkpt lat="41.900921" lon="-87.619441">
      </trkpt>
      <trkpt lat="41.902893" lon="-87.624048">
      </trkpt>
      <trkpt lat="41.928213" lon="-87.631799">
      </trkpt>
      <trkpt lat="41.934701" lon="-87.632273">
      </trkpt>
      <trkpt lat="41.941219" lon="-87.638833">
      </trkpt>
      <trkpt lat="41.951253" lon="-87.644496">
      </trkpt>
      <trkpt lat="41.974381" lon="-87.649207">
      </trkpt>
      <trkpt lat="41.976812" lon="-87.649649">
      </trkpt>
      <trkpt lat="41.976029" lon="-87.679392">
      </trkpt>
      <trkpt lat="41.974696" lon="-87.679355">
      </trkpt>
      <trkpt lat="41.97474" lon="-87.676798">
      </trkpt>
    </trkseg>
  </trk>
</gpx>