<?xml version="1.0" encoding="UTF-8"?>
<gpx xmlns="http://www.topografix.com/GPX/1/1" xmlns:xsi="http://www.w3.org/2001/XMLSchema-instance" xsi:schemaLocation="http://www.topografix.com/GPX/1/1 http://www.topografix.com/GPX/1/1/gpx.xsd" version="1.1" creator="gpx.py -- https://github.com/tkrajina/gpxpy">
  <trk>
    <trkseg>
      <trkpt lat="42.016798" lon="-87.679061">
      </trkpt>
      <trkpt lat="42.019436" lon="-87.679035">
      </trkpt>
      <trkpt lat="42.01941" lon="-87.676332">
      </trkpt>
      <trkpt lat="42.026691" lon="-87.678089">
      </trkpt>
      <trkpt lat="42.039944" lon="-87.68054">
      </trkpt>
      <trkpt lat="42.043378" lon="-87.680541">
      </trkpt>
      <trkpt lat="42.043378" lon="-87.680541">
      </trkpt>
      <trkpt lat="42.040143" lon="-87.680565">
      </trkpt>
      <trkpt lat="42.039269" lon="-87.680405">
      </trkpt>
      <trkpt lat="42.039252" lon="-87.678825">
      </trkpt>
      <trkpt lat="42.038819" lon="-87.678821">
      </trkpt>
      <trkpt lat="42.038819" lon="-87.678821">
      </trkpt>
      <trkpt lat="42.039252" lon="-87.678825">
      </trkpt>
      <trkpt lat="42.039269" lon="-87.680405">
      </trkpt>
      <trkpt lat="42.041201" lon="-87.680569">
      </trkpt>
      <trkpt lat="42.041263" lon="-87.688374">
      </trkpt>
      <trkpt lat="42.048527" lon="-87.688792">
      </trkpt>
      <trkpt lat="42.051264" lon="-87.687935">
      </trkpt>
      <trkpt lat="42.064341" lon="-87.698762">
      </trkpt>
      <trkpt lat="42.064385" lon="-87.704473">
      </trkpt>
      <trkpt lat="42.064385" lon="-87.704473">
      </trkpt>
      <trkpt lat="42.064377" lon="-87.703442">
      </trkpt>
      <trkpt lat="42.056838" lon="-87.703498">
      </trkpt>
      <trkpt lat="42.05686" lon="-87.701982">
      </trkpt>
      <trkpt lat="42.055608" lon="-87.700381">
      </trkpt>
      <trkpt lat="42.055626" lon="-87.698857">
      </trkpt>
      <trkpt lat="42.038951" lon="-87.699196">
      </trkpt>
      <trkpt lat="42.038951" lon="-87.699196">
      </trkpt>
      <trkpt lat="42.04112" lon="-87.699142">
      </trkpt>
      <trkpt lat="42.040757" lon="-87.727855">
      </trkpt>
      <trkpt lat="42.040894" lon="-87.75648">
      </trkpt>
      <trkpt lat="42.02643" lon="-87.767061">
      </trkpt>
      <trkpt lat="42.026426" lon="-87.77066">
      </trkpt>
      <trkpt lat="42.02676" lon="-87.770507">
      </trkpt>
      <trkpt lat="42.0268" lon="-87.769481">
      </trkpt>
      <trkpt lat="42.027336" lon="-87.76943">
      </trkpt>
      <trkpt lat="42.027336" lon="-87.76963">
      </trkpt>
      <trkpt lat="42.027336" lon="-87.76963">
      </trkpt>
      <trkpt lat="42.027336" lon="-87.76943">
      </trkpt>
      <trkpt lat="42.0268" lon="-87.769481">
      </trkpt>
      <trkpt lat="42.026426" lon="-87.77066">
      </trkpt>
      <trkpt lat="42.02643" lon="-87.767061">
      </trkpt>
      <trkpt lat="42.023435" lon="-87.766996">
      </trkpt>
      <trkpt lat="42.021881" lon="-87.765704">
      </trkpt>
      <trkpt lat="42.019212" lon="-87.761657">
      </trkpt>
      <trkpt lat="42.019116" lon="-87.759649">
      </trkpt>
      <trkpt lat="42.01182" lon="-87.761694">
      </trkpt>
      <trkpt lat="42.011779" lon="-87.752799">
      </trkpt>
      <trkpt lat="42.009738" lon="-87.749645">
      </trkpt>
      <trkpt lat="42.007194" lon="-87.748838">
      </trkpt>
      <trkpt lat="42.001046" lon="-87.748976">
      </trkpt>
      <trkpt lat="41.995176" lon="-87.750842">
      </trkpt>
      <trkpt lat="41.987219" lon="-87.751521">
      </trkpt>
      <trkpt lat="41.98526" lon="-87.750815">
      </trkpt>
      <trkpt lat="41.980228" lon="-87.746835">
      </trkpt>
      <trkpt lat="41.975817" lon="-87.7476">
      </trkpt>
      <trkpt lat="41.967806" lon="-87.747228">
      </trkpt>
      <trkpt lat="41.964382" lon="-87.747295">
      </trkpt>
      <trkpt lat="41.96438" lon="-87.747627">
      </trkpt>
      <trkpt lat="41.962872" lon="-87.747013">
      </trkpt>
      <trkpt lat="41.962173" lon="-87.747605">
      </trkpt>
      <trkpt lat="41.947676" lon="-87.747132">
      </trkpt>
      <trkpt lat="41.947676" lon="-87.747132">
      </trkpt>
      <trkpt lat="41.953418" lon="-87.747303">
      </trkpt>
      <trkpt lat="41.954667" lon="-87.644162">
      </trkpt>
      <trkpt lat="41.958305" lon="-87.645792">
      </trkpt>
      <trkpt lat="41.967723" lon="-87.647541">
      </trkpt>
      <trkpt lat="41.969474" lon="-87.647273">
      </trkpt>
      <trkpt lat="41.969172" lon="-87.649644">
      </trkpt>
      <trkpt lat="41.970105" lon="-87.649907">
      </trkpt>
      <trkpt lat="41.970035" lon="-87.654418">
      </trkpt>
      <trkpt lat="41.970035" lon="-87.654418">
      </trkpt>
      <trkpt lat="41.970029" lon="-87.654855">
      </trkpt>
      <trkpt lat="41.969091" lon="-87.654833">
      </trkpt>
      <trkpt lat="41.96907" lon="-87.656225">
      </trkpt>
      <trkpt lat="41.974712" lon="-87.656365">
      </trkpt>
      <trkpt lat="41.974712" lon="-87.656365">
      </trkpt>
      <trkpt lat="41.976381" lon="-87.656408">
      </trkpt>
      <trkpt lat="41.976324" lon="-87.659864">
      </trkpt>
      <trkpt lat="41.983631" lon="-87.660074">
      </trkpt>
      <trkpt lat="41.987189" lon="-87.665884">
      </trkpt>
      <trkpt lat="41.987146" lon="-87.669585">
      </trkpt>
      <trkpt lat="41.988054" lon="-87.669707">
      </trkpt>
      <trkpt lat="41.988049" lon="-87.66987">
      </trkpt>
      <trkpt lat="41.987608" lon="-87.669796">
      </trkpt>
      <trkpt lat="41.987519" lon="-87.669769">
      </trkpt>
      <trkpt lat="41.987519" lon="-87.669769">
      </trkpt>
      <trkpt lat="41.985953" lon="-87.669343">
      </trkpt>
      <trkpt lat="41.985945" lon="-87.669821">
      </trkpt>
      <trkpt lat="41.986207" lon="-87.669792">
      </trkpt>
      <trkpt lat="41.986767" lon="-87.669866">
      </trkpt>
      <trkpt lat="41.986688" lon="-87.674649">
      </trkpt>
      <trkpt lat="41.983365" lon="-87.674607">
      </trkpt>
      <trkpt lat="41.983257" lon="-87.679301">
      </trkpt>
      <trkpt lat="41.983198" lon="-87.679477">
      </trkpt>
      <trkpt lat="41.982043" lon="-87.679565">
      </trkpt>
      <trkpt lat="41.979533" lon="-87.684398">
      </trkpt>
      <trkpt lat="41.977792" lon="-87.684347">
      </trkpt>
      <trkpt lat="41.977786" lon="-87.684838">
      </trkpt>
      <trkpt lat="41.977786" lon="-87.684838">
      </trkpt>
      <trkpt lat="41.977775" lon="-87.685587">
      </trkpt>
      <trkpt lat="41.978985" lon="-87.685625">
      </trkpt>
      <trkpt lat="41.982043" lon="-87.679565">
      </trkpt>
      <trkpt lat="41.983198" lon="-87.679477">
      </trkpt>
      <trkpt lat="41.983611" lon="-87.661354">
      </trkpt>
      <trkpt lat="41.980907" lon="-87.661271">
      </trkpt>
      <trkpt lat="41.980907" lon="-87.661271">
      </trkpt>
      <trkpt lat="41.979959" lon="-87.661247">
      </trkpt>
      <trkpt lat="41.979979" lon="-87.659972">
      </trkpt>
      <trkpt lat="41.968862" lon="-87.659665">
      </trkpt>
      <trkpt lat="41.964503" lon="-87.656894">
      </trkpt>
      <trkpt lat="41.964503" lon="-87.656894">
      </trkpt>
      <trkpt lat="41.961156" lon="-87.654742">
      </trkpt>
      <trkpt lat="41.95112" lon="-87.654441">
      </trkpt>
      <trkpt lat="41.951016" lon="-87.661697">
      </trkpt>
      <trkpt lat="41.946185" lon="-87.661567">
      </trkpt>
      <trkpt lat="41.946207" lon="-87.660184">
      </trkpt>
      <trkpt lat="41.946207" lon="-87.660184">
      </trkpt>
      <trkpt lat="41.946223" lon="-87.659147">
      </trkpt>
      <trkpt lat="41.917264" lon="-87.658201">
      </trkpt>
      <trkpt lat="41.917067" lon="-87.663815">
      </trkpt>
      <trkpt lat="41.916129" lon="-87.66782">
      </trkpt>
      <trkpt lat="41.912452" lon="-87.667808">
      </trkpt>
      <trkpt lat="41.912442" lon="-87.668966">
      </trkpt>
      <trkpt lat="41.913123" lon="-87.668983">
      </trkpt>
      <trkpt lat="41.913123" lon="-87.668983">
      </trkpt>
      <trkpt lat="41.910614" lon="-87.668915">
      </trkpt>
      <trkpt lat="41.910165" lon="-87.701875">
      </trkpt>
      <trkpt lat="41.907241" lon="-87.70125">
      </trkpt>
      <trkpt lat="41.903831" lon="-87.702158">
      </trkpt>
      <trkpt lat="41.899238" lon="-87.702461">
      </trkpt>
      <trkpt lat="41.891131" lon="-87.701974">
      </trkpt>
      <trkpt lat="41.888916" lon="-87.701464">
      </trkpt>
      <trkpt lat="41.888934" lon="-87.700036">
      </trkpt>
      <trkpt lat="41.889373" lon="-87.698543">
      </trkpt>
      <trkpt lat="41.889373" lon="-87.698543">
      </trkpt>
      <trkpt lat="41.889326" lon="-87.699076">
      </trkpt>
      <trkpt lat="41.888934" lon="-87.700036">
      </trkpt>
      <trkpt lat="41.888916" lon="-87.701464">
      </trkpt>
      <trkpt lat="41.889772" lon="-87.701519">
      </trkpt>
      <trkpt lat="41.891131" lon="-87.701974">
      </trkpt>
      <trkpt lat="41.895594" lon="-87.702191">
      </trkpt>
      <trkpt lat="41.895837" lon="-87.681943">
      </trkpt>
      <trkpt lat="41.894023" lon="-87.681892">
      </trkpt>
      <trkpt lat="41.893977" lon="-87.684163">
      </trkpt>
      <trkpt lat="41.893977" lon="-87.684163">
      </trkpt>
      <trkpt lat="41.89393" lon="-87.686781">
      </trkpt>
      <trkpt lat="41.877547" lon="-87.686341">
      </trkpt>
      <trkpt lat="41.877461" lon="-87.693785">
      </trkpt>
      <trkpt lat="41.878371" lon="-87.693796">
      </trkpt>
      <trkpt lat="41.878346" lon="-87.696046">
      </trkpt>
      <trkpt lat="41.878346" lon="-87.696046">
      </trkpt>
      <trkpt lat="41.878344" lon="-87.696214">
      </trkpt>
      <trkpt lat="41.881077" lon="-87.696286">
      </trkpt>
      <trkpt lat="41.88126" lon="-87.678236">
      </trkpt>
      <trkpt lat="41.88126" lon="-87.678236">
      </trkpt>
      <trkpt lat="41.881323" lon="-87.676638">
      </trkpt>
      <trkpt lat="41.875016" lon="-87.676555">
      </trkpt>
      <trkpt lat="41.875021" lon="-87.676128">
      </trkpt>
      <trkpt lat="41.875431" lon="-87.673504">
      </trkpt>
      <trkpt lat="41.875604" lon="-87.6605">
      </trkpt>
      <trkpt lat="41.875318" lon="-87.651569">
      </trkpt>
      <trkpt lat="41.875571" lon="-87.627629">
      </trkpt>
      <trkpt lat="41.874392" lon="-87.627593">
      </trkpt>
      <trkpt lat="41.874402" lon="-87.626634">
      </trkpt>
      <trkpt lat="41.874067" lon="-87.626671">
      </trkpt>
      <trkpt lat="41.874067" lon="-87.626671">
      </trkpt>
      <trkpt lat="41.874402" lon="-87.626634">
      </trkpt>
      <trkpt lat="41.874392" lon="-87.627593">
      </trkpt>
      <trkpt lat="41.874559" lon="-87.6276">
      </trkpt>
      <trkpt lat="41.874543" lon="-87.629195">
      </trkpt>
      <trkpt lat="41.892457" lon="-87.62966">
      </trkpt>
      <trkpt lat="41.892476" lon="-87.628093">
      </trkpt>
      <trkpt lat="41.893025" lon="-87.628109">
      </trkpt>
      <trkpt lat="41.893025" lon="-87.628109">
      </trkpt>
      <trkpt lat="41.890871" lon="-87.628048">
      </trkpt>
      <trkpt lat="41.89093" lon="-87.624208">
      </trkpt>
      <trkpt lat="41.888229" lon="-87.624567">
      </trkpt>
      <trkpt lat="41.887462" lon="-87.615811">
      </trkpt>
      <trkpt lat="41.887175" lon="-87.614014">
      </trkpt>
      <trkpt lat="41.885118" lon="-87.61394">
      </trkpt>
      <trkpt lat="41.881821" lon="-87.617453">
      </trkpt>
      <trkpt lat="41.869765" lon="-87.617261">
      </trkpt>
      <trkpt lat="41.866068" lon="-87.619589">
      </trkpt>
      <trkpt lat="41.853242" lon="-87.614728">
      </trkpt>
      <trkpt lat="41.849799" lon="-87.613506">
      </trkpt>
      <trkpt lat="41.848506" lon="-87.614444">
      </trkpt>
      <trkpt lat="41.848101" lon="-87.623443">
      </trkpt>
      <trkpt lat="41.84732" lon="-87.626818">
      </trkpt>
      <trkpt lat="41.848155" lon="-87.630758">
      </trkpt>
      <trkpt lat="41.847855" lon="-87.631727">
      </trkpt>
      <trkpt lat="41.843118" lon="-87.631351">
      </trkpt>
      <trkpt lat="41.834246" lon="-87.631163">
      </trkpt>
      <trkpt lat="41.830937" lon="-87.631513">
      </trkpt>
      <trkpt lat="41.831008" lon="-87.626457">
      </trkpt>
      <trkpt lat="41.83283" lon="-87.626475">
      </trkpt>
      <trkpt lat="41.832863" lon="-87.625023">
      </trkpt>
      <trkpt lat="41.832863" lon="-87.625023">
      </trkpt>
      <trkpt lat="41.83283" lon="-87.626475">
      </trkpt>
      <trkpt lat="41.846791" lon="-87.626821">
      </trkpt>
      <trkpt lat="41.84692" lon="-87.626258">
      </trkpt>
      <trkpt lat="41.847976" lon="-87.616851">
      </trkpt>
      <trkpt lat="41.848153" lon="-87.613392">
      </trkpt>
      <trkpt lat="41.84938" lon="-87.612168">
      </trkpt>
      <trkpt lat="41.8661" lon="-87.619244">
      </trkpt>
      <trkpt lat="41.869799" lon="-87.617003">
      </trkpt>
      <trkpt lat="41.881825" lon="-87.617167">
      </trkpt>
      <trkpt lat="41.884762" lon="-87.613645">
      </trkpt>
      <trkpt lat="41.89273" lon="-87.614003">
      </trkpt>
      <trkpt lat="41.900921" lon="-87.619441">
      </trkpt>
      <trkpt lat="41.902893" lon="-87.624048">
      </trkpt>
      <trkpt lat="41.928415" lon="-87.631851">
      </trkpt>
      <trkpt lat="41.934381" lon="-87.632152">
      </trkpt>
      <trkpt lat="41.939073" lon="-87.63676">
      </trkpt>
      <trkpt lat="41.940568" lon="-87.638088">
      </trkpt>
      <trkpt lat="41.939973" lon="-87.649275">
      </trkpt>
      <trkpt lat="41.941802" lon="-87.649331">
      </trkpt>
      <trkpt lat="41.941839" lon="-87.646384">
      </trkpt>
    </trkseg>
  </trk>
</gpx>