<?xml version="1.0" encoding="UTF-8"?>
<gpx xmlns="http://www.topografix.com/GPX/1/1" xmlns:xsi="http://www.w3.org/2001/XMLSchema-instance" xsi:schemaLocation="http://www.topografix.com/GPX/1/1 http://www.topografix.com/GPX/1/1/gpx.xsd" version="1.1" creator="gpx.py -- https://github.com/tkrajina/gpxpy">
  <trk>
    <trkseg>
      <trkpt lat="41.922606" lon="-87.731192">
      </trkpt>
      <trkpt lat="41.92265" lon="-87.72708">
      </trkpt>
      <trkpt lat="41.921568" lon="-87.726704">
      </trkpt>
      <trkpt lat="41.906161" lon="-87.726413">
      </trkpt>
      <trkpt lat="41.900762" lon="-87.712809">
      </trkpt>
      <trkpt lat="41.900057" lon="-87.711889">
      </trkpt>
      <trkpt lat="41.900143" lon="-87.711243">
      </trkpt>
      <trkpt lat="41.899176" lon="-87.708783">
      </trkpt>
      <trkpt lat="41.899669" lon="-87.669849">
      </trkpt>
      <trkpt lat="41.900367" lon="-87.669869">
      </trkpt>
      <trkpt lat="41.900367" lon="-87.669869">
      </trkpt>
      <trkpt lat="41.90331" lon="-87.669955">
      </trkpt>
      <trkpt lat="41.903351" lon="-87.667439">
      </trkpt>
      <trkpt lat="41.910635" lon="-87.667641">
      </trkpt>
      <trkpt lat="41.910674" lon="-87.664445">
      </trkpt>
      <trkpt lat="41.915886" lon="-87.668091">
      </trkpt>
      <trkpt lat="41.918549" lon="-87.671196">
      </trkpt>
      <trkpt lat="41.937344" lon="-87.704001">
      </trkpt>
      <trkpt lat="41.943044" lon="-87.715981">
      </trkpt>
      <trkpt lat="41.94651" lon="-87.717815">
      </trkpt>
      <trkpt lat="41.946215" lon="-87.739921">
      </trkpt>
      <trkpt lat="41.946215" lon="-87.739921">
      </trkpt>
      <trkpt lat="41.94631" lon="-87.732228">
      </trkpt>
      <trkpt lat="41.955298" lon="-87.732533">
      </trkpt>
      <trkpt lat="41.960998" lon="-87.742619">
      </trkpt>
      <trkpt lat="41.965012" lon="-87.746732">
      </trkpt>
      <trkpt lat="41.980044" lon="-87.746614">
      </trkpt>
      <trkpt lat="41.987222" lon="-87.751348">
      </trkpt>
      <trkpt lat="42.001173" lon="-87.748745">
      </trkpt>
      <trkpt lat="42.009518" lon="-87.749189">
      </trkpt>
      <trkpt lat="42.014015" lon="-87.752849">
      </trkpt>
      <trkpt lat="42.021217" lon="-87.765343">
      </trkpt>
      <trkpt lat="42.025543" lon="-87.768358">
      </trkpt>
      <trkpt lat="42.033299" lon="-87.768407">
      </trkpt>
      <trkpt lat="42.038593" lon="-87.764702">
      </trkpt>
      <trkpt lat="42.040844" lon="-87.759717">
      </trkpt>
      <trkpt lat="42.041201" lon="-87.680569">
      </trkpt>
      <trkpt lat="42.039269" lon="-87.680405">
      </trkpt>
      <trkpt lat="42.039252" lon="-87.678825">
      </trkpt>
      <trkpt lat="42.038819" lon="-87.678821">
      </trkpt>
      <trkpt lat="42.038819" lon="-87.678821">
      </trkpt>
      <trkpt lat="42.037542" lon="-87.678628">
      </trkpt>
      <trkpt lat="42.037561" lon="-87.680093">
      </trkpt>
      <trkpt lat="42.026691" lon="-87.678089">
      </trkpt>
      <trkpt lat="42.01941" lon="-87.676332">
      </trkpt>
      <trkpt lat="42.017327" lon="-87.675457">
      </trkpt>
      <trkpt lat="42.011412" lon="-87.674444">
      </trkpt>
      <trkpt lat="42.011487" lon="-87.670155">
      </trkpt>
      <trkpt lat="42.011246" lon="-87.670148">
      </trkpt>
      <trkpt lat="42.011246" lon="-87.670148">
      </trkpt>
      <trkpt lat="42.011487" lon="-87.670155">
      </trkpt>
      <trkpt lat="42.011614" lon="-87.662865">
      </trkpt>
      <trkpt lat="41.998191" lon="-87.66054">
      </trkpt>
      <trkpt lat="41.985467" lon="-87.660132">
      </trkpt>
      <trkpt lat="41.984999" lon="-87.653157">
      </trkpt>
      <trkpt lat="41.972134" lon="-87.648822">
      </trkpt>
      <trkpt lat="41.951193" lon="-87.64469">
      </trkpt>
      <trkpt lat="41.941067" lon="-87.638957">
      </trkpt>
      <trkpt lat="41.93482" lon="-87.632527">
      </trkpt>
      <trkpt lat="41.928427" lon="-87.632048">
      </trkpt>
      <trkpt lat="41.915117" lon="-87.627538">
      </trkpt>
      <trkpt lat="41.913042" lon="-87.627206">
      </trkpt>
      <trkpt lat="41.913334" lon="-87.632438">
      </trkpt>
      <trkpt lat="41.911171" lon="-87.633223">
      </trkpt>
      <trkpt lat="41.910927" lon="-87.648286">
      </trkpt>
      <trkpt lat="41.891194" lon="-87.647627">
      </trkpt>
      <trkpt lat="41.891092" lon="-87.655792">
      </trkpt>
      <trkpt lat="41.890535" lon="-87.655778">
      </trkpt>
      <trkpt lat="41.890535" lon="-87.655778">
      </trkpt>
      <trkpt lat="41.890005" lon="-87.655763">
      </trkpt>
      <trkpt lat="41.889894" lon="-87.667177">
      </trkpt>
      <trkpt lat="41.886928" lon="-87.667087">
      </trkpt>
      <trkpt lat="41.886827" lon="-87.673532">
      </trkpt>
      <trkpt lat="41.886827" lon="-87.673532">
      </trkpt>
      <trkpt lat="41.886776" lon="-87.676791">
      </trkpt>
      <trkpt lat="41.875016" lon="-87.676555">
      </trkpt>
      <trkpt lat="41.875021" lon="-87.676128">
      </trkpt>
      <trkpt lat="41.875431" lon="-87.673504">
      </trkpt>
      <trkpt lat="41.875604" lon="-87.6605">
      </trkpt>
      <trkpt lat="41.875318" lon="-87.651569">
      </trkpt>
      <trkpt lat="41.875622" lon="-87.621098">
      </trkpt>
      <trkpt lat="41.875386" lon="-87.620605">
      </trkpt>
      <trkpt lat="41.867255" lon="-87.620428">
      </trkpt>
      <trkpt lat="41.865835" lon="-87.619968">
      </trkpt>
      <trkpt lat="41.864987" lon="-87.619558">
      </trkpt>
      <trkpt lat="41.865039" lon="-87.613948">
      </trkpt>
      <trkpt lat="41.866115" lon="-87.613754">
      </trkpt>
      <trkpt lat="41.866381" lon="-87.607427">
      </trkpt>
      <trkpt lat="41.866381" lon="-87.607427">
      </trkpt>
      <trkpt lat="41.866513" lon="-87.60743">
      </trkpt>
      <trkpt lat="41.866397" lon="-87.613892">
      </trkpt>
      <trkpt lat="41.866175" lon="-87.614212">
      </trkpt>
      <trkpt lat="41.86504" lon="-87.614089">
      </trkpt>
      <trkpt lat="41.864977" lon="-87.619403">
      </trkpt>
      <trkpt lat="41.867696" lon="-87.62045">
      </trkpt>
      <trkpt lat="41.878331" lon="-87.620697">
      </trkpt>
      <trkpt lat="41.878293" lon="-87.624208">
      </trkpt>
      <trkpt lat="41.879559" lon="-87.62429">
      </trkpt>
      <trkpt lat="41.879537" lon="-87.625641">
      </trkpt>
      <trkpt lat="41.879537" lon="-87.625641">
      </trkpt>
      <trkpt lat="41.879429" lon="-87.630805">
      </trkpt>
      <trkpt lat="41.875701" lon="-87.630715">
      </trkpt>
      <trkpt lat="41.875632" lon="-87.64257">
      </trkpt>
      <trkpt lat="41.877134" lon="-87.645648">
      </trkpt>
      <trkpt lat="41.887151" lon="-87.646457">
      </trkpt>
      <trkpt lat="41.891702" lon="-87.651689">
      </trkpt>
      <trkpt lat="41.896836" lon="-87.65868">
      </trkpt>
      <trkpt lat="41.906646" lon="-87.66137">
      </trkpt>
      <trkpt lat="41.917654" lon="-87.670146">
      </trkpt>
      <trkpt lat="41.940372" lon="-87.709927">
      </trkpt>
      <trkpt lat="41.94215" lon="-87.715306">
      </trkpt>
      <trkpt lat="41.947613" lon="-87.719592">
      </trkpt>
      <trkpt lat="41.95982" lon="-87.741635">
      </trkpt>
      <trkpt lat="41.963594" lon="-87.746287">
      </trkpt>
      <trkpt lat="41.980044" lon="-87.746614">
      </trkpt>
      <trkpt lat="41.985896" lon="-87.750967">
      </trkpt>
      <trkpt lat="41.99049" lon="-87.751131">
      </trkpt>
      <trkpt lat="41.991278" lon="-87.749995">
      </trkpt>
      <trkpt lat="41.990201" lon="-87.750346">
      </trkpt>
      <trkpt lat="41.991161" lon="-87.753543">
      </trkpt>
      <trkpt lat="42.004365" lon="-87.781781">
      </trkpt>
      <trkpt lat="42.012002" lon="-87.788728">
      </trkpt>
      <trkpt lat="42.011941" lon="-87.791526">
      </trkpt>
      <trkpt lat="42.011321" lon="-87.792814">
      </trkpt>
      <trkpt lat="42.007928" lon="-87.790686">
      </trkpt>
      <trkpt lat="42.007947" lon="-87.790597">
      </trkpt>
      <trkpt lat="42.007947" lon="-87.790597">
      </trkpt>
      <trkpt lat="42.007928" lon="-87.790686">
      </trkpt>
      <trkpt lat="42.011321" lon="-87.792814">
      </trkpt>
      <trkpt lat="42.011941" lon="-87.791526">
      </trkpt>
      <trkpt lat="42.012002" lon="-87.788728">
      </trkpt>
      <trkpt lat="42.004415" lon="-87.781867">
      </trkpt>
      <trkpt lat="41.991079" lon="-87.753476">
      </trkpt>
      <trkpt lat="41.980228" lon="-87.746835">
      </trkpt>
      <trkpt lat="41.963527" lon="-87.746855">
      </trkpt>
      <trkpt lat="41.957103" lon="-87.73715">
      </trkpt>
      <trkpt lat="41.954216" lon="-87.732489">
      </trkpt>
      <trkpt lat="41.953606" lon="-87.732464">
      </trkpt>
      <trkpt lat="41.950904" lon="-87.727522">
      </trkpt>
      <trkpt lat="41.92266" lon="-87.726455">
      </trkpt>
      <trkpt lat="41.92265" lon="-87.72708">
      </trkpt>
      <trkpt lat="41.906161" lon="-87.726413">
      </trkpt>
      <trkpt lat="41.904687" lon="-87.722705">
      </trkpt>
      <trkpt lat="41.900086" lon="-87.722562">
      </trkpt>
    </trkseg>
  </trk>
</gpx>