<?xml version="1.0" encoding="UTF-8"?>
<gpx xmlns="http://www.topografix.com/GPX/1/1" xmlns:xsi="http://www.w3.org/2001/XMLSchema-instance" xsi:schemaLocation="http://www.topografix.com/GPX/1/1 http://www.topografix.com/GPX/1/1/gpx.xsd" version="1.1" creator="gpx.py -- https://github.com/tkrajina/gpxpy">
  <trk>
    <trkseg>
      <trkpt lat="41.928972" lon="-87.65652">
      </trkpt>
      <trkpt lat="41.928939" lon="-87.658589">
      </trkpt>
      <trkpt lat="41.925291" lon="-87.658464">
      </trkpt>
      <trkpt lat="41.924981" lon="-87.681912">
      </trkpt>
      <trkpt lat="41.926707" lon="-87.685177">
      </trkpt>
      <trkpt lat="41.940439" lon="-87.709664">
      </trkpt>
      <trkpt lat="41.942208" lon="-87.714861">
      </trkpt>
      <trkpt lat="41.947985" lon="-87.719618">
      </trkpt>
      <trkpt lat="41.958569" lon="-87.738838">
      </trkpt>
      <trkpt lat="41.960451" lon="-87.741371">
      </trkpt>
      <trkpt lat="41.960845" lon="-87.74187">
      </trkpt>
      <trkpt lat="41.960081" lon="-87.794161">
      </trkpt>
      <trkpt lat="41.953879" lon="-87.807297">
      </trkpt>
      <trkpt lat="41.952116" lon="-87.807233">
      </trkpt>
      <trkpt lat="41.952116" lon="-87.807233">
      </trkpt>
      <trkpt lat="41.953879" lon="-87.807297">
      </trkpt>
      <trkpt lat="41.960061" lon="-87.794287">
      </trkpt>
      <trkpt lat="41.960724" lon="-87.747538">
      </trkpt>
      <trkpt lat="41.96438" lon="-87.747627">
      </trkpt>
      <trkpt lat="41.964394" lon="-87.745977">
      </trkpt>
      <trkpt lat="41.980044" lon="-87.746614">
      </trkpt>
      <trkpt lat="41.987222" lon="-87.751348">
      </trkpt>
      <trkpt lat="42.00867" lon="-87.748898">
      </trkpt>
      <trkpt lat="42.014015" lon="-87.752849">
      </trkpt>
      <trkpt lat="42.020691" lon="-87.764685">
      </trkpt>
      <trkpt lat="42.024765" lon="-87.768078">
      </trkpt>
      <trkpt lat="42.033299" lon="-87.768407">
      </trkpt>
      <trkpt lat="42.038593" lon="-87.764702">
      </trkpt>
      <trkpt lat="42.040844" lon="-87.759717">
      </trkpt>
      <trkpt lat="42.041268" lon="-87.690263">
      </trkpt>
      <trkpt lat="42.044647" lon="-87.690207">
      </trkpt>
      <trkpt lat="42.044647" lon="-87.690207">
      </trkpt>
      <trkpt lat="42.048544" lon="-87.690141">
      </trkpt>
      <trkpt lat="42.048527" lon="-87.688792">
      </trkpt>
      <trkpt lat="42.051264" lon="-87.687935">
      </trkpt>
      <trkpt lat="42.051825" lon="-87.688175">
      </trkpt>
      <trkpt lat="42.053534" lon="-87.689961">
      </trkpt>
      <trkpt lat="42.055254" lon="-87.691181">
      </trkpt>
      <trkpt lat="42.059727" lon="-87.694945">
      </trkpt>
      <trkpt lat="42.057894" lon="-87.698812">
      </trkpt>
      <trkpt lat="42.058195" lon="-87.698808">
      </trkpt>
      <trkpt lat="42.058195" lon="-87.698808">
      </trkpt>
      <trkpt lat="42.057894" lon="-87.698812">
      </trkpt>
      <trkpt lat="42.059727" lon="-87.694945">
      </trkpt>
      <trkpt lat="42.058289" lon="-87.69372">
      </trkpt>
      <trkpt lat="42.05837" lon="-87.693251">
      </trkpt>
      <trkpt lat="42.058418" lon="-87.686041">
      </trkpt>
      <trkpt lat="42.058479" lon="-87.685695">
      </trkpt>
      <trkpt lat="42.058405" lon="-87.679659">
      </trkpt>
      <trkpt lat="42.056254" lon="-87.679688">
      </trkpt>
      <trkpt lat="42.056237" lon="-87.678194">
      </trkpt>
      <trkpt lat="42.056237" lon="-87.678194">
      </trkpt>
      <trkpt lat="42.056225" lon="-87.677168">
      </trkpt>
      <trkpt lat="42.051106" lon="-87.677291">
      </trkpt>
      <trkpt lat="42.044546" lon="-87.680401">
      </trkpt>
      <trkpt lat="42.040143" lon="-87.680565">
      </trkpt>
      <trkpt lat="42.005964" lon="-87.673261">
      </trkpt>
      <trkpt lat="41.996873" lon="-87.67037">
      </trkpt>
      <trkpt lat="41.987608" lon="-87.669796">
      </trkpt>
      <trkpt lat="41.987519" lon="-87.669769">
      </trkpt>
      <trkpt lat="41.987519" lon="-87.669769">
      </trkpt>
      <trkpt lat="41.985433" lon="-87.669181">
      </trkpt>
      <trkpt lat="41.983497" lon="-87.668766">
      </trkpt>
      <trkpt lat="41.983611" lon="-87.661354">
      </trkpt>
      <trkpt lat="41.980907" lon="-87.661271">
      </trkpt>
      <trkpt lat="41.980907" lon="-87.661271">
      </trkpt>
      <trkpt lat="41.979959" lon="-87.661247">
      </trkpt>
      <trkpt lat="41.979979" lon="-87.659972">
      </trkpt>
      <trkpt lat="41.976324" lon="-87.659864">
      </trkpt>
      <trkpt lat="41.976453" lon="-87.651813">
      </trkpt>
      <trkpt lat="41.976077" lon="-87.650906">
      </trkpt>
      <trkpt lat="41.973006" lon="-87.649079">
      </trkpt>
      <trkpt lat="41.957427" lon="-87.645733">
      </trkpt>
      <trkpt lat="41.955777" lon="-87.645546">
      </trkpt>
      <trkpt lat="41.953061" lon="-87.644996">
      </trkpt>
      <trkpt lat="41.952749" lon="-87.649638">
      </trkpt>
      <trkpt lat="41.95119" lon="-87.64961">
      </trkpt>
      <trkpt lat="41.950114" lon="-87.64957">
      </trkpt>
      <trkpt lat="41.950097" lon="-87.650789">
      </trkpt>
      <trkpt lat="41.950097" lon="-87.650789">
      </trkpt>
      <trkpt lat="41.950079" lon="-87.651978">
      </trkpt>
      <trkpt lat="41.947284" lon="-87.651901">
      </trkpt>
      <trkpt lat="41.947045" lon="-87.66644">
      </trkpt>
      <trkpt lat="41.948859" lon="-87.666475">
      </trkpt>
      <trkpt lat="41.948845" lon="-87.667351">
      </trkpt>
      <trkpt lat="41.948845" lon="-87.667351">
      </trkpt>
      <trkpt lat="41.94884" lon="-87.667692">
      </trkpt>
      <trkpt lat="41.947026" lon="-87.667642">
      </trkpt>
      <trkpt lat="41.946686" lon="-87.698037">
      </trkpt>
      <trkpt lat="41.941887" lon="-87.697902">
      </trkpt>
      <trkpt lat="41.941872" lon="-87.700544">
      </trkpt>
      <trkpt lat="41.941084" lon="-87.701556">
      </trkpt>
      <trkpt lat="41.941061" lon="-87.704719">
      </trkpt>
      <trkpt lat="41.941061" lon="-87.704719">
      </trkpt>
      <trkpt lat="41.941057" lon="-87.705221">
      </trkpt>
      <trkpt lat="41.939366" lon="-87.705182">
      </trkpt>
      <trkpt lat="41.939142" lon="-87.723912">
      </trkpt>
      <trkpt lat="41.946271" lon="-87.735605">
      </trkpt>
      <trkpt lat="41.946215" lon="-87.739921">
      </trkpt>
      <trkpt lat="41.946215" lon="-87.739921">
      </trkpt>
      <trkpt lat="41.946223" lon="-87.739311">
      </trkpt>
      <trkpt lat="41.949504" lon="-87.740947">
      </trkpt>
      <trkpt lat="41.954581" lon="-87.749242">
      </trkpt>
      <trkpt lat="41.967869" lon="-87.760755">
      </trkpt>
      <trkpt lat="41.967596" lon="-87.761466">
      </trkpt>
      <trkpt lat="41.967822" lon="-87.765021">
      </trkpt>
      <trkpt lat="41.967665" lon="-87.77728">
      </trkpt>
      <trkpt lat="41.96853" lon="-87.778289">
      </trkpt>
      <trkpt lat="41.968458" lon="-87.784382">
      </trkpt>
      <trkpt lat="41.968977" lon="-87.784371">
      </trkpt>
      <trkpt lat="41.968977" lon="-87.784371">
      </trkpt>
      <trkpt lat="41.968458" lon="-87.784382">
      </trkpt>
      <trkpt lat="41.96853" lon="-87.778289">
      </trkpt>
      <trkpt lat="41.967665" lon="-87.77728">
      </trkpt>
      <trkpt lat="41.968033" lon="-87.747723">
      </trkpt>
      <trkpt lat="41.972896" lon="-87.747918">
      </trkpt>
      <trkpt lat="41.972794" lon="-87.747761">
      </trkpt>
      <trkpt lat="41.966563" lon="-87.747223">
      </trkpt>
      <trkpt lat="41.962358" lon="-87.745232">
      </trkpt>
      <trkpt lat="41.947613" lon="-87.719592">
      </trkpt>
      <trkpt lat="41.94215" lon="-87.715306">
      </trkpt>
      <trkpt lat="41.940372" lon="-87.709927">
      </trkpt>
      <trkpt lat="41.917654" lon="-87.670146">
      </trkpt>
      <trkpt lat="41.906646" lon="-87.66137">
      </trkpt>
      <trkpt lat="41.897685" lon="-87.659246">
      </trkpt>
      <trkpt lat="41.888343" lon="-87.647531">
      </trkpt>
      <trkpt lat="41.881827" lon="-87.645999">
      </trkpt>
      <trkpt lat="41.880956" lon="-87.646134">
      </trkpt>
      <trkpt lat="41.879569" lon="-87.646145">
      </trkpt>
      <trkpt lat="41.878121" lon="-87.646166">
      </trkpt>
      <trkpt lat="41.877218" lon="-87.646107">
      </trkpt>
      <trkpt lat="41.872433" lon="-87.645662">
      </trkpt>
      <trkpt lat="41.869682" lon="-87.645367">
      </trkpt>
      <trkpt lat="41.859935" lon="-87.644897">
      </trkpt>
      <trkpt lat="41.859831" lon="-87.652249">
      </trkpt>
      <trkpt lat="41.858323" lon="-87.6522">
      </trkpt>
    </trkseg>
  </trk>
</gpx>