<?xml version="1.0" encoding="UTF-8"?>
<gpx xmlns="http://www.topografix.com/GPX/1/1" xmlns:xsi="http://www.w3.org/2001/XMLSchema-instance" xsi:schemaLocation="http://www.topografix.com/GPX/1/1 http://www.topografix.com/GPX/1/1/gpx.xsd" version="1.1" creator="gpx.py -- https://github.com/tkrajina/gpxpy">
  <trk>
    <trkseg>
      <trkpt lat="41.934634" lon="-87.82067">
      </trkpt>
      <trkpt lat="41.93424" lon="-87.820654">
      </trkpt>
      <trkpt lat="41.934229" lon="-87.821275">
      </trkpt>
      <trkpt lat="41.937842" lon="-87.821404">
      </trkpt>
      <trkpt lat="41.938315" lon="-87.786046">
      </trkpt>
      <trkpt lat="41.945676" lon="-87.786299">
      </trkpt>
      <trkpt lat="41.946271" lon="-87.735605">
      </trkpt>
      <trkpt lat="41.947388" lon="-87.737418">
      </trkpt>
      <trkpt lat="41.948077" lon="-87.736646">
      </trkpt>
      <trkpt lat="41.948162" lon="-87.736648">
      </trkpt>
      <trkpt lat="41.948162" lon="-87.736648">
      </trkpt>
      <trkpt lat="41.949925" lon="-87.736694">
      </trkpt>
      <trkpt lat="41.949874" lon="-87.740528">
      </trkpt>
      <trkpt lat="41.949043" lon="-87.740099">
      </trkpt>
      <trkpt lat="41.954581" lon="-87.749242">
      </trkpt>
      <trkpt lat="41.964478" lon="-87.757803">
      </trkpt>
      <trkpt lat="41.964478" lon="-87.757803">
      </trkpt>
      <trkpt lat="41.954581" lon="-87.749242">
      </trkpt>
      <trkpt lat="41.953418" lon="-87.747303">
      </trkpt>
      <trkpt lat="41.931542" lon="-87.746595">
      </trkpt>
      <trkpt lat="41.931507" lon="-87.749065">
      </trkpt>
      <trkpt lat="41.932158" lon="-87.749089">
      </trkpt>
      <trkpt lat="41.932158" lon="-87.749089">
      </trkpt>
      <trkpt lat="41.933325" lon="-87.749132">
      </trkpt>
      <trkpt lat="41.933358" lon="-87.746665">
      </trkpt>
      <trkpt lat="41.953418" lon="-87.747303">
      </trkpt>
      <trkpt lat="41.95365" lon="-87.727612">
      </trkpt>
      <trkpt lat="41.968251" lon="-87.728031">
      </trkpt>
      <trkpt lat="41.968394" lon="-87.714891">
      </trkpt>
      <trkpt lat="41.968394" lon="-87.714891">
      </trkpt>
      <trkpt lat="41.968411" lon="-87.713373">
      </trkpt>
      <trkpt lat="41.98302" lon="-87.713749">
      </trkpt>
      <trkpt lat="41.983036" lon="-87.712522">
      </trkpt>
      <trkpt lat="41.981932" lon="-87.712493">
      </trkpt>
      <trkpt lat="41.981932" lon="-87.712493">
      </trkpt>
      <trkpt lat="41.979369" lon="-87.712428">
      </trkpt>
      <trkpt lat="41.979355" lon="-87.713651">
      </trkpt>
      <trkpt lat="41.942239" lon="-87.712582">
      </trkpt>
      <trkpt lat="41.942252" lon="-87.714433">
      </trkpt>
      <trkpt lat="41.942862" lon="-87.715459">
      </trkpt>
      <trkpt lat="41.942862" lon="-87.715459">
      </trkpt>
      <trkpt lat="41.942239" lon="-87.712582">
      </trkpt>
      <trkpt lat="41.940478" lon="-87.712526">
      </trkpt>
      <trkpt lat="41.939977" lon="-87.709442">
      </trkpt>
      <trkpt lat="41.917124" lon="-87.669746">
      </trkpt>
      <trkpt lat="41.909975" lon="-87.664752">
      </trkpt>
      <trkpt lat="41.906635" lon="-87.661559">
      </trkpt>
      <trkpt lat="41.900902" lon="-87.660921">
      </trkpt>
      <trkpt lat="41.896968" lon="-87.659049">
      </trkpt>
      <trkpt lat="41.895018" lon="-87.657114">
      </trkpt>
      <trkpt lat="41.891931" lon="-87.653963">
      </trkpt>
      <trkpt lat="41.892554" lon="-87.651034">
      </trkpt>
      <trkpt lat="41.892566" lon="-87.62271">
      </trkpt>
      <trkpt lat="41.894975" lon="-87.62278">
      </trkpt>
      <trkpt lat="41.894971" lon="-87.623046">
      </trkpt>
      <trkpt lat="41.894971" lon="-87.623046">
      </trkpt>
      <trkpt lat="41.894946" lon="-87.624357">
      </trkpt>
      <trkpt lat="41.893335" lon="-87.624316">
      </trkpt>
      <trkpt lat="41.893148" lon="-87.637063">
      </trkpt>
      <trkpt lat="41.892522" lon="-87.64596">
      </trkpt>
      <trkpt lat="41.892674" lon="-87.65028">
      </trkpt>
      <trkpt lat="41.892622" lon="-87.653268">
      </trkpt>
      <trkpt lat="41.896481" lon="-87.658404">
      </trkpt>
      <trkpt lat="41.901399" lon="-87.660896">
      </trkpt>
      <trkpt lat="41.906646" lon="-87.66137">
      </trkpt>
      <trkpt lat="41.917654" lon="-87.670146">
      </trkpt>
      <trkpt lat="41.940372" lon="-87.709927">
      </trkpt>
      <trkpt lat="41.94215" lon="-87.715306">
      </trkpt>
      <trkpt lat="41.947613" lon="-87.719592">
      </trkpt>
      <trkpt lat="41.95982" lon="-87.741635">
      </trkpt>
      <trkpt lat="41.963594" lon="-87.746287">
      </trkpt>
      <trkpt lat="41.975724" lon="-87.747426">
      </trkpt>
      <trkpt lat="41.976396" lon="-87.74607">
      </trkpt>
      <trkpt lat="41.975364" lon="-87.745776">
      </trkpt>
      <trkpt lat="41.975339" lon="-87.747984">
      </trkpt>
      <trkpt lat="41.947676" lon="-87.747132">
      </trkpt>
    </trkseg>
  </trk>
</gpx>