<?xml version="1.0" encoding="UTF-8"?>
<gpx xmlns="http://www.topografix.com/GPX/1/1" xmlns:xsi="http://www.w3.org/2001/XMLSchema-instance" xsi:schemaLocation="http://www.topografix.com/GPX/1/1 http://www.topografix.com/GPX/1/1/gpx.xsd" version="1.1" creator="gpx.py -- https://github.com/tkrajina/gpxpy">
  <trk>
    <trkseg>
      <trkpt lat="41.893376" lon="-87.621935">
      </trkpt>
      <trkpt lat="41.89336" lon="-87.622735">
      </trkpt>
      <trkpt lat="41.892566" lon="-87.62271">
      </trkpt>
      <trkpt lat="41.892588" lon="-87.620263">
      </trkpt>
      <trkpt lat="41.887855" lon="-87.620762">
      </trkpt>
      <trkpt lat="41.887462" lon="-87.615811">
      </trkpt>
      <trkpt lat="41.887175" lon="-87.614014">
      </trkpt>
      <trkpt lat="41.885118" lon="-87.61394">
      </trkpt>
      <trkpt lat="41.881821" lon="-87.617453">
      </trkpt>
      <trkpt lat="41.869765" lon="-87.617261">
      </trkpt>
      <trkpt lat="41.866068" lon="-87.619589">
      </trkpt>
      <trkpt lat="41.853242" lon="-87.614728">
      </trkpt>
      <trkpt lat="41.848506" lon="-87.614444">
      </trkpt>
      <trkpt lat="41.84732" lon="-87.626818">
      </trkpt>
      <trkpt lat="41.847855" lon="-87.631727">
      </trkpt>
      <trkpt lat="41.843118" lon="-87.631351">
      </trkpt>
      <trkpt lat="41.779686" lon="-87.631207">
      </trkpt>
      <trkpt lat="41.773009" lon="-87.626245">
      </trkpt>
      <trkpt lat="41.75723" lon="-87.625795">
      </trkpt>
      <trkpt lat="41.753851" lon="-87.625875">
      </trkpt>
      <trkpt lat="41.751395" lon="-87.625855">
      </trkpt>
      <trkpt lat="41.751085" lon="-87.625836">
      </trkpt>
      <trkpt lat="41.749591" lon="-87.721906">
      </trkpt>
      <trkpt lat="41.745789" lon="-87.721794">
      </trkpt>
      <trkpt lat="41.745776" lon="-87.722472">
      </trkpt>
      <trkpt lat="41.745056" lon="-87.722445">
      </trkpt>
      <trkpt lat="41.745036" lon="-87.723402">
      </trkpt>
      <trkpt lat="41.743835" lon="-87.723388">
      </trkpt>
      <trkpt lat="41.743835" lon="-87.723388">
      </trkpt>
      <trkpt lat="41.743697" lon="-87.723451">
      </trkpt>
      <trkpt lat="41.743609" lon="-87.723697">
      </trkpt>
      <trkpt lat="41.743544" lon="-87.726941">
      </trkpt>
      <trkpt lat="41.7435" lon="-87.727451">
      </trkpt>
      <trkpt lat="41.743208" lon="-87.728235">
      </trkpt>
      <trkpt lat="41.743071" lon="-87.728316">
      </trkpt>
      <trkpt lat="41.742802" lon="-87.728303">
      </trkpt>
      <trkpt lat="41.742782" lon="-87.729467">
      </trkpt>
      <trkpt lat="41.743118" lon="-87.729475">
      </trkpt>
      <trkpt lat="41.743373" lon="-87.729401">
      </trkpt>
      <trkpt lat="41.743553" lon="-87.729258">
      </trkpt>
      <trkpt lat="41.743669" lon="-87.729082">
      </trkpt>
      <trkpt lat="41.744021" lon="-87.728214">
      </trkpt>
      <trkpt lat="41.744021" lon="-87.728214">
      </trkpt>
      <trkpt lat="41.744021" lon="-87.728214">
      </trkpt>
      <trkpt lat="41.744021" lon="-87.728214">
      </trkpt>
      <trkpt lat="41.743553" lon="-87.729258">
      </trkpt>
      <trkpt lat="41.742782" lon="-87.729467">
      </trkpt>
      <trkpt lat="41.74264" lon="-87.731399">
      </trkpt>
      <trkpt lat="41.742022" lon="-87.731384">
      </trkpt>
      <trkpt lat="41.741943" lon="-87.741106">
      </trkpt>
      <trkpt lat="41.760146" lon="-87.741749">
      </trkpt>
      <trkpt lat="41.7596" lon="-87.774874">
      </trkpt>
      <trkpt lat="41.7596" lon="-87.774874">
      </trkpt>
      <trkpt lat="41.760146" lon="-87.741749">
      </trkpt>
      <trkpt lat="41.734532" lon="-87.741059">
      </trkpt>
      <trkpt lat="41.734787" lon="-87.722513">
      </trkpt>
      <trkpt lat="41.735572" lon="-87.721525">
      </trkpt>
      <trkpt lat="41.734927" lon="-87.721519">
      </trkpt>
      <trkpt lat="41.734901" lon="-87.722662">
      </trkpt>
      <trkpt lat="41.735202" lon="-87.722666">
      </trkpt>
      <trkpt lat="41.735202" lon="-87.722666">
      </trkpt>
      <trkpt lat="41.734901" lon="-87.722662">
      </trkpt>
      <trkpt lat="41.734876" lon="-87.72387">
      </trkpt>
      <trkpt lat="41.734759" lon="-87.723868">
      </trkpt>
      <trkpt lat="41.734778" lon="-87.722963">
      </trkpt>
      <trkpt lat="41.734696" lon="-87.72285">
      </trkpt>
      <trkpt lat="41.734524" lon="-87.722845">
      </trkpt>
      <trkpt lat="41.72845" lon="-87.730558">
      </trkpt>
      <trkpt lat="41.728379" lon="-87.730449">
      </trkpt>
      <trkpt lat="41.728379" lon="-87.730449">
      </trkpt>
      <trkpt lat="41.72845" lon="-87.730558">
      </trkpt>
      <trkpt lat="41.727556" lon="-87.731696">
      </trkpt>
      <trkpt lat="41.72599" lon="-87.734334">
      </trkpt>
      <trkpt lat="41.723865" lon="-87.739719">
      </trkpt>
      <trkpt lat="41.723385" lon="-87.760431">
      </trkpt>
      <trkpt lat="41.733282" lon="-87.760749">
      </trkpt>
      <trkpt lat="41.735037" lon="-87.760246">
      </trkpt>
      <trkpt lat="41.741513" lon="-87.760453">
      </trkpt>
      <trkpt lat="41.741522" lon="-87.759269">
      </trkpt>
      <trkpt lat="41.742327" lon="-87.759294">
      </trkpt>
      <trkpt lat="41.742327" lon="-87.759294">
      </trkpt>
      <trkpt lat="41.741522" lon="-87.759269">
      </trkpt>
      <trkpt lat="41.741513" lon="-87.760453">
      </trkpt>
      <trkpt lat="41.746757" lon="-87.760738">
      </trkpt>
      <trkpt lat="41.759567" lon="-87.741717">
      </trkpt>
      <trkpt lat="41.757319" lon="-87.741617">
      </trkpt>
      <trkpt lat="41.757379" lon="-87.740943">
      </trkpt>
      <trkpt lat="41.75766" lon="-87.740212">
      </trkpt>
      <trkpt lat="41.75704" lon="-87.739954">
      </trkpt>
      <trkpt lat="41.757029" lon="-87.738326">
      </trkpt>
      <trkpt lat="41.756677" lon="-87.738128">
      </trkpt>
      <trkpt lat="41.756718" lon="-87.735056">
      </trkpt>
      <trkpt lat="41.756718" lon="-87.735056">
      </trkpt>
      <trkpt lat="41.75676" lon="-87.732452">
      </trkpt>
      <trkpt lat="41.753163" lon="-87.732278">
      </trkpt>
      <trkpt lat="41.753085" lon="-87.722022">
      </trkpt>
      <trkpt lat="41.734801" lon="-87.721521">
      </trkpt>
      <trkpt lat="41.736579" lon="-87.60968">
      </trkpt>
      <trkpt lat="41.738409" lon="-87.609728">
      </trkpt>
      <trkpt lat="41.738394" lon="-87.610806">
      </trkpt>
      <trkpt lat="41.738394" lon="-87.610806">
      </trkpt>
      <trkpt lat="41.738386" lon="-87.611344">
      </trkpt>
      <trkpt lat="41.736554" lon="-87.611293">
      </trkpt>
      <trkpt lat="41.736649" lon="-87.604812">
      </trkpt>
      <trkpt lat="41.751285" lon="-87.605205">
      </trkpt>
      <trkpt lat="41.751319" lon="-87.601545">
      </trkpt>
      <trkpt lat="41.75156" lon="-87.601552">
      </trkpt>
      <trkpt lat="41.75156" lon="-87.601552">
      </trkpt>
      <trkpt lat="41.753149" lon="-87.601598">
      </trkpt>
      <trkpt lat="41.753162" lon="-87.60038">
      </trkpt>
      <trkpt lat="41.751332" lon="-87.600328">
      </trkpt>
      <trkpt lat="41.751106" lon="-87.624566">
      </trkpt>
      <trkpt lat="41.751463" lon="-87.624584">
      </trkpt>
      <trkpt lat="41.754305" lon="-87.624864">
      </trkpt>
      <trkpt lat="41.769497" lon="-87.625651">
      </trkpt>
      <trkpt lat="41.77431" lon="-87.626008">
      </trkpt>
      <trkpt lat="41.777522" lon="-87.629581">
      </trkpt>
      <trkpt lat="41.779138" lon="-87.630456">
      </trkpt>
      <trkpt lat="41.789529" lon="-87.630633">
      </trkpt>
      <trkpt lat="41.794556" lon="-87.630508">
      </trkpt>
      <trkpt lat="41.793532" lon="-87.703567">
      </trkpt>
      <trkpt lat="41.795359" lon="-87.70362">
      </trkpt>
      <trkpt lat="41.795318" lon="-87.70606">
      </trkpt>
      <trkpt lat="41.793994" lon="-87.706021">
      </trkpt>
      <trkpt lat="41.793994" lon="-87.706021">
      </trkpt>
      <trkpt lat="41.793489" lon="-87.706006">
      </trkpt>
      <trkpt lat="41.793706" lon="-87.693791">
      </trkpt>
      <trkpt lat="41.821912" lon="-87.694608">
      </trkpt>
      <trkpt lat="41.82188" lon="-87.695862">
      </trkpt>
      <trkpt lat="41.82188" lon="-87.695862">
      </trkpt>
      <trkpt lat="41.821849" lon="-87.697099">
      </trkpt>
      <trkpt lat="41.82274" lon="-87.69709">
      </trkpt>
      <trkpt lat="41.822599" lon="-87.704423">
      </trkpt>
      <trkpt lat="41.828464" lon="-87.704501">
      </trkpt>
      <trkpt lat="41.830574" lon="-87.699332">
      </trkpt>
      <trkpt lat="41.836711" lon="-87.680385">
      </trkpt>
      <trkpt lat="41.83747" lon="-87.66766">
      </trkpt>
      <trkpt lat="41.844887" lon="-87.651867">
      </trkpt>
      <trkpt lat="41.846989" lon="-87.642887">
      </trkpt>
      <trkpt lat="41.84739" lon="-87.632344">
      </trkpt>
      <trkpt lat="41.846918" lon="-87.628234">
      </trkpt>
      <trkpt lat="41.847827" lon="-87.623841">
      </trkpt>
      <trkpt lat="41.847976" lon="-87.616851">
      </trkpt>
      <trkpt lat="41.848193" lon="-87.613276">
      </trkpt>
      <trkpt lat="41.849732" lon="-87.612177">
      </trkpt>
      <trkpt lat="41.863523" lon="-87.618709">
      </trkpt>
      <trkpt lat="41.867696" lon="-87.62045">
      </trkpt>
      <trkpt lat="41.884517" lon="-87.620609">
      </trkpt>
      <trkpt lat="41.884495" lon="-87.625365">
      </trkpt>
      <trkpt lat="41.884122" lon="-87.625362">
      </trkpt>
      <trkpt lat="41.884122" lon="-87.625362">
      </trkpt>
      <trkpt lat="41.883254" lon="-87.625352">
      </trkpt>
      <trkpt lat="41.883256" lon="-87.624532">
      </trkpt>
      <trkpt lat="41.880835" lon="-87.624471">
      </trkpt>
      <trkpt lat="41.88092" lon="-87.617506">
      </trkpt>
      <trkpt lat="41.869765" lon="-87.617261">
      </trkpt>
      <trkpt lat="41.866068" lon="-87.619589">
      </trkpt>
      <trkpt lat="41.853242" lon="-87.614728">
      </trkpt>
      <trkpt lat="41.848506" lon="-87.614444">
      </trkpt>
      <trkpt lat="41.84732" lon="-87.626818">
      </trkpt>
      <trkpt lat="41.847855" lon="-87.631727">
      </trkpt>
      <trkpt lat="41.843118" lon="-87.631351">
      </trkpt>
      <trkpt lat="41.79178" lon="-87.631289">
      </trkpt>
      <trkpt lat="41.783322" lon="-87.631532">
      </trkpt>
      <trkpt lat="41.779372" lon="-87.631833">
      </trkpt>
      <trkpt lat="41.779366" lon="-87.632128">
      </trkpt>
      <trkpt lat="41.778543" lon="-87.632538">
      </trkpt>
    </trkseg>
  </trk>
</gpx>