<?xml version="1.0" encoding="UTF-8"?>
<gpx xmlns="http://www.topografix.com/GPX/1/1" xmlns:xsi="http://www.w3.org/2001/XMLSchema-instance" xsi:schemaLocation="http://www.topografix.com/GPX/1/1 http://www.topografix.com/GPX/1/1/gpx.xsd" version="1.1" creator="gpx.py -- https://github.com/tkrajina/gpxpy">
  <trk>
    <trkseg>
      <trkpt lat="41.924264" lon="-87.721865">
      </trkpt>
      <trkpt lat="41.922721" lon="-87.721819">
      </trkpt>
      <trkpt lat="41.922735" lon="-87.720597">
      </trkpt>
      <trkpt lat="41.924569" lon="-87.720648">
      </trkpt>
      <trkpt lat="41.924962" lon="-87.683686">
      </trkpt>
      <trkpt lat="41.924765" lon="-87.683325">
      </trkpt>
      <trkpt lat="41.923176" lon="-87.67993">
      </trkpt>
      <trkpt lat="41.918378" lon="-87.671496">
      </trkpt>
      <trkpt lat="41.915851" lon="-87.668499">
      </trkpt>
      <trkpt lat="41.909975" lon="-87.664752">
      </trkpt>
      <trkpt lat="41.906635" lon="-87.661559">
      </trkpt>
      <trkpt lat="41.905221" lon="-87.66114">
      </trkpt>
      <trkpt lat="41.901587" lon="-87.661131">
      </trkpt>
      <trkpt lat="41.897534" lon="-87.659383">
      </trkpt>
      <trkpt lat="41.896502" lon="-87.658904">
      </trkpt>
      <trkpt lat="41.895016" lon="-87.657508">
      </trkpt>
      <trkpt lat="41.89442" lon="-87.657463">
      </trkpt>
      <trkpt lat="41.894312" lon="-87.663988">
      </trkpt>
      <trkpt lat="41.895209" lon="-87.664011">
      </trkpt>
      <trkpt lat="41.895231" lon="-87.662558">
      </trkpt>
      <trkpt lat="41.895231" lon="-87.662558">
      </trkpt>
      <trkpt lat="41.895233" lon="-87.662372">
      </trkpt>
      <trkpt lat="41.896146" lon="-87.662395">
      </trkpt>
      <trkpt lat="41.896254" lon="-87.65541">
      </trkpt>
      <trkpt lat="41.893035" lon="-87.650448">
      </trkpt>
      <trkpt lat="41.893035" lon="-87.650448">
      </trkpt>
      <trkpt lat="41.891194" lon="-87.647627">
      </trkpt>
      <trkpt lat="41.885665" lon="-87.647482">
      </trkpt>
      <trkpt lat="41.885682" lon="-87.646258">
      </trkpt>
      <trkpt lat="41.884746" lon="-87.645922">
      </trkpt>
      <trkpt lat="41.881827" lon="-87.645999">
      </trkpt>
      <trkpt lat="41.880956" lon="-87.646134">
      </trkpt>
      <trkpt lat="41.879569" lon="-87.646145">
      </trkpt>
      <trkpt lat="41.878121" lon="-87.646166">
      </trkpt>
      <trkpt lat="41.877218" lon="-87.646107">
      </trkpt>
      <trkpt lat="41.875597" lon="-87.646972">
      </trkpt>
      <trkpt lat="41.872433" lon="-87.645662">
      </trkpt>
      <trkpt lat="41.869682" lon="-87.645367">
      </trkpt>
      <trkpt lat="41.86947" lon="-87.653215">
      </trkpt>
      <trkpt lat="41.87063" lon="-87.653248">
      </trkpt>
      <trkpt lat="41.87063" lon="-87.653248">
      </trkpt>
      <trkpt lat="41.86947" lon="-87.653215">
      </trkpt>
      <trkpt lat="41.86954" lon="-87.647164">
      </trkpt>
      <trkpt lat="41.869682" lon="-87.645367">
      </trkpt>
      <trkpt lat="41.869741" lon="-87.64081">
      </trkpt>
      <trkpt lat="41.868196" lon="-87.640746">
      </trkpt>
      <trkpt lat="41.868177" lon="-87.642217">
      </trkpt>
      <trkpt lat="41.868177" lon="-87.642217">
      </trkpt>
      <trkpt lat="41.878011" lon="-87.642529">
      </trkpt>
      <trkpt lat="41.878083" lon="-87.636932">
      </trkpt>
      <trkpt lat="41.876812" lon="-87.636803">
      </trkpt>
      <trkpt lat="41.876812" lon="-87.636803">
      </trkpt>
      <trkpt lat="41.876812" lon="-87.636803">
      </trkpt>
      <trkpt lat="41.876812" lon="-87.636803">
      </trkpt>
      <trkpt lat="41.876736" lon="-87.642493">
      </trkpt>
      <trkpt lat="41.885711" lon="-87.642764">
      </trkpt>
      <trkpt lat="41.885699" lon="-87.644242">
      </trkpt>
      <trkpt lat="41.889054" lon="-87.644337">
      </trkpt>
      <trkpt lat="41.890103" lon="-87.645902">
      </trkpt>
      <trkpt lat="41.890032" lon="-87.653442">
      </trkpt>
      <trkpt lat="41.890128" lon="-87.653444">
      </trkpt>
      <trkpt lat="41.890128" lon="-87.653444">
      </trkpt>
      <trkpt lat="41.890128" lon="-87.653444">
      </trkpt>
      <trkpt lat="41.890128" lon="-87.653444">
      </trkpt>
      <trkpt lat="41.89112" lon="-87.653449">
      </trkpt>
      <trkpt lat="41.891194" lon="-87.647627">
      </trkpt>
      <trkpt lat="41.896808" lon="-87.647683">
      </trkpt>
      <trkpt lat="41.903643" lon="-87.648086">
      </trkpt>
      <trkpt lat="41.903798" lon="-87.637466">
      </trkpt>
      <trkpt lat="41.903798" lon="-87.637466">
      </trkpt>
      <trkpt lat="41.903798" lon="-87.637466">
      </trkpt>
      <trkpt lat="41.903798" lon="-87.637466">
      </trkpt>
      <trkpt lat="41.903643" lon="-87.648086">
      </trkpt>
      <trkpt lat="41.885665" lon="-87.647482">
      </trkpt>
      <trkpt lat="41.885682" lon="-87.646258">
      </trkpt>
      <trkpt lat="41.857367" lon="-87.644363">
      </trkpt>
      <trkpt lat="41.851247" lon="-87.645245">
      </trkpt>
      <trkpt lat="41.847384" lon="-87.642429">
      </trkpt>
      <trkpt lat="41.845323" lon="-87.634652">
      </trkpt>
      <trkpt lat="41.844384" lon="-87.632773">
      </trkpt>
      <trkpt lat="41.842703" lon="-87.631597">
      </trkpt>
      <trkpt lat="41.830548" lon="-87.631069">
      </trkpt>
      <trkpt lat="41.823664" lon="-87.631351">
      </trkpt>
      <trkpt lat="41.823804" lon="-87.619991">
      </trkpt>
      <trkpt lat="41.822908" lon="-87.619964">
      </trkpt>
      <trkpt lat="41.822908" lon="-87.619964">
      </trkpt>
      <trkpt lat="41.823804" lon="-87.619991">
      </trkpt>
      <trkpt lat="41.823783" lon="-87.621597">
      </trkpt>
      <trkpt lat="41.831064" lon="-87.621754">
      </trkpt>
      <trkpt lat="41.831008" lon="-87.626457">
      </trkpt>
      <trkpt lat="41.83283" lon="-87.626475">
      </trkpt>
      <trkpt lat="41.832863" lon="-87.625023">
      </trkpt>
      <trkpt lat="41.832863" lon="-87.625023">
      </trkpt>
      <trkpt lat="41.83283" lon="-87.626475">
      </trkpt>
      <trkpt lat="41.846791" lon="-87.626821">
      </trkpt>
      <trkpt lat="41.84692" lon="-87.626258">
      </trkpt>
      <trkpt lat="41.847976" lon="-87.616851">
      </trkpt>
      <trkpt lat="41.848153" lon="-87.613392">
      </trkpt>
      <trkpt lat="41.84938" lon="-87.612168">
      </trkpt>
      <trkpt lat="41.8661" lon="-87.619244">
      </trkpt>
      <trkpt lat="41.869799" lon="-87.617003">
      </trkpt>
      <trkpt lat="41.881825" lon="-87.617167">
      </trkpt>
      <trkpt lat="41.884762" lon="-87.613645">
      </trkpt>
      <trkpt lat="41.89273" lon="-87.614003">
      </trkpt>
      <trkpt lat="41.900921" lon="-87.619441">
      </trkpt>
      <trkpt lat="41.902893" lon="-87.624048">
      </trkpt>
      <trkpt lat="41.928415" lon="-87.631851">
      </trkpt>
      <trkpt lat="41.934381" lon="-87.632152">
      </trkpt>
      <trkpt lat="41.939073" lon="-87.63676">
      </trkpt>
      <trkpt lat="41.940568" lon="-87.638088">
      </trkpt>
      <trkpt lat="41.939759" lon="-87.663815">
      </trkpt>
      <trkpt lat="41.943419" lon="-87.663907">
      </trkpt>
      <trkpt lat="41.943396" lon="-87.665475">
      </trkpt>
      <trkpt lat="41.943396" lon="-87.665475">
      </trkpt>
      <trkpt lat="41.943383" lon="-87.666342">
      </trkpt>
      <trkpt lat="41.942462" lon="-87.666314">
      </trkpt>
      <trkpt lat="41.942439" lon="-87.668053">
      </trkpt>
      <trkpt lat="41.942439" lon="-87.668053">
      </trkpt>
      <trkpt lat="41.94243" lon="-87.6688">
      </trkpt>
      <trkpt lat="41.921563" lon="-87.668616">
      </trkpt>
      <trkpt lat="41.921395" lon="-87.677255">
      </trkpt>
      <trkpt lat="41.918139" lon="-87.671115">
      </trkpt>
      <trkpt lat="41.915543" lon="-87.668247">
      </trkpt>
      <trkpt lat="41.909975" lon="-87.664752">
      </trkpt>
      <trkpt lat="41.906635" lon="-87.661559">
      </trkpt>
      <trkpt lat="41.901587" lon="-87.661131">
      </trkpt>
      <trkpt lat="41.896968" lon="-87.659049">
      </trkpt>
      <trkpt lat="41.888636" lon="-87.647794">
      </trkpt>
      <trkpt lat="41.886261" lon="-87.646315">
      </trkpt>
      <trkpt lat="41.882928" lon="-87.646015">
      </trkpt>
      <trkpt lat="41.880505" lon="-87.646395">
      </trkpt>
      <trkpt lat="41.880685" lon="-87.632331">
      </trkpt>
      <trkpt lat="41.881953" lon="-87.632362">
      </trkpt>
      <trkpt lat="41.881953" lon="-87.632362">
      </trkpt>
      <trkpt lat="41.880685" lon="-87.632331">
      </trkpt>
      <trkpt lat="41.880924" lon="-87.617244">
      </trkpt>
      <trkpt lat="41.882559" lon="-87.616723">
      </trkpt>
      <trkpt lat="41.883727" lon="-87.614349">
      </trkpt>
      <trkpt lat="41.884762" lon="-87.613645">
      </trkpt>
      <trkpt lat="41.89303" lon="-87.614095">
      </trkpt>
      <trkpt lat="41.900921" lon="-87.619441">
      </trkpt>
      <trkpt lat="41.90171" lon="-87.622727">
      </trkpt>
      <trkpt lat="41.902893" lon="-87.624048">
      </trkpt>
      <trkpt lat="41.912141" lon="-87.62589">
      </trkpt>
      <trkpt lat="41.918036" lon="-87.628743">
      </trkpt>
      <trkpt lat="41.928213" lon="-87.631799">
      </trkpt>
      <trkpt lat="41.934701" lon="-87.632273">
      </trkpt>
      <trkpt lat="41.941399" lon="-87.638962">
      </trkpt>
      <trkpt lat="41.950931" lon="-87.644376">
      </trkpt>
      <trkpt lat="41.952992" lon="-87.644572">
      </trkpt>
      <trkpt lat="41.954667" lon="-87.644162">
      </trkpt>
      <trkpt lat="41.954634" lon="-87.645235">
      </trkpt>
      <trkpt lat="41.953061" lon="-87.644996">
      </trkpt>
      <trkpt lat="41.952678" lon="-87.654491">
      </trkpt>
      <trkpt lat="41.949046" lon="-87.654374">
      </trkpt>
      <trkpt lat="41.948917" lon="-87.662855">
      </trkpt>
      <trkpt lat="41.950505" lon="-87.662894">
      </trkpt>
      <trkpt lat="41.950505" lon="-87.662894">
      </trkpt>
      <trkpt lat="41.952559" lon="-87.662958">
      </trkpt>
      <trkpt lat="41.952585" lon="-87.660809">
      </trkpt>
      <trkpt lat="41.95438" lon="-87.662225">
      </trkpt>
      <trkpt lat="41.954634" lon="-87.645235">
      </trkpt>
      <trkpt lat="41.950978" lon="-87.644611">
      </trkpt>
      <trkpt lat="41.941594" lon="-87.639315">
      </trkpt>
      <trkpt lat="41.934639" lon="-87.632453">
      </trkpt>
      <trkpt lat="41.928427" lon="-87.632048">
      </trkpt>
      <trkpt lat="41.918735" lon="-87.629189">
      </trkpt>
      <trkpt lat="41.911998" lon="-87.62605">
      </trkpt>
      <trkpt lat="41.902733" lon="-87.62421">
      </trkpt>
      <trkpt lat="41.901491" lon="-87.62264">
      </trkpt>
      <trkpt lat="41.900898" lon="-87.619617">
      </trkpt>
      <trkpt lat="41.892985" lon="-87.614304">
      </trkpt>
      <trkpt lat="41.884928" lon="-87.614127">
      </trkpt>
      <trkpt lat="41.882436" lon="-87.61714">
      </trkpt>
      <trkpt lat="41.88092" lon="-87.617506">
      </trkpt>
      <trkpt lat="41.880838" lon="-87.624244">
      </trkpt>
      <trkpt lat="41.881322" lon="-87.624206">
      </trkpt>
      <trkpt lat="41.882115" lon="-87.624508">
      </trkpt>
      <trkpt lat="41.881953" lon="-87.632362">
      </trkpt>
      <trkpt lat="41.881953" lon="-87.632362">
      </trkpt>
      <trkpt lat="41.881801" lon="-87.64573">
      </trkpt>
      <trkpt lat="41.885306" lon="-87.645735">
      </trkpt>
      <trkpt lat="41.888483" lon="-87.647404">
      </trkpt>
      <trkpt lat="41.897251" lon="-87.658783">
      </trkpt>
      <trkpt lat="41.901753" lon="-87.660805">
      </trkpt>
      <trkpt lat="41.906443" lon="-87.661061">
      </trkpt>
      <trkpt lat="41.910145" lon="-87.664439">
      </trkpt>
      <trkpt lat="41.916712" lon="-87.668818">
      </trkpt>
      <trkpt lat="41.937344" lon="-87.704001">
      </trkpt>
      <trkpt lat="41.939132" lon="-87.706803">
      </trkpt>
      <trkpt lat="41.93884" lon="-87.746879">
      </trkpt>
      <trkpt lat="41.934276" lon="-87.746707">
      </trkpt>
      <trkpt lat="41.934176" lon="-87.754361">
      </trkpt>
      <trkpt lat="41.934176" lon="-87.754361">
      </trkpt>
      <trkpt lat="41.934148" lon="-87.756522">
      </trkpt>
      <trkpt lat="41.938708" lon="-87.756691">
      </trkpt>
      <trkpt lat="41.93884" lon="-87.746879">
      </trkpt>
      <trkpt lat="41.96178" lon="-87.747568">
      </trkpt>
      <trkpt lat="41.962975" lon="-87.746911">
      </trkpt>
      <trkpt lat="41.96438" lon="-87.747627">
      </trkpt>
      <trkpt lat="41.972896" lon="-87.747918">
      </trkpt>
      <trkpt lat="41.972794" lon="-87.747761">
      </trkpt>
      <trkpt lat="41.966563" lon="-87.747223">
      </trkpt>
      <trkpt lat="41.964261" lon="-87.746728">
      </trkpt>
      <trkpt lat="41.962358" lon="-87.745232">
      </trkpt>
      <trkpt lat="41.959634" lon="-87.741323">
      </trkpt>
      <trkpt lat="41.947613" lon="-87.719592">
      </trkpt>
      <trkpt lat="41.94215" lon="-87.715306">
      </trkpt>
      <trkpt lat="41.940372" lon="-87.709927">
      </trkpt>
      <trkpt lat="41.917654" lon="-87.670146">
      </trkpt>
      <trkpt lat="41.906646" lon="-87.66137">
      </trkpt>
      <trkpt lat="41.901658" lon="-87.660965">
      </trkpt>
      <trkpt lat="41.897394" lon="-87.659066">
      </trkpt>
      <trkpt lat="41.892534" lon="-87.653065">
      </trkpt>
      <trkpt lat="41.892423" lon="-87.632511">
      </trkpt>
      <trkpt lat="41.895614" lon="-87.632605">
      </trkpt>
      <trkpt lat="41.895727" lon="-87.625488">
      </trkpt>
      <trkpt lat="41.89638" lon="-87.625513">
      </trkpt>
      <trkpt lat="41.89638" lon="-87.625513">
      </trkpt>
      <trkpt lat="41.8966" lon="-87.625522">
      </trkpt>
      <trkpt lat="41.896714" lon="-87.625592">
      </trkpt>
      <trkpt lat="41.896781" lon="-87.620387">
      </trkpt>
      <trkpt lat="41.893412" lon="-87.620283">
      </trkpt>
      <trkpt lat="41.893376" lon="-87.621935">
      </trkpt>
      <trkpt lat="41.893376" lon="-87.621935">
      </trkpt>
      <trkpt lat="41.8931" lon="-87.641157">
      </trkpt>
      <trkpt lat="41.891506" lon="-87.639878">
      </trkpt>
      <trkpt lat="41.891239" lon="-87.643004">
      </trkpt>
      <trkpt lat="41.891055" lon="-87.659484">
      </trkpt>
      <trkpt lat="41.893465" lon="-87.659547">
      </trkpt>
      <trkpt lat="41.893479" lon="-87.658764">
      </trkpt>
      <trkpt lat="41.893479" lon="-87.658764">
      </trkpt>
      <trkpt lat="41.893417" lon="-87.66233">
      </trkpt>
      <trkpt lat="41.891027" lon="-87.662267">
      </trkpt>
      <trkpt lat="41.890646" lon="-87.686683">
      </trkpt>
      <trkpt lat="41.886623" lon="-87.686589">
      </trkpt>
      <trkpt lat="41.886614" lon="-87.687809">
      </trkpt>
      <trkpt lat="41.888183" lon="-87.687848">
      </trkpt>
      <trkpt lat="41.888183" lon="-87.687848">
      </trkpt>
      <trkpt lat="41.886614" lon="-87.687809">
      </trkpt>
      <trkpt lat="41.886623" lon="-87.686589">
      </trkpt>
      <trkpt lat="41.903025" lon="-87.687018">
      </trkpt>
      <trkpt lat="41.903145" lon="-87.679708">
      </trkpt>
      <trkpt lat="41.903748" lon="-87.679724">
      </trkpt>
      <trkpt lat="41.903748" lon="-87.679724">
      </trkpt>
      <trkpt lat="41.904077" lon="-87.679734">
      </trkpt>
      <trkpt lat="41.904122" lon="-87.677302">
      </trkpt>
      <trkpt lat="41.895912" lon="-87.677057">
      </trkpt>
      <trkpt lat="41.895606" lon="-87.701213">
      </trkpt>
      <trkpt lat="41.895606" lon="-87.701213">
      </trkpt>
      <trkpt lat="41.895912" lon="-87.677057">
      </trkpt>
      <trkpt lat="41.902702" lon="-87.677261">
      </trkpt>
      <trkpt lat="41.902708" lon="-87.676727">
      </trkpt>
      <trkpt lat="41.902708" lon="-87.676727">
      </trkpt>
      <trkpt lat="41.902702" lon="-87.677261">
      </trkpt>
      <trkpt lat="41.910469" lon="-87.677494">
      </trkpt>
      <trkpt lat="41.910469" lon="-87.677494">
      </trkpt>
      <trkpt lat="41.910635" lon="-87.667641">
      </trkpt>
      <trkpt lat="41.916129" lon="-87.66782">
      </trkpt>
      <trkpt lat="41.917067" lon="-87.663815">
      </trkpt>
      <trkpt lat="41.917121" lon="-87.659108">
      </trkpt>
      <trkpt lat="41.916182" lon="-87.65779">
      </trkpt>
      <trkpt lat="41.913961" lon="-87.655387">
      </trkpt>
      <trkpt lat="41.913961" lon="-87.655387">
      </trkpt>
      <trkpt lat="41.911904" lon="-87.653155">
      </trkpt>
      <trkpt lat="41.910848" lon="-87.653121">
      </trkpt>
      <trkpt lat="41.910672" lon="-87.665662">
      </trkpt>
      <trkpt lat="41.910236" lon="-87.665325">
      </trkpt>
      <trkpt lat="41.906386" lon="-87.661439">
      </trkpt>
      <trkpt lat="41.896667" lon="-87.658834">
      </trkpt>
      <trkpt lat="41.889352" lon="-87.648602">
      </trkpt>
      <trkpt lat="41.886261" lon="-87.646315">
      </trkpt>
      <trkpt lat="41.850609" lon="-87.644998">
      </trkpt>
      <trkpt lat="41.847255" lon="-87.642186">
      </trkpt>
      <trkpt lat="41.845323" lon="-87.634652">
      </trkpt>
      <trkpt lat="41.84209" lon="-87.63091">
      </trkpt>
      <trkpt lat="41.79178" lon="-87.631289">
      </trkpt>
      <trkpt lat="41.783322" lon="-87.631532">
      </trkpt>
      <trkpt lat="41.779372" lon="-87.631833">
      </trkpt>
      <trkpt lat="41.779366" lon="-87.632128">
      </trkpt>
      <trkpt lat="41.778543" lon="-87.632538">
      </trkpt>
      <trkpt lat="41.778543" lon="-87.632538">
      </trkpt>
      <trkpt lat="41.779366" lon="-87.632128">
      </trkpt>
      <trkpt lat="41.779372" lon="-87.631833">
      </trkpt>
      <trkpt lat="41.778124" lon="-87.631812">
      </trkpt>
      <trkpt lat="41.778077" lon="-87.635009">
      </trkpt>
      <trkpt lat="41.779907" lon="-87.635057">
      </trkpt>
      <trkpt lat="41.779931" lon="-87.630139">
      </trkpt>
      <trkpt lat="41.780433" lon="-87.630149">
      </trkpt>
      <trkpt lat="41.807989" lon="-87.63142">
      </trkpt>
      <trkpt lat="41.812785" lon="-87.629665">
      </trkpt>
      <trkpt lat="41.837743" lon="-87.630393">
      </trkpt>
      <trkpt lat="41.844069" lon="-87.631001">
      </trkpt>
      <trkpt lat="41.846653" lon="-87.630081">
      </trkpt>
      <trkpt lat="41.847976" lon="-87.616851">
      </trkpt>
      <trkpt lat="41.848153" lon="-87.613392">
      </trkpt>
      <trkpt lat="41.84938" lon="-87.612168">
      </trkpt>
      <trkpt lat="41.8661" lon="-87.619244">
      </trkpt>
      <trkpt lat="41.869799" lon="-87.617003">
      </trkpt>
      <trkpt lat="41.881825" lon="-87.617167">
      </trkpt>
      <trkpt lat="41.884762" lon="-87.613645">
      </trkpt>
      <trkpt lat="41.89273" lon="-87.614003">
      </trkpt>
      <trkpt lat="41.900921" lon="-87.619441">
      </trkpt>
      <trkpt lat="41.902767" lon="-87.623983">
      </trkpt>
      <trkpt lat="41.924159" lon="-87.630534">
      </trkpt>
      <trkpt lat="41.926223" lon="-87.63067">
      </trkpt>
      <trkpt lat="41.925453" lon="-87.648766">
      </trkpt>
      <trkpt lat="41.929016" lon="-87.653741">
      </trkpt>
      <trkpt lat="41.931569" lon="-87.653827">
      </trkpt>
      <trkpt lat="41.931569" lon="-87.653827">
      </trkpt>
      <trkpt lat="41.929016" lon="-87.653741">
      </trkpt>
      <trkpt lat="41.929995" lon="-87.655107">
      </trkpt>
      <trkpt lat="41.93032" lon="-87.655116">
      </trkpt>
      <trkpt lat="41.93032" lon="-87.655116">
      </trkpt>
      <trkpt lat="41.929995" lon="-87.655107">
      </trkpt>
      <trkpt lat="41.921883" lon="-87.643784">
      </trkpt>
      <trkpt lat="41.904839" lon="-87.643252">
      </trkpt>
      <trkpt lat="41.904537" lon="-87.642207">
      </trkpt>
      <trkpt lat="41.904537" lon="-87.642207">
      </trkpt>
      <trkpt lat="41.904225" lon="-87.641159">
      </trkpt>
      <trkpt lat="41.903744" lon="-87.64113">
      </trkpt>
      <trkpt lat="41.903798" lon="-87.637466">
      </trkpt>
      <trkpt lat="41.902067" lon="-87.63739">
      </trkpt>
      <trkpt lat="41.902081" lon="-87.635771">
      </trkpt>
      <trkpt lat="41.902081" lon="-87.635771">
      </trkpt>
      <trkpt lat="41.9021" lon="-87.63441">
      </trkpt>
      <trkpt lat="41.895592" lon="-87.634181">
      </trkpt>
      <trkpt lat="41.895637" lon="-87.631219">
      </trkpt>
      <trkpt lat="41.889218" lon="-87.631063">
      </trkpt>
      <trkpt lat="41.889251" lon="-87.628704">
      </trkpt>
      <trkpt lat="41.889251" lon="-87.628704">
      </trkpt>
      <trkpt lat="41.889218" lon="-87.631063">
      </trkpt>
      <trkpt lat="41.875701" lon="-87.630715">
      </trkpt>
      <trkpt lat="41.875684" lon="-87.631738">
      </trkpt>
      <trkpt lat="41.875522" lon="-87.631731">
      </trkpt>
      <trkpt lat="41.875518" lon="-87.631448">
      </trkpt>
      <trkpt lat="41.875518" lon="-87.631448">
      </trkpt>
      <trkpt lat="41.875521" lon="-87.630714">
      </trkpt>
      <trkpt lat="41.874518" lon="-87.630686">
      </trkpt>
      <trkpt lat="41.874483" lon="-87.633036">
      </trkpt>
      <trkpt lat="41.875667" lon="-87.633082">
      </trkpt>
      <trkpt lat="41.875658" lon="-87.697235">
      </trkpt>
      <trkpt lat="41.874284" lon="-87.70915">
      </trkpt>
      <trkpt lat="41.873967" lon="-87.732948">
      </trkpt>
      <trkpt lat="41.87187" lon="-87.740374">
      </trkpt>
      <trkpt lat="41.871015" lon="-87.767488">
      </trkpt>
      <trkpt lat="41.873251" lon="-87.799298">
      </trkpt>
      <trkpt lat="41.87368" lon="-87.804441">
      </trkpt>
      <trkpt lat="41.934519" lon="-87.806613">
      </trkpt>
      <trkpt lat="41.93424" lon="-87.820654">
      </trkpt>
      <trkpt lat="41.934634" lon="-87.82067">
      </trkpt>
      <trkpt lat="41.934634" lon="-87.82067">
      </trkpt>
      <trkpt lat="41.93424" lon="-87.820654">
      </trkpt>
      <trkpt lat="41.934421" lon="-87.81151">
      </trkpt>
      <trkpt lat="41.924776" lon="-87.811185">
      </trkpt>
      <trkpt lat="41.923552" lon="-87.803157">
      </trkpt>
      <trkpt lat="41.92364" lon="-87.789403">
      </trkpt>
      <trkpt lat="41.924722" lon="-87.707229">
      </trkpt>
      <trkpt lat="41.9174" lon="-87.70705">
      </trkpt>
      <trkpt lat="41.917413" lon="-87.705789">
      </trkpt>
      <trkpt lat="41.917413" lon="-87.705789">
      </trkpt>
      <trkpt lat="41.91745" lon="-87.702101">
      </trkpt>
      <trkpt lat="41.907558" lon="-87.701241">
      </trkpt>
      <trkpt lat="41.897899" lon="-87.702431">
      </trkpt>
      <trkpt lat="41.875937" lon="-87.701067">
      </trkpt>
      <trkpt lat="41.875935" lon="-87.701496">
      </trkpt>
      <trkpt lat="41.874828" lon="-87.704533">
      </trkpt>
      <trkpt lat="41.874316" lon="-87.708542">
      </trkpt>
      <trkpt lat="41.873929" lon="-87.733365">
      </trkpt>
      <trkpt lat="41.87187" lon="-87.740374">
      </trkpt>
      <trkpt lat="41.871028" lon="-87.766962">
      </trkpt>
      <trkpt lat="41.873251" lon="-87.799298">
      </trkpt>
      <trkpt lat="41.873694" lon="-87.804595">
      </trkpt>
      <trkpt lat="41.843084" lon="-87.803466">
      </trkpt>
      <trkpt lat="41.843092" lon="-87.809503">
      </trkpt>
      <trkpt lat="41.844379" lon="-87.809806">
      </trkpt>
      <trkpt lat="41.844584" lon="-87.808801">
      </trkpt>
      <trkpt lat="41.844584" lon="-87.808801">
      </trkpt>
      <trkpt lat="41.844521" lon="-87.80899">
      </trkpt>
      <trkpt lat="41.847622" lon="-87.809078">
      </trkpt>
      <trkpt lat="41.847603" lon="-87.809909">
      </trkpt>
      <trkpt lat="41.847649" lon="-87.809967">
      </trkpt>
      <trkpt lat="41.847649" lon="-87.809967">
      </trkpt>
      <trkpt lat="41.84764" lon="-87.808347">
      </trkpt>
      <trkpt lat="41.846715" lon="-87.808311">
      </trkpt>
      <trkpt lat="41.846023" lon="-87.80361">
      </trkpt>
      <trkpt lat="41.800032" lon="-87.802157">
      </trkpt>
      <trkpt lat="41.799872" lon="-87.802612">
      </trkpt>
      <trkpt lat="41.796778" lon="-87.808237">
      </trkpt>
      <trkpt lat="41.796532" lon="-87.815525">
      </trkpt>
      <trkpt lat="41.795192" lon="-87.81922">
      </trkpt>
      <trkpt lat="41.773741" lon="-87.842841">
      </trkpt>
      <trkpt lat="41.765426" lon="-87.84963">
      </trkpt>
      <trkpt lat="41.763122" lon="-87.858365">
      </trkpt>
      <trkpt lat="41.762669" lon="-87.862747">
      </trkpt>
      <trkpt lat="41.761936" lon="-87.868089">
      </trkpt>
      <trkpt lat="41.763142" lon="-87.868886">
      </trkpt>
      <trkpt lat="41.757229" lon="-87.866442">
      </trkpt>
      <trkpt lat="41.746261" lon="-87.853987">
      </trkpt>
      <trkpt lat="41.745129" lon="-87.848804">
      </trkpt>
      <trkpt lat="41.745907" lon="-87.842486">
      </trkpt>
      <trkpt lat="41.740583" lon="-87.829065">
      </trkpt>
      <trkpt lat="41.728825" lon="-87.812487">
      </trkpt>
      <trkpt lat="41.720278" lon="-87.80748">
      </trkpt>
      <trkpt lat="41.717536" lon="-87.807337">
      </trkpt>
      <trkpt lat="41.718709" lon="-87.806926">
      </trkpt>
      <trkpt lat="41.719187" lon="-87.798795">
      </trkpt>
      <trkpt lat="41.720181" lon="-87.735945">
      </trkpt>
      <trkpt lat="41.71836" lon="-87.735879">
      </trkpt>
      <trkpt lat="41.718388" lon="-87.734668">
      </trkpt>
      <trkpt lat="41.720207" lon="-87.734538">
      </trkpt>
      <trkpt lat="41.72081" lon="-87.691951">
      </trkpt>
      <trkpt lat="41.717535" lon="-87.691844">
      </trkpt>
      <trkpt lat="41.717535" lon="-87.691844">
      </trkpt>
      <trkpt lat="41.72081" lon="-87.691951">
      </trkpt>
      <trkpt lat="41.721406" lon="-87.64327">
      </trkpt>
      <trkpt lat="41.714212" lon="-87.643091">
      </trkpt>
      <trkpt lat="41.714223" lon="-87.642306">
      </trkpt>
      <trkpt lat="41.714662" lon="-87.632642">
      </trkpt>
      <trkpt lat="41.715693" lon="-87.627057">
      </trkpt>
      <trkpt lat="41.719562" lon="-87.624177">
      </trkpt>
      <trkpt lat="41.769497" lon="-87.625651">
      </trkpt>
      <trkpt lat="41.77398" lon="-87.626234">
      </trkpt>
      <trkpt lat="41.779495" lon="-87.630747">
      </trkpt>
      <trkpt lat="41.838631" lon="-87.630667">
      </trkpt>
      <trkpt lat="41.843875" lon="-87.631571">
      </trkpt>
      <trkpt lat="41.846207" lon="-87.637745">
      </trkpt>
      <trkpt lat="41.847782" lon="-87.642471">
      </trkpt>
      <trkpt lat="41.845286" lon="-87.651785">
      </trkpt>
      <trkpt lat="41.837422" lon="-87.669478">
      </trkpt>
      <trkpt lat="41.837483" lon="-87.674176">
      </trkpt>
      <trkpt lat="41.8377" lon="-87.675396">
      </trkpt>
      <trkpt lat="41.852181" lon="-87.675845">
      </trkpt>
      <trkpt lat="41.852248" lon="-87.671409">
      </trkpt>
      <trkpt lat="41.852248" lon="-87.671409">
      </trkpt>
      <trkpt lat="41.852255" lon="-87.670946">
      </trkpt>
      <trkpt lat="41.869184" lon="-87.671422">
      </trkpt>
      <trkpt lat="41.8692" lon="-87.670488">
      </trkpt>
      <trkpt lat="41.8692" lon="-87.670488">
      </trkpt>
      <trkpt lat="41.8692" lon="-87.670488">
      </trkpt>
      <trkpt lat="41.8692" lon="-87.670488">
      </trkpt>
      <trkpt lat="41.869064" lon="-87.680846">
      </trkpt>
      <trkpt lat="41.864713" lon="-87.686158">
      </trkpt>
      <trkpt lat="41.848648" lon="-87.73165">
      </trkpt>
      <trkpt lat="41.848648" lon="-87.73165">
      </trkpt>
      <trkpt lat="41.847679" lon="-87.734395">
      </trkpt>
      <trkpt lat="41.851513" lon="-87.734518">
      </trkpt>
      <trkpt lat="41.851339" lon="-87.744283">
      </trkpt>
      <trkpt lat="41.872073" lon="-87.744871">
      </trkpt>
      <trkpt lat="41.872052" lon="-87.746045">
      </trkpt>
      <trkpt lat="41.871025" lon="-87.76928">
      </trkpt>
      <trkpt lat="41.873251" lon="-87.799298">
      </trkpt>
      <trkpt lat="41.87368" lon="-87.804441">
      </trkpt>
      <trkpt lat="41.938002" lon="-87.806735">
      </trkpt>
      <trkpt lat="41.937955" lon="-87.815295">
      </trkpt>
      <trkpt lat="41.94138" lon="-87.815423">
      </trkpt>
      <trkpt lat="41.941356" lon="-87.816652">
      </trkpt>
      <trkpt lat="41.941072" lon="-87.816641">
      </trkpt>
      <trkpt lat="41.941072" lon="-87.816641">
      </trkpt>
      <trkpt lat="41.939617" lon="-87.816587">
      </trkpt>
      <trkpt lat="41.939594" lon="-87.817797">
      </trkpt>
      <trkpt lat="41.948419" lon="-87.818384">
      </trkpt>
      <trkpt lat="41.960061" lon="-87.794287">
      </trkpt>
      <trkpt lat="41.960724" lon="-87.747538">
      </trkpt>
      <trkpt lat="41.962975" lon="-87.746911">
      </trkpt>
      <trkpt lat="41.96438" lon="-87.747627">
      </trkpt>
      <trkpt lat="41.964394" lon="-87.745977">
      </trkpt>
      <trkpt lat="41.96725" lon="-87.747015">
      </trkpt>
      <trkpt lat="41.972024" lon="-87.747318">
      </trkpt>
      <trkpt lat="41.980044" lon="-87.746614">
      </trkpt>
      <trkpt lat="41.987222" lon="-87.751348">
      </trkpt>
      <trkpt lat="41.989907" lon="-87.75017">
      </trkpt>
      <trkpt lat="41.990857" lon="-87.665171">
      </trkpt>
      <trkpt lat="41.991183" lon="-87.66518">
      </trkpt>
      <trkpt lat="41.991183" lon="-87.66518">
      </trkpt>
      <trkpt lat="41.990857" lon="-87.665171">
      </trkpt>
      <trkpt lat="41.99093" lon="-87.660308">
      </trkpt>
      <trkpt lat="41.985467" lon="-87.660132">
      </trkpt>
      <trkpt lat="41.984999" lon="-87.653157">
      </trkpt>
      <trkpt lat="41.972134" lon="-87.648822">
      </trkpt>
      <trkpt lat="41.951193" lon="-87.64469">
      </trkpt>
      <trkpt lat="41.941067" lon="-87.638957">
      </trkpt>
      <trkpt lat="41.93482" lon="-87.632527">
      </trkpt>
      <trkpt lat="41.928427" lon="-87.632048">
      </trkpt>
      <trkpt lat="41.915117" lon="-87.627538">
      </trkpt>
      <trkpt lat="41.913042" lon="-87.627206">
      </trkpt>
      <trkpt lat="41.913334" lon="-87.632438">
      </trkpt>
      <trkpt lat="41.911171" lon="-87.633223">
      </trkpt>
      <trkpt lat="41.910165" lon="-87.701875">
      </trkpt>
      <trkpt lat="41.902886" lon="-87.702278">
      </trkpt>
      <trkpt lat="41.902215" lon="-87.759529">
      </trkpt>
      <trkpt lat="41.90038" lon="-87.759479">
      </trkpt>
      <trkpt lat="41.900364" lon="-87.761032">
      </trkpt>
    </trkseg>
  </trk>
</gpx>