<?xml version="1.0" encoding="UTF-8"?>
<gpx xmlns="http://www.topografix.com/GPX/1/1" xmlns:xsi="http://www.w3.org/2001/XMLSchema-instance" xsi:schemaLocation="http://www.topografix.com/GPX/1/1 http://www.topografix.com/GPX/1/1/gpx.xsd" version="1.1" creator="gpx.py -- https://github.com/tkrajina/gpxpy">
  <trk>
    <trkseg>
      <trkpt lat="41.92898" lon="-87.717101">
      </trkpt>
      <trkpt lat="41.931929" lon="-87.717188">
      </trkpt>
      <trkpt lat="41.932179" lon="-87.687832">
      </trkpt>
      <trkpt lat="41.953985" lon="-87.688469">
      </trkpt>
      <trkpt lat="41.954306" lon="-87.668983">
      </trkpt>
      <trkpt lat="41.961593" lon="-87.669185">
      </trkpt>
      <trkpt lat="41.961908" lon="-87.646878">
      </trkpt>
      <trkpt lat="41.962786" lon="-87.639836">
      </trkpt>
      <trkpt lat="41.963606" lon="-87.638571">
      </trkpt>
      <trkpt lat="41.963606" lon="-87.638571">
      </trkpt>
      <trkpt lat="41.963606" lon="-87.638571">
      </trkpt>
      <trkpt lat="41.963606" lon="-87.638571">
      </trkpt>
      <trkpt lat="41.964356" lon="-87.638592">
      </trkpt>
      <trkpt lat="41.965044" lon="-87.639257">
      </trkpt>
      <trkpt lat="41.966717" lon="-87.642864">
      </trkpt>
      <trkpt lat="41.96612" lon="-87.643805">
      </trkpt>
      <trkpt lat="41.965774" lon="-87.646428">
      </trkpt>
      <trkpt lat="41.967291" lon="-87.647437">
      </trkpt>
      <trkpt lat="41.974381" lon="-87.649207">
      </trkpt>
      <trkpt lat="41.981297" lon="-87.652338">
      </trkpt>
      <trkpt lat="41.985125" lon="-87.652927">
      </trkpt>
      <trkpt lat="41.985586" lon="-87.654178">
      </trkpt>
      <trkpt lat="41.985463" lon="-87.660947">
      </trkpt>
      <trkpt lat="41.985105" lon="-87.662456">
      </trkpt>
      <trkpt lat="41.989823" lon="-87.67009">
      </trkpt>
      <trkpt lat="41.987608" lon="-87.669796">
      </trkpt>
      <trkpt lat="41.986767" lon="-87.669866">
      </trkpt>
      <trkpt lat="41.986664" lon="-87.676319">
      </trkpt>
      <trkpt lat="41.986651" lon="-87.676712">
      </trkpt>
      <trkpt lat="41.986613" lon="-87.677079">
      </trkpt>
      <trkpt lat="41.987244" lon="-87.678217">
      </trkpt>
      <trkpt lat="41.986928" lon="-87.679052">
      </trkpt>
      <trkpt lat="41.987045" lon="-87.681454">
      </trkpt>
      <trkpt lat="41.987045" lon="-87.681454">
      </trkpt>
      <trkpt lat="41.98656" lon="-87.682858">
      </trkpt>
      <trkpt lat="41.985105" lon="-87.683199">
      </trkpt>
      <trkpt lat="41.985047" lon="-87.685612">
      </trkpt>
      <trkpt lat="41.982307" lon="-87.685604">
      </trkpt>
      <trkpt lat="41.981706" lon="-87.685439">
      </trkpt>
      <trkpt lat="41.980287" lon="-87.68536">
      </trkpt>
      <trkpt lat="41.979583" lon="-87.685908">
      </trkpt>
      <trkpt lat="41.97923" lon="-87.688015">
      </trkpt>
      <trkpt lat="41.978881" lon="-87.688009">
      </trkpt>
      <trkpt lat="41.97886" lon="-87.689265">
      </trkpt>
      <trkpt lat="41.975899" lon="-87.689151">
      </trkpt>
      <trkpt lat="41.975749" lon="-87.708696">
      </trkpt>
      <trkpt lat="41.968457" lon="-87.708478">
      </trkpt>
      <trkpt lat="41.968384" lon="-87.715821">
      </trkpt>
      <trkpt lat="41.962927" lon="-87.715647">
      </trkpt>
      <trkpt lat="41.962954" lon="-87.713522">
      </trkpt>
      <trkpt lat="41.962954" lon="-87.713522">
      </trkpt>
      <trkpt lat="41.962957" lon="-87.713199">
      </trkpt>
      <trkpt lat="41.968411" lon="-87.713373">
      </trkpt>
      <trkpt lat="41.968753" lon="-87.679185">
      </trkpt>
      <trkpt lat="41.974696" lon="-87.679355">
      </trkpt>
      <trkpt lat="41.974772" lon="-87.674884">
      </trkpt>
      <trkpt lat="41.974623" lon="-87.67488">
      </trkpt>
      <trkpt lat="41.974623" lon="-87.67488">
      </trkpt>
      <trkpt lat="41.974623" lon="-87.67488">
      </trkpt>
      <trkpt lat="41.974623" lon="-87.67488">
      </trkpt>
      <trkpt lat="41.97335" lon="-87.674845">
      </trkpt>
      <trkpt lat="41.973364" lon="-87.674314">
      </trkpt>
      <trkpt lat="41.98833" lon="-87.674641">
      </trkpt>
      <trkpt lat="41.988432" lon="-87.669926">
      </trkpt>
      <trkpt lat="41.987608" lon="-87.669796">
      </trkpt>
      <trkpt lat="41.987519" lon="-87.669769">
      </trkpt>
      <trkpt lat="41.987519" lon="-87.669769">
      </trkpt>
      <trkpt lat="41.985433" lon="-87.669181">
      </trkpt>
      <trkpt lat="41.985603" lon="-87.663294">
      </trkpt>
      <trkpt lat="41.985105" lon="-87.662456">
      </trkpt>
      <trkpt lat="41.985586" lon="-87.654178">
      </trkpt>
      <trkpt lat="41.984999" lon="-87.653157">
      </trkpt>
      <trkpt lat="41.981232" lon="-87.652706">
      </trkpt>
      <trkpt lat="41.972134" lon="-87.648822">
      </trkpt>
      <trkpt lat="41.955203" lon="-87.644905">
      </trkpt>
      <trkpt lat="41.950978" lon="-87.644611">
      </trkpt>
      <trkpt lat="41.941067" lon="-87.638957">
      </trkpt>
      <trkpt lat="41.935041" lon="-87.632637">
      </trkpt>
      <trkpt lat="41.927741" lon="-87.631858">
      </trkpt>
      <trkpt lat="41.926001" lon="-87.631853">
      </trkpt>
      <trkpt lat="41.92558" lon="-87.640463">
      </trkpt>
      <trkpt lat="41.927956" lon="-87.641881">
      </trkpt>
    </trkseg>
  </trk>
</gpx>