<?xml version="1.0" encoding="UTF-8"?>
<gpx xmlns="http://www.topografix.com/GPX/1/1" xmlns:xsi="http://www.w3.org/2001/XMLSchema-instance" xsi:schemaLocation="http://www.topografix.com/GPX/1/1 http://www.topografix.com/GPX/1/1/gpx.xsd" version="1.1" creator="gpx.py -- https://github.com/tkrajina/gpxpy">
  <trk>
    <trkseg>
      <trkpt lat="41.923215" lon="-87.797058">
      </trkpt>
      <trkpt lat="41.923585" lon="-87.79707">
      </trkpt>
      <trkpt lat="41.924003" lon="-87.806251">
      </trkpt>
      <trkpt lat="41.873618" lon="-87.804598">
      </trkpt>
      <trkpt lat="41.87064" lon="-87.769061">
      </trkpt>
      <trkpt lat="41.871594" lon="-87.739969">
      </trkpt>
      <trkpt lat="41.873637" lon="-87.732676">
      </trkpt>
      <trkpt lat="41.873948" lon="-87.708909">
      </trkpt>
      <trkpt lat="41.875189" lon="-87.697594">
      </trkpt>
      <trkpt lat="41.875578" lon="-87.662068">
      </trkpt>
      <trkpt lat="41.875346" lon="-87.656893">
      </trkpt>
      <trkpt lat="41.881621" lon="-87.657142">
      </trkpt>
      <trkpt lat="41.881656" lon="-87.65507">
      </trkpt>
      <trkpt lat="41.881656" lon="-87.65507">
      </trkpt>
      <trkpt lat="41.881801" lon="-87.64573">
      </trkpt>
      <trkpt lat="41.885013" lon="-87.645685">
      </trkpt>
      <trkpt lat="41.886906" lon="-87.646327">
      </trkpt>
      <trkpt lat="41.88874" lon="-87.647638">
      </trkpt>
      <trkpt lat="41.890597" lon="-87.650048">
      </trkpt>
      <trkpt lat="41.891699" lon="-87.651108">
      </trkpt>
      <trkpt lat="41.892164" lon="-87.650896">
      </trkpt>
      <trkpt lat="41.89242" lon="-87.65026">
      </trkpt>
      <trkpt lat="41.892457" lon="-87.62966">
      </trkpt>
      <trkpt lat="41.899859" lon="-87.62986">
      </trkpt>
      <trkpt lat="41.899807" lon="-87.630601">
      </trkpt>
      <trkpt lat="41.899807" lon="-87.630601">
      </trkpt>
      <trkpt lat="41.899794" lon="-87.631337">
      </trkpt>
      <trkpt lat="41.876886" lon="-87.630743">
      </trkpt>
      <trkpt lat="41.87687" lon="-87.632165">
      </trkpt>
      <trkpt lat="41.87687" lon="-87.632165">
      </trkpt>
      <trkpt lat="41.876853" lon="-87.633707">
      </trkpt>
      <trkpt lat="41.87567" lon="-87.633684">
      </trkpt>
      <trkpt lat="41.875644" lon="-87.641651">
      </trkpt>
      <trkpt lat="41.876207" lon="-87.646562">
      </trkpt>
      <trkpt lat="41.872433" lon="-87.645662">
      </trkpt>
      <trkpt lat="41.850828" lon="-87.645091">
      </trkpt>
      <trkpt lat="41.847292" lon="-87.642257">
      </trkpt>
      <trkpt lat="41.845323" lon="-87.634652">
      </trkpt>
      <trkpt lat="41.84209" lon="-87.63091">
      </trkpt>
      <trkpt lat="41.779686" lon="-87.631207">
      </trkpt>
      <trkpt lat="41.772231" lon="-87.626113">
      </trkpt>
      <trkpt lat="41.72052" lon="-87.624621">
      </trkpt>
      <trkpt lat="41.713653" lon="-87.621065">
      </trkpt>
      <trkpt lat="41.713191" lon="-87.600337">
      </trkpt>
      <trkpt lat="41.708673" lon="-87.592948">
      </trkpt>
      <trkpt lat="41.703483" lon="-87.592406">
      </trkpt>
      <trkpt lat="41.685512" lon="-87.601798">
      </trkpt>
      <trkpt lat="41.676933" lon="-87.601728">
      </trkpt>
      <trkpt lat="41.660202" lon="-87.589096">
      </trkpt>
      <trkpt lat="41.659512" lon="-87.59119">
      </trkpt>
      <trkpt lat="41.658851" lon="-87.560717">
      </trkpt>
      <trkpt lat="41.656176" lon="-87.555878">
      </trkpt>
      <trkpt lat="41.65737" lon="-87.555649">
      </trkpt>
      <trkpt lat="41.65736" lon="-87.553811">
      </trkpt>
      <trkpt lat="41.656889" lon="-87.553812">
      </trkpt>
      <trkpt lat="41.656889" lon="-87.553812">
      </trkpt>
      <trkpt lat="41.65736" lon="-87.553811">
      </trkpt>
      <trkpt lat="41.657281" lon="-87.557102">
      </trkpt>
      <trkpt lat="41.660149" lon="-87.585314">
      </trkpt>
      <trkpt lat="41.662478" lon="-87.590822">
      </trkpt>
      <trkpt lat="41.675885" lon="-87.601403">
      </trkpt>
      <trkpt lat="41.685726" lon="-87.601563">
      </trkpt>
      <trkpt lat="41.69908" lon="-87.594329">
      </trkpt>
      <trkpt lat="41.705863" lon="-87.591535">
      </trkpt>
      <trkpt lat="41.711823" lon="-87.595707">
      </trkpt>
      <trkpt lat="41.713575" lon="-87.618809">
      </trkpt>
      <trkpt lat="41.717096" lon="-87.62372">
      </trkpt>
      <trkpt lat="41.769497" lon="-87.625651">
      </trkpt>
      <trkpt lat="41.779495" lon="-87.630747">
      </trkpt>
      <trkpt lat="41.838631" lon="-87.630667">
      </trkpt>
      <trkpt lat="41.844225" lon="-87.63193">
      </trkpt>
      <trkpt lat="41.847354" lon="-87.642036">
      </trkpt>
      <trkpt lat="41.850632" lon="-87.644778">
      </trkpt>
      <trkpt lat="41.867845" lon="-87.644517">
      </trkpt>
      <trkpt lat="41.873521" lon="-87.644628">
      </trkpt>
      <trkpt lat="41.875863" lon="-87.649223">
      </trkpt>
      <trkpt lat="41.876121" lon="-87.662425">
      </trkpt>
      <trkpt lat="41.876354" lon="-87.666742">
      </trkpt>
      <trkpt lat="41.869262" lon="-87.666531">
      </trkpt>
      <trkpt lat="41.8692" lon="-87.670488">
      </trkpt>
      <trkpt lat="41.8692" lon="-87.670488">
      </trkpt>
      <trkpt lat="41.869264" lon="-87.666399">
      </trkpt>
      <trkpt lat="41.875179" lon="-87.666563">
      </trkpt>
      <trkpt lat="41.875183" lon="-87.666292">
      </trkpt>
      <trkpt lat="41.87557" lon="-87.662662">
      </trkpt>
      <trkpt lat="41.875604" lon="-87.6605">
      </trkpt>
      <trkpt lat="41.875318" lon="-87.651569">
      </trkpt>
      <trkpt lat="41.875475" lon="-87.641908">
      </trkpt>
      <trkpt lat="41.875364" lon="-87.639814">
      </trkpt>
      <trkpt lat="41.874406" lon="-87.639737">
      </trkpt>
      <trkpt lat="41.874394" lon="-87.640993">
      </trkpt>
      <trkpt lat="41.872009" lon="-87.640908">
      </trkpt>
      <trkpt lat="41.871994" lon="-87.642146">
      </trkpt>
      <trkpt lat="41.871994" lon="-87.642146">
      </trkpt>
      <trkpt lat="41.871991" lon="-87.642356">
      </trkpt>
      <trkpt lat="41.880541" lon="-87.642602">
      </trkpt>
      <trkpt lat="41.880598" lon="-87.639693">
      </trkpt>
      <trkpt lat="41.881889" lon="-87.639706">
      </trkpt>
      <trkpt lat="41.881877" lon="-87.640505">
      </trkpt>
      <trkpt lat="41.881877" lon="-87.640505">
      </trkpt>
      <trkpt lat="41.88187" lon="-87.641227">
      </trkpt>
      <trkpt lat="41.876757" lon="-87.641048">
      </trkpt>
      <trkpt lat="41.876769" lon="-87.639817">
      </trkpt>
      <trkpt lat="41.875803" lon="-87.639823">
      </trkpt>
      <trkpt lat="41.875647" lon="-87.641365">
      </trkpt>
      <trkpt lat="41.875736" lon="-87.651991">
      </trkpt>
      <trkpt lat="41.876197" lon="-87.657603">
      </trkpt>
      <trkpt lat="41.875763" lon="-87.688313">
      </trkpt>
      <trkpt lat="41.875862" lon="-87.692409">
      </trkpt>
      <trkpt lat="41.875983" lon="-87.696151">
      </trkpt>
      <trkpt lat="41.880169" lon="-87.696261">
      </trkpt>
      <trkpt lat="41.880173" lon="-87.695733">
      </trkpt>
      <trkpt lat="41.880173" lon="-87.695733">
      </trkpt>
      <trkpt lat="41.880169" lon="-87.696261">
      </trkpt>
      <trkpt lat="41.881077" lon="-87.696286">
      </trkpt>
      <trkpt lat="41.88126" lon="-87.678236">
      </trkpt>
      <trkpt lat="41.88126" lon="-87.678236">
      </trkpt>
      <trkpt lat="41.881475" lon="-87.666061">
      </trkpt>
      <trkpt lat="41.884284" lon="-87.663241">
      </trkpt>
      <trkpt lat="41.887468" lon="-87.661497">
      </trkpt>
      <trkpt lat="41.887479" lon="-87.660807">
      </trkpt>
      <trkpt lat="41.887664" lon="-87.660811">
      </trkpt>
      <trkpt lat="41.887755" lon="-87.652203">
      </trkpt>
      <trkpt lat="41.888087" lon="-87.652212">
      </trkpt>
      <trkpt lat="41.888087" lon="-87.652212">
      </trkpt>
      <trkpt lat="41.891135" lon="-87.652288">
      </trkpt>
      <trkpt lat="41.891239" lon="-87.643004">
      </trkpt>
      <trkpt lat="41.891501" lon="-87.640016">
      </trkpt>
      <trkpt lat="41.891543" lon="-87.637019">
      </trkpt>
      <trkpt lat="41.892368" lon="-87.63704">
      </trkpt>
      <trkpt lat="41.892538" lon="-87.624293">
      </trkpt>
      <trkpt lat="41.890945" lon="-87.624246">
      </trkpt>
      <trkpt lat="41.890981" lon="-87.621986">
      </trkpt>
      <trkpt lat="41.890848" lon="-87.621861">
      </trkpt>
      <trkpt lat="41.890945" lon="-87.62164">
      </trkpt>
      <trkpt lat="41.891098" lon="-87.621785">
      </trkpt>
      <trkpt lat="41.890981" lon="-87.621986">
      </trkpt>
      <trkpt lat="41.890948" lon="-87.624074">
      </trkpt>
      <trkpt lat="41.891505" lon="-87.624094">
      </trkpt>
      <trkpt lat="41.891505" lon="-87.624094">
      </trkpt>
      <trkpt lat="41.891505" lon="-87.624094">
      </trkpt>
      <trkpt lat="41.891505" lon="-87.624094">
      </trkpt>
      <trkpt lat="41.893338" lon="-87.62414">
      </trkpt>
      <trkpt lat="41.893148" lon="-87.637063">
      </trkpt>
      <trkpt lat="41.892522" lon="-87.64596">
      </trkpt>
      <trkpt lat="41.892674" lon="-87.65028">
      </trkpt>
      <trkpt lat="41.892622" lon="-87.653268">
      </trkpt>
      <trkpt lat="41.896481" lon="-87.658404">
      </trkpt>
      <trkpt lat="41.901399" lon="-87.660896">
      </trkpt>
      <trkpt lat="41.906646" lon="-87.66137">
      </trkpt>
      <trkpt lat="41.917654" lon="-87.670146">
      </trkpt>
      <trkpt lat="41.940372" lon="-87.709927">
      </trkpt>
      <trkpt lat="41.94215" lon="-87.715306">
      </trkpt>
      <trkpt lat="41.947613" lon="-87.719592">
      </trkpt>
      <trkpt lat="41.95982" lon="-87.741635">
      </trkpt>
      <trkpt lat="41.963594" lon="-87.746287">
      </trkpt>
      <trkpt lat="41.975724" lon="-87.747426">
      </trkpt>
      <trkpt lat="41.976396" lon="-87.74607">
      </trkpt>
      <trkpt lat="41.975364" lon="-87.745776">
      </trkpt>
      <trkpt lat="41.975339" lon="-87.747984">
      </trkpt>
      <trkpt lat="41.928818" lon="-87.746476">
      </trkpt>
      <trkpt lat="41.92871" lon="-87.753872">
      </trkpt>
      <trkpt lat="41.928954" lon="-87.75388">
      </trkpt>
      <trkpt lat="41.928954" lon="-87.75388">
      </trkpt>
      <trkpt lat="41.93144" lon="-87.753962">
      </trkpt>
      <trkpt lat="41.931542" lon="-87.746595">
      </trkpt>
      <trkpt lat="41.953418" lon="-87.747303">
      </trkpt>
      <trkpt lat="41.954306" lon="-87.668983">
      </trkpt>
      <trkpt lat="41.983483" lon="-87.669751">
      </trkpt>
      <trkpt lat="41.983528" lon="-87.666707">
      </trkpt>
      <trkpt lat="41.983528" lon="-87.666707">
      </trkpt>
      <trkpt lat="41.983497" lon="-87.668766">
      </trkpt>
      <trkpt lat="41.986751" lon="-87.669576">
      </trkpt>
      <trkpt lat="41.998086" lon="-87.670543">
      </trkpt>
      <trkpt lat="41.99796" lon="-87.67684">
      </trkpt>
      <trkpt lat="42.012318" lon="-87.683076">
      </trkpt>
      <trkpt lat="42.012258" lon="-87.687558">
      </trkpt>
      <trkpt lat="42.012506" lon="-87.687554">
      </trkpt>
      <trkpt lat="42.012506" lon="-87.687554">
      </trkpt>
      <trkpt lat="42.014079" lon="-87.687532">
      </trkpt>
      <trkpt lat="42.014108" lon="-87.690224">
      </trkpt>
      <trkpt lat="42.019532" lon="-87.690179">
      </trkpt>
      <trkpt lat="42.019466" lon="-87.693315">
      </trkpt>
      <trkpt lat="42.018709" lon="-87.693294">
      </trkpt>
      <trkpt lat="42.018577" lon="-87.69342">
      </trkpt>
      <trkpt lat="42.018577" lon="-87.69342">
      </trkpt>
      <trkpt lat="42.019466" lon="-87.693315">
      </trkpt>
      <trkpt lat="42.019116" lon="-87.759649">
      </trkpt>
      <trkpt lat="41.997387" lon="-87.763778">
      </trkpt>
      <trkpt lat="41.997348" lon="-87.787876">
      </trkpt>
      <trkpt lat="41.996914" lon="-87.787492">
      </trkpt>
      <trkpt lat="41.982911" lon="-87.787729">
      </trkpt>
      <trkpt lat="41.982907" lon="-87.788189">
      </trkpt>
      <trkpt lat="41.982443" lon="-87.812691">
      </trkpt>
      <trkpt lat="41.984517" lon="-87.826001">
      </trkpt>
      <trkpt lat="41.984836" lon="-87.831845">
      </trkpt>
      <trkpt lat="41.984644" lon="-87.836934">
      </trkpt>
      <trkpt lat="41.984101" lon="-87.847951">
      </trkpt>
      <trkpt lat="41.984234" lon="-87.870702">
      </trkpt>
      <trkpt lat="41.977158" lon="-87.88909">
      </trkpt>
      <trkpt lat="41.98194" lon="-87.89633">
      </trkpt>
      <trkpt lat="41.982141" lon="-87.898668">
      </trkpt>
      <trkpt lat="41.98214" lon="-87.901973">
      </trkpt>
      <trkpt lat="41.980223" lon="-87.905437">
      </trkpt>
      <trkpt lat="41.980223" lon="-87.905437">
      </trkpt>
      <trkpt lat="41.977612" lon="-87.905773">
      </trkpt>
      <trkpt lat="41.976386" lon="-87.903208">
      </trkpt>
      <trkpt lat="41.977631" lon="-87.900684">
      </trkpt>
      <trkpt lat="41.978448" lon="-87.899295">
      </trkpt>
      <trkpt lat="41.979952" lon="-87.89916">
      </trkpt>
      <trkpt lat="41.980575" lon="-87.899058">
      </trkpt>
      <trkpt lat="41.981567" lon="-87.898329">
      </trkpt>
      <trkpt lat="41.981395" lon="-87.896297">
      </trkpt>
      <trkpt lat="41.977441" lon="-87.891496">
      </trkpt>
      <trkpt lat="41.976922" lon="-87.888978">
      </trkpt>
      <trkpt lat="41.977225" lon="-87.887624">
      </trkpt>
      <trkpt lat="41.982843" lon="-87.873549">
      </trkpt>
      <trkpt lat="41.983159" lon="-87.87109">
      </trkpt>
      <trkpt lat="41.983359" lon="-87.861058">
      </trkpt>
      <trkpt lat="41.982945" lon="-87.859773">
      </trkpt>
      <trkpt lat="41.982442" lon="-87.859669">
      </trkpt>
      <trkpt lat="41.982034" lon="-87.86007">
      </trkpt>
      <trkpt lat="41.982002" lon="-87.860907">
      </trkpt>
      <trkpt lat="41.982526" lon="-87.861387">
      </trkpt>
      <trkpt lat="41.991074" lon="-87.859825">
      </trkpt>
      <trkpt lat="41.991658" lon="-87.861116">
      </trkpt>
      <trkpt lat="41.991658" lon="-87.861116">
      </trkpt>
      <trkpt lat="41.995318" lon="-87.873269">
      </trkpt>
      <trkpt lat="41.998283" lon="-87.87715">
      </trkpt>
      <trkpt lat="42.000893" lon="-87.88368">
      </trkpt>
      <trkpt lat="42.007282" lon="-87.897827">
      </trkpt>
      <trkpt lat="42.015111" lon="-87.926872">
      </trkpt>
      <trkpt lat="42.016528" lon="-87.931399">
      </trkpt>
      <trkpt lat="42.018011" lon="-87.937712">
      </trkpt>
      <trkpt lat="42.018853" lon="-87.939213">
      </trkpt>
      <trkpt lat="42.019667" lon="-87.940253">
      </trkpt>
      <trkpt lat="42.022728" lon="-87.940455">
      </trkpt>
      <trkpt lat="42.0227" lon="-87.942092">
      </trkpt>
      <trkpt lat="42.023799" lon="-87.942155">
      </trkpt>
      <trkpt lat="42.023795" lon="-87.942588">
      </trkpt>
      <trkpt lat="42.023795" lon="-87.942588">
      </trkpt>
      <trkpt lat="42.023799" lon="-87.942155">
      </trkpt>
      <trkpt lat="42.022937" lon="-87.942148">
      </trkpt>
      <trkpt lat="42.022898" lon="-87.9421">
      </trkpt>
      <trkpt lat="42.0227" lon="-87.942092">
      </trkpt>
      <trkpt lat="42.022606" lon="-87.948353">
      </trkpt>
      <trkpt lat="42.022606" lon="-87.948353">
      </trkpt>
      <trkpt lat="42.022728" lon="-87.940455">
      </trkpt>
      <trkpt lat="42.017539" lon="-87.940142">
      </trkpt>
      <trkpt lat="42.006916" lon="-87.897565">
      </trkpt>
      <trkpt lat="41.997457" lon="-87.87696">
      </trkpt>
      <trkpt lat="41.988327" lon="-87.864082">
      </trkpt>
      <trkpt lat="41.983769" lon="-87.850425">
      </trkpt>
      <trkpt lat="41.984449" lon="-87.829807">
      </trkpt>
      <trkpt lat="41.982178" lon="-87.812646">
      </trkpt>
      <trkpt lat="41.982345" lon="-87.792871">
      </trkpt>
      <trkpt lat="41.982061" lon="-87.788361">
      </trkpt>
      <trkpt lat="41.982061" lon="-87.787747">
      </trkpt>
      <trkpt lat="41.982911" lon="-87.787729">
      </trkpt>
      <trkpt lat="41.982899" lon="-87.782263">
      </trkpt>
      <trkpt lat="41.975674" lon="-87.769268">
      </trkpt>
      <trkpt lat="41.975683" lon="-87.767734">
      </trkpt>
      <trkpt lat="41.974625" lon="-87.766808">
      </trkpt>
      <trkpt lat="41.975287" lon="-87.751811">
      </trkpt>
      <trkpt lat="41.972794" lon="-87.747761">
      </trkpt>
      <trkpt lat="41.966563" lon="-87.747223">
      </trkpt>
      <trkpt lat="41.963113" lon="-87.745961">
      </trkpt>
      <trkpt lat="41.960129" lon="-87.742125">
      </trkpt>
      <trkpt lat="41.947613" lon="-87.719592">
      </trkpt>
      <trkpt lat="41.94215" lon="-87.715306">
      </trkpt>
      <trkpt lat="41.933659" lon="-87.698173">
      </trkpt>
      <trkpt lat="41.927358" lon="-87.687291">
      </trkpt>
      <trkpt lat="41.924962" lon="-87.683686">
      </trkpt>
      <trkpt lat="41.925151" lon="-87.66815">
      </trkpt>
      <trkpt lat="41.932402" lon="-87.668327">
      </trkpt>
      <trkpt lat="41.932557" lon="-87.658713">
      </trkpt>
      <trkpt lat="41.935883" lon="-87.658824">
      </trkpt>
      <trkpt lat="41.935883" lon="-87.658824">
      </trkpt>
      <trkpt lat="41.938025" lon="-87.658915">
      </trkpt>
      <trkpt lat="41.937953" lon="-87.663749">
      </trkpt>
      <trkpt lat="41.938211" lon="-87.663758">
      </trkpt>
      <trkpt lat="41.938211" lon="-87.663758">
      </trkpt>
      <trkpt lat="41.93521" lon="-87.663649">
      </trkpt>
      <trkpt lat="41.935144" lon="-87.668549">
      </trkpt>
      <trkpt lat="41.921563" lon="-87.668616">
      </trkpt>
      <trkpt lat="41.921395" lon="-87.677255">
      </trkpt>
      <trkpt lat="41.916326" lon="-87.668918">
      </trkpt>
      <trkpt lat="41.906635" lon="-87.661559">
      </trkpt>
      <trkpt lat="41.896667" lon="-87.658834">
      </trkpt>
      <trkpt lat="41.886973" lon="-87.646614">
      </trkpt>
      <trkpt lat="41.864445" lon="-87.64461">
      </trkpt>
      <trkpt lat="41.851247" lon="-87.645245">
      </trkpt>
      <trkpt lat="41.847384" lon="-87.642429">
      </trkpt>
      <trkpt lat="41.845323" lon="-87.634652">
      </trkpt>
      <trkpt lat="41.842703" lon="-87.631597">
      </trkpt>
      <trkpt lat="41.830548" lon="-87.631069">
      </trkpt>
      <trkpt lat="41.823664" lon="-87.631351">
      </trkpt>
      <trkpt lat="41.823783" lon="-87.621597">
      </trkpt>
      <trkpt lat="41.824244" lon="-87.621608">
      </trkpt>
      <trkpt lat="41.824244" lon="-87.621608">
      </trkpt>
      <trkpt lat="41.831064" lon="-87.621754">
      </trkpt>
      <trkpt lat="41.830961" lon="-87.629817">
      </trkpt>
      <trkpt lat="41.831311" lon="-87.629831">
      </trkpt>
      <trkpt lat="41.837743" lon="-87.630393">
      </trkpt>
      <trkpt lat="41.844144" lon="-87.631347">
      </trkpt>
      <trkpt lat="41.847354" lon="-87.642036">
      </trkpt>
      <trkpt lat="41.85074" lon="-87.644829">
      </trkpt>
      <trkpt lat="41.867845" lon="-87.644517">
      </trkpt>
      <trkpt lat="41.873521" lon="-87.644628">
      </trkpt>
      <trkpt lat="41.875725" lon="-87.645646">
      </trkpt>
      <trkpt lat="41.875863" lon="-87.649223">
      </trkpt>
      <trkpt lat="41.875633" lon="-87.697949">
      </trkpt>
      <trkpt lat="41.874284" lon="-87.70915">
      </trkpt>
      <trkpt lat="41.873967" lon="-87.732948">
      </trkpt>
      <trkpt lat="41.87187" lon="-87.740374">
      </trkpt>
      <trkpt lat="41.871028" lon="-87.766962">
      </trkpt>
      <trkpt lat="41.871119" lon="-87.774317">
      </trkpt>
      <trkpt lat="41.909259" lon="-87.775538">
      </trkpt>
      <trkpt lat="41.909186" lon="-87.781715">
      </trkpt>
      <trkpt lat="41.911009" lon="-87.781778">
      </trkpt>
      <trkpt lat="41.911003" lon="-87.782134">
      </trkpt>
    </trkseg>
  </trk>
</gpx>