<?xml version="1.0" encoding="UTF-8"?>
<gpx xmlns="http://www.topografix.com/GPX/1/1" xmlns:xsi="http://www.w3.org/2001/XMLSchema-instance" xsi:schemaLocation="http://www.topografix.com/GPX/1/1 http://www.topografix.com/GPX/1/1/gpx.xsd" version="1.1" creator="gpx.py -- https://github.com/tkrajina/gpxpy">
  <trk>
    <trkseg>
      <trkpt lat="41.854329" lon="-87.615902">
      </trkpt>
      <trkpt lat="41.854397" lon="-87.615604">
      </trkpt>
      <trkpt lat="41.855561" lon="-87.616271">
      </trkpt>
      <trkpt lat="41.855615" lon="-87.616027">
      </trkpt>
      <trkpt lat="41.854301" lon="-87.615619">
      </trkpt>
      <trkpt lat="41.85521" lon="-87.615992">
      </trkpt>
      <trkpt lat="41.854986" lon="-87.616959">
      </trkpt>
      <trkpt lat="41.85573" lon="-87.616876">
      </trkpt>
      <trkpt lat="41.856402" lon="-87.616543">
      </trkpt>
      <trkpt lat="41.857757" lon="-87.617503">
      </trkpt>
      <trkpt lat="41.858122" lon="-87.616068">
      </trkpt>
      <trkpt lat="41.859955" lon="-87.61744">
      </trkpt>
      <trkpt lat="41.861647" lon="-87.618159">
      </trkpt>
      <trkpt lat="41.8661" lon="-87.619244">
      </trkpt>
      <trkpt lat="41.86711" lon="-87.619013">
      </trkpt>
      <trkpt lat="41.869799" lon="-87.617003">
      </trkpt>
      <trkpt lat="41.880924" lon="-87.617244">
      </trkpt>
      <trkpt lat="41.880871" lon="-87.620794">
      </trkpt>
      <trkpt lat="41.884517" lon="-87.620609">
      </trkpt>
      <trkpt lat="41.884484" lon="-87.624371">
      </trkpt>
      <trkpt lat="41.891505" lon="-87.624094">
      </trkpt>
      <trkpt lat="41.891505" lon="-87.624094">
      </trkpt>
      <trkpt lat="41.892541" lon="-87.624121">
      </trkpt>
      <trkpt lat="41.892588" lon="-87.620263">
      </trkpt>
      <trkpt lat="41.887855" lon="-87.620762">
      </trkpt>
      <trkpt lat="41.887462" lon="-87.615811">
      </trkpt>
      <trkpt lat="41.887175" lon="-87.614014">
      </trkpt>
      <trkpt lat="41.885118" lon="-87.61394">
      </trkpt>
      <trkpt lat="41.884041" lon="-87.614645">
      </trkpt>
      <trkpt lat="41.882873" lon="-87.616685">
      </trkpt>
      <trkpt lat="41.881821" lon="-87.617453">
      </trkpt>
      <trkpt lat="41.869895" lon="-87.617247">
      </trkpt>
      <trkpt lat="41.869058" lon="-87.617557">
      </trkpt>
      <trkpt lat="41.86764" lon="-87.618862">
      </trkpt>
      <trkpt lat="41.867506" lon="-87.624157">
      </trkpt>
      <trkpt lat="41.868888" lon="-87.624039">
      </trkpt>
      <trkpt lat="41.868888" lon="-87.624039">
      </trkpt>
      <trkpt lat="41.881322" lon="-87.624206">
      </trkpt>
      <trkpt lat="41.882115" lon="-87.624508">
      </trkpt>
      <trkpt lat="41.881889" lon="-87.639706">
      </trkpt>
      <trkpt lat="41.887994" lon="-87.639953">
      </trkpt>
      <trkpt lat="41.88801" lon="-87.640199">
      </trkpt>
      <trkpt lat="41.88801" lon="-87.640199">
      </trkpt>
      <trkpt lat="41.88801" lon="-87.640199">
      </trkpt>
      <trkpt lat="41.88801" lon="-87.640199">
      </trkpt>
      <trkpt lat="41.887994" lon="-87.639953">
      </trkpt>
      <trkpt lat="41.889064" lon="-87.64001">
      </trkpt>
      <trkpt lat="41.889126" lon="-87.636747">
      </trkpt>
      <trkpt lat="41.889943" lon="-87.636764">
      </trkpt>
      <trkpt lat="41.889941" lon="-87.636984">
      </trkpt>
      <trkpt lat="41.896556" lon="-87.637178">
      </trkpt>
      <trkpt lat="41.896613" lon="-87.632635">
      </trkpt>
      <trkpt lat="41.90389" lon="-87.632844">
      </trkpt>
      <trkpt lat="41.903975" lon="-87.627083">
      </trkpt>
      <trkpt lat="41.903975" lon="-87.627083">
      </trkpt>
      <trkpt lat="41.904013" lon="-87.625015">
      </trkpt>
      <trkpt lat="41.901451" lon="-87.624221">
      </trkpt>
      <trkpt lat="41.900814" lon="-87.624278">
      </trkpt>
      <trkpt lat="41.900781" lon="-87.626352">
      </trkpt>
      <trkpt lat="41.900781" lon="-87.626352">
      </trkpt>
      <trkpt lat="41.900747" lon="-87.62834">
      </trkpt>
      <trkpt lat="41.9006" lon="-87.628335">
      </trkpt>
      <trkpt lat="41.900548" lon="-87.632751">
      </trkpt>
      <trkpt lat="41.90389" lon="-87.632844">
      </trkpt>
      <trkpt lat="41.903783" lon="-87.638347">
      </trkpt>
      <trkpt lat="41.909422" lon="-87.638528">
      </trkpt>
      <trkpt lat="41.909422" lon="-87.638528">
      </trkpt>
      <trkpt lat="41.903783" lon="-87.638347">
      </trkpt>
      <trkpt lat="41.903643" lon="-87.648086">
      </trkpt>
      <trkpt lat="41.896403" lon="-87.64782">
      </trkpt>
      <trkpt lat="41.896146" lon="-87.662395">
      </trkpt>
      <trkpt lat="41.894339" lon="-87.662352">
      </trkpt>
      <trkpt lat="41.894312" lon="-87.663988">
      </trkpt>
      <trkpt lat="41.895209" lon="-87.664011">
      </trkpt>
      <trkpt lat="41.895231" lon="-87.662558">
      </trkpt>
      <trkpt lat="41.895231" lon="-87.662558">
      </trkpt>
      <trkpt lat="41.895233" lon="-87.662372">
      </trkpt>
      <trkpt lat="41.900824" lon="-87.662524">
      </trkpt>
      <trkpt lat="41.903976" lon="-87.667446">
      </trkpt>
      <trkpt lat="41.916129" lon="-87.66782">
      </trkpt>
      <trkpt lat="41.917067" lon="-87.663815">
      </trkpt>
      <trkpt lat="41.917264" lon="-87.658201">
      </trkpt>
      <trkpt lat="41.928939" lon="-87.658589">
      </trkpt>
      <trkpt lat="41.928972" lon="-87.65652">
      </trkpt>
      <trkpt lat="41.928972" lon="-87.65652">
      </trkpt>
      <trkpt lat="41.928939" lon="-87.658589">
      </trkpt>
      <trkpt lat="41.932557" lon="-87.658713">
      </trkpt>
      <trkpt lat="41.932567" lon="-87.65822">
      </trkpt>
      <trkpt lat="41.932567" lon="-87.65822">
      </trkpt>
      <trkpt lat="41.932557" lon="-87.658713">
      </trkpt>
      <trkpt lat="41.918106" lon="-87.638503">
      </trkpt>
      <trkpt lat="41.918106" lon="-87.638503">
      </trkpt>
      <trkpt lat="41.918322" lon="-87.638808">
      </trkpt>
      <trkpt lat="41.921954" lon="-87.638941">
      </trkpt>
      <trkpt lat="41.92199" lon="-87.63646">
      </trkpt>
      <trkpt lat="41.925658" lon="-87.636586">
      </trkpt>
      <trkpt lat="41.926223" lon="-87.63067">
      </trkpt>
      <trkpt lat="41.928415" lon="-87.631851">
      </trkpt>
      <trkpt lat="41.935386" lon="-87.632612">
      </trkpt>
      <trkpt lat="41.941219" lon="-87.638833">
      </trkpt>
      <trkpt lat="41.950931" lon="-87.644376">
      </trkpt>
      <trkpt lat="41.960253" lon="-87.646094">
      </trkpt>
      <trkpt lat="41.962086" lon="-87.645534">
      </trkpt>
      <trkpt lat="41.961772" lon="-87.655148">
      </trkpt>
      <trkpt lat="41.964503" lon="-87.656894">
      </trkpt>
    </trkseg>
  </trk>
</gpx>