<?xml version="1.0" encoding="UTF-8"?>
<gpx xmlns="http://www.topografix.com/GPX/1/1" xmlns:xsi="http://www.w3.org/2001/XMLSchema-instance" xsi:schemaLocation="http://www.topografix.com/GPX/1/1 http://www.topografix.com/GPX/1/1/gpx.xsd" version="1.1" creator="gpx.py -- https://github.com/tkrajina/gpxpy">
  <trk>
    <trkseg>
      <trkpt lat="41.972674" lon="-87.660107">
      </trkpt>
      <trkpt lat="41.972678" lon="-87.659771">
      </trkpt>
      <trkpt lat="41.969021" lon="-87.659673">
      </trkpt>
      <trkpt lat="41.968876" lon="-87.669477">
      </trkpt>
      <trkpt lat="41.954302" lon="-87.66911">
      </trkpt>
      <trkpt lat="41.953982" lon="-87.698254">
      </trkpt>
      <trkpt lat="41.942795" lon="-87.697932">
      </trkpt>
      <trkpt lat="41.942777" lon="-87.701229">
      </trkpt>
      <trkpt lat="41.942777" lon="-87.701229">
      </trkpt>
      <trkpt lat="41.942795" lon="-87.697932">
      </trkpt>
      <trkpt lat="41.946686" lon="-87.698037">
      </trkpt>
      <trkpt lat="41.947064" lon="-87.665227">
      </trkpt>
      <trkpt lat="41.943401" lon="-87.66513">
      </trkpt>
      <trkpt lat="41.943396" lon="-87.665475">
      </trkpt>
      <trkpt lat="41.943396" lon="-87.665475">
      </trkpt>
      <trkpt lat="41.94311" lon="-87.688089">
      </trkpt>
      <trkpt lat="41.949742" lon="-87.688345">
      </trkpt>
      <trkpt lat="41.949742" lon="-87.688345">
      </trkpt>
      <trkpt lat="41.924902" lon="-87.687645">
      </trkpt>
      <trkpt lat="41.924878" lon="-87.690086">
      </trkpt>
      <trkpt lat="41.925214" lon="-87.690094">
      </trkpt>
      <trkpt lat="41.925214" lon="-87.690094">
      </trkpt>
      <trkpt lat="41.928523" lon="-87.690204">
      </trkpt>
      <trkpt lat="41.928366" lon="-87.689255">
      </trkpt>
      <trkpt lat="41.928661" lon="-87.687706">
      </trkpt>
      <trkpt lat="41.949742" lon="-87.688345">
      </trkpt>
      <trkpt lat="41.949742" lon="-87.688345">
      </trkpt>
      <trkpt lat="41.910324" lon="-87.687207">
      </trkpt>
      <trkpt lat="41.910165" lon="-87.701875">
      </trkpt>
      <trkpt lat="41.907241" lon="-87.70125">
      </trkpt>
      <trkpt lat="41.902886" lon="-87.702278">
      </trkpt>
      <trkpt lat="41.902888" lon="-87.701605">
      </trkpt>
      <trkpt lat="41.902888" lon="-87.701605">
      </trkpt>
      <trkpt lat="41.902886" lon="-87.702278">
      </trkpt>
      <trkpt lat="41.907241" lon="-87.70125">
      </trkpt>
      <trkpt lat="41.910165" lon="-87.701875">
      </trkpt>
      <trkpt lat="41.910324" lon="-87.687207">
      </trkpt>
      <trkpt lat="41.939468" lon="-87.688003">
      </trkpt>
      <trkpt lat="41.939838" lon="-87.658974">
      </trkpt>
      <trkpt lat="41.944409" lon="-87.659098">
      </trkpt>
      <trkpt lat="41.944451" lon="-87.656319">
      </trkpt>
      <trkpt lat="41.944451" lon="-87.656319">
      </trkpt>
      <trkpt lat="41.944458" lon="-87.654273">
      </trkpt>
      <trkpt lat="41.938193" lon="-87.649228">
      </trkpt>
      <trkpt lat="41.91731" lon="-87.648495">
      </trkpt>
      <trkpt lat="41.91731" lon="-87.648495">
      </trkpt>
      <trkpt lat="41.910927" lon="-87.648286">
      </trkpt>
      <trkpt lat="41.910674" lon="-87.664445">
      </trkpt>
      <trkpt lat="41.915886" lon="-87.668091">
      </trkpt>
      <trkpt lat="41.91815" lon="-87.670574">
      </trkpt>
      <trkpt lat="41.940439" lon="-87.709664">
      </trkpt>
      <trkpt lat="41.942208" lon="-87.714861">
      </trkpt>
      <trkpt lat="41.947985" lon="-87.719618">
      </trkpt>
      <trkpt lat="41.960998" lon="-87.742619">
      </trkpt>
      <trkpt lat="41.966033" lon="-87.752403">
      </trkpt>
      <trkpt lat="41.967937" lon="-87.75503">
      </trkpt>
      <trkpt lat="41.967938" lon="-87.757623">
      </trkpt>
      <trkpt lat="41.968431" lon="-87.758399">
      </trkpt>
      <trkpt lat="41.968431" lon="-87.758399">
      </trkpt>
      <trkpt lat="41.967875" lon="-87.757622">
      </trkpt>
      <trkpt lat="41.968033" lon="-87.747723">
      </trkpt>
      <trkpt lat="41.972896" lon="-87.747918">
      </trkpt>
      <trkpt lat="41.972794" lon="-87.747761">
      </trkpt>
      <trkpt lat="41.966563" lon="-87.747223">
      </trkpt>
      <trkpt lat="41.963113" lon="-87.745961">
      </trkpt>
      <trkpt lat="41.960129" lon="-87.742125">
      </trkpt>
      <trkpt lat="41.947613" lon="-87.719592">
      </trkpt>
      <trkpt lat="41.94215" lon="-87.715306">
      </trkpt>
      <trkpt lat="41.940524" lon="-87.710219">
      </trkpt>
      <trkpt lat="41.933659" lon="-87.698173">
      </trkpt>
      <trkpt lat="41.919706" lon="-87.673831">
      </trkpt>
      <trkpt lat="41.918264" lon="-87.671882">
      </trkpt>
      <trkpt lat="41.917859" lon="-87.671887">
      </trkpt>
      <trkpt lat="41.91776" lon="-87.677621">
      </trkpt>
      <trkpt lat="41.894261" lon="-87.677009">
      </trkpt>
      <trkpt lat="41.894261" lon="-87.677009">
      </trkpt>
      <trkpt lat="41.925026" lon="-87.677893">
      </trkpt>
      <trkpt lat="41.924981" lon="-87.681912">
      </trkpt>
      <trkpt lat="41.926707" lon="-87.685177">
      </trkpt>
      <trkpt lat="41.937344" lon="-87.704001">
      </trkpt>
      <trkpt lat="41.939132" lon="-87.706803">
      </trkpt>
      <trkpt lat="41.939096" lon="-87.727187">
      </trkpt>
      <trkpt lat="41.938375" lon="-87.727167">
      </trkpt>
      <trkpt lat="41.938375" lon="-87.727167">
      </trkpt>
      <trkpt lat="41.93727" lon="-87.727137">
      </trkpt>
      <trkpt lat="41.937285" lon="-87.72591">
      </trkpt>
      <trkpt lat="41.936078" lon="-87.723937">
      </trkpt>
      <trkpt lat="41.935463" lon="-87.724624">
      </trkpt>
      <trkpt lat="41.93209" lon="-87.724532">
      </trkpt>
      <trkpt lat="41.93209" lon="-87.724532">
      </trkpt>
      <trkpt lat="41.931828" lon="-87.724523">
      </trkpt>
      <trkpt lat="41.931344" lon="-87.761321">
      </trkpt>
      <trkpt lat="41.931863" lon="-87.76134">
      </trkpt>
      <trkpt lat="41.931863" lon="-87.76134">
      </trkpt>
      <trkpt lat="41.931344" lon="-87.761321">
      </trkpt>
      <trkpt lat="41.931279" lon="-87.766244">
      </trkpt>
      <trkpt lat="41.898494" lon="-87.765522">
      </trkpt>
      <trkpt lat="41.898428" lon="-87.770378">
      </trkpt>
      <trkpt lat="41.89751" lon="-87.770348">
      </trkpt>
      <trkpt lat="41.897508" lon="-87.77057">
      </trkpt>
      <trkpt lat="41.897508" lon="-87.77057">
      </trkpt>
      <trkpt lat="41.897444" lon="-87.775216">
      </trkpt>
      <trkpt lat="41.871045" lon="-87.774314">
      </trkpt>
      <trkpt lat="41.875329" lon="-87.650308">
      </trkpt>
      <trkpt lat="41.875215" lon="-87.648052">
      </trkpt>
      <trkpt lat="41.869485" lon="-87.644983">
      </trkpt>
      <trkpt lat="41.850609" lon="-87.644998">
      </trkpt>
      <trkpt lat="41.847255" lon="-87.642186">
      </trkpt>
      <trkpt lat="41.845323" lon="-87.634652">
      </trkpt>
      <trkpt lat="41.84209" lon="-87.63091">
      </trkpt>
      <trkpt lat="41.779686" lon="-87.631207">
      </trkpt>
      <trkpt lat="41.772231" lon="-87.626113">
      </trkpt>
      <trkpt lat="41.72052" lon="-87.624621">
      </trkpt>
      <trkpt lat="41.713653" lon="-87.621065">
      </trkpt>
      <trkpt lat="41.713191" lon="-87.600337">
      </trkpt>
      <trkpt lat="41.708673" lon="-87.592948">
      </trkpt>
      <trkpt lat="41.703483" lon="-87.592406">
      </trkpt>
      <trkpt lat="41.685512" lon="-87.601798">
      </trkpt>
      <trkpt lat="41.676933" lon="-87.601728">
      </trkpt>
      <trkpt lat="41.660202" lon="-87.589096">
      </trkpt>
      <trkpt lat="41.659512" lon="-87.59119">
      </trkpt>
      <trkpt lat="41.658851" lon="-87.560717">
      </trkpt>
      <trkpt lat="41.656176" lon="-87.555878">
      </trkpt>
      <trkpt lat="41.65737" lon="-87.555649">
      </trkpt>
      <trkpt lat="41.65736" lon="-87.553811">
      </trkpt>
      <trkpt lat="41.656889" lon="-87.553812">
      </trkpt>
      <trkpt lat="41.656889" lon="-87.553812">
      </trkpt>
      <trkpt lat="41.656889" lon="-87.553812">
      </trkpt>
      <trkpt lat="41.656889" lon="-87.553812">
      </trkpt>
      <trkpt lat="41.65736" lon="-87.553811">
      </trkpt>
      <trkpt lat="41.657281" lon="-87.557102">
      </trkpt>
      <trkpt lat="41.660149" lon="-87.585314">
      </trkpt>
      <trkpt lat="41.662478" lon="-87.590822">
      </trkpt>
      <trkpt lat="41.675885" lon="-87.601403">
      </trkpt>
      <trkpt lat="41.685726" lon="-87.601563">
      </trkpt>
      <trkpt lat="41.69908" lon="-87.594329">
      </trkpt>
      <trkpt lat="41.705863" lon="-87.591535">
      </trkpt>
      <trkpt lat="41.711823" lon="-87.595707">
      </trkpt>
      <trkpt lat="41.713575" lon="-87.618809">
      </trkpt>
      <trkpt lat="41.717096" lon="-87.62372">
      </trkpt>
      <trkpt lat="41.769497" lon="-87.625651">
      </trkpt>
      <trkpt lat="41.779578" lon="-87.630526">
      </trkpt>
      <trkpt lat="41.819951" lon="-87.629968">
      </trkpt>
      <trkpt lat="41.823673" lon="-87.629633">
      </trkpt>
      <trkpt lat="41.823804" lon="-87.619991">
      </trkpt>
      <trkpt lat="41.822908" lon="-87.619964">
      </trkpt>
      <trkpt lat="41.822908" lon="-87.619964">
      </trkpt>
      <trkpt lat="41.822908" lon="-87.619964">
      </trkpt>
      <trkpt lat="41.822908" lon="-87.619964">
      </trkpt>
      <trkpt lat="41.823804" lon="-87.619991">
      </trkpt>
      <trkpt lat="41.824107" lon="-87.604016">
      </trkpt>
      <trkpt lat="41.825435" lon="-87.599849">
      </trkpt>
      <trkpt lat="41.829367" lon="-87.604294">
      </trkpt>
      <trkpt lat="41.833032" lon="-87.607125">
      </trkpt>
      <trkpt lat="41.838145" lon="-87.608141">
      </trkpt>
      <trkpt lat="41.852437" lon="-87.613467">
      </trkpt>
      <trkpt lat="41.863523" lon="-87.618709">
      </trkpt>
      <trkpt lat="41.867696" lon="-87.62045">
      </trkpt>
      <trkpt lat="41.873218" lon="-87.620589">
      </trkpt>
      <trkpt lat="41.873158" lon="-87.624138">
      </trkpt>
      <trkpt lat="41.874529" lon="-87.624171">
      </trkpt>
      <trkpt lat="41.874402" lon="-87.626634">
      </trkpt>
      <trkpt lat="41.874067" lon="-87.626671">
      </trkpt>
      <trkpt lat="41.874067" lon="-87.626671">
      </trkpt>
      <trkpt lat="41.874402" lon="-87.626634">
      </trkpt>
      <trkpt lat="41.874392" lon="-87.627593">
      </trkpt>
      <trkpt lat="41.874559" lon="-87.6276">
      </trkpt>
      <trkpt lat="41.874543" lon="-87.629195">
      </trkpt>
      <trkpt lat="41.889242" lon="-87.629579">
      </trkpt>
      <trkpt lat="41.889251" lon="-87.628704">
      </trkpt>
      <trkpt lat="41.889251" lon="-87.628704">
      </trkpt>
      <trkpt lat="41.889586" lon="-87.625331">
      </trkpt>
      <trkpt lat="41.892522" lon="-87.62541">
      </trkpt>
      <trkpt lat="41.892541" lon="-87.624121">
      </trkpt>
      <trkpt lat="41.900824" lon="-87.624042">
      </trkpt>
      <trkpt lat="41.902709" lon="-87.623664">
      </trkpt>
      <trkpt lat="41.912141" lon="-87.62589">
      </trkpt>
      <trkpt lat="41.918036" lon="-87.628743">
      </trkpt>
      <trkpt lat="41.928415" lon="-87.631851">
      </trkpt>
      <trkpt lat="41.934381" lon="-87.632152">
      </trkpt>
      <trkpt lat="41.936704" lon="-87.633661">
      </trkpt>
      <trkpt lat="41.939073" lon="-87.63676">
      </trkpt>
      <trkpt lat="41.940568" lon="-87.638088">
      </trkpt>
      <trkpt lat="41.939965" lon="-87.650679">
      </trkpt>
      <trkpt lat="41.945603" lon="-87.655221">
      </trkpt>
      <trkpt lat="41.945239" lon="-87.664502">
      </trkpt>
      <trkpt lat="41.945239" lon="-87.664502">
      </trkpt>
      <trkpt lat="41.945247" lon="-87.663953">
      </trkpt>
      <trkpt lat="41.936111" lon="-87.663682">
      </trkpt>
      <trkpt lat="41.925453" lon="-87.648766">
      </trkpt>
      <trkpt lat="41.91731" lon="-87.648495">
      </trkpt>
      <trkpt lat="41.91731" lon="-87.648495">
      </trkpt>
      <trkpt lat="41.925453" lon="-87.648766">
      </trkpt>
      <trkpt lat="41.926223" lon="-87.63067">
      </trkpt>
      <trkpt lat="41.928415" lon="-87.631851">
      </trkpt>
      <trkpt lat="41.935386" lon="-87.632612">
      </trkpt>
      <trkpt lat="41.941219" lon="-87.638833">
      </trkpt>
      <trkpt lat="41.951086" lon="-87.644437">
      </trkpt>
      <trkpt lat="41.955266" lon="-87.644701">
      </trkpt>
      <trkpt lat="41.974381" lon="-87.649207">
      </trkpt>
      <trkpt lat="41.976812" lon="-87.649649">
      </trkpt>
      <trkpt lat="41.976095" lon="-87.674927">
      </trkpt>
      <trkpt lat="41.974623" lon="-87.67488">
      </trkpt>
      <trkpt lat="41.974623" lon="-87.67488">
      </trkpt>
      <trkpt lat="41.97335" lon="-87.674845">
      </trkpt>
      <trkpt lat="41.973436" lon="-87.669592">
      </trkpt>
      <trkpt lat="41.968876" lon="-87.669477">
      </trkpt>
      <trkpt lat="41.969276" lon="-87.648824">
      </trkpt>
      <trkpt lat="41.965793" lon="-87.64734">
      </trkpt>
      <trkpt lat="41.950978" lon="-87.644611">
      </trkpt>
      <trkpt lat="41.941067" lon="-87.638957">
      </trkpt>
      <trkpt lat="41.93482" lon="-87.632527">
      </trkpt>
      <trkpt lat="41.928427" lon="-87.632048">
      </trkpt>
      <trkpt lat="41.915117" lon="-87.627538">
      </trkpt>
      <trkpt lat="41.913042" lon="-87.627206">
      </trkpt>
      <trkpt lat="41.912346" lon="-87.628067">
      </trkpt>
      <trkpt lat="41.913404" lon="-87.631075">
      </trkpt>
      <trkpt lat="41.913169" lon="-87.632856">
      </trkpt>
      <trkpt lat="41.915623" lon="-87.634358">
      </trkpt>
      <trkpt lat="41.915479" lon="-87.634849">
      </trkpt>
      <trkpt lat="41.918106" lon="-87.638503">
      </trkpt>
      <trkpt lat="41.918106" lon="-87.638503">
      </trkpt>
      <trkpt lat="41.925453" lon="-87.648766">
      </trkpt>
      <trkpt lat="41.929091" lon="-87.648892">
      </trkpt>
      <trkpt lat="41.929095" lon="-87.647955">
      </trkpt>
      <trkpt lat="41.929095" lon="-87.647955">
      </trkpt>
      <trkpt lat="41.929091" lon="-87.648892">
      </trkpt>
      <trkpt lat="41.925453" lon="-87.648766">
      </trkpt>
      <trkpt lat="41.925216" lon="-87.663327">
      </trkpt>
      <trkpt lat="41.921626" lon="-87.6632">
      </trkpt>
      <trkpt lat="41.921608" lon="-87.664379">
      </trkpt>
      <trkpt lat="41.921692" lon="-87.664499">
      </trkpt>
      <trkpt lat="41.921692" lon="-87.664499">
      </trkpt>
      <trkpt lat="41.921608" lon="-87.664379">
      </trkpt>
      <trkpt lat="41.92139" lon="-87.677765">
      </trkpt>
      <trkpt lat="41.91776" lon="-87.677621">
      </trkpt>
      <trkpt lat="41.917587" lon="-87.687413">
      </trkpt>
      <trkpt lat="41.910324" lon="-87.687207">
      </trkpt>
      <trkpt lat="41.910165" lon="-87.701875">
      </trkpt>
      <trkpt lat="41.907241" lon="-87.70125">
      </trkpt>
      <trkpt lat="41.904322" lon="-87.70207">
      </trkpt>
      <trkpt lat="41.902886" lon="-87.702278">
      </trkpt>
      <trkpt lat="41.902888" lon="-87.701605">
      </trkpt>
      <trkpt lat="41.902888" lon="-87.701605">
      </trkpt>
      <trkpt lat="41.902928" lon="-87.696883">
      </trkpt>
      <trkpt lat="41.895661" lon="-87.696699">
      </trkpt>
      <trkpt lat="41.896586" lon="-87.63421">
      </trkpt>
      <trkpt lat="41.898867" lon="-87.634293">
      </trkpt>
      <trkpt lat="41.898867" lon="-87.634293">
      </trkpt>
      <trkpt lat="41.896586" lon="-87.63421">
      </trkpt>
      <trkpt lat="41.896254" lon="-87.65541">
      </trkpt>
      <trkpt lat="41.907965" lon="-87.67369">
      </trkpt>
      <trkpt lat="41.907182" lon="-87.6746">
      </trkpt>
      <trkpt lat="41.9071" lon="-87.679817">
      </trkpt>
      <trkpt lat="41.909327" lon="-87.679878">
      </trkpt>
      <trkpt lat="41.909364" lon="-87.677955">
      </trkpt>
      <trkpt lat="41.909364" lon="-87.677955">
      </trkpt>
      <trkpt lat="41.909373" lon="-87.677447">
      </trkpt>
      <trkpt lat="41.910469" lon="-87.677494">
      </trkpt>
      <trkpt lat="41.910646" lon="-87.667084">
      </trkpt>
      <trkpt lat="41.910411" lon="-87.667076">
      </trkpt>
      <trkpt lat="41.910411" lon="-87.667076">
      </trkpt>
      <trkpt lat="41.910646" lon="-87.667084">
      </trkpt>
      <trkpt lat="41.910674" lon="-87.664445">
      </trkpt>
      <trkpt lat="41.915886" lon="-87.668091">
      </trkpt>
      <trkpt lat="41.91815" lon="-87.670574">
      </trkpt>
      <trkpt lat="41.937344" lon="-87.704001">
      </trkpt>
      <trkpt lat="41.939132" lon="-87.706803">
      </trkpt>
      <trkpt lat="41.939347" lon="-87.709692">
      </trkpt>
      <trkpt lat="41.93884" lon="-87.746879">
      </trkpt>
      <trkpt lat="41.931542" lon="-87.746595">
      </trkpt>
      <trkpt lat="41.93147" lon="-87.751741">
      </trkpt>
      <trkpt lat="41.93147" lon="-87.751741">
      </trkpt>
      <trkpt lat="41.93147" lon="-87.751741">
      </trkpt>
      <trkpt lat="41.93147" lon="-87.751741">
      </trkpt>
      <trkpt lat="41.932116" lon="-87.696547">
      </trkpt>
      <trkpt lat="41.916815" lon="-87.669405">
      </trkpt>
      <trkpt lat="41.909975" lon="-87.664752">
      </trkpt>
      <trkpt lat="41.906635" lon="-87.661559">
      </trkpt>
      <trkpt lat="41.900902" lon="-87.660921">
      </trkpt>
      <trkpt lat="41.896968" lon="-87.659049">
      </trkpt>
      <trkpt lat="41.895018" lon="-87.657114">
      </trkpt>
      <trkpt lat="41.891931" lon="-87.653963">
      </trkpt>
      <trkpt lat="41.892554" lon="-87.651034">
      </trkpt>
      <trkpt lat="41.892368" lon="-87.63704">
      </trkpt>
      <trkpt lat="41.896556" lon="-87.637178">
      </trkpt>
      <trkpt lat="41.896586" lon="-87.63421">
      </trkpt>
      <trkpt lat="41.898867" lon="-87.634293">
      </trkpt>
      <trkpt lat="41.898867" lon="-87.634293">
      </trkpt>
      <trkpt lat="41.898867" lon="-87.634293">
      </trkpt>
      <trkpt lat="41.898867" lon="-87.634293">
      </trkpt>
      <trkpt lat="41.896586" lon="-87.63421">
      </trkpt>
      <trkpt lat="41.896254" lon="-87.65541">
      </trkpt>
      <trkpt lat="41.903976" lon="-87.667446">
      </trkpt>
      <trkpt lat="41.90882" lon="-87.667586">
      </trkpt>
      <trkpt lat="41.908834" lon="-87.666429">
      </trkpt>
      <trkpt lat="41.909028" lon="-87.666435">
      </trkpt>
      <trkpt lat="41.909028" lon="-87.666435">
      </trkpt>
      <trkpt lat="41.910658" lon="-87.666509">
      </trkpt>
      <trkpt lat="41.910633" lon="-87.66776">
      </trkpt>
      <trkpt lat="41.899711" lon="-87.667457">
      </trkpt>
      <trkpt lat="41.899597" lon="-87.674089">
      </trkpt>
      <trkpt lat="41.90052" lon="-87.67412">
      </trkpt>
      <trkpt lat="41.90052" lon="-87.67412">
      </trkpt>
      <trkpt lat="41.899597" lon="-87.674089">
      </trkpt>
      <trkpt lat="41.899544" lon="-87.677161">
      </trkpt>
      <trkpt lat="41.895912" lon="-87.677057">
      </trkpt>
      <trkpt lat="41.895594" lon="-87.702191">
      </trkpt>
      <trkpt lat="41.891131" lon="-87.701974">
      </trkpt>
      <trkpt lat="41.889772" lon="-87.701519">
      </trkpt>
      <trkpt lat="41.888916" lon="-87.701464">
      </trkpt>
      <trkpt lat="41.888934" lon="-87.700036">
      </trkpt>
      <trkpt lat="41.889326" lon="-87.699076">
      </trkpt>
      <trkpt lat="41.889373" lon="-87.698543">
      </trkpt>
      <trkpt lat="41.889373" lon="-87.698543">
      </trkpt>
      <trkpt lat="41.889326" lon="-87.699076">
      </trkpt>
      <trkpt lat="41.888934" lon="-87.700036">
      </trkpt>
      <trkpt lat="41.888916" lon="-87.701464">
      </trkpt>
      <trkpt lat="41.884089" lon="-87.701291">
      </trkpt>
      <trkpt lat="41.885169" lon="-87.720256">
      </trkpt>
      <trkpt lat="41.885279" lon="-87.720919">
      </trkpt>
      <trkpt lat="41.886818" lon="-87.720964">
      </trkpt>
      <trkpt lat="41.886809" lon="-87.721861">
      </trkpt>
      <trkpt lat="41.886809" lon="-87.721861">
      </trkpt>
      <trkpt lat="41.886818" lon="-87.720964">
      </trkpt>
      <trkpt lat="41.902715" lon="-87.721433">
      </trkpt>
      <trkpt lat="41.902357" lon="-87.745973">
      </trkpt>
      <trkpt lat="41.928818" lon="-87.746476">
      </trkpt>
      <trkpt lat="41.92871" lon="-87.753872">
      </trkpt>
      <trkpt lat="41.928954" lon="-87.75388">
      </trkpt>
      <trkpt lat="41.928954" lon="-87.75388">
      </trkpt>
      <trkpt lat="41.92962" lon="-87.753902">
      </trkpt>
      <trkpt lat="41.929723" lon="-87.746593">
      </trkpt>
      <trkpt lat="41.913935" lon="-87.746005">
      </trkpt>
      <trkpt lat="41.900057" lon="-87.711889">
      </trkpt>
      <trkpt lat="41.896575" lon="-87.702222">
      </trkpt>
      <trkpt lat="41.875937" lon="-87.701067">
      </trkpt>
      <trkpt lat="41.875893" lon="-87.705721">
      </trkpt>
      <trkpt lat="41.876665" lon="-87.705737">
      </trkpt>
      <trkpt lat="41.876665" lon="-87.705737">
      </trkpt>
      <trkpt lat="41.875893" lon="-87.705721">
      </trkpt>
      <trkpt lat="41.875891" lon="-87.70598">
      </trkpt>
      <trkpt lat="41.898325" lon="-87.706651">
      </trkpt>
      <trkpt lat="41.900181" lon="-87.711412">
      </trkpt>
      <trkpt lat="41.908233" lon="-87.711856">
      </trkpt>
      <trkpt lat="41.90821" lon="-87.714298">
      </trkpt>
      <trkpt lat="41.909624" lon="-87.714347">
      </trkpt>
      <trkpt lat="41.909624" lon="-87.714347">
      </trkpt>
      <trkpt lat="41.910015" lon="-87.71436">
      </trkpt>
      <trkpt lat="41.910104" lon="-87.706907">
      </trkpt>
      <trkpt lat="41.898325" lon="-87.706651">
      </trkpt>
      <trkpt lat="41.896575" lon="-87.702222">
      </trkpt>
      <trkpt lat="41.884089" lon="-87.701291">
      </trkpt>
      <trkpt lat="41.884621" lon="-87.686532">
      </trkpt>
      <trkpt lat="41.868999" lon="-87.686177">
      </trkpt>
      <trkpt lat="41.8692" lon="-87.670488">
      </trkpt>
      <trkpt lat="41.8692" lon="-87.670488">
      </trkpt>
      <trkpt lat="41.869264" lon="-87.666399">
      </trkpt>
      <trkpt lat="41.875179" lon="-87.666563">
      </trkpt>
      <trkpt lat="41.875183" lon="-87.666292">
      </trkpt>
      <trkpt lat="41.875604" lon="-87.6605">
      </trkpt>
      <trkpt lat="41.875329" lon="-87.650308">
      </trkpt>
      <trkpt lat="41.875302" lon="-87.647601">
      </trkpt>
      <trkpt lat="41.874563" lon="-87.645452">
      </trkpt>
      <trkpt lat="41.875077" lon="-87.644482">
      </trkpt>
      <trkpt lat="41.876036" lon="-87.64458">
      </trkpt>
      <trkpt lat="41.877925" lon="-87.64558">
      </trkpt>
      <trkpt lat="41.884644" lon="-87.645654">
      </trkpt>
      <trkpt lat="41.886212" lon="-87.646015">
      </trkpt>
      <trkpt lat="41.88874" lon="-87.647638">
      </trkpt>
      <trkpt lat="41.890597" lon="-87.650048">
      </trkpt>
      <trkpt lat="41.891699" lon="-87.651108">
      </trkpt>
      <trkpt lat="41.892164" lon="-87.650896">
      </trkpt>
      <trkpt lat="41.89242" lon="-87.65026">
      </trkpt>
      <trkpt lat="41.892423" lon="-87.632511">
      </trkpt>
      <trkpt lat="41.895614" lon="-87.632605">
      </trkpt>
      <trkpt lat="41.895653" lon="-87.630373">
      </trkpt>
      <trkpt lat="41.895653" lon="-87.630373">
      </trkpt>
      <trkpt lat="41.895665" lon="-87.629762">
      </trkpt>
      <trkpt lat="41.896655" lon="-87.62978">
      </trkpt>
      <trkpt lat="41.896403" lon="-87.64782">
      </trkpt>
      <trkpt lat="41.890088" lon="-87.647611">
      </trkpt>
      <trkpt lat="41.890082" lon="-87.64876">
      </trkpt>
      <trkpt lat="41.889662" lon="-87.648752">
      </trkpt>
      <trkpt lat="41.889662" lon="-87.648752">
      </trkpt>
      <trkpt lat="41.885646" lon="-87.648644">
      </trkpt>
      <trkpt lat="41.885682" lon="-87.646258">
      </trkpt>
      <trkpt lat="41.881827" lon="-87.645999">
      </trkpt>
      <trkpt lat="41.880956" lon="-87.646134">
      </trkpt>
      <trkpt lat="41.879569" lon="-87.646145">
      </trkpt>
      <trkpt lat="41.878121" lon="-87.646166">
      </trkpt>
      <trkpt lat="41.875728" lon="-87.649135">
      </trkpt>
      <trkpt lat="41.875633" lon="-87.697949">
      </trkpt>
      <trkpt lat="41.871015" lon="-87.767488">
      </trkpt>
      <trkpt lat="41.874235" lon="-87.810299">
      </trkpt>
      <trkpt lat="41.869778" lon="-87.887193">
      </trkpt>
      <trkpt lat="41.873868" lon="-87.903102">
      </trkpt>
      <trkpt lat="41.868556" lon="-87.918965">
      </trkpt>
      <trkpt lat="41.857187" lon="-87.929548">
      </trkpt>
      <trkpt lat="41.845298" lon="-87.946695">
      </trkpt>
      <trkpt lat="41.84403" lon="-87.978457">
      </trkpt>
      <trkpt lat="41.832098" lon="-88.015984">
      </trkpt>
      <trkpt lat="41.827558" lon="-88.021676">
      </trkpt>
      <trkpt lat="41.813668" lon="-88.028569">
      </trkpt>
      <trkpt lat="41.810006" lon="-88.034292">
      </trkpt>
      <trkpt lat="41.810084" lon="-88.073498">
      </trkpt>
      <trkpt lat="41.805662" lon="-88.087614">
      </trkpt>
      <trkpt lat="41.806483" lon="-88.159381">
      </trkpt>
      <trkpt lat="41.807737" lon="-88.164816">
      </trkpt>
      <trkpt lat="41.808158" lon="-88.166633">
      </trkpt>
      <trkpt lat="41.842049" lon="-88.17093">
      </trkpt>
      <trkpt lat="41.856978" lon="-88.160935">
      </trkpt>
      <trkpt lat="41.857012" lon="-88.176889">
      </trkpt>
      <trkpt lat="41.861458" lon="-88.192877">
      </trkpt>
      <trkpt lat="41.863763" lon="-88.19473">
      </trkpt>
      <trkpt lat="41.885083" lon="-88.194407">
      </trkpt>
      <trkpt lat="41.884636" lon="-88.204904">
      </trkpt>
      <trkpt lat="41.884636" lon="-88.204904">
      </trkpt>
      <trkpt lat="41.882" lon="-88.200892">
      </trkpt>
      <trkpt lat="41.882082" lon="-88.194625">
      </trkpt>
      <trkpt lat="41.85856" lon="-88.194851">
      </trkpt>
      <trkpt lat="41.850282" lon="-88.203689">
      </trkpt>
      <trkpt lat="41.830769" lon="-88.201072">
      </trkpt>
      <trkpt lat="41.815559" lon="-88.205031">
      </trkpt>
      <trkpt lat="41.802987" lon="-88.203554">
      </trkpt>
      <trkpt lat="41.806297" lon="-88.170986">
      </trkpt>
      <trkpt lat="41.805456" lon="-88.087366">
      </trkpt>
      <trkpt lat="41.809888" lon="-88.073551">
      </trkpt>
      <trkpt lat="41.809533" lon="-88.035675">
      </trkpt>
      <trkpt lat="41.81336" lon="-88.028541">
      </trkpt>
      <trkpt lat="41.830068" lon="-88.01898">
      </trkpt>
      <trkpt lat="41.836259" lon="-88.000391">
      </trkpt>
      <trkpt lat="41.843825" lon="-87.978408">
      </trkpt>
      <trkpt lat="41.845432" lon="-87.94557">
      </trkpt>
      <trkpt lat="41.853259" lon="-87.932811">
      </trkpt>
      <trkpt lat="41.864502" lon="-87.922937">
      </trkpt>
      <trkpt lat="41.872171" lon="-87.911351">
      </trkpt>
      <trkpt lat="41.873316" lon="-87.901684">
      </trkpt>
      <trkpt lat="41.869444" lon="-87.888177">
      </trkpt>
      <trkpt lat="41.869576" lon="-87.882376">
      </trkpt>
      <trkpt lat="41.874042" lon="-87.810791">
      </trkpt>
      <trkpt lat="41.87064" lon="-87.769061">
      </trkpt>
      <trkpt lat="41.875168" lon="-87.69832">
      </trkpt>
      <trkpt lat="41.875329" lon="-87.650308">
      </trkpt>
      <trkpt lat="41.876036" lon="-87.64458">
      </trkpt>
      <trkpt lat="41.880374" lon="-87.645275">
      </trkpt>
      <trkpt lat="41.881847" lon="-87.645355">
      </trkpt>
      <trkpt lat="41.882198" lon="-87.645393">
      </trkpt>
      <trkpt lat="41.888483" lon="-87.647404">
      </trkpt>
      <trkpt lat="41.897251" lon="-87.658783">
      </trkpt>
      <trkpt lat="41.907951" lon="-87.662226">
      </trkpt>
      <trkpt lat="41.910674" lon="-87.664445">
      </trkpt>
      <trkpt lat="41.910848" lon="-87.653121">
      </trkpt>
      <trkpt lat="41.937175" lon="-87.654016">
      </trkpt>
      <trkpt lat="41.937186" lon="-87.653552">
      </trkpt>
      <trkpt lat="41.937074" lon="-87.65355">
      </trkpt>
      <trkpt lat="41.937074" lon="-87.65355">
      </trkpt>
      <trkpt lat="41.937186" lon="-87.653552">
      </trkpt>
      <trkpt lat="41.937175" lon="-87.654016">
      </trkpt>
      <trkpt lat="41.929016" lon="-87.653741">
      </trkpt>
      <trkpt lat="41.921883" lon="-87.643784">
      </trkpt>
      <trkpt lat="41.912815" lon="-87.6435">
      </trkpt>
      <trkpt lat="41.912841" lon="-87.641129">
      </trkpt>
      <trkpt lat="41.911281" lon="-87.641023">
      </trkpt>
      <trkpt lat="41.911281" lon="-87.641023">
      </trkpt>
      <trkpt lat="41.911125" lon="-87.641018">
      </trkpt>
      <trkpt lat="41.910165" lon="-87.701875">
      </trkpt>
      <trkpt lat="41.907241" lon="-87.70125">
      </trkpt>
      <trkpt lat="41.902886" lon="-87.702278">
      </trkpt>
      <trkpt lat="41.902888" lon="-87.701605">
      </trkpt>
      <trkpt lat="41.902888" lon="-87.701605">
      </trkpt>
      <trkpt lat="41.902886" lon="-87.702278">
      </trkpt>
      <trkpt lat="41.907241" lon="-87.70125">
      </trkpt>
      <trkpt lat="41.910165" lon="-87.701875">
      </trkpt>
      <trkpt lat="41.910635" lon="-87.667641">
      </trkpt>
      <trkpt lat="41.916129" lon="-87.66782">
      </trkpt>
      <trkpt lat="41.917067" lon="-87.663815">
      </trkpt>
      <trkpt lat="41.917139" lon="-87.658378">
      </trkpt>
      <trkpt lat="41.921676" lon="-87.65834">
      </trkpt>
      <trkpt lat="41.921694" lon="-87.657125">
      </trkpt>
      <trkpt lat="41.920202" lon="-87.657077">
      </trkpt>
      <trkpt lat="41.920202" lon="-87.657077">
      </trkpt>
      <trkpt lat="41.918057" lon="-87.657007">
      </trkpt>
      <trkpt lat="41.918199" lon="-87.647123">
      </trkpt>
      <trkpt lat="41.918199" lon="-87.647123">
      </trkpt>
      <trkpt lat="41.918178" lon="-87.648523">
      </trkpt>
      <trkpt lat="41.896403" lon="-87.64782">
      </trkpt>
      <trkpt lat="41.896269" lon="-87.654734">
      </trkpt>
      <trkpt lat="41.893069" lon="-87.657416">
      </trkpt>
      <trkpt lat="41.889992" lon="-87.657358">
      </trkpt>
      <trkpt lat="41.889981" lon="-87.658624">
      </trkpt>
      <trkpt lat="41.889981" lon="-87.658624">
      </trkpt>
      <trkpt lat="41.890005" lon="-87.655763">
      </trkpt>
      <trkpt lat="41.889907" lon="-87.655799">
      </trkpt>
      <trkpt lat="41.885529" lon="-87.655637">
      </trkpt>
      <trkpt lat="41.885544" lon="-87.654782">
      </trkpt>
      <trkpt lat="41.885544" lon="-87.654782">
      </trkpt>
      <trkpt lat="41.88576" lon="-87.626286">
      </trkpt>
      <trkpt lat="41.886804" lon="-87.626312">
      </trkpt>
      <trkpt lat="41.886814" lon="-87.625797">
      </trkpt>
      <trkpt lat="41.886814" lon="-87.625797">
      </trkpt>
      <trkpt lat="41.886804" lon="-87.626312">
      </trkpt>
      <trkpt lat="41.887226" lon="-87.626463">
      </trkpt>
      <trkpt lat="41.887064" lon="-87.626741">
      </trkpt>
      <trkpt lat="41.886951" lon="-87.627165">
      </trkpt>
      <trkpt lat="41.886949" lon="-87.631015">
      </trkpt>
      <trkpt lat="41.882086" lon="-87.63088">
      </trkpt>
      <trkpt lat="41.882086" lon="-87.63088">
      </trkpt>
      <trkpt lat="41.875701" lon="-87.630715">
      </trkpt>
      <trkpt lat="41.875644" lon="-87.641651">
      </trkpt>
      <trkpt lat="41.876207" lon="-87.646562">
      </trkpt>
      <trkpt lat="41.872433" lon="-87.645662">
      </trkpt>
      <trkpt lat="41.850828" lon="-87.645091">
      </trkpt>
      <trkpt lat="41.847292" lon="-87.642257">
      </trkpt>
      <trkpt lat="41.845323" lon="-87.634652">
      </trkpt>
      <trkpt lat="41.84209" lon="-87.63091">
      </trkpt>
      <trkpt lat="41.79178" lon="-87.631289">
      </trkpt>
      <trkpt lat="41.783322" lon="-87.631532">
      </trkpt>
      <trkpt lat="41.7799" lon="-87.631838">
      </trkpt>
      <trkpt lat="41.78006" lon="-87.625367">
      </trkpt>
      <trkpt lat="41.779128" lon="-87.6254">
      </trkpt>
      <trkpt lat="41.779128" lon="-87.6254">
      </trkpt>
      <trkpt lat="41.772818" lon="-87.625218">
      </trkpt>
      <trkpt lat="41.772715" lon="-87.62998">
      </trkpt>
      <trkpt lat="41.780433" lon="-87.630149">
      </trkpt>
      <trkpt lat="41.807989" lon="-87.63142">
      </trkpt>
      <trkpt lat="41.812785" lon="-87.629665">
      </trkpt>
      <trkpt lat="41.837743" lon="-87.630393">
      </trkpt>
      <trkpt lat="41.844144" lon="-87.631347">
      </trkpt>
      <trkpt lat="41.847354" lon="-87.642036">
      </trkpt>
      <trkpt lat="41.85074" lon="-87.644829">
      </trkpt>
      <trkpt lat="41.867845" lon="-87.644517">
      </trkpt>
      <trkpt lat="41.873521" lon="-87.644628">
      </trkpt>
      <trkpt lat="41.875725" lon="-87.645646">
      </trkpt>
      <trkpt lat="41.875863" lon="-87.649223">
      </trkpt>
      <trkpt lat="41.876121" lon="-87.662425">
      </trkpt>
      <trkpt lat="41.876354" lon="-87.666742">
      </trkpt>
      <trkpt lat="41.869262" lon="-87.666531">
      </trkpt>
      <trkpt lat="41.8692" lon="-87.670488">
      </trkpt>
      <trkpt lat="41.8692" lon="-87.670488">
      </trkpt>
      <trkpt lat="41.869264" lon="-87.666399">
      </trkpt>
      <trkpt lat="41.875179" lon="-87.666563">
      </trkpt>
      <trkpt lat="41.875183" lon="-87.666292">
      </trkpt>
      <trkpt lat="41.875329" lon="-87.650308">
      </trkpt>
      <trkpt lat="41.874563" lon="-87.645452">
      </trkpt>
      <trkpt lat="41.876036" lon="-87.64458">
      </trkpt>
      <trkpt lat="41.886419" lon="-87.646101">
      </trkpt>
      <trkpt lat="41.891702" lon="-87.651689">
      </trkpt>
      <trkpt lat="41.896836" lon="-87.65868">
      </trkpt>
      <trkpt lat="41.906646" lon="-87.66137">
      </trkpt>
      <trkpt lat="41.917654" lon="-87.670146">
      </trkpt>
      <trkpt lat="41.940372" lon="-87.709927">
      </trkpt>
      <trkpt lat="41.94215" lon="-87.715306">
      </trkpt>
      <trkpt lat="41.947613" lon="-87.719592">
      </trkpt>
      <trkpt lat="41.95982" lon="-87.741635">
      </trkpt>
      <trkpt lat="41.963594" lon="-87.746287">
      </trkpt>
      <trkpt lat="41.975724" lon="-87.747426">
      </trkpt>
      <trkpt lat="41.976396" lon="-87.74607">
      </trkpt>
      <trkpt lat="41.975364" lon="-87.745776">
      </trkpt>
      <trkpt lat="41.975339" lon="-87.747984">
      </trkpt>
      <trkpt lat="41.947946" lon="-87.747142">
      </trkpt>
      <trkpt lat="41.948" lon="-87.742642">
      </trkpt>
      <trkpt lat="41.948" lon="-87.742642">
      </trkpt>
      <trkpt lat="41.950556" lon="-87.742654">
      </trkpt>
      <trkpt lat="41.951751" lon="-87.744615">
      </trkpt>
      <trkpt lat="41.953455" lon="-87.744598">
      </trkpt>
      <trkpt lat="41.953617" lon="-87.731304">
      </trkpt>
      <trkpt lat="41.947499" lon="-87.719717">
      </trkpt>
      <trkpt lat="41.942115" lon="-87.715518">
      </trkpt>
      <trkpt lat="41.939977" lon="-87.709442">
      </trkpt>
      <trkpt lat="41.918139" lon="-87.671115">
      </trkpt>
      <trkpt lat="41.915851" lon="-87.668499">
      </trkpt>
      <trkpt lat="41.913088" lon="-87.666712">
      </trkpt>
      <trkpt lat="41.910672" lon="-87.665662">
      </trkpt>
      <trkpt lat="41.910826" lon="-87.654084">
      </trkpt>
      <trkpt lat="41.905133" lon="-87.649323">
      </trkpt>
    </trkseg>
  </trk>
</gpx>