<?xml version="1.0" encoding="UTF-8"?>
<gpx xmlns="http://www.topografix.com/GPX/1/1" xmlns:xsi="http://www.w3.org/2001/XMLSchema-instance" xsi:schemaLocation="http://www.topografix.com/GPX/1/1 http://www.topografix.com/GPX/1/1/gpx.xsd" version="1.1" creator="gpx.py -- https://github.com/tkrajina/gpxpy">
  <trk>
    <trkseg>
      <trkpt lat="42.033498" lon="-87.800826">
      </trkpt>
      <trkpt lat="42.036487" lon="-87.79911">
      </trkpt>
      <trkpt lat="42.070796" lon="-87.799863">
      </trkpt>
      <trkpt lat="42.072778" lon="-87.798848">
      </trkpt>
      <trkpt lat="42.08007" lon="-87.798378">
      </trkpt>
      <trkpt lat="42.080185" lon="-87.812672">
      </trkpt>
      <trkpt lat="42.079901" lon="-87.815055">
      </trkpt>
      <trkpt lat="42.079078" lon="-87.816178">
      </trkpt>
      <trkpt lat="42.08014" lon="-87.818417">
      </trkpt>
      <trkpt lat="42.081476" lon="-87.819494">
      </trkpt>
      <trkpt lat="42.09385" lon="-87.824792">
      </trkpt>
      <trkpt lat="42.09385" lon="-87.824792">
      </trkpt>
      <trkpt lat="42.100081" lon="-87.824293">
      </trkpt>
      <trkpt lat="42.101902" lon="-87.823439">
      </trkpt>
      <trkpt lat="42.105629" lon="-87.823396">
      </trkpt>
      <trkpt lat="42.105854" lon="-87.864435">
      </trkpt>
      <trkpt lat="42.106414" lon="-87.867158">
      </trkpt>
      <trkpt lat="42.109163" lon="-87.874582">
      </trkpt>
      <trkpt lat="42.109384" lon="-87.882858">
      </trkpt>
      <trkpt lat="42.109299" lon="-87.885978">
      </trkpt>
      <trkpt lat="42.108475" lon="-87.889949">
      </trkpt>
      <trkpt lat="42.108321" lon="-87.892204">
      </trkpt>
      <trkpt lat="42.109444" lon="-87.899426">
      </trkpt>
      <trkpt lat="42.109539" lon="-87.903666">
      </trkpt>
      <trkpt lat="42.109743" lon="-87.907657">
      </trkpt>
      <trkpt lat="42.116496" lon="-87.907634">
      </trkpt>
      <trkpt lat="42.121118" lon="-87.909777">
      </trkpt>
      <trkpt lat="42.122342" lon="-87.90997">
      </trkpt>
      <trkpt lat="42.125079" lon="-87.909477">
      </trkpt>
      <trkpt lat="42.127232" lon="-87.907882">
      </trkpt>
      <trkpt lat="42.127116" lon="-87.90754">
      </trkpt>
      <trkpt lat="42.126636" lon="-87.90754">
      </trkpt>
      <trkpt lat="42.12661" lon="-87.904659">
      </trkpt>
      <trkpt lat="42.127237" lon="-87.904774">
      </trkpt>
      <trkpt lat="42.127237" lon="-87.904774">
      </trkpt>
      <trkpt lat="42.12661" lon="-87.904659">
      </trkpt>
      <trkpt lat="42.126636" lon="-87.90754">
      </trkpt>
      <trkpt lat="42.127232" lon="-87.907882">
      </trkpt>
      <trkpt lat="42.122344" lon="-87.910102">
      </trkpt>
      <trkpt lat="42.11649" lon="-87.907775">
      </trkpt>
      <trkpt lat="42.109361" lon="-87.907662">
      </trkpt>
      <trkpt lat="42.109324" lon="-87.903832">
      </trkpt>
      <trkpt lat="42.10823" lon="-87.891697">
      </trkpt>
      <trkpt lat="42.109169" lon="-87.875781">
      </trkpt>
      <trkpt lat="42.107145" lon="-87.869622">
      </trkpt>
      <trkpt lat="42.082553" lon="-87.866214">
      </trkpt>
      <trkpt lat="42.045668" lon="-87.870464">
      </trkpt>
      <trkpt lat="42.029157" lon="-87.865657">
      </trkpt>
      <trkpt lat="42.020471" lon="-87.865796">
      </trkpt>
      <trkpt lat="42.014189" lon="-87.868424">
      </trkpt>
      <trkpt lat="42.008609" lon="-87.868664">
      </trkpt>
      <trkpt lat="41.99591" lon="-87.865854">
      </trkpt>
      <trkpt lat="41.993377" lon="-87.86688">
      </trkpt>
      <trkpt lat="41.991341" lon="-87.867729">
      </trkpt>
      <trkpt lat="41.98798" lon="-87.866273">
      </trkpt>
      <trkpt lat="41.985708" lon="-87.858979">
      </trkpt>
      <trkpt lat="41.983769" lon="-87.850425">
      </trkpt>
      <trkpt lat="41.984449" lon="-87.829807">
      </trkpt>
      <trkpt lat="41.982178" lon="-87.812646">
      </trkpt>
      <trkpt lat="41.982303" lon="-87.784997">
      </trkpt>
      <trkpt lat="41.969592" lon="-87.759145">
      </trkpt>
      <trkpt lat="41.967916" lon="-87.756709">
      </trkpt>
      <trkpt lat="41.967869" lon="-87.760755">
      </trkpt>
      <trkpt lat="41.964478" lon="-87.757803">
      </trkpt>
      <trkpt lat="41.964478" lon="-87.757803">
      </trkpt>
      <trkpt lat="41.964478" lon="-87.757803">
      </trkpt>
      <trkpt lat="41.964478" lon="-87.757803">
      </trkpt>
      <trkpt lat="41.968654" lon="-87.761435">
      </trkpt>
      <trkpt lat="41.971891" lon="-87.773406">
      </trkpt>
      <trkpt lat="41.975889" lon="-87.773319">
      </trkpt>
      <trkpt lat="41.976569" lon="-87.774526">
      </trkpt>
      <trkpt lat="41.976357" lon="-87.77453">
      </trkpt>
      <trkpt lat="41.976357" lon="-87.77453">
      </trkpt>
      <trkpt lat="41.975671" lon="-87.774544">
      </trkpt>
      <trkpt lat="41.97567" lon="-87.778179">
      </trkpt>
      <trkpt lat="41.96853" lon="-87.778289">
      </trkpt>
      <trkpt lat="41.967665" lon="-87.77728">
      </trkpt>
      <trkpt lat="41.960353" lon="-87.777024">
      </trkpt>
      <trkpt lat="41.960417" lon="-87.772128">
      </trkpt>
      <trkpt lat="41.954795" lon="-87.771954">
      </trkpt>
      <trkpt lat="41.954795" lon="-87.771954">
      </trkpt>
      <trkpt lat="41.953106" lon="-87.771899">
      </trkpt>
      <trkpt lat="41.95292" lon="-87.786554">
      </trkpt>
      <trkpt lat="41.930996" lon="-87.785706">
      </trkpt>
      <trkpt lat="41.93091" lon="-87.794235">
      </trkpt>
      <trkpt lat="41.929358" lon="-87.794188">
      </trkpt>
      <trkpt lat="41.929358" lon="-87.794188">
      </trkpt>
      <trkpt lat="41.929086" lon="-87.79418">
      </trkpt>
      <trkpt lat="41.929098" lon="-87.792966">
      </trkpt>
      <trkpt lat="41.923617" lon="-87.792786">
      </trkpt>
      <trkpt lat="41.92364" lon="-87.789403">
      </trkpt>
      <trkpt lat="41.923525" lon="-87.788634">
      </trkpt>
      <trkpt lat="41.923258" lon="-87.787879">
      </trkpt>
      <trkpt lat="41.920379" lon="-87.787772">
      </trkpt>
      <trkpt lat="41.920365" lon="-87.788569">
      </trkpt>
      <trkpt lat="41.920365" lon="-87.788569">
      </trkpt>
      <trkpt lat="41.920379" lon="-87.787772">
      </trkpt>
      <trkpt lat="41.917003" lon="-87.787688">
      </trkpt>
      <trkpt lat="41.916622" lon="-87.785224">
      </trkpt>
      <trkpt lat="41.909151" lon="-87.784996">
      </trkpt>
      <trkpt lat="41.908935" lon="-87.805768">
      </trkpt>
      <trkpt lat="41.888587" lon="-87.805042">
      </trkpt>
      <trkpt lat="41.888598" lon="-87.804507">
      </trkpt>
      <trkpt lat="41.888598" lon="-87.804507">
      </trkpt>
      <trkpt lat="41.888697" lon="-87.798063">
      </trkpt>
      <trkpt lat="41.888586" lon="-87.792704">
      </trkpt>
      <trkpt lat="41.887423" lon="-87.792674">
      </trkpt>
      <trkpt lat="41.886968" lon="-87.792815">
      </trkpt>
      <trkpt lat="41.885066" lon="-87.792764">
      </trkpt>
      <trkpt lat="41.885105" lon="-87.790442">
      </trkpt>
      <trkpt lat="41.885105" lon="-87.790442">
      </trkpt>
      <trkpt lat="41.885206" lon="-87.784595">
      </trkpt>
      <trkpt lat="41.901867" lon="-87.784867">
      </trkpt>
      <trkpt lat="41.901883" lon="-87.784131">
      </trkpt>
      <trkpt lat="41.909167" lon="-87.783344">
      </trkpt>
      <trkpt lat="41.909384" lon="-87.765733">
      </trkpt>
      <trkpt lat="41.923987" lon="-87.765997">
      </trkpt>
      <trkpt lat="41.92425" lon="-87.746319">
      </trkpt>
      <trkpt lat="41.928193" lon="-87.746447">
      </trkpt>
      <trkpt lat="41.928201" lon="-87.745894">
      </trkpt>
      <trkpt lat="41.928201" lon="-87.745894">
      </trkpt>
      <trkpt lat="41.928227" lon="-87.744011">
      </trkpt>
      <trkpt lat="41.928568" lon="-87.744023">
      </trkpt>
      <trkpt lat="41.928537" lon="-87.746462">
      </trkpt>
      <trkpt lat="41.942483" lon="-87.746971">
      </trkpt>
      <trkpt lat="41.942657" lon="-87.733445">
      </trkpt>
      <trkpt lat="41.942792" lon="-87.733448">
      </trkpt>
      <trkpt lat="41.942792" lon="-87.733448">
      </trkpt>
      <trkpt lat="41.94438" lon="-87.73349">
      </trkpt>
      <trkpt lat="41.944744" lon="-87.733117">
      </trkpt>
      <trkpt lat="41.932003" lon="-87.712293">
      </trkpt>
      <trkpt lat="41.932402" lon="-87.668327">
      </trkpt>
      <trkpt lat="41.933311" lon="-87.668361">
      </trkpt>
      <trkpt lat="41.932963" lon="-87.668473">
      </trkpt>
      <trkpt lat="41.932963" lon="-87.668473">
      </trkpt>
      <trkpt lat="41.924169" lon="-87.668122">
      </trkpt>
      <trkpt lat="41.921138" lon="-87.668644">
      </trkpt>
      <trkpt lat="41.917197" lon="-87.667771">
      </trkpt>
      <trkpt lat="41.901054" lon="-87.667495">
      </trkpt>
      <trkpt lat="41.901009" lon="-87.669888">
      </trkpt>
      <trkpt lat="41.900367" lon="-87.669869">
      </trkpt>
      <trkpt lat="41.900367" lon="-87.669869">
      </trkpt>
      <trkpt lat="41.899669" lon="-87.669849">
      </trkpt>
      <trkpt lat="41.899842" lon="-87.660982">
      </trkpt>
      <trkpt lat="41.891194" lon="-87.647627">
      </trkpt>
      <trkpt lat="41.890088" lon="-87.647611">
      </trkpt>
      <trkpt lat="41.890082" lon="-87.64876">
      </trkpt>
      <trkpt lat="41.889017" lon="-87.648718">
      </trkpt>
      <trkpt lat="41.889017" lon="-87.650349">
      </trkpt>
      <trkpt lat="41.889017" lon="-87.650349">
      </trkpt>
      <trkpt lat="41.888973" lon="-87.654565">
      </trkpt>
      <trkpt lat="41.890015" lon="-87.654595">
      </trkpt>
      <trkpt lat="41.889969" lon="-87.660056">
      </trkpt>
      <trkpt lat="41.887465" lon="-87.661689">
      </trkpt>
      <trkpt lat="41.883985" lon="-87.663487">
      </trkpt>
      <trkpt lat="41.881475" lon="-87.666061">
      </trkpt>
      <trkpt lat="41.881324" lon="-87.679085">
      </trkpt>
      <trkpt lat="41.88126" lon="-87.678236">
      </trkpt>
      <trkpt lat="41.88126" lon="-87.678236">
      </trkpt>
      <trkpt lat="41.881475" lon="-87.666061">
      </trkpt>
      <trkpt lat="41.884284" lon="-87.663241">
      </trkpt>
      <trkpt lat="41.889971" lon="-87.659834">
      </trkpt>
      <trkpt lat="41.894874" lon="-87.655717">
      </trkpt>
      <trkpt lat="41.89596" lon="-87.657675">
      </trkpt>
      <trkpt lat="41.898217" lon="-87.65932">
      </trkpt>
      <trkpt lat="41.901753" lon="-87.660805">
      </trkpt>
      <trkpt lat="41.906799" lon="-87.661253">
      </trkpt>
      <trkpt lat="41.910145" lon="-87.664439">
      </trkpt>
      <trkpt lat="41.917096" lon="-87.669227">
      </trkpt>
      <trkpt lat="41.937344" lon="-87.704001">
      </trkpt>
      <trkpt lat="41.939132" lon="-87.706803">
      </trkpt>
      <trkpt lat="41.939221" lon="-87.717392">
      </trkpt>
      <trkpt lat="41.934647" lon="-87.717269">
      </trkpt>
      <trkpt lat="41.934633" lon="-87.718762">
      </trkpt>
      <trkpt lat="41.934633" lon="-87.718762">
      </trkpt>
      <trkpt lat="41.934647" lon="-87.717269">
      </trkpt>
      <trkpt lat="41.939221" lon="-87.717392">
      </trkpt>
      <trkpt lat="41.939288" lon="-87.712487">
      </trkpt>
      <trkpt lat="41.941642" lon="-87.712571">
      </trkpt>
      <trkpt lat="41.943044" lon="-87.715981">
      </trkpt>
      <trkpt lat="41.947985" lon="-87.719618">
      </trkpt>
      <trkpt lat="41.960998" lon="-87.742619">
      </trkpt>
      <trkpt lat="41.965012" lon="-87.746732">
      </trkpt>
      <trkpt lat="41.980044" lon="-87.746614">
      </trkpt>
      <trkpt lat="41.987222" lon="-87.751348">
      </trkpt>
      <trkpt lat="42.001173" lon="-87.748745">
      </trkpt>
      <trkpt lat="42.009518" lon="-87.749189">
      </trkpt>
      <trkpt lat="42.014015" lon="-87.752849">
      </trkpt>
      <trkpt lat="42.021217" lon="-87.765343">
      </trkpt>
      <trkpt lat="42.025543" lon="-87.768358">
      </trkpt>
      <trkpt lat="42.033299" lon="-87.768407">
      </trkpt>
      <trkpt lat="42.038593" lon="-87.764702">
      </trkpt>
      <trkpt lat="42.040844" lon="-87.759717">
      </trkpt>
      <trkpt lat="42.040919" lon="-87.710761">
      </trkpt>
      <trkpt lat="42.052495" lon="-87.709225">
      </trkpt>
      <trkpt lat="42.059727" lon="-87.694945">
      </trkpt>
      <trkpt lat="42.058289" lon="-87.69372">
      </trkpt>
      <trkpt lat="42.058374" lon="-87.677131">
      </trkpt>
      <trkpt lat="42.056866" lon="-87.677157">
      </trkpt>
      <trkpt lat="42.056866" lon="-87.677157">
      </trkpt>
      <trkpt lat="42.051106" lon="-87.677291">
      </trkpt>
      <trkpt lat="42.050166" lon="-87.674388">
      </trkpt>
      <trkpt lat="42.044876" lon="-87.674669">
      </trkpt>
      <trkpt lat="42.033906" lon="-87.674774">
      </trkpt>
      <trkpt lat="42.033783" lon="-87.670571">
      </trkpt>
      <trkpt lat="42.027188" lon="-87.670647">
      </trkpt>
      <trkpt lat="42.023166" lon="-87.665427">
      </trkpt>
      <trkpt lat="41.998191" lon="-87.66054">
      </trkpt>
      <trkpt lat="41.997897" lon="-87.65567">
      </trkpt>
      <trkpt lat="41.985556" lon="-87.655253">
      </trkpt>
      <trkpt lat="41.973006" lon="-87.649079">
      </trkpt>
      <trkpt lat="41.950978" lon="-87.644611">
      </trkpt>
      <trkpt lat="41.934639" lon="-87.632453">
      </trkpt>
      <trkpt lat="41.902733" lon="-87.62421">
      </trkpt>
      <trkpt lat="41.900898" lon="-87.619617">
      </trkpt>
      <trkpt lat="41.893955" lon="-87.614907">
      </trkpt>
      <trkpt lat="41.89189" lon="-87.614663">
      </trkpt>
      <trkpt lat="41.891875" lon="-87.615198">
      </trkpt>
      <trkpt lat="41.891556" lon="-87.615189">
      </trkpt>
      <trkpt lat="41.891556" lon="-87.615189">
      </trkpt>
      <trkpt lat="41.891875" lon="-87.615198">
      </trkpt>
      <trkpt lat="41.891833" lon="-87.617687">
      </trkpt>
      <trkpt lat="41.892632" lon="-87.617714">
      </trkpt>
      <trkpt lat="41.892685" lon="-87.614597">
      </trkpt>
      <trkpt lat="41.893135" lon="-87.61463">
      </trkpt>
      <trkpt lat="41.89823" lon="-87.618028">
      </trkpt>
      <trkpt lat="41.89823" lon="-87.618028">
      </trkpt>
      <trkpt lat="41.900878" lon="-87.619828">
      </trkpt>
      <trkpt lat="41.900824" lon="-87.624042">
      </trkpt>
      <trkpt lat="41.902709" lon="-87.623664">
      </trkpt>
      <trkpt lat="41.912141" lon="-87.62589">
      </trkpt>
      <trkpt lat="41.918036" lon="-87.628743">
      </trkpt>
      <trkpt lat="41.928415" lon="-87.631851">
      </trkpt>
      <trkpt lat="41.934381" lon="-87.632152">
      </trkpt>
      <trkpt lat="41.936704" lon="-87.633661">
      </trkpt>
      <trkpt lat="41.941219" lon="-87.638833">
      </trkpt>
      <trkpt lat="41.950931" lon="-87.644376">
      </trkpt>
      <trkpt lat="41.967723" lon="-87.647541">
      </trkpt>
      <trkpt lat="41.969474" lon="-87.647273">
      </trkpt>
      <trkpt lat="41.968384" lon="-87.715821">
      </trkpt>
      <trkpt lat="41.966567" lon="-87.715763">
      </trkpt>
      <trkpt lat="41.966563" lon="-87.716128">
      </trkpt>
      <trkpt lat="41.966563" lon="-87.716128">
      </trkpt>
      <trkpt lat="41.966567" lon="-87.715763">
      </trkpt>
      <trkpt lat="41.951054" lon="-87.715282">
      </trkpt>
      <trkpt lat="41.945936" lon="-87.707815">
      </trkpt>
      <trkpt lat="41.930261" lon="-87.707505">
      </trkpt>
      <trkpt lat="41.929332" lon="-87.707814">
      </trkpt>
      <trkpt lat="41.929168" lon="-87.707541">
      </trkpt>
      <trkpt lat="41.901143" lon="-87.706735">
      </trkpt>
      <trkpt lat="41.901143" lon="-87.706735">
      </trkpt>
      <trkpt lat="41.902833" lon="-87.706787">
      </trkpt>
      <trkpt lat="41.902886" lon="-87.702278">
      </trkpt>
      <trkpt lat="41.907558" lon="-87.701241">
      </trkpt>
      <trkpt lat="41.909737" lon="-87.701859">
      </trkpt>
      <trkpt lat="41.91745" lon="-87.702101">
      </trkpt>
      <trkpt lat="41.917587" lon="-87.687413">
      </trkpt>
      <trkpt lat="41.924902" lon="-87.687645">
      </trkpt>
      <trkpt lat="41.925178" lon="-87.665786">
      </trkpt>
      <trkpt lat="41.927" lon="-87.66581">
      </trkpt>
      <trkpt lat="41.927018" lon="-87.664639">
      </trkpt>
      <trkpt lat="41.926889" lon="-87.664634">
      </trkpt>
      <trkpt lat="41.926889" lon="-87.664634">
      </trkpt>
      <trkpt lat="41.925197" lon="-87.664567">
      </trkpt>
      <trkpt lat="41.925216" lon="-87.663327">
      </trkpt>
      <trkpt lat="41.938211" lon="-87.663758">
      </trkpt>
      <trkpt lat="41.938211" lon="-87.663758">
      </trkpt>
      <trkpt lat="41.93521" lon="-87.663649">
      </trkpt>
      <trkpt lat="41.935144" lon="-87.668549">
      </trkpt>
      <trkpt lat="41.921563" lon="-87.668616">
      </trkpt>
      <trkpt lat="41.921395" lon="-87.677255">
      </trkpt>
      <trkpt lat="41.918139" lon="-87.671115">
      </trkpt>
      <trkpt lat="41.915851" lon="-87.668499">
      </trkpt>
      <trkpt lat="41.909975" lon="-87.664752">
      </trkpt>
      <trkpt lat="41.906635" lon="-87.661559">
      </trkpt>
      <trkpt lat="41.901306" lon="-87.661057">
      </trkpt>
      <trkpt lat="41.896667" lon="-87.658834">
      </trkpt>
      <trkpt lat="41.889096" lon="-87.6483">
      </trkpt>
      <trkpt lat="41.885119" lon="-87.646108">
      </trkpt>
      <trkpt lat="41.883144" lon="-87.646413">
      </trkpt>
      <trkpt lat="41.883178" lon="-87.641266">
      </trkpt>
      <trkpt lat="41.883185" lon="-87.639745">
      </trkpt>
      <trkpt lat="41.883239" lon="-87.635376">
      </trkpt>
      <trkpt lat="41.885733" lon="-87.635419">
      </trkpt>
      <trkpt lat="41.885735" lon="-87.634134">
      </trkpt>
      <trkpt lat="41.885735" lon="-87.634134">
      </trkpt>
      <trkpt lat="41.885735" lon="-87.633948">
      </trkpt>
      <trkpt lat="41.884468" lon="-87.633916">
      </trkpt>
      <trkpt lat="41.884448" lon="-87.639799">
      </trkpt>
      <trkpt lat="41.887994" lon="-87.639953">
      </trkpt>
      <trkpt lat="41.88801" lon="-87.640199">
      </trkpt>
      <trkpt lat="41.88801" lon="-87.640199">
      </trkpt>
      <trkpt lat="41.887994" lon="-87.639953">
      </trkpt>
      <trkpt lat="41.889064" lon="-87.64001">
      </trkpt>
      <trkpt lat="41.889186" lon="-87.632434">
      </trkpt>
      <trkpt lat="41.892423" lon="-87.632511">
      </trkpt>
      <trkpt lat="41.892541" lon="-87.624121">
      </trkpt>
      <trkpt lat="41.900824" lon="-87.624042">
      </trkpt>
      <trkpt lat="41.902709" lon="-87.623664">
      </trkpt>
      <trkpt lat="41.912141" lon="-87.62589">
      </trkpt>
      <trkpt lat="41.918036" lon="-87.628743">
      </trkpt>
      <trkpt lat="41.928415" lon="-87.631851">
      </trkpt>
      <trkpt lat="41.934701" lon="-87.632273">
      </trkpt>
      <trkpt lat="41.941399" lon="-87.638962">
      </trkpt>
      <trkpt lat="41.950931" lon="-87.644376">
      </trkpt>
      <trkpt lat="41.952992" lon="-87.644572">
      </trkpt>
      <trkpt lat="41.954667" lon="-87.644162">
      </trkpt>
      <trkpt lat="41.95446" lon="-87.656767">
      </trkpt>
      <trkpt lat="41.958194" lon="-87.656894">
      </trkpt>
      <trkpt lat="41.958194" lon="-87.656894">
      </trkpt>
      <trkpt lat="41.958406" lon="-87.656021">
      </trkpt>
      <trkpt lat="41.958427" lon="-87.654643">
      </trkpt>
      <trkpt lat="41.944458" lon="-87.654273">
      </trkpt>
      <trkpt lat="41.938193" lon="-87.649228">
      </trkpt>
      <trkpt lat="41.929091" lon="-87.648892">
      </trkpt>
      <trkpt lat="41.929095" lon="-87.647955">
      </trkpt>
      <trkpt lat="41.929095" lon="-87.647955">
      </trkpt>
      <trkpt lat="41.929104" lon="-87.646386">
      </trkpt>
      <trkpt lat="41.929156" lon="-87.645275">
      </trkpt>
      <trkpt lat="41.929324" lon="-87.644199">
      </trkpt>
      <trkpt lat="41.929457" lon="-87.643639">
      </trkpt>
      <trkpt lat="41.929694" lon="-87.642943">
      </trkpt>
      <trkpt lat="41.92558" lon="-87.640463">
      </trkpt>
      <trkpt lat="41.925595" lon="-87.639998">
      </trkpt>
      <trkpt lat="41.925595" lon="-87.639998">
      </trkpt>
      <trkpt lat="41.925595" lon="-87.639998">
      </trkpt>
      <trkpt lat="41.925595" lon="-87.639998">
      </trkpt>
      <trkpt lat="41.926001" lon="-87.631853">
      </trkpt>
      <trkpt lat="41.912297" lon="-87.626142">
      </trkpt>
      <trkpt lat="41.902733" lon="-87.62421">
      </trkpt>
      <trkpt lat="41.901491" lon="-87.62264">
      </trkpt>
      <trkpt lat="41.900898" lon="-87.619617">
      </trkpt>
      <trkpt lat="41.892868" lon="-87.614264">
      </trkpt>
      <trkpt lat="41.884928" lon="-87.614127">
      </trkpt>
      <trkpt lat="41.882167" lon="-87.617321">
      </trkpt>
      <trkpt lat="41.878363" lon="-87.617442">
      </trkpt>
      <trkpt lat="41.878331" lon="-87.620697">
      </trkpt>
      <trkpt lat="41.876287" lon="-87.620625">
      </trkpt>
      <trkpt lat="41.875724" lon="-87.62435">
      </trkpt>
      <trkpt lat="41.875644" lon="-87.641651">
      </trkpt>
      <trkpt lat="41.876207" lon="-87.646562">
      </trkpt>
      <trkpt lat="41.872433" lon="-87.645662">
      </trkpt>
      <trkpt lat="41.869682" lon="-87.645367">
      </trkpt>
      <trkpt lat="41.869671" lon="-87.647045">
      </trkpt>
      <trkpt lat="41.864784" lon="-87.646848">
      </trkpt>
      <trkpt lat="41.864765" lon="-87.647927">
      </trkpt>
      <trkpt lat="41.864765" lon="-87.647927">
      </trkpt>
      <trkpt lat="41.864784" lon="-87.646848">
      </trkpt>
      <trkpt lat="41.869551" lon="-87.646884">
      </trkpt>
      <trkpt lat="41.869691" lon="-87.644443">
      </trkpt>
      <trkpt lat="41.873493" lon="-87.644854">
      </trkpt>
      <trkpt lat="41.87559" lon="-87.644167">
      </trkpt>
      <trkpt lat="41.877863" lon="-87.645364">
      </trkpt>
      <trkpt lat="41.880374" lon="-87.645275">
      </trkpt>
      <trkpt lat="41.881847" lon="-87.645355">
      </trkpt>
      <trkpt lat="41.882198" lon="-87.645393">
      </trkpt>
      <trkpt lat="41.883308" lon="-87.645396">
      </trkpt>
      <trkpt lat="41.885689" lon="-87.645365">
      </trkpt>
      <trkpt lat="41.885588" lon="-87.652141">
      </trkpt>
      <trkpt lat="41.888087" lon="-87.652212">
      </trkpt>
      <trkpt lat="41.888087" lon="-87.652212">
      </trkpt>
      <trkpt lat="41.891135" lon="-87.652288">
      </trkpt>
      <trkpt lat="41.891092" lon="-87.655792">
      </trkpt>
      <trkpt lat="41.893379" lon="-87.655874">
      </trkpt>
      <trkpt lat="41.893906" lon="-87.656525">
      </trkpt>
      <trkpt lat="41.894874" lon="-87.655717">
      </trkpt>
      <trkpt lat="41.89596" lon="-87.657675">
      </trkpt>
      <trkpt lat="41.897622" lon="-87.659011">
      </trkpt>
      <trkpt lat="41.901753" lon="-87.660805">
      </trkpt>
      <trkpt lat="41.906443" lon="-87.661061">
      </trkpt>
      <trkpt lat="41.910145" lon="-87.664439">
      </trkpt>
      <trkpt lat="41.915886" lon="-87.668091">
      </trkpt>
      <trkpt lat="41.91815" lon="-87.670574">
      </trkpt>
      <trkpt lat="41.922676" lon="-87.678438">
      </trkpt>
      <trkpt lat="41.924733" lon="-87.681513">
      </trkpt>
      <trkpt lat="41.924981" lon="-87.681912">
      </trkpt>
      <trkpt lat="41.924878" lon="-87.690086">
      </trkpt>
      <trkpt lat="41.925214" lon="-87.690094">
      </trkpt>
      <trkpt lat="41.925214" lon="-87.690094">
      </trkpt>
      <trkpt lat="41.926696" lon="-87.690149">
      </trkpt>
      <trkpt lat="41.926718" lon="-87.687704">
      </trkpt>
      <trkpt lat="41.926885" lon="-87.687672">
      </trkpt>
      <trkpt lat="41.924962" lon="-87.683686">
      </trkpt>
      <trkpt lat="41.924978" lon="-87.682301">
      </trkpt>
      <trkpt lat="41.926707" lon="-87.685177">
      </trkpt>
      <trkpt lat="41.940439" lon="-87.709664">
      </trkpt>
      <trkpt lat="41.942208" lon="-87.714861">
      </trkpt>
      <trkpt lat="41.947985" lon="-87.719618">
      </trkpt>
      <trkpt lat="41.958569" lon="-87.738838">
      </trkpt>
      <trkpt lat="41.960451" lon="-87.741371">
      </trkpt>
      <trkpt lat="41.960845" lon="-87.74187">
      </trkpt>
      <trkpt lat="41.960061" lon="-87.794287">
      </trkpt>
      <trkpt lat="41.946631" lon="-87.822074">
      </trkpt>
      <trkpt lat="41.937842" lon="-87.821404">
      </trkpt>
      <trkpt lat="41.937866" lon="-87.820185">
      </trkpt>
      <trkpt lat="41.936076" lon="-87.820102">
      </trkpt>
      <trkpt lat="41.936062" lon="-87.820727">
      </trkpt>
      <trkpt lat="41.934634" lon="-87.82067">
      </trkpt>
      <trkpt lat="41.934634" lon="-87.82067">
      </trkpt>
      <trkpt lat="41.93424" lon="-87.820654">
      </trkpt>
      <trkpt lat="41.934229" lon="-87.821275">
      </trkpt>
      <trkpt lat="41.937842" lon="-87.821404">
      </trkpt>
      <trkpt lat="41.937819" lon="-87.822616">
      </trkpt>
      <trkpt lat="41.945136" lon="-87.82292">
      </trkpt>
      <trkpt lat="41.945095" lon="-87.824627">
      </trkpt>
      <trkpt lat="41.958438" lon="-87.797713">
      </trkpt>
      <trkpt lat="41.968342" lon="-87.797737">
      </trkpt>
      <trkpt lat="41.96853" lon="-87.778289">
      </trkpt>
      <trkpt lat="41.967665" lon="-87.77728">
      </trkpt>
      <trkpt lat="41.968033" lon="-87.747723">
      </trkpt>
      <trkpt lat="41.972896" lon="-87.747918">
      </trkpt>
      <trkpt lat="41.972794" lon="-87.747761">
      </trkpt>
      <trkpt lat="41.966563" lon="-87.747223">
      </trkpt>
      <trkpt lat="41.962358" lon="-87.745232">
      </trkpt>
      <trkpt lat="41.947613" lon="-87.719592">
      </trkpt>
      <trkpt lat="41.94215" lon="-87.715306">
      </trkpt>
      <trkpt lat="41.940372" lon="-87.709927">
      </trkpt>
      <trkpt lat="41.917654" lon="-87.670146">
      </trkpt>
      <trkpt lat="41.906646" lon="-87.66137">
      </trkpt>
      <trkpt lat="41.897394" lon="-87.659066">
      </trkpt>
      <trkpt lat="41.892534" lon="-87.653065">
      </trkpt>
      <trkpt lat="41.892588" lon="-87.620263">
      </trkpt>
      <trkpt lat="41.893412" lon="-87.620283">
      </trkpt>
      <trkpt lat="41.893376" lon="-87.621935">
      </trkpt>
      <trkpt lat="41.893376" lon="-87.621935">
      </trkpt>
      <trkpt lat="41.893295" lon="-87.626758">
      </trkpt>
      <trkpt lat="41.889909" lon="-87.626665">
      </trkpt>
      <trkpt lat="41.889909" lon="-87.626665">
      </trkpt>
      <trkpt lat="41.888509" lon="-87.627249">
      </trkpt>
      <trkpt lat="41.887226" lon="-87.626463">
      </trkpt>
      <trkpt lat="41.886949" lon="-87.631015">
      </trkpt>
      <trkpt lat="41.875701" lon="-87.630715">
      </trkpt>
      <trkpt lat="41.876197" lon="-87.657603">
      </trkpt>
      <trkpt lat="41.875658" lon="-87.697235">
      </trkpt>
      <trkpt lat="41.87458" lon="-87.706246">
      </trkpt>
      <trkpt lat="41.874552" lon="-87.710807">
      </trkpt>
      <trkpt lat="41.895505" lon="-87.711442">
      </trkpt>
      <trkpt lat="41.895471" lon="-87.715092">
      </trkpt>
      <trkpt lat="41.894531" lon="-87.715059">
      </trkpt>
      <trkpt lat="41.894531" lon="-87.715059">
      </trkpt>
      <trkpt lat="41.895471" lon="-87.715092">
      </trkpt>
      <trkpt lat="41.895505" lon="-87.711442">
      </trkpt>
      <trkpt lat="41.900057" lon="-87.711889">
      </trkpt>
      <trkpt lat="41.900181" lon="-87.711412">
      </trkpt>
      <trkpt lat="41.941642" lon="-87.712571">
      </trkpt>
      <trkpt lat="41.943044" lon="-87.715981">
      </trkpt>
      <trkpt lat="41.947985" lon="-87.719618">
      </trkpt>
      <trkpt lat="41.960998" lon="-87.742619">
      </trkpt>
      <trkpt lat="41.966033" lon="-87.752403">
      </trkpt>
      <trkpt lat="41.967937" lon="-87.75503">
      </trkpt>
      <trkpt lat="41.967938" lon="-87.757623">
      </trkpt>
      <trkpt lat="41.968431" lon="-87.758399">
      </trkpt>
      <trkpt lat="41.968431" lon="-87.758399">
      </trkpt>
      <trkpt lat="41.967875" lon="-87.757622">
      </trkpt>
      <trkpt lat="41.967916" lon="-87.756709">
      </trkpt>
      <trkpt lat="41.962708" lon="-87.746242">
      </trkpt>
      <trkpt lat="41.94853" lon="-87.721846">
      </trkpt>
      <trkpt lat="41.946493" lon="-87.718984">
      </trkpt>
      <trkpt lat="41.946377" lon="-87.727395">
      </trkpt>
      <trkpt lat="41.924493" lon="-87.726763">
      </trkpt>
      <trkpt lat="41.924435" lon="-87.731667">
      </trkpt>
      <trkpt lat="41.922601" lon="-87.731611">
      </trkpt>
      <trkpt lat="41.922606" lon="-87.731192">
      </trkpt>
      <trkpt lat="41.922606" lon="-87.731192">
      </trkpt>
      <trkpt lat="41.922615" lon="-87.730387">
      </trkpt>
      <trkpt lat="41.924449" lon="-87.730442">
      </trkpt>
      <trkpt lat="41.92425" lon="-87.746319">
      </trkpt>
      <trkpt lat="41.927145" lon="-87.746345">
      </trkpt>
      <trkpt lat="41.931542" lon="-87.746595">
      </trkpt>
      <trkpt lat="41.93147" lon="-87.751741">
      </trkpt>
      <trkpt lat="41.93147" lon="-87.751741">
      </trkpt>
      <trkpt lat="41.932116" lon="-87.696547">
      </trkpt>
      <trkpt lat="41.917456" lon="-87.670155">
      </trkpt>
      <trkpt lat="41.905802" lon="-87.661229">
      </trkpt>
      <trkpt lat="41.903435" lon="-87.661667">
      </trkpt>
      <trkpt lat="41.903374" lon="-87.665045">
      </trkpt>
      <trkpt lat="41.903929" lon="-87.665061">
      </trkpt>
      <trkpt lat="41.903929" lon="-87.665061">
      </trkpt>
      <trkpt lat="41.907034" lon="-87.665154">
      </trkpt>
      <trkpt lat="41.907019" lon="-87.666333">
      </trkpt>
      <trkpt lat="41.910658" lon="-87.666509">
      </trkpt>
      <trkpt lat="41.910674" lon="-87.664445">
      </trkpt>
      <trkpt lat="41.915886" lon="-87.668091">
      </trkpt>
      <trkpt lat="41.91815" lon="-87.670574">
      </trkpt>
      <trkpt lat="41.940439" lon="-87.709664">
      </trkpt>
      <trkpt lat="41.942208" lon="-87.714861">
      </trkpt>
      <trkpt lat="41.947985" lon="-87.719618">
      </trkpt>
      <trkpt lat="41.958569" lon="-87.738838">
      </trkpt>
      <trkpt lat="41.960451" lon="-87.741371">
      </trkpt>
      <trkpt lat="41.960724" lon="-87.747538">
      </trkpt>
      <trkpt lat="41.953418" lon="-87.747303">
      </trkpt>
      <trkpt lat="41.95292" lon="-87.786554">
      </trkpt>
      <trkpt lat="41.945676" lon="-87.786299">
      </trkpt>
      <trkpt lat="41.945578" lon="-87.791262">
      </trkpt>
      <trkpt lat="41.946512" lon="-87.7913">
      </trkpt>
      <trkpt lat="41.946512" lon="-87.7913">
      </trkpt>
      <trkpt lat="41.945578" lon="-87.791262">
      </trkpt>
      <trkpt lat="41.945676" lon="-87.786299">
      </trkpt>
      <trkpt lat="41.95292" lon="-87.786554">
      </trkpt>
      <trkpt lat="41.953293" lon="-87.757157">
      </trkpt>
      <trkpt lat="41.960603" lon="-87.75739">
      </trkpt>
      <trkpt lat="41.960724" lon="-87.747538">
      </trkpt>
      <trkpt lat="41.962975" lon="-87.746911">
      </trkpt>
      <trkpt lat="41.96438" lon="-87.747627">
      </trkpt>
      <trkpt lat="41.964394" lon="-87.745977">
      </trkpt>
      <trkpt lat="41.96725" lon="-87.747015">
      </trkpt>
      <trkpt lat="41.972024" lon="-87.747318">
      </trkpt>
      <trkpt lat="41.980044" lon="-87.746614">
      </trkpt>
      <trkpt lat="41.987222" lon="-87.751348">
      </trkpt>
      <trkpt lat="41.995203" lon="-87.750649">
      </trkpt>
      <trkpt lat="42.000788" lon="-87.748787">
      </trkpt>
      <trkpt lat="42.006167" lon="-87.748589">
      </trkpt>
      <trkpt lat="42.00958" lon="-87.748759">
      </trkpt>
      <trkpt lat="42.010101" lon="-87.748003">
      </trkpt>
      <trkpt lat="42.011715" lon="-87.747943">
      </trkpt>
      <trkpt lat="42.012287" lon="-87.69024">
      </trkpt>
      <trkpt lat="42.015669" lon="-87.69021">
      </trkpt>
      <trkpt lat="42.015627" lon="-87.68751">
      </trkpt>
      <trkpt lat="42.017428" lon="-87.687505">
      </trkpt>
      <trkpt lat="42.017428" lon="-87.687505">
      </trkpt>
      <trkpt lat="42.017434" lon="-87.690195">
      </trkpt>
      <trkpt lat="41.990567" lon="-87.689674">
      </trkpt>
      <trkpt lat="41.990509" lon="-87.689876">
      </trkpt>
      <trkpt lat="41.990752" lon="-87.67223">
      </trkpt>
      <trkpt lat="41.989706" lon="-87.670085">
      </trkpt>
      <trkpt lat="41.987608" lon="-87.669796">
      </trkpt>
      <trkpt lat="41.987519" lon="-87.669769">
      </trkpt>
    </trkseg>
  </trk>
</gpx>