<?xml version="1.0" encoding="UTF-8"?>
<gpx xmlns="http://www.topografix.com/GPX/1/1" xmlns:xsi="http://www.w3.org/2001/XMLSchema-instance" xsi:schemaLocation="http://www.topografix.com/GPX/1/1 http://www.topografix.com/GPX/1/1/gpx.xsd" version="1.1" creator="gpx.py -- https://github.com/tkrajina/gpxpy">
  <trk>
    <trkseg>
      <trkpt lat="41.996357" lon="-87.663308">
      </trkpt>
      <trkpt lat="41.996386" lon="-87.660482">
      </trkpt>
      <trkpt lat="41.972678" lon="-87.659771">
      </trkpt>
      <trkpt lat="41.972674" lon="-87.660107">
      </trkpt>
      <trkpt lat="41.972674" lon="-87.660107">
      </trkpt>
      <trkpt lat="41.972606" lon="-87.664692">
      </trkpt>
      <trkpt lat="41.973425" lon="-87.664676">
      </trkpt>
      <trkpt lat="41.973375" lon="-87.667898">
      </trkpt>
      <trkpt lat="41.973436" lon="-87.669592">
      </trkpt>
      <trkpt lat="41.973279" lon="-87.677814">
      </trkpt>
      <trkpt lat="41.974722" lon="-87.677853">
      </trkpt>
      <trkpt lat="41.97474" lon="-87.676798">
      </trkpt>
      <trkpt lat="41.97474" lon="-87.676798">
      </trkpt>
      <trkpt lat="41.974747" lon="-87.676368">
      </trkpt>
      <trkpt lat="41.973309" lon="-87.676325">
      </trkpt>
      <trkpt lat="41.973436" lon="-87.669592">
      </trkpt>
      <trkpt lat="41.968876" lon="-87.669477">
      </trkpt>
      <trkpt lat="41.969276" lon="-87.648824">
      </trkpt>
      <trkpt lat="41.965793" lon="-87.64734">
      </trkpt>
      <trkpt lat="41.950978" lon="-87.644611">
      </trkpt>
      <trkpt lat="41.941067" lon="-87.638957">
      </trkpt>
      <trkpt lat="41.935041" lon="-87.632637">
      </trkpt>
      <trkpt lat="41.927741" lon="-87.631858">
      </trkpt>
      <trkpt lat="41.926001" lon="-87.631853">
      </trkpt>
      <trkpt lat="41.925453" lon="-87.648766">
      </trkpt>
      <trkpt lat="41.91731" lon="-87.648495">
      </trkpt>
      <trkpt lat="41.91731" lon="-87.648495">
      </trkpt>
      <trkpt lat="41.91731" lon="-87.648495">
      </trkpt>
      <trkpt lat="41.91731" lon="-87.648495">
      </trkpt>
      <trkpt lat="41.910013" lon="-87.648257">
      </trkpt>
      <trkpt lat="41.906457" lon="-87.643295">
      </trkpt>
      <trkpt lat="41.896481" lon="-87.642947">
      </trkpt>
      <trkpt lat="41.896492" lon="-87.641559">
      </trkpt>
      <trkpt lat="41.893453" lon="-87.641445">
      </trkpt>
      <trkpt lat="41.891506" lon="-87.639878">
      </trkpt>
      <trkpt lat="41.891543" lon="-87.637019">
      </trkpt>
      <trkpt lat="41.888771" lon="-87.636943">
      </trkpt>
      <trkpt lat="41.887983" lon="-87.63637">
      </trkpt>
      <trkpt lat="41.888006" lon="-87.638308">
      </trkpt>
      <trkpt lat="41.887943" lon="-87.637518">
      </trkpt>
      <trkpt lat="41.887943" lon="-87.637518">
      </trkpt>
      <trkpt lat="41.887983" lon="-87.63637">
      </trkpt>
      <trkpt lat="41.888771" lon="-87.636943">
      </trkpt>
      <trkpt lat="41.891543" lon="-87.637019">
      </trkpt>
      <trkpt lat="41.891501" lon="-87.640016">
      </trkpt>
      <trkpt lat="41.891239" lon="-87.643004">
      </trkpt>
      <trkpt lat="41.891011" lon="-87.663894">
      </trkpt>
      <trkpt lat="41.895209" lon="-87.664011">
      </trkpt>
      <trkpt lat="41.895231" lon="-87.662558">
      </trkpt>
      <trkpt lat="41.895231" lon="-87.662558">
      </trkpt>
      <trkpt lat="41.895233" lon="-87.662372">
      </trkpt>
      <trkpt lat="41.899796" lon="-87.66251">
      </trkpt>
      <trkpt lat="41.899842" lon="-87.660982">
      </trkpt>
      <trkpt lat="41.899711" lon="-87.660843">
      </trkpt>
      <trkpt lat="41.895752" lon="-87.658005">
      </trkpt>
      <trkpt lat="41.889352" lon="-87.648602">
      </trkpt>
      <trkpt lat="41.886676" lon="-87.646473">
      </trkpt>
      <trkpt lat="41.861936" lon="-87.644538">
      </trkpt>
      <trkpt lat="41.857575" lon="-87.644794">
      </trkpt>
      <trkpt lat="41.857542" lon="-87.646633">
      </trkpt>
      <trkpt lat="41.858102" lon="-87.646649">
      </trkpt>
      <trkpt lat="41.857876" lon="-87.66163">
      </trkpt>
      <trkpt lat="41.857876" lon="-87.66163">
      </trkpt>
      <trkpt lat="41.857876" lon="-87.66163">
      </trkpt>
      <trkpt lat="41.857876" lon="-87.66163">
      </trkpt>
      <trkpt lat="41.858102" lon="-87.646649">
      </trkpt>
      <trkpt lat="41.857542" lon="-87.646633">
      </trkpt>
      <trkpt lat="41.857593" lon="-87.643769">
      </trkpt>
      <trkpt lat="41.857758" lon="-87.643778">
      </trkpt>
      <trkpt lat="41.873955" lon="-87.64489">
      </trkpt>
      <trkpt lat="41.877665" lon="-87.645711">
      </trkpt>
      <trkpt lat="41.885306" lon="-87.645735">
      </trkpt>
      <trkpt lat="41.888483" lon="-87.647404">
      </trkpt>
      <trkpt lat="41.890597" lon="-87.650048">
      </trkpt>
      <trkpt lat="41.891699" lon="-87.651108">
      </trkpt>
      <trkpt lat="41.89225" lon="-87.650775">
      </trkpt>
      <trkpt lat="41.892434" lon="-87.65007">
      </trkpt>
      <trkpt lat="41.892541" lon="-87.624121">
      </trkpt>
      <trkpt lat="41.894143" lon="-87.624162">
      </trkpt>
      <trkpt lat="41.894176" lon="-87.62188">
      </trkpt>
      <trkpt lat="41.894176" lon="-87.62188">
      </trkpt>
      <trkpt lat="41.894214" lon="-87.620307">
      </trkpt>
      <trkpt lat="41.890916" lon="-87.620211">
      </trkpt>
      <trkpt lat="41.889573" lon="-87.620395">
      </trkpt>
      <trkpt lat="41.889608" lon="-87.621589">
      </trkpt>
      <trkpt lat="41.890134" lon="-87.621608">
      </trkpt>
      <trkpt lat="41.89098" lon="-87.621641">
      </trkpt>
      <trkpt lat="41.891083" lon="-87.621726">
      </trkpt>
      <trkpt lat="41.891081" lon="-87.621905">
      </trkpt>
      <trkpt lat="41.890981" lon="-87.621986">
      </trkpt>
      <trkpt lat="41.890948" lon="-87.624074">
      </trkpt>
      <trkpt lat="41.891505" lon="-87.624094">
      </trkpt>
      <trkpt lat="41.891505" lon="-87.624094">
      </trkpt>
      <trkpt lat="41.892541" lon="-87.624121">
      </trkpt>
      <trkpt lat="41.892588" lon="-87.620263">
      </trkpt>
      <trkpt lat="41.887855" lon="-87.620762">
      </trkpt>
      <trkpt lat="41.887462" lon="-87.615811">
      </trkpt>
      <trkpt lat="41.887175" lon="-87.614014">
      </trkpt>
      <trkpt lat="41.885118" lon="-87.61394">
      </trkpt>
      <trkpt lat="41.881821" lon="-87.617453">
      </trkpt>
      <trkpt lat="41.869765" lon="-87.617261">
      </trkpt>
      <trkpt lat="41.866068" lon="-87.619589">
      </trkpt>
      <trkpt lat="41.853242" lon="-87.614728">
      </trkpt>
      <trkpt lat="41.849799" lon="-87.613506">
      </trkpt>
      <trkpt lat="41.848506" lon="-87.614444">
      </trkpt>
      <trkpt lat="41.848101" lon="-87.623443">
      </trkpt>
      <trkpt lat="41.84732" lon="-87.626818">
      </trkpt>
      <trkpt lat="41.848155" lon="-87.630758">
      </trkpt>
      <trkpt lat="41.847855" lon="-87.631727">
      </trkpt>
      <trkpt lat="41.843118" lon="-87.631351">
      </trkpt>
      <trkpt lat="41.819121" lon="-87.630789">
      </trkpt>
      <trkpt lat="41.816682" lon="-87.631192">
      </trkpt>
      <trkpt lat="41.816426" lon="-87.631192">
      </trkpt>
      <trkpt lat="41.816544" lon="-87.623022">
      </trkpt>
      <trkpt lat="41.815421" lon="-87.623001">
      </trkpt>
      <trkpt lat="41.815421" lon="-87.623001">
      </trkpt>
      <trkpt lat="41.814738" lon="-87.622988">
      </trkpt>
      <trkpt lat="41.814689" lon="-87.626222">
      </trkpt>
      <trkpt lat="41.816493" lon="-87.626265">
      </trkpt>
      <trkpt lat="41.816448" lon="-87.629441">
      </trkpt>
      <trkpt lat="41.816639" lon="-87.629444">
      </trkpt>
      <trkpt lat="41.837743" lon="-87.630393">
      </trkpt>
      <trkpt lat="41.842376" lon="-87.630317">
      </trkpt>
      <trkpt lat="41.844144" lon="-87.631347">
      </trkpt>
      <trkpt lat="41.84523" lon="-87.633465">
      </trkpt>
      <trkpt lat="41.847354" lon="-87.642036">
      </trkpt>
      <trkpt lat="41.85074" lon="-87.644829">
      </trkpt>
      <trkpt lat="41.852863" lon="-87.645167">
      </trkpt>
      <trkpt lat="41.857015" lon="-87.64416">
      </trkpt>
      <trkpt lat="41.867845" lon="-87.644517">
      </trkpt>
      <trkpt lat="41.873521" lon="-87.644628">
      </trkpt>
      <trkpt lat="41.875312" lon="-87.643707">
      </trkpt>
      <trkpt lat="41.875572" lon="-87.635788">
      </trkpt>
      <trkpt lat="41.875312" lon="-87.634246">
      </trkpt>
      <trkpt lat="41.874721" lon="-87.634438">
      </trkpt>
      <trkpt lat="41.874834" lon="-87.635124">
      </trkpt>
      <trkpt lat="41.875828" lon="-87.635957">
      </trkpt>
      <trkpt lat="41.876812" lon="-87.636629">
      </trkpt>
      <trkpt lat="41.876812" lon="-87.636803">
      </trkpt>
      <trkpt lat="41.876812" lon="-87.636803">
      </trkpt>
      <trkpt lat="41.876769" lon="-87.639817">
      </trkpt>
      <trkpt lat="41.875803" lon="-87.639823">
      </trkpt>
      <trkpt lat="41.875644" lon="-87.641651">
      </trkpt>
      <trkpt lat="41.876207" lon="-87.646562">
      </trkpt>
      <trkpt lat="41.872433" lon="-87.645662">
      </trkpt>
      <trkpt lat="41.857367" lon="-87.644363">
      </trkpt>
      <trkpt lat="41.852447" lon="-87.645793">
      </trkpt>
      <trkpt lat="41.849097" lon="-87.644333">
      </trkpt>
      <trkpt lat="41.847022" lon="-87.643039">
      </trkpt>
      <trkpt lat="41.846546" lon="-87.641933">
      </trkpt>
      <trkpt lat="41.847063" lon="-87.638623">
      </trkpt>
      <trkpt lat="41.84669" lon="-87.634629">
      </trkpt>
      <trkpt lat="41.847362" lon="-87.632091">
      </trkpt>
      <trkpt lat="41.846918" lon="-87.628234">
      </trkpt>
      <trkpt lat="41.847827" lon="-87.623841">
      </trkpt>
      <trkpt lat="41.847976" lon="-87.616851">
      </trkpt>
      <trkpt lat="41.847877" lon="-87.613703">
      </trkpt>
      <trkpt lat="41.847086" lon="-87.612314">
      </trkpt>
      <trkpt lat="41.838015" lon="-87.608419">
      </trkpt>
      <trkpt lat="41.832923" lon="-87.607384">
      </trkpt>
      <trkpt lat="41.827907" lon="-87.602929">
      </trkpt>
      <trkpt lat="41.827907" lon="-87.602929">
      </trkpt>
      <trkpt lat="41.827252" lon="-87.60211">
      </trkpt>
      <trkpt lat="41.82517" lon="-87.600903">
      </trkpt>
      <trkpt lat="41.825435" lon="-87.599849">
      </trkpt>
      <trkpt lat="41.833032" lon="-87.607125">
      </trkpt>
      <trkpt lat="41.865968" lon="-87.619224">
      </trkpt>
      <trkpt lat="41.869799" lon="-87.617003">
      </trkpt>
      <trkpt lat="41.881825" lon="-87.617167">
      </trkpt>
      <trkpt lat="41.884762" lon="-87.613645">
      </trkpt>
      <trkpt lat="41.892878" lon="-87.614041">
      </trkpt>
      <trkpt lat="41.900921" lon="-87.619441">
      </trkpt>
      <trkpt lat="41.902893" lon="-87.624048">
      </trkpt>
      <trkpt lat="41.928415" lon="-87.631851">
      </trkpt>
      <trkpt lat="41.934381" lon="-87.632152">
      </trkpt>
      <trkpt lat="41.939073" lon="-87.63676">
      </trkpt>
      <trkpt lat="41.940568" lon="-87.638088">
      </trkpt>
      <trkpt lat="41.940035" lon="-87.64439">
      </trkpt>
      <trkpt lat="41.939151" lon="-87.644362">
      </trkpt>
      <trkpt lat="41.939151" lon="-87.644362">
      </trkpt>
      <trkpt lat="41.940035" lon="-87.64439">
      </trkpt>
      <trkpt lat="41.940268" lon="-87.638796">
      </trkpt>
      <trkpt lat="41.939931" lon="-87.638606">
      </trkpt>
      <trkpt lat="41.936955" lon="-87.634194">
      </trkpt>
      <trkpt lat="41.934639" lon="-87.632453">
      </trkpt>
      <trkpt lat="41.928427" lon="-87.632048">
      </trkpt>
      <trkpt lat="41.918735" lon="-87.629189">
      </trkpt>
      <trkpt lat="41.911998" lon="-87.62605">
      </trkpt>
      <trkpt lat="41.902733" lon="-87.62421">
      </trkpt>
      <trkpt lat="41.901491" lon="-87.62264">
      </trkpt>
      <trkpt lat="41.900898" lon="-87.619617">
      </trkpt>
      <trkpt lat="41.892985" lon="-87.614304">
      </trkpt>
      <trkpt lat="41.884928" lon="-87.614127">
      </trkpt>
      <trkpt lat="41.882167" lon="-87.617321">
      </trkpt>
      <trkpt lat="41.878363" lon="-87.617442">
      </trkpt>
      <trkpt lat="41.878331" lon="-87.620697">
      </trkpt>
      <trkpt lat="41.876287" lon="-87.620625">
      </trkpt>
      <trkpt lat="41.875674" lon="-87.626887">
      </trkpt>
      <trkpt lat="41.876197" lon="-87.657603">
      </trkpt>
      <trkpt lat="41.875763" lon="-87.688313">
      </trkpt>
      <trkpt lat="41.875862" lon="-87.692409">
      </trkpt>
      <trkpt lat="41.875985" lon="-87.695752">
      </trkpt>
      <trkpt lat="41.875985" lon="-87.695752">
      </trkpt>
      <trkpt lat="41.875983" lon="-87.696151">
      </trkpt>
      <trkpt lat="41.884255" lon="-87.69636">
      </trkpt>
      <trkpt lat="41.885414" lon="-87.662599">
      </trkpt>
      <trkpt lat="41.887468" lon="-87.661497">
      </trkpt>
      <trkpt lat="41.889971" lon="-87.659834">
      </trkpt>
      <trkpt lat="41.890032" lon="-87.653442">
      </trkpt>
      <trkpt lat="41.890128" lon="-87.653444">
      </trkpt>
      <trkpt lat="41.890128" lon="-87.653444">
      </trkpt>
      <trkpt lat="41.890032" lon="-87.653442">
      </trkpt>
      <trkpt lat="41.890088" lon="-87.647611">
      </trkpt>
      <trkpt lat="41.885665" lon="-87.647482">
      </trkpt>
      <trkpt lat="41.885682" lon="-87.646258">
      </trkpt>
      <trkpt lat="41.857367" lon="-87.644363">
      </trkpt>
      <trkpt lat="41.851247" lon="-87.645245">
      </trkpt>
      <trkpt lat="41.847384" lon="-87.642429">
      </trkpt>
      <trkpt lat="41.845323" lon="-87.634652">
      </trkpt>
      <trkpt lat="41.843952" lon="-87.632305">
      </trkpt>
      <trkpt lat="41.841797" lon="-87.631511">
      </trkpt>
      <trkpt lat="41.834597" lon="-87.631593">
      </trkpt>
      <trkpt lat="41.834642" lon="-87.628886">
      </trkpt>
      <trkpt lat="41.833673" lon="-87.628847">
      </trkpt>
      <trkpt lat="41.833673" lon="-87.628847">
      </trkpt>
      <trkpt lat="41.834642" lon="-87.628886">
      </trkpt>
      <trkpt lat="41.834623" lon="-87.629907">
      </trkpt>
      <trkpt lat="41.841613" lon="-87.6301">
      </trkpt>
      <trkpt lat="41.844491" lon="-87.631814">
      </trkpt>
      <trkpt lat="41.847354" lon="-87.642036">
      </trkpt>
      <trkpt lat="41.85074" lon="-87.644829">
      </trkpt>
      <trkpt lat="41.852863" lon="-87.645167">
      </trkpt>
      <trkpt lat="41.857362" lon="-87.644156">
      </trkpt>
      <trkpt lat="41.873493" lon="-87.644854">
      </trkpt>
      <trkpt lat="41.87559" lon="-87.644167">
      </trkpt>
      <trkpt lat="41.877863" lon="-87.645364">
      </trkpt>
      <trkpt lat="41.880374" lon="-87.645275">
      </trkpt>
      <trkpt lat="41.881808" lon="-87.64518">
      </trkpt>
      <trkpt lat="41.881817" lon="-87.644106">
      </trkpt>
      <trkpt lat="41.880532" lon="-87.644087">
      </trkpt>
      <trkpt lat="41.880598" lon="-87.639693">
      </trkpt>
      <trkpt lat="41.881889" lon="-87.639706">
      </trkpt>
      <trkpt lat="41.881877" lon="-87.640505">
      </trkpt>
      <trkpt lat="41.881877" lon="-87.640505">
      </trkpt>
      <trkpt lat="41.881847" lon="-87.642638">
      </trkpt>
      <trkpt lat="41.883172" lon="-87.642677">
      </trkpt>
      <trkpt lat="41.883178" lon="-87.641266">
      </trkpt>
      <trkpt lat="41.883185" lon="-87.639745">
      </trkpt>
      <trkpt lat="41.883257" lon="-87.624233">
      </trkpt>
      <trkpt lat="41.884366" lon="-87.624344">
      </trkpt>
      <trkpt lat="41.884372" lon="-87.623414">
      </trkpt>
      <trkpt lat="41.884324" lon="-87.620237">
      </trkpt>
      <trkpt lat="41.884399" lon="-87.617593">
      </trkpt>
      <trkpt lat="41.884538" lon="-87.617389">
      </trkpt>
      <trkpt lat="41.884596" lon="-87.615772">
      </trkpt>
      <trkpt lat="41.886931" lon="-87.615811">
      </trkpt>
      <trkpt lat="41.886949" lon="-87.61618">
      </trkpt>
      <trkpt lat="41.886949" lon="-87.61618">
      </trkpt>
      <trkpt lat="41.886944" lon="-87.617235">
      </trkpt>
      <trkpt lat="41.887001" lon="-87.61744">
      </trkpt>
      <trkpt lat="41.887122" lon="-87.617384">
      </trkpt>
      <trkpt lat="41.887718" lon="-87.617443">
      </trkpt>
      <trkpt lat="41.887767" lon="-87.617531">
      </trkpt>
      <trkpt lat="41.887866" lon="-87.61954">
      </trkpt>
      <trkpt lat="41.887992" lon="-87.620783">
      </trkpt>
      <trkpt lat="41.886861" lon="-87.620789">
      </trkpt>
      <trkpt lat="41.886812" lon="-87.624639">
      </trkpt>
      <trkpt lat="41.884489" lon="-87.624571">
      </trkpt>
      <trkpt lat="41.884366" lon="-87.624344">
      </trkpt>
      <trkpt lat="41.884372" lon="-87.623414">
      </trkpt>
      <trkpt lat="41.884293" lon="-87.622907">
      </trkpt>
      <trkpt lat="41.884319" lon="-87.621085">
      </trkpt>
      <trkpt lat="41.884319" lon="-87.621085">
      </trkpt>
      <trkpt lat="41.884316" lon="-87.620576">
      </trkpt>
      <trkpt lat="41.884503" lon="-87.620586">
      </trkpt>
      <trkpt lat="41.884489" lon="-87.627902">
      </trkpt>
      <trkpt lat="41.882046" lon="-87.627799">
      </trkpt>
      <trkpt lat="41.881984" lon="-87.630875">
      </trkpt>
      <trkpt lat="41.876886" lon="-87.630743">
      </trkpt>
      <trkpt lat="41.876812" lon="-87.636803">
      </trkpt>
      <trkpt lat="41.876812" lon="-87.636803">
      </trkpt>
      <trkpt lat="41.876812" lon="-87.636629">
      </trkpt>
      <trkpt lat="41.881915" lon="-87.636785">
      </trkpt>
      <trkpt lat="41.881889" lon="-87.639706">
      </trkpt>
      <trkpt lat="41.885734" lon="-87.639866">
      </trkpt>
      <trkpt lat="41.886808" lon="-87.641353">
      </trkpt>
      <trkpt lat="41.887052" lon="-87.641357">
      </trkpt>
      <trkpt lat="41.887052" lon="-87.641357">
      </trkpt>
      <trkpt lat="41.885723" lon="-87.641346">
      </trkpt>
      <trkpt lat="41.885686" lon="-87.645903">
      </trkpt>
      <trkpt lat="41.881827" lon="-87.645999">
      </trkpt>
      <trkpt lat="41.880956" lon="-87.646134">
      </trkpt>
      <trkpt lat="41.879569" lon="-87.646145">
      </trkpt>
      <trkpt lat="41.878121" lon="-87.646166">
      </trkpt>
      <trkpt lat="41.877218" lon="-87.646107">
      </trkpt>
      <trkpt lat="41.876551" lon="-87.646063">
      </trkpt>
      <trkpt lat="41.875649" lon="-87.646733">
      </trkpt>
      <trkpt lat="41.875257" lon="-87.646541">
      </trkpt>
      <trkpt lat="41.87505" lon="-87.645999">
      </trkpt>
      <trkpt lat="41.875457" lon="-87.644423">
      </trkpt>
      <trkpt lat="41.875517" lon="-87.630576">
      </trkpt>
      <trkpt lat="41.875724" lon="-87.62435">
      </trkpt>
      <trkpt lat="41.867506" lon="-87.624157">
      </trkpt>
      <trkpt lat="41.868888" lon="-87.624039">
      </trkpt>
      <trkpt lat="41.868888" lon="-87.624039">
      </trkpt>
      <trkpt lat="41.873158" lon="-87.624138">
      </trkpt>
      <trkpt lat="41.873249" lon="-87.617066">
      </trkpt>
      <trkpt lat="41.881825" lon="-87.617167">
      </trkpt>
      <trkpt lat="41.884932" lon="-87.613613">
      </trkpt>
      <trkpt lat="41.892878" lon="-87.614041">
      </trkpt>
      <trkpt lat="41.900921" lon="-87.619441">
      </trkpt>
      <trkpt lat="41.902893" lon="-87.624048">
      </trkpt>
      <trkpt lat="41.928213" lon="-87.631799">
      </trkpt>
      <trkpt lat="41.934701" lon="-87.632273">
      </trkpt>
      <trkpt lat="41.941399" lon="-87.638962">
      </trkpt>
      <trkpt lat="41.952992" lon="-87.644572">
      </trkpt>
      <trkpt lat="41.954667" lon="-87.644162">
      </trkpt>
      <trkpt lat="41.954119" lon="-87.686036">
      </trkpt>
      <trkpt lat="41.954591" lon="-87.686052">
      </trkpt>
      <trkpt lat="41.954591" lon="-87.686052">
      </trkpt>
      <trkpt lat="41.955884" lon="-87.686096">
      </trkpt>
      <trkpt lat="41.9559" lon="-87.68488">
      </trkpt>
      <trkpt lat="41.954135" lon="-87.684822">
      </trkpt>
      <trkpt lat="41.954086" lon="-87.688469">
      </trkpt>
      <trkpt lat="41.932176" lon="-87.687986">
      </trkpt>
      <trkpt lat="41.932116" lon="-87.696547">
      </trkpt>
      <trkpt lat="41.918139" lon="-87.671115">
      </trkpt>
      <trkpt lat="41.915851" lon="-87.668499">
      </trkpt>
      <trkpt lat="41.913088" lon="-87.666712">
      </trkpt>
      <trkpt lat="41.910672" lon="-87.665662">
      </trkpt>
      <trkpt lat="41.910715" lon="-87.66216">
      </trkpt>
      <trkpt lat="41.908679" lon="-87.660908">
      </trkpt>
      <trkpt lat="41.908679" lon="-87.660908">
      </trkpt>
      <trkpt lat="41.908679" lon="-87.660908">
      </trkpt>
      <trkpt lat="41.908679" lon="-87.660908">
      </trkpt>
      <trkpt lat="41.903997" lon="-87.658892">
      </trkpt>
      <trkpt lat="41.90348" lon="-87.658875">
      </trkpt>
      <trkpt lat="41.903435" lon="-87.661667">
      </trkpt>
      <trkpt lat="41.896333" lon="-87.658563">
      </trkpt>
      <trkpt lat="41.889352" lon="-87.648602">
      </trkpt>
      <trkpt lat="41.886676" lon="-87.646473">
      </trkpt>
      <trkpt lat="41.861936" lon="-87.644538">
      </trkpt>
      <trkpt lat="41.856515" lon="-87.644791">
      </trkpt>
      <trkpt lat="41.852672" lon="-87.645911">
      </trkpt>
      <trkpt lat="41.852788" lon="-87.632031">
      </trkpt>
      <trkpt lat="41.851747" lon="-87.632001">
      </trkpt>
      <trkpt lat="41.851747" lon="-87.632001">
      </trkpt>
      <trkpt lat="41.852788" lon="-87.632031">
      </trkpt>
      <trkpt lat="41.852781" lon="-87.631057">
      </trkpt>
      <trkpt lat="41.852781" lon="-87.631057">
      </trkpt>
      <trkpt lat="41.852935" lon="-87.631144">
      </trkpt>
      <trkpt lat="41.852891" lon="-87.636734">
      </trkpt>
      <trkpt lat="41.852796" lon="-87.638539">
      </trkpt>
      <trkpt lat="41.85401" lon="-87.638568">
      </trkpt>
      <trkpt lat="41.855696" lon="-87.63887">
      </trkpt>
      <trkpt lat="41.858209" lon="-87.638953">
      </trkpt>
      <trkpt lat="41.858209" lon="-87.638953">
      </trkpt>
      <trkpt lat="41.86722" lon="-87.639228">
      </trkpt>
      <trkpt lat="41.867474" lon="-87.618739">
      </trkpt>
      <trkpt lat="41.869799" lon="-87.617003">
      </trkpt>
      <trkpt lat="41.881825" lon="-87.617167">
      </trkpt>
      <trkpt lat="41.884932" lon="-87.613613">
      </trkpt>
      <trkpt lat="41.892878" lon="-87.614041">
      </trkpt>
      <trkpt lat="41.900921" lon="-87.619441">
      </trkpt>
      <trkpt lat="41.902893" lon="-87.624048">
      </trkpt>
      <trkpt lat="41.928415" lon="-87.631851">
      </trkpt>
      <trkpt lat="41.934381" lon="-87.632152">
      </trkpt>
      <trkpt lat="41.941219" lon="-87.638833">
      </trkpt>
      <trkpt lat="41.950931" lon="-87.644376">
      </trkpt>
      <trkpt lat="41.973046" lon="-87.648738">
      </trkpt>
      <trkpt lat="41.984951" lon="-87.652803">
      </trkpt>
      <trkpt lat="41.985556" lon="-87.655253">
      </trkpt>
      <trkpt lat="41.997803" lon="-87.655634">
      </trkpt>
      <trkpt lat="41.998196" lon="-87.659646">
      </trkpt>
      <trkpt lat="42.020264" lon="-87.666335">
      </trkpt>
      <trkpt lat="42.02087" lon="-87.665065">
      </trkpt>
      <trkpt lat="42.020625" lon="-87.664971">
      </trkpt>
    </trkseg>
  </trk>
</gpx>