<?xml version="1.0" encoding="UTF-8"?>
<gpx xmlns="http://www.topografix.com/GPX/1/1" xmlns:xsi="http://www.w3.org/2001/XMLSchema-instance" xsi:schemaLocation="http://www.topografix.com/GPX/1/1 http://www.topografix.com/GPX/1/1/gpx.xsd" version="1.1" creator="gpx.py -- https://github.com/tkrajina/gpxpy">
  <trk>
    <trkseg>
      <trkpt lat="41.829256" lon="-87.642419">
      </trkpt>
      <trkpt lat="41.8308" lon="-87.64245">
      </trkpt>
      <trkpt lat="41.830892" lon="-87.631343">
      </trkpt>
      <trkpt lat="41.830961" lon="-87.629817">
      </trkpt>
      <trkpt lat="41.834623" lon="-87.629907">
      </trkpt>
      <trkpt lat="41.834642" lon="-87.628886">
      </trkpt>
      <trkpt lat="41.833673" lon="-87.628847">
      </trkpt>
      <trkpt lat="41.833673" lon="-87.628847">
      </trkpt>
      <trkpt lat="41.834642" lon="-87.628886">
      </trkpt>
      <trkpt lat="41.83469" lon="-87.625058">
      </trkpt>
      <trkpt lat="41.832863" lon="-87.625023">
      </trkpt>
      <trkpt lat="41.832863" lon="-87.625023">
      </trkpt>
      <trkpt lat="41.83283" lon="-87.626475">
      </trkpt>
      <trkpt lat="41.838297" lon="-87.626578">
      </trkpt>
      <trkpt lat="41.838265" lon="-87.630021">
      </trkpt>
      <trkpt lat="41.841613" lon="-87.6301">
      </trkpt>
      <trkpt lat="41.844491" lon="-87.631814">
      </trkpt>
      <trkpt lat="41.847286" lon="-87.641891">
      </trkpt>
      <trkpt lat="41.850184" lon="-87.644549">
      </trkpt>
      <trkpt lat="41.852401" lon="-87.645183">
      </trkpt>
      <trkpt lat="41.856638" lon="-87.644172">
      </trkpt>
      <trkpt lat="41.867845" lon="-87.644517">
      </trkpt>
      <trkpt lat="41.873521" lon="-87.644628">
      </trkpt>
      <trkpt lat="41.875725" lon="-87.645646">
      </trkpt>
      <trkpt lat="41.875863" lon="-87.649223">
      </trkpt>
      <trkpt lat="41.875633" lon="-87.697949">
      </trkpt>
      <trkpt lat="41.874284" lon="-87.70915">
      </trkpt>
      <trkpt lat="41.873967" lon="-87.732948">
      </trkpt>
      <trkpt lat="41.87187" lon="-87.740374">
      </trkpt>
      <trkpt lat="41.871028" lon="-87.766962">
      </trkpt>
      <trkpt lat="41.871119" lon="-87.774317">
      </trkpt>
      <trkpt lat="41.850493" lon="-87.77372">
      </trkpt>
      <trkpt lat="41.850493" lon="-87.77372">
      </trkpt>
      <trkpt lat="41.898363" lon="-87.775245">
      </trkpt>
      <trkpt lat="41.898428" lon="-87.770378">
      </trkpt>
      <trkpt lat="41.89751" lon="-87.770348">
      </trkpt>
      <trkpt lat="41.897508" lon="-87.77057">
      </trkpt>
      <trkpt lat="41.897508" lon="-87.77057">
      </trkpt>
      <trkpt lat="41.897483" lon="-87.772382">
      </trkpt>
      <trkpt lat="41.898401" lon="-87.772411">
      </trkpt>
      <trkpt lat="41.898494" lon="-87.765522">
      </trkpt>
      <trkpt lat="41.902145" lon="-87.765658">
      </trkpt>
      <trkpt lat="41.902833" lon="-87.706787">
      </trkpt>
      <trkpt lat="41.927966" lon="-87.70699">
      </trkpt>
      <trkpt lat="41.928471" lon="-87.697517">
      </trkpt>
      <trkpt lat="41.940244" lon="-87.697848">
      </trkpt>
      <trkpt lat="41.940262" lon="-87.695246">
      </trkpt>
      <trkpt lat="41.940229" lon="-87.69448">
      </trkpt>
      <trkpt lat="41.940836" lon="-87.694671">
      </trkpt>
      <trkpt lat="41.940836" lon="-87.694671">
      </trkpt>
      <trkpt lat="41.940307" lon="-87.694511">
      </trkpt>
      <trkpt lat="41.940262" lon="-87.695246">
      </trkpt>
      <trkpt lat="41.939421" lon="-87.695268">
      </trkpt>
      <trkpt lat="41.939142" lon="-87.723912">
      </trkpt>
      <trkpt lat="41.941155" lon="-87.727246">
      </trkpt>
      <trkpt lat="41.940886" lon="-87.727241">
      </trkpt>
      <trkpt lat="41.94087" lon="-87.728468">
      </trkpt>
      <trkpt lat="41.941274" lon="-87.728479">
      </trkpt>
      <trkpt lat="41.941274" lon="-87.728479">
      </trkpt>
      <trkpt lat="41.941739" lon="-87.728199">
      </trkpt>
      <trkpt lat="41.941155" lon="-87.727246">
      </trkpt>
      <trkpt lat="41.924493" lon="-87.726763">
      </trkpt>
      <trkpt lat="41.92425" lon="-87.746319">
      </trkpt>
      <trkpt lat="41.907811" lon="-87.746089">
      </trkpt>
      <trkpt lat="41.907693" lon="-87.755482">
      </trkpt>
      <trkpt lat="41.907693" lon="-87.755482">
      </trkpt>
      <trkpt lat="41.907687" lon="-87.755899">
      </trkpt>
      <trkpt lat="41.910063" lon="-87.755671">
      </trkpt>
      <trkpt lat="41.92411" lon="-87.75615">
      </trkpt>
      <trkpt lat="41.924493" lon="-87.726763">
      </trkpt>
      <trkpt lat="41.931796" lon="-87.726988">
      </trkpt>
      <trkpt lat="41.93186" lon="-87.722071">
      </trkpt>
      <trkpt lat="41.929231" lon="-87.721999">
      </trkpt>
      <trkpt lat="41.929231" lon="-87.721999">
      </trkpt>
      <trkpt lat="41.924553" lon="-87.721872">
      </trkpt>
      <trkpt lat="41.924722" lon="-87.707229">
      </trkpt>
      <trkpt lat="41.898325" lon="-87.706651">
      </trkpt>
      <trkpt lat="41.896575" lon="-87.702222">
      </trkpt>
      <trkpt lat="41.891131" lon="-87.701974">
      </trkpt>
      <trkpt lat="41.888916" lon="-87.701464">
      </trkpt>
      <trkpt lat="41.888934" lon="-87.700036">
      </trkpt>
      <trkpt lat="41.889373" lon="-87.698543">
      </trkpt>
      <trkpt lat="41.889373" lon="-87.698543">
      </trkpt>
      <trkpt lat="41.889326" lon="-87.699076">
      </trkpt>
      <trkpt lat="41.888934" lon="-87.700036">
      </trkpt>
      <trkpt lat="41.888916" lon="-87.701464">
      </trkpt>
      <trkpt lat="41.889772" lon="-87.701519">
      </trkpt>
      <trkpt lat="41.891131" lon="-87.701974">
      </trkpt>
      <trkpt lat="41.895594" lon="-87.702191">
      </trkpt>
      <trkpt lat="41.89575" lon="-87.686835">
      </trkpt>
      <trkpt lat="41.903025" lon="-87.687018">
      </trkpt>
      <trkpt lat="41.903145" lon="-87.679708">
      </trkpt>
      <trkpt lat="41.903748" lon="-87.679724">
      </trkpt>
      <trkpt lat="41.903748" lon="-87.679724">
      </trkpt>
      <trkpt lat="41.904973" lon="-87.679758">
      </trkpt>
      <trkpt lat="41.90494" lon="-87.6822">
      </trkpt>
      <trkpt lat="41.903106" lon="-87.68215">
      </trkpt>
      <trkpt lat="41.902888" lon="-87.701605">
      </trkpt>
      <trkpt lat="41.902888" lon="-87.701605">
      </trkpt>
      <trkpt lat="41.902888" lon="-87.701605">
      </trkpt>
      <trkpt lat="41.902888" lon="-87.701605">
      </trkpt>
      <trkpt lat="41.902886" lon="-87.702278">
      </trkpt>
      <trkpt lat="41.897899" lon="-87.702431">
      </trkpt>
      <trkpt lat="41.884089" lon="-87.701291">
      </trkpt>
      <trkpt lat="41.884621" lon="-87.686532">
      </trkpt>
      <trkpt lat="41.881166" lon="-87.686432">
      </trkpt>
      <trkpt lat="41.88126" lon="-87.678236">
      </trkpt>
      <trkpt lat="41.88126" lon="-87.678236">
      </trkpt>
      <trkpt lat="41.881323" lon="-87.676638">
      </trkpt>
      <trkpt lat="41.886776" lon="-87.676791">
      </trkpt>
      <trkpt lat="41.886827" lon="-87.673532">
      </trkpt>
      <trkpt lat="41.886827" lon="-87.673532">
      </trkpt>
      <trkpt lat="41.886929" lon="-87.666966">
      </trkpt>
      <trkpt lat="41.889896" lon="-87.667056">
      </trkpt>
      <trkpt lat="41.890047" lon="-87.652264">
      </trkpt>
      <trkpt lat="41.888087" lon="-87.652212">
      </trkpt>
      <trkpt lat="41.888087" lon="-87.652212">
      </trkpt>
      <trkpt lat="41.891135" lon="-87.652288">
      </trkpt>
      <trkpt lat="41.891239" lon="-87.643004">
      </trkpt>
      <trkpt lat="41.891501" lon="-87.640016">
      </trkpt>
      <trkpt lat="41.891543" lon="-87.637019">
      </trkpt>
      <trkpt lat="41.892368" lon="-87.63704">
      </trkpt>
      <trkpt lat="41.892476" lon="-87.628093">
      </trkpt>
      <trkpt lat="41.891667" lon="-87.628071">
      </trkpt>
      <trkpt lat="41.891657" lon="-87.628847">
      </trkpt>
      <trkpt lat="41.891657" lon="-87.628847">
      </trkpt>
      <trkpt lat="41.891506" lon="-87.639878">
      </trkpt>
      <trkpt lat="41.891239" lon="-87.643004">
      </trkpt>
      <trkpt lat="41.891059" lon="-87.659133">
      </trkpt>
      <trkpt lat="41.889969" lon="-87.660056">
      </trkpt>
      <trkpt lat="41.88996" lon="-87.660876">
      </trkpt>
      <trkpt lat="41.889038" lon="-87.660867">
      </trkpt>
      <trkpt lat="41.889038" lon="-87.660867">
      </trkpt>
      <trkpt lat="41.888942" lon="-87.660774">
      </trkpt>
      <trkpt lat="41.887465" lon="-87.661689">
      </trkpt>
      <trkpt lat="41.887468" lon="-87.661497">
      </trkpt>
      <trkpt lat="41.889971" lon="-87.659834">
      </trkpt>
      <trkpt lat="41.890082" lon="-87.64876">
      </trkpt>
      <trkpt lat="41.889017" lon="-87.648718">
      </trkpt>
      <trkpt lat="41.889054" lon="-87.644337">
      </trkpt>
      <trkpt lat="41.884425" lon="-87.644184">
      </trkpt>
      <trkpt lat="41.884406" lon="-87.646033">
      </trkpt>
      <trkpt lat="41.884406" lon="-87.646033">
      </trkpt>
      <trkpt lat="41.884415" lon="-87.647438">
      </trkpt>
      <trkpt lat="41.881782" lon="-87.64736">
      </trkpt>
      <trkpt lat="41.881801" lon="-87.64573">
      </trkpt>
      <trkpt lat="41.885306" lon="-87.645735">
      </trkpt>
      <trkpt lat="41.888483" lon="-87.647404">
      </trkpt>
      <trkpt lat="41.889615" lon="-87.64861">
      </trkpt>
      <trkpt lat="41.895403" lon="-87.657024">
      </trkpt>
      <trkpt lat="41.897251" lon="-87.658783">
      </trkpt>
      <trkpt lat="41.899676" lon="-87.659247">
      </trkpt>
      <trkpt lat="41.899956" lon="-87.659821">
      </trkpt>
      <trkpt lat="41.899842" lon="-87.660982">
      </trkpt>
      <trkpt lat="41.903364" lon="-87.666488">
      </trkpt>
      <trkpt lat="41.903268" lon="-87.67239">
      </trkpt>
      <trkpt lat="41.903498" lon="-87.672395">
      </trkpt>
      <trkpt lat="41.903498" lon="-87.672395">
      </trkpt>
      <trkpt lat="41.903268" lon="-87.67239">
      </trkpt>
      <trkpt lat="41.903351" lon="-87.667439">
      </trkpt>
      <trkpt lat="41.910635" lon="-87.667641">
      </trkpt>
      <trkpt lat="41.911172" lon="-87.633071">
      </trkpt>
      <trkpt lat="41.912903" lon="-87.633044">
      </trkpt>
      <trkpt lat="41.913237" lon="-87.632269">
      </trkpt>
      <trkpt lat="41.912247" lon="-87.628505">
      </trkpt>
      <trkpt lat="41.912475" lon="-87.626923">
      </trkpt>
      <trkpt lat="41.913347" lon="-87.626017">
      </trkpt>
      <trkpt lat="41.918036" lon="-87.628743">
      </trkpt>
      <trkpt lat="41.927967" lon="-87.631735">
      </trkpt>
      <trkpt lat="41.934989" lon="-87.632402">
      </trkpt>
      <trkpt lat="41.941219" lon="-87.638833">
      </trkpt>
      <trkpt lat="41.950931" lon="-87.644376">
      </trkpt>
      <trkpt lat="41.967723" lon="-87.647541">
      </trkpt>
      <trkpt lat="41.969474" lon="-87.647273">
      </trkpt>
      <trkpt lat="41.96907" lon="-87.656225">
      </trkpt>
      <trkpt lat="41.974712" lon="-87.656365">
      </trkpt>
    </trkseg>
  </trk>
</gpx>