<?xml version="1.0" encoding="UTF-8"?>
<gpx xmlns="http://www.topografix.com/GPX/1/1" xmlns:xsi="http://www.w3.org/2001/XMLSchema-instance" xsi:schemaLocation="http://www.topografix.com/GPX/1/1 http://www.topografix.com/GPX/1/1/gpx.xsd" version="1.1" creator="gpx.py -- https://github.com/tkrajina/gpxpy">
  <trk>
    <trkseg>
      <trkpt lat="41.942777" lon="-87.701229">
      </trkpt>
      <trkpt lat="41.942795" lon="-87.697932">
      </trkpt>
      <trkpt lat="41.953982" lon="-87.698254">
      </trkpt>
      <trkpt lat="41.954306" lon="-87.668983">
      </trkpt>
      <trkpt lat="41.99639" lon="-87.670138">
      </trkpt>
      <trkpt lat="42.008991" lon="-87.673966">
      </trkpt>
      <trkpt lat="42.008991" lon="-87.673966">
      </trkpt>
      <trkpt lat="42.005339" lon="-87.673112">
      </trkpt>
      <trkpt lat="42.0054" lon="-87.66937">
      </trkpt>
      <trkpt lat="42.001929" lon="-87.669283">
      </trkpt>
      <trkpt lat="42.001929" lon="-87.669283">
      </trkpt>
      <trkpt lat="42.001929" lon="-87.669283">
      </trkpt>
      <trkpt lat="42.001929" lon="-87.669283">
      </trkpt>
      <trkpt lat="42.001742" lon="-87.669277">
      </trkpt>
      <trkpt lat="42.00176" lon="-87.668065">
      </trkpt>
      <trkpt lat="42.005122" lon="-87.668176">
      </trkpt>
      <trkpt lat="42.005122" lon="-87.668176">
      </trkpt>
      <trkpt lat="42.005422" lon="-87.668185">
      </trkpt>
      <trkpt lat="42.005557" lon="-87.660929">
      </trkpt>
      <trkpt lat="41.998191" lon="-87.66054">
      </trkpt>
      <trkpt lat="41.985467" lon="-87.660132">
      </trkpt>
      <trkpt lat="41.985582" lon="-87.653995">
      </trkpt>
      <trkpt lat="41.984999" lon="-87.653157">
      </trkpt>
      <trkpt lat="41.981232" lon="-87.652706">
      </trkpt>
      <trkpt lat="41.972134" lon="-87.648822">
      </trkpt>
      <trkpt lat="41.955203" lon="-87.644905">
      </trkpt>
      <trkpt lat="41.950978" lon="-87.644611">
      </trkpt>
      <trkpt lat="41.941067" lon="-87.638957">
      </trkpt>
      <trkpt lat="41.935041" lon="-87.632637">
      </trkpt>
      <trkpt lat="41.927741" lon="-87.631858">
      </trkpt>
      <trkpt lat="41.926001" lon="-87.631853">
      </trkpt>
      <trkpt lat="41.925453" lon="-87.648766">
      </trkpt>
      <trkpt lat="41.929016" lon="-87.653741">
      </trkpt>
      <trkpt lat="41.928972" lon="-87.65652">
      </trkpt>
      <trkpt lat="41.928972" lon="-87.65652">
      </trkpt>
      <trkpt lat="41.929016" lon="-87.653741">
      </trkpt>
      <trkpt lat="41.932636" lon="-87.653863">
      </trkpt>
      <trkpt lat="41.932848" lon="-87.642737">
      </trkpt>
      <trkpt lat="41.934284" lon="-87.64278">
      </trkpt>
      <trkpt lat="41.934296" lon="-87.642085">
      </trkpt>
      <trkpt lat="41.934296" lon="-87.642085">
      </trkpt>
      <trkpt lat="41.934308" lon="-87.641392">
      </trkpt>
      <trkpt lat="41.932875" lon="-87.641357">
      </trkpt>
      <trkpt lat="41.932728" lon="-87.649013">
      </trkpt>
      <trkpt lat="41.925453" lon="-87.648766">
      </trkpt>
      <trkpt lat="41.924981" lon="-87.681912">
      </trkpt>
      <trkpt lat="41.926707" lon="-87.685177">
      </trkpt>
      <trkpt lat="41.940439" lon="-87.709664">
      </trkpt>
      <trkpt lat="41.942208" lon="-87.714861">
      </trkpt>
      <trkpt lat="41.947985" lon="-87.719618">
      </trkpt>
      <trkpt lat="41.958569" lon="-87.738838">
      </trkpt>
      <trkpt lat="41.960451" lon="-87.741371">
      </trkpt>
      <trkpt lat="41.960061" lon="-87.794287">
      </trkpt>
      <trkpt lat="41.946631" lon="-87.822074">
      </trkpt>
      <trkpt lat="41.937842" lon="-87.821404">
      </trkpt>
      <trkpt lat="41.937866" lon="-87.820185">
      </trkpt>
      <trkpt lat="41.936076" lon="-87.820102">
      </trkpt>
      <trkpt lat="41.936062" lon="-87.820727">
      </trkpt>
      <trkpt lat="41.934634" lon="-87.82067">
      </trkpt>
      <trkpt lat="41.934634" lon="-87.82067">
      </trkpt>
      <trkpt lat="41.934634" lon="-87.82067">
      </trkpt>
      <trkpt lat="41.934634" lon="-87.82067">
      </trkpt>
      <trkpt lat="41.93424" lon="-87.820654">
      </trkpt>
      <trkpt lat="41.934229" lon="-87.821275">
      </trkpt>
      <trkpt lat="41.937842" lon="-87.821404">
      </trkpt>
      <trkpt lat="41.938315" lon="-87.786046">
      </trkpt>
      <trkpt lat="41.945676" lon="-87.786299">
      </trkpt>
      <trkpt lat="41.945882" lon="-87.766768">
      </trkpt>
      <trkpt lat="41.953168" lon="-87.767005">
      </trkpt>
      <trkpt lat="41.953917" lon="-87.701921">
      </trkpt>
      <trkpt lat="41.955614" lon="-87.701972">
      </trkpt>
      <trkpt lat="41.955614" lon="-87.701972">
      </trkpt>
      <trkpt lat="41.955772" lon="-87.701976">
      </trkpt>
      <trkpt lat="41.955792" lon="-87.69831">
      </trkpt>
      <trkpt lat="41.941887" lon="-87.697902">
      </trkpt>
      <trkpt lat="41.941872" lon="-87.700544">
      </trkpt>
      <trkpt lat="41.941084" lon="-87.701556">
      </trkpt>
      <trkpt lat="41.941075" lon="-87.702765">
      </trkpt>
      <trkpt lat="41.933895" lon="-87.702566">
      </trkpt>
      <trkpt lat="41.933907" lon="-87.700481">
      </trkpt>
      <trkpt lat="41.933907" lon="-87.700481">
      </trkpt>
      <trkpt lat="41.93391" lon="-87.699706">
      </trkpt>
      <trkpt lat="41.933369" lon="-87.6989">
      </trkpt>
      <trkpt lat="41.9321" lon="-87.698843">
      </trkpt>
      <trkpt lat="41.932116" lon="-87.696547">
      </trkpt>
      <trkpt lat="41.916815" lon="-87.669405">
      </trkpt>
      <trkpt lat="41.909975" lon="-87.664752">
      </trkpt>
      <trkpt lat="41.906635" lon="-87.661559">
      </trkpt>
      <trkpt lat="41.900902" lon="-87.660921">
      </trkpt>
      <trkpt lat="41.896968" lon="-87.659049">
      </trkpt>
      <trkpt lat="41.895018" lon="-87.657114">
      </trkpt>
      <trkpt lat="41.891931" lon="-87.653963">
      </trkpt>
      <trkpt lat="41.892554" lon="-87.651034">
      </trkpt>
      <trkpt lat="41.892588" lon="-87.620263">
      </trkpt>
      <trkpt lat="41.894445" lon="-87.620313">
      </trkpt>
      <trkpt lat="41.894445" lon="-87.620313">
      </trkpt>
      <trkpt lat="41.891803" lon="-87.620235">
      </trkpt>
      <trkpt lat="41.891576" lon="-87.634054">
      </trkpt>
      <trkpt lat="41.888149" lon="-87.634001">
      </trkpt>
      <trkpt lat="41.887992" lon="-87.63433">
      </trkpt>
      <trkpt lat="41.888" lon="-87.63527">
      </trkpt>
      <trkpt lat="41.888" lon="-87.63527">
      </trkpt>
      <trkpt lat="41.887983" lon="-87.63637">
      </trkpt>
      <trkpt lat="41.888771" lon="-87.636943">
      </trkpt>
      <trkpt lat="41.889941" lon="-87.636984">
      </trkpt>
      <trkpt lat="41.889943" lon="-87.636764">
      </trkpt>
      <trkpt lat="41.889126" lon="-87.636747">
      </trkpt>
      <trkpt lat="41.889102" lon="-87.641432">
      </trkpt>
      <trkpt lat="41.884445" lon="-87.641308">
      </trkpt>
      <trkpt lat="41.884408" lon="-87.645482">
      </trkpt>
      <trkpt lat="41.884186" lon="-87.645901">
      </trkpt>
      <trkpt lat="41.881827" lon="-87.645999">
      </trkpt>
      <trkpt lat="41.880956" lon="-87.646134">
      </trkpt>
      <trkpt lat="41.879569" lon="-87.646145">
      </trkpt>
      <trkpt lat="41.878121" lon="-87.646166">
      </trkpt>
      <trkpt lat="41.876602" lon="-87.646544">
      </trkpt>
      <trkpt lat="41.875847" lon="-87.647927">
      </trkpt>
      <trkpt lat="41.876121" lon="-87.662425">
      </trkpt>
      <trkpt lat="41.876354" lon="-87.666742">
      </trkpt>
      <trkpt lat="41.869262" lon="-87.666531">
      </trkpt>
      <trkpt lat="41.8692" lon="-87.670488">
      </trkpt>
      <trkpt lat="41.8692" lon="-87.670488">
      </trkpt>
      <trkpt lat="41.869264" lon="-87.666399">
      </trkpt>
      <trkpt lat="41.875179" lon="-87.666563">
      </trkpt>
      <trkpt lat="41.875183" lon="-87.666292">
      </trkpt>
      <trkpt lat="41.87557" lon="-87.662662">
      </trkpt>
      <trkpt lat="41.875604" lon="-87.6605">
      </trkpt>
      <trkpt lat="41.875318" lon="-87.651569">
      </trkpt>
      <trkpt lat="41.875524" lon="-87.633678">
      </trkpt>
      <trkpt lat="41.861304" lon="-87.633284">
      </trkpt>
      <trkpt lat="41.861304" lon="-87.633284">
      </trkpt>
      <trkpt lat="41.872148" lon="-87.633566">
      </trkpt>
      <trkpt lat="41.872301" lon="-87.627486">
      </trkpt>
      <trkpt lat="41.873099" lon="-87.627503">
      </trkpt>
      <trkpt lat="41.873249" lon="-87.617066">
      </trkpt>
      <trkpt lat="41.881825" lon="-87.617167">
      </trkpt>
      <trkpt lat="41.884932" lon="-87.613613">
      </trkpt>
      <trkpt lat="41.892878" lon="-87.614041">
      </trkpt>
      <trkpt lat="41.900921" lon="-87.619441">
      </trkpt>
      <trkpt lat="41.90171" lon="-87.622727">
      </trkpt>
      <trkpt lat="41.902767" lon="-87.623983">
      </trkpt>
      <trkpt lat="41.912141" lon="-87.62589">
      </trkpt>
      <trkpt lat="41.918036" lon="-87.628743">
      </trkpt>
      <trkpt lat="41.924159" lon="-87.630534">
      </trkpt>
      <trkpt lat="41.926223" lon="-87.63067">
      </trkpt>
      <trkpt lat="41.92558" lon="-87.640463">
      </trkpt>
      <trkpt lat="41.927956" lon="-87.641881">
      </trkpt>
      <trkpt lat="41.927956" lon="-87.641881">
      </trkpt>
      <trkpt lat="41.927956" lon="-87.641881">
      </trkpt>
      <trkpt lat="41.927956" lon="-87.641881">
      </trkpt>
      <trkpt lat="41.92558" lon="-87.640463">
      </trkpt>
      <trkpt lat="41.925697" lon="-87.634084">
      </trkpt>
      <trkpt lat="41.926001" lon="-87.631853">
      </trkpt>
      <trkpt lat="41.923776" lon="-87.630603">
      </trkpt>
      <trkpt lat="41.917816" lon="-87.628851">
      </trkpt>
      <trkpt lat="41.912297" lon="-87.626142">
      </trkpt>
      <trkpt lat="41.909073" lon="-87.62586">
      </trkpt>
      <trkpt lat="41.902733" lon="-87.62421">
      </trkpt>
      <trkpt lat="41.901491" lon="-87.62264">
      </trkpt>
      <trkpt lat="41.900898" lon="-87.619617">
      </trkpt>
      <trkpt lat="41.893955" lon="-87.614907">
      </trkpt>
      <trkpt lat="41.8919" lon="-87.614335">
      </trkpt>
      <trkpt lat="41.891128" lon="-87.614196">
      </trkpt>
      <trkpt lat="41.891141" lon="-87.61158">
      </trkpt>
      <trkpt lat="41.891531" lon="-87.611588">
      </trkpt>
      <trkpt lat="41.891531" lon="-87.611588">
      </trkpt>
      <trkpt lat="41.891968" lon="-87.611597">
      </trkpt>
      <trkpt lat="41.891833" lon="-87.617687">
      </trkpt>
      <trkpt lat="41.891456" lon="-87.617676">
      </trkpt>
      <trkpt lat="41.891456" lon="-87.617676">
      </trkpt>
      <trkpt lat="41.891833" lon="-87.617687">
      </trkpt>
      <trkpt lat="41.891644" lon="-87.629638">
      </trkpt>
      <trkpt lat="41.896655" lon="-87.62978">
      </trkpt>
      <trkpt lat="41.896586" lon="-87.63421">
      </trkpt>
      <trkpt lat="41.898867" lon="-87.634293">
      </trkpt>
      <trkpt lat="41.898867" lon="-87.634293">
      </trkpt>
      <trkpt lat="41.90053" lon="-87.63435">
      </trkpt>
      <trkpt lat="41.900546" lon="-87.632901">
      </trkpt>
      <trkpt lat="41.899913" lon="-87.632884">
      </trkpt>
      <trkpt lat="41.899913" lon="-87.632884">
      </trkpt>
      <trkpt lat="41.891597" lon="-87.632696">
      </trkpt>
      <trkpt lat="41.891506" lon="-87.639878">
      </trkpt>
      <trkpt lat="41.891225" lon="-87.644384">
      </trkpt>
      <trkpt lat="41.884425" lon="-87.644184">
      </trkpt>
      <trkpt lat="41.884406" lon="-87.646033">
      </trkpt>
      <trkpt lat="41.884406" lon="-87.646033">
      </trkpt>
      <trkpt lat="41.884393" lon="-87.648607">
      </trkpt>
      <trkpt lat="41.889662" lon="-87.648752">
      </trkpt>
      <trkpt lat="41.889662" lon="-87.648752">
      </trkpt>
      <trkpt lat="41.885646" lon="-87.648644">
      </trkpt>
      <trkpt lat="41.885682" lon="-87.646258">
      </trkpt>
      <trkpt lat="41.857367" lon="-87.644363">
      </trkpt>
      <trkpt lat="41.851247" lon="-87.645245">
      </trkpt>
      <trkpt lat="41.847384" lon="-87.642429">
      </trkpt>
      <trkpt lat="41.845323" lon="-87.634652">
      </trkpt>
      <trkpt lat="41.844384" lon="-87.632773">
      </trkpt>
      <trkpt lat="41.842858" lon="-87.63164">
      </trkpt>
      <trkpt lat="41.834246" lon="-87.631163">
      </trkpt>
      <trkpt lat="41.830937" lon="-87.631513">
      </trkpt>
      <trkpt lat="41.831008" lon="-87.626457">
      </trkpt>
      <trkpt lat="41.83283" lon="-87.626475">
      </trkpt>
      <trkpt lat="41.832863" lon="-87.625023">
      </trkpt>
      <trkpt lat="41.832863" lon="-87.625023">
      </trkpt>
      <trkpt lat="41.83283" lon="-87.626475">
      </trkpt>
      <trkpt lat="41.846791" lon="-87.626821">
      </trkpt>
      <trkpt lat="41.84692" lon="-87.626258">
      </trkpt>
      <trkpt lat="41.847885" lon="-87.622663">
      </trkpt>
      <trkpt lat="41.847976" lon="-87.616851">
      </trkpt>
      <trkpt lat="41.848193" lon="-87.613276">
      </trkpt>
      <trkpt lat="41.848832" lon="-87.612394">
      </trkpt>
      <trkpt lat="41.849732" lon="-87.612177">
      </trkpt>
      <trkpt lat="41.852962" lon="-87.613531">
      </trkpt>
      <trkpt lat="41.85531" lon="-87.615172">
      </trkpt>
      <trkpt lat="41.860334" lon="-87.617619">
      </trkpt>
      <trkpt lat="41.862767" lon="-87.618518">
      </trkpt>
      <trkpt lat="41.866556" lon="-87.619221">
      </trkpt>
      <trkpt lat="41.867469" lon="-87.619018">
      </trkpt>
      <trkpt lat="41.86749" lon="-87.625221">
      </trkpt>
      <trkpt lat="41.86749" lon="-87.625221">
      </trkpt>
      <trkpt lat="41.867316" lon="-87.63923">
      </trkpt>
      <trkpt lat="41.860021" lon="-87.639012">
      </trkpt>
      <trkpt lat="41.859697" lon="-87.661368">
      </trkpt>
      <trkpt lat="41.859221" lon="-87.661353">
      </trkpt>
      <trkpt lat="41.859221" lon="-87.661353">
      </trkpt>
      <trkpt lat="41.857734" lon="-87.661305">
      </trkpt>
      <trkpt lat="41.854193" lon="-87.664137">
      </trkpt>
      <trkpt lat="41.854154" lon="-87.666112">
      </trkpt>
      <trkpt lat="41.800728" lon="-87.664826">
      </trkpt>
      <trkpt lat="41.800728" lon="-87.664826">
      </trkpt>
      <trkpt lat="41.7995" lon="-87.664794">
      </trkpt>
      <trkpt lat="41.808607" lon="-87.6649">
      </trkpt>
      <trkpt lat="41.8091" lon="-87.630859">
      </trkpt>
      <trkpt lat="41.81002" lon="-87.630418">
      </trkpt>
      <trkpt lat="41.837743" lon="-87.630393">
      </trkpt>
      <trkpt lat="41.844144" lon="-87.631347">
      </trkpt>
      <trkpt lat="41.847354" lon="-87.642036">
      </trkpt>
      <trkpt lat="41.85074" lon="-87.644829">
      </trkpt>
      <trkpt lat="41.867845" lon="-87.644517">
      </trkpt>
      <trkpt lat="41.873521" lon="-87.644628">
      </trkpt>
      <trkpt lat="41.875725" lon="-87.645646">
      </trkpt>
      <trkpt lat="41.875863" lon="-87.649223">
      </trkpt>
      <trkpt lat="41.875763" lon="-87.688313">
      </trkpt>
      <trkpt lat="41.875862" lon="-87.692409">
      </trkpt>
      <trkpt lat="41.875937" lon="-87.701067">
      </trkpt>
      <trkpt lat="41.902886" lon="-87.702278">
      </trkpt>
      <trkpt lat="41.902888" lon="-87.701605">
      </trkpt>
      <trkpt lat="41.902888" lon="-87.701605">
      </trkpt>
      <trkpt lat="41.902888" lon="-87.701605">
      </trkpt>
      <trkpt lat="41.902888" lon="-87.701605">
      </trkpt>
      <trkpt lat="41.902888" lon="-87.701605">
      </trkpt>
      <trkpt lat="41.902888" lon="-87.701605">
      </trkpt>
      <trkpt lat="41.902599" lon="-87.731211">
      </trkpt>
      <trkpt lat="41.901682" lon="-87.731187">
      </trkpt>
      <trkpt lat="41.901613" lon="-87.735584">
      </trkpt>
      <trkpt lat="41.901613" lon="-87.735584">
      </trkpt>
      <trkpt lat="41.901604" lon="-87.736118">
      </trkpt>
      <trkpt lat="41.902516" lon="-87.736145">
      </trkpt>
      <trkpt lat="41.902886" lon="-87.702278">
      </trkpt>
      <trkpt lat="41.907241" lon="-87.70125">
      </trkpt>
      <trkpt lat="41.910165" lon="-87.701875">
      </trkpt>
      <trkpt lat="41.910469" lon="-87.677494">
      </trkpt>
      <trkpt lat="41.916239" lon="-87.677591">
      </trkpt>
      <trkpt lat="41.916239" lon="-87.677591">
      </trkpt>
      <trkpt lat="41.925026" lon="-87.677893">
      </trkpt>
      <trkpt lat="41.924981" lon="-87.681912">
      </trkpt>
      <trkpt lat="41.926707" lon="-87.685177">
      </trkpt>
      <trkpt lat="41.940439" lon="-87.709664">
      </trkpt>
      <trkpt lat="41.942208" lon="-87.714861">
      </trkpt>
      <trkpt lat="41.947985" lon="-87.719618">
      </trkpt>
      <trkpt lat="41.958569" lon="-87.738838">
      </trkpt>
      <trkpt lat="41.960451" lon="-87.741371">
      </trkpt>
      <trkpt lat="41.960845" lon="-87.74187">
      </trkpt>
      <trkpt lat="41.960081" lon="-87.794161">
      </trkpt>
      <trkpt lat="41.949144" lon="-87.816945">
      </trkpt>
      <trkpt lat="41.941072" lon="-87.816641">
      </trkpt>
      <trkpt lat="41.941072" lon="-87.816641">
      </trkpt>
      <trkpt lat="41.939617" lon="-87.816587">
      </trkpt>
      <trkpt lat="41.939594" lon="-87.817797">
      </trkpt>
      <trkpt lat="41.948419" lon="-87.818384">
      </trkpt>
      <trkpt lat="41.958438" lon="-87.797713">
      </trkpt>
      <trkpt lat="41.968342" lon="-87.797737">
      </trkpt>
      <trkpt lat="41.96853" lon="-87.778289">
      </trkpt>
      <trkpt lat="41.967665" lon="-87.77728">
      </trkpt>
      <trkpt lat="41.968033" lon="-87.747723">
      </trkpt>
      <trkpt lat="41.972896" lon="-87.747918">
      </trkpt>
      <trkpt lat="41.972794" lon="-87.747761">
      </trkpt>
      <trkpt lat="41.966563" lon="-87.747223">
      </trkpt>
      <trkpt lat="41.962358" lon="-87.745232">
      </trkpt>
      <trkpt lat="41.947613" lon="-87.719592">
      </trkpt>
      <trkpt lat="41.94215" lon="-87.715306">
      </trkpt>
      <trkpt lat="41.940372" lon="-87.709927">
      </trkpt>
      <trkpt lat="41.917654" lon="-87.670146">
      </trkpt>
      <trkpt lat="41.906646" lon="-87.66137">
      </trkpt>
      <trkpt lat="41.897394" lon="-87.659066">
      </trkpt>
      <trkpt lat="41.892534" lon="-87.653065">
      </trkpt>
      <trkpt lat="41.892476" lon="-87.628093">
      </trkpt>
      <trkpt lat="41.893025" lon="-87.628109">
      </trkpt>
      <trkpt lat="41.893025" lon="-87.628109">
      </trkpt>
      <trkpt lat="41.892476" lon="-87.628093">
      </trkpt>
      <trkpt lat="41.892538" lon="-87.624293">
      </trkpt>
      <trkpt lat="41.890945" lon="-87.624246">
      </trkpt>
      <trkpt lat="41.890981" lon="-87.621986">
      </trkpt>
      <trkpt lat="41.890899" lon="-87.621956">
      </trkpt>
      <trkpt lat="41.890848" lon="-87.621861">
      </trkpt>
      <trkpt lat="41.890853" lon="-87.621745">
      </trkpt>
      <trkpt lat="41.890945" lon="-87.62164">
      </trkpt>
      <trkpt lat="41.891015" lon="-87.621649">
      </trkpt>
      <trkpt lat="41.891098" lon="-87.621785">
      </trkpt>
      <trkpt lat="41.891081" lon="-87.621905">
      </trkpt>
      <trkpt lat="41.890981" lon="-87.621986">
      </trkpt>
      <trkpt lat="41.890948" lon="-87.624074">
      </trkpt>
      <trkpt lat="41.891505" lon="-87.624094">
      </trkpt>
      <trkpt lat="41.891505" lon="-87.624094">
      </trkpt>
      <trkpt lat="41.893338" lon="-87.62414">
      </trkpt>
      <trkpt lat="41.8931" lon="-87.641157">
      </trkpt>
      <trkpt lat="41.891506" lon="-87.639878">
      </trkpt>
      <trkpt lat="41.891239" lon="-87.643004">
      </trkpt>
      <trkpt lat="41.891225" lon="-87.644384">
      </trkpt>
      <trkpt lat="41.887821" lon="-87.644304">
      </trkpt>
      <trkpt lat="41.887821" lon="-87.644304">
      </trkpt>
      <trkpt lat="41.885699" lon="-87.644242">
      </trkpt>
      <trkpt lat="41.885723" lon="-87.641346">
      </trkpt>
      <trkpt lat="41.885683" lon="-87.641184">
      </trkpt>
      <trkpt lat="41.885684" lon="-87.640035">
      </trkpt>
      <trkpt lat="41.885734" lon="-87.639866">
      </trkpt>
      <trkpt lat="41.885733" lon="-87.63676">
      </trkpt>
      <trkpt lat="41.88597" lon="-87.636645">
      </trkpt>
      <trkpt lat="41.886123" lon="-87.63648">
      </trkpt>
      <trkpt lat="41.886768" lon="-87.635439">
      </trkpt>
      <trkpt lat="41.886821" lon="-87.635158">
      </trkpt>
      <trkpt lat="41.886821" lon="-87.634232">
      </trkpt>
      <trkpt lat="41.886821" lon="-87.634232">
      </trkpt>
      <trkpt lat="41.886821" lon="-87.633975">
      </trkpt>
      <trkpt lat="41.881941" lon="-87.633848">
      </trkpt>
      <trkpt lat="41.881801" lon="-87.64573">
      </trkpt>
      <trkpt lat="41.885306" lon="-87.645735">
      </trkpt>
      <trkpt lat="41.888483" lon="-87.647404">
      </trkpt>
      <trkpt lat="41.889615" lon="-87.64861">
      </trkpt>
      <trkpt lat="41.895403" lon="-87.657024">
      </trkpt>
      <trkpt lat="41.897251" lon="-87.658783">
      </trkpt>
      <trkpt lat="41.901753" lon="-87.660805">
      </trkpt>
      <trkpt lat="41.906443" lon="-87.661061">
      </trkpt>
      <trkpt lat="41.910145" lon="-87.664439">
      </trkpt>
      <trkpt lat="41.915739" lon="-87.667973">
      </trkpt>
      <trkpt lat="41.917898" lon="-87.66968">
      </trkpt>
      <trkpt lat="41.917413" lon="-87.705789">
      </trkpt>
      <trkpt lat="41.917413" lon="-87.705789">
      </trkpt>
      <trkpt lat="41.91745" lon="-87.702101">
      </trkpt>
      <trkpt lat="41.910165" lon="-87.701875">
      </trkpt>
      <trkpt lat="41.910241" lon="-87.695773">
      </trkpt>
      <trkpt lat="41.911942" lon="-87.69582">
      </trkpt>
      <trkpt lat="41.911942" lon="-87.69582">
      </trkpt>
      <trkpt lat="41.912067" lon="-87.695823">
      </trkpt>
      <trkpt lat="41.912078" lon="-87.694602">
      </trkpt>
      <trkpt lat="41.910258" lon="-87.69455">
      </trkpt>
      <trkpt lat="41.910324" lon="-87.687207">
      </trkpt>
      <trkpt lat="41.89575" lon="-87.686835">
      </trkpt>
      <trkpt lat="41.89579" lon="-87.684398">
      </trkpt>
      <trkpt lat="41.895962" lon="-87.684402">
      </trkpt>
      <trkpt lat="41.895962" lon="-87.684402">
      </trkpt>
      <trkpt lat="41.89579" lon="-87.684398">
      </trkpt>
      <trkpt lat="41.895912" lon="-87.677057">
      </trkpt>
      <trkpt lat="41.903184" lon="-87.677276">
      </trkpt>
      <trkpt lat="41.903226" lon="-87.674833">
      </trkpt>
      <trkpt lat="41.902204" lon="-87.674795">
      </trkpt>
      <trkpt lat="41.902204" lon="-87.674795">
      </trkpt>
      <trkpt lat="41.899586" lon="-87.674717">
      </trkpt>
      <trkpt lat="41.899842" lon="-87.660982">
      </trkpt>
      <trkpt lat="41.899711" lon="-87.660843">
      </trkpt>
      <trkpt lat="41.895493" lon="-87.657719">
      </trkpt>
      <trkpt lat="41.888636" lon="-87.647794">
      </trkpt>
      <trkpt lat="41.886973" lon="-87.646614">
      </trkpt>
      <trkpt lat="41.885119" lon="-87.646108">
      </trkpt>
      <trkpt lat="41.883144" lon="-87.646413">
      </trkpt>
      <trkpt lat="41.883178" lon="-87.641266">
      </trkpt>
      <trkpt lat="41.883185" lon="-87.639745">
      </trkpt>
      <trkpt lat="41.883257" lon="-87.624233">
      </trkpt>
      <trkpt lat="41.884366" lon="-87.624344">
      </trkpt>
      <trkpt lat="41.884372" lon="-87.623414">
      </trkpt>
      <trkpt lat="41.884406" lon="-87.617529">
      </trkpt>
      <trkpt lat="41.885524" lon="-87.617418">
      </trkpt>
      <trkpt lat="41.885561" lon="-87.616288">
      </trkpt>
      <trkpt lat="41.886523" lon="-87.616289">
      </trkpt>
      <trkpt lat="41.88653" lon="-87.618715">
      </trkpt>
      <trkpt lat="41.88653" lon="-87.618715">
      </trkpt>
      <trkpt lat="41.886506" lon="-87.619106">
      </trkpt>
      <trkpt lat="41.885527" lon="-87.6191">
      </trkpt>
      <trkpt lat="41.885524" lon="-87.617418">
      </trkpt>
      <trkpt lat="41.884538" lon="-87.617389">
      </trkpt>
      <trkpt lat="41.884484" lon="-87.624371">
      </trkpt>
      <trkpt lat="41.900824" lon="-87.624042">
      </trkpt>
      <trkpt lat="41.902709" lon="-87.623664">
      </trkpt>
      <trkpt lat="41.912141" lon="-87.62589">
      </trkpt>
      <trkpt lat="41.918036" lon="-87.628743">
      </trkpt>
      <trkpt lat="41.926949" lon="-87.631417">
      </trkpt>
      <trkpt lat="41.926949" lon="-87.631417">
      </trkpt>
      <trkpt lat="41.928725" lon="-87.631907">
      </trkpt>
      <trkpt lat="41.933173" lon="-87.631911">
      </trkpt>
      <trkpt lat="41.934701" lon="-87.632273">
      </trkpt>
      <trkpt lat="41.936704" lon="-87.633661">
      </trkpt>
      <trkpt lat="41.939073" lon="-87.63676">
      </trkpt>
      <trkpt lat="41.940568" lon="-87.638088">
      </trkpt>
      <trkpt lat="41.940268" lon="-87.638796">
      </trkpt>
      <trkpt lat="41.939931" lon="-87.638606">
      </trkpt>
      <trkpt lat="41.936955" lon="-87.634194">
      </trkpt>
      <trkpt lat="41.93482" lon="-87.632527">
      </trkpt>
      <trkpt lat="41.933155" lon="-87.632114">
      </trkpt>
      <trkpt lat="41.928427" lon="-87.632048">
      </trkpt>
      <trkpt lat="41.918735" lon="-87.629189">
      </trkpt>
      <trkpt lat="41.915117" lon="-87.627538">
      </trkpt>
      <trkpt lat="41.913042" lon="-87.627206">
      </trkpt>
      <trkpt lat="41.912346" lon="-87.628067">
      </trkpt>
      <trkpt lat="41.913459" lon="-87.631428">
      </trkpt>
      <trkpt lat="41.912907" lon="-87.633196">
      </trkpt>
      <trkpt lat="41.903886" lon="-87.633004">
      </trkpt>
      <trkpt lat="41.903798" lon="-87.637466">
      </trkpt>
      <trkpt lat="41.903798" lon="-87.637466">
      </trkpt>
      <trkpt lat="41.903857" lon="-87.634474">
      </trkpt>
      <trkpt lat="41.898867" lon="-87.634293">
      </trkpt>
      <trkpt lat="41.898867" lon="-87.634293">
      </trkpt>
      <trkpt lat="41.90053" lon="-87.63435">
      </trkpt>
      <trkpt lat="41.9006" lon="-87.628335">
      </trkpt>
      <trkpt lat="41.900747" lon="-87.62834">
      </trkpt>
      <trkpt lat="41.900824" lon="-87.624042">
      </trkpt>
      <trkpt lat="41.902709" lon="-87.623664">
      </trkpt>
      <trkpt lat="41.912141" lon="-87.62589">
      </trkpt>
      <trkpt lat="41.918036" lon="-87.628743">
      </trkpt>
      <trkpt lat="41.928415" lon="-87.631851">
      </trkpt>
      <trkpt lat="41.934381" lon="-87.632152">
      </trkpt>
      <trkpt lat="41.936704" lon="-87.633661">
      </trkpt>
      <trkpt lat="41.939073" lon="-87.63676">
      </trkpt>
      <trkpt lat="41.940568" lon="-87.638088">
      </trkpt>
      <trkpt lat="41.940035" lon="-87.64439">
      </trkpt>
      <trkpt lat="41.94114" lon="-87.644433">
      </trkpt>
      <trkpt lat="41.941134" lon="-87.644851">
      </trkpt>
      <trkpt lat="41.941134" lon="-87.644851">
      </trkpt>
      <trkpt lat="41.941134" lon="-87.644851">
      </trkpt>
      <trkpt lat="41.941134" lon="-87.644851">
      </trkpt>
      <trkpt lat="41.941079" lon="-87.649309">
      </trkpt>
      <trkpt lat="41.939973" lon="-87.649275">
      </trkpt>
      <trkpt lat="41.940268" lon="-87.638796">
      </trkpt>
      <trkpt lat="41.939931" lon="-87.638606">
      </trkpt>
      <trkpt lat="41.936955" lon="-87.634194">
      </trkpt>
      <trkpt lat="41.934639" lon="-87.632453">
      </trkpt>
      <trkpt lat="41.928427" lon="-87.632048">
      </trkpt>
      <trkpt lat="41.918735" lon="-87.629189">
      </trkpt>
      <trkpt lat="41.911998" lon="-87.62605">
      </trkpt>
      <trkpt lat="41.902733" lon="-87.62421">
      </trkpt>
      <trkpt lat="41.901491" lon="-87.62264">
      </trkpt>
      <trkpt lat="41.900898" lon="-87.619617">
      </trkpt>
      <trkpt lat="41.892985" lon="-87.614304">
      </trkpt>
      <trkpt lat="41.884928" lon="-87.614127">
      </trkpt>
      <trkpt lat="41.882436" lon="-87.61714">
      </trkpt>
      <trkpt lat="41.88092" lon="-87.617506">
      </trkpt>
      <trkpt lat="41.880838" lon="-87.624244">
      </trkpt>
      <trkpt lat="41.881322" lon="-87.624206">
      </trkpt>
      <trkpt lat="41.882115" lon="-87.624508">
      </trkpt>
      <trkpt lat="41.881877" lon="-87.640505">
      </trkpt>
      <trkpt lat="41.881877" lon="-87.640505">
      </trkpt>
      <trkpt lat="41.881847" lon="-87.642638">
      </trkpt>
      <trkpt lat="41.885711" lon="-87.642764">
      </trkpt>
      <trkpt lat="41.885699" lon="-87.644242">
      </trkpt>
      <trkpt lat="41.889054" lon="-87.644337">
      </trkpt>
      <trkpt lat="41.889017" lon="-87.648718">
      </trkpt>
      <trkpt lat="41.889662" lon="-87.648752">
      </trkpt>
      <trkpt lat="41.889662" lon="-87.648752">
      </trkpt>
      <trkpt lat="41.890082" lon="-87.64876">
      </trkpt>
      <trkpt lat="41.890088" lon="-87.647611">
      </trkpt>
      <trkpt lat="41.903643" lon="-87.648086">
      </trkpt>
      <trkpt lat="41.903783" lon="-87.638347">
      </trkpt>
      <trkpt lat="41.921954" lon="-87.638941">
      </trkpt>
      <trkpt lat="41.921963" lon="-87.638269">
      </trkpt>
      <trkpt lat="41.927956" lon="-87.641881">
      </trkpt>
      <trkpt lat="41.927956" lon="-87.641881">
      </trkpt>
      <trkpt lat="41.92558" lon="-87.640463">
      </trkpt>
      <trkpt lat="41.926001" lon="-87.631853">
      </trkpt>
      <trkpt lat="41.912297" lon="-87.626142">
      </trkpt>
      <trkpt lat="41.902733" lon="-87.62421">
      </trkpt>
      <trkpt lat="41.900898" lon="-87.619617">
      </trkpt>
      <trkpt lat="41.892868" lon="-87.614264">
      </trkpt>
      <trkpt lat="41.884928" lon="-87.614127">
      </trkpt>
      <trkpt lat="41.881821" lon="-87.617453">
      </trkpt>
      <trkpt lat="41.869765" lon="-87.617261">
      </trkpt>
      <trkpt lat="41.866208" lon="-87.619588">
      </trkpt>
      <trkpt lat="41.853242" lon="-87.614728">
      </trkpt>
      <trkpt lat="41.848506" lon="-87.614444">
      </trkpt>
      <trkpt lat="41.84732" lon="-87.626818">
      </trkpt>
      <trkpt lat="41.847855" lon="-87.631727">
      </trkpt>
      <trkpt lat="41.843118" lon="-87.631351">
      </trkpt>
      <trkpt lat="41.79178" lon="-87.631289">
      </trkpt>
      <trkpt lat="41.783322" lon="-87.631532">
      </trkpt>
      <trkpt lat="41.779372" lon="-87.631833">
      </trkpt>
      <trkpt lat="41.779366" lon="-87.632128">
      </trkpt>
      <trkpt lat="41.778543" lon="-87.632538">
      </trkpt>
      <trkpt lat="41.778543" lon="-87.632538">
      </trkpt>
      <trkpt lat="41.779366" lon="-87.632128">
      </trkpt>
      <trkpt lat="41.779372" lon="-87.631833">
      </trkpt>
      <trkpt lat="41.778124" lon="-87.631812">
      </trkpt>
      <trkpt lat="41.778077" lon="-87.635009">
      </trkpt>
      <trkpt lat="41.779907" lon="-87.635057">
      </trkpt>
      <trkpt lat="41.779931" lon="-87.630139">
      </trkpt>
      <trkpt lat="41.780433" lon="-87.630149">
      </trkpt>
      <trkpt lat="41.807989" lon="-87.63142">
      </trkpt>
      <trkpt lat="41.812785" lon="-87.629665">
      </trkpt>
      <trkpt lat="41.837743" lon="-87.630393">
      </trkpt>
      <trkpt lat="41.844144" lon="-87.631347">
      </trkpt>
      <trkpt lat="41.847354" lon="-87.642036">
      </trkpt>
      <trkpt lat="41.85074" lon="-87.644829">
      </trkpt>
      <trkpt lat="41.867845" lon="-87.644517">
      </trkpt>
      <trkpt lat="41.873521" lon="-87.644628">
      </trkpt>
      <trkpt lat="41.875725" lon="-87.645646">
      </trkpt>
      <trkpt lat="41.875863" lon="-87.649223">
      </trkpt>
      <trkpt lat="41.875658" lon="-87.697235">
      </trkpt>
      <trkpt lat="41.874195" lon="-87.716326">
      </trkpt>
      <trkpt lat="41.874461" lon="-87.719801">
      </trkpt>
      <trkpt lat="41.885208" lon="-87.720917">
      </trkpt>
      <trkpt lat="41.885455" lon="-87.725297">
      </trkpt>
      <trkpt lat="41.885541" lon="-87.725796">
      </trkpt>
      <trkpt lat="41.902679" lon="-87.726291">
      </trkpt>
      <trkpt lat="41.902557" lon="-87.733686">
      </trkpt>
      <trkpt lat="41.903012" lon="-87.733699">
      </trkpt>
      <trkpt lat="41.903016" lon="-87.733404">
      </trkpt>
      <trkpt lat="41.903016" lon="-87.733404">
      </trkpt>
      <trkpt lat="41.903016" lon="-87.733404">
      </trkpt>
      <trkpt lat="41.903016" lon="-87.733404">
      </trkpt>
      <trkpt lat="41.903012" lon="-87.733699">
      </trkpt>
      <trkpt lat="41.909115" lon="-87.733871">
      </trkpt>
      <trkpt lat="41.913935" lon="-87.746005">
      </trkpt>
      <trkpt lat="41.96438" lon="-87.747627">
      </trkpt>
      <trkpt lat="41.964394" lon="-87.745977">
      </trkpt>
      <trkpt lat="41.980044" lon="-87.746614">
      </trkpt>
      <trkpt lat="41.987222" lon="-87.751348">
      </trkpt>
      <trkpt lat="42.006167" lon="-87.748589">
      </trkpt>
      <trkpt lat="42.010101" lon="-87.748003">
      </trkpt>
      <trkpt lat="42.011715" lon="-87.747943">
      </trkpt>
      <trkpt lat="42.011874" lon="-87.709065">
      </trkpt>
      <trkpt lat="42.00568" lon="-87.709304">
      </trkpt>
      <trkpt lat="42.00568" lon="-87.709304">
      </trkpt>
      <trkpt lat="41.997394" lon="-87.709354">
      </trkpt>
      <trkpt lat="41.997339" lon="-87.748324">
      </trkpt>
      <trkpt lat="41.989958" lon="-87.748329">
      </trkpt>
      <trkpt lat="41.990525" lon="-87.751817">
      </trkpt>
      <trkpt lat="41.991757" lon="-87.751942">
      </trkpt>
      <trkpt lat="41.986057" lon="-87.751225">
      </trkpt>
      <trkpt lat="41.980228" lon="-87.746835">
      </trkpt>
      <trkpt lat="41.966563" lon="-87.747223">
      </trkpt>
      <trkpt lat="41.963113" lon="-87.745961">
      </trkpt>
      <trkpt lat="41.960129" lon="-87.742125">
      </trkpt>
      <trkpt lat="41.947613" lon="-87.719592">
      </trkpt>
      <trkpt lat="41.94215" lon="-87.715306">
      </trkpt>
      <trkpt lat="41.933659" lon="-87.698173">
      </trkpt>
      <trkpt lat="41.927358" lon="-87.687291">
      </trkpt>
      <trkpt lat="41.925223" lon="-87.684125">
      </trkpt>
      <trkpt lat="41.924902" lon="-87.687645">
      </trkpt>
      <trkpt lat="41.917587" lon="-87.687413">
      </trkpt>
      <trkpt lat="41.917597" lon="-87.686834">
      </trkpt>
      <trkpt lat="41.917281" lon="-87.686552">
      </trkpt>
      <trkpt lat="41.916886" lon="-87.686958">
      </trkpt>
      <trkpt lat="41.916926" lon="-87.687029">
      </trkpt>
      <trkpt lat="41.917217" lon="-87.68709">
      </trkpt>
      <trkpt lat="41.917217" lon="-87.68709">
      </trkpt>
      <trkpt lat="41.917196" lon="-87.687403">
      </trkpt>
      <trkpt lat="41.953985" lon="-87.688469">
      </trkpt>
      <trkpt lat="41.954306" lon="-87.668983">
      </trkpt>
      <trkpt lat="41.988054" lon="-87.669707">
      </trkpt>
      <trkpt lat="41.987608" lon="-87.669796">
      </trkpt>
      <trkpt lat="41.987519" lon="-87.669769">
      </trkpt>
      <trkpt lat="41.987519" lon="-87.669769">
      </trkpt>
      <trkpt lat="41.985433" lon="-87.669181">
      </trkpt>
      <trkpt lat="41.985603" lon="-87.663294">
      </trkpt>
      <trkpt lat="41.985105" lon="-87.662456">
      </trkpt>
      <trkpt lat="41.985586" lon="-87.654178">
      </trkpt>
      <trkpt lat="41.984999" lon="-87.653157">
      </trkpt>
      <trkpt lat="41.981232" lon="-87.652706">
      </trkpt>
      <trkpt lat="41.972134" lon="-87.648822">
      </trkpt>
      <trkpt lat="41.955203" lon="-87.644905">
      </trkpt>
      <trkpt lat="41.950978" lon="-87.644611">
      </trkpt>
      <trkpt lat="41.941067" lon="-87.638957">
      </trkpt>
      <trkpt lat="41.935041" lon="-87.632637">
      </trkpt>
      <trkpt lat="41.927741" lon="-87.631858">
      </trkpt>
      <trkpt lat="41.926001" lon="-87.631853">
      </trkpt>
      <trkpt lat="41.92558" lon="-87.640463">
      </trkpt>
      <trkpt lat="41.927956" lon="-87.641881">
      </trkpt>
      <trkpt lat="41.927956" lon="-87.641881">
      </trkpt>
      <trkpt lat="41.92558" lon="-87.640463">
      </trkpt>
      <trkpt lat="41.924981" lon="-87.681912">
      </trkpt>
      <trkpt lat="41.926707" lon="-87.685177">
      </trkpt>
      <trkpt lat="41.940439" lon="-87.709664">
      </trkpt>
      <trkpt lat="41.942387" lon="-87.715161">
      </trkpt>
      <trkpt lat="41.943551" lon="-87.716453">
      </trkpt>
      <trkpt lat="41.947406" lon="-87.71887">
      </trkpt>
      <trkpt lat="41.950079" lon="-87.723791">
      </trkpt>
      <trkpt lat="41.952511" lon="-87.727575">
      </trkpt>
      <trkpt lat="41.950904" lon="-87.727522">
      </trkpt>
      <trkpt lat="41.950185" lon="-87.726293">
      </trkpt>
      <trkpt lat="41.947929" lon="-87.726221">
      </trkpt>
      <trkpt lat="41.947929" lon="-87.726221">
      </trkpt>
      <trkpt lat="41.946394" lon="-87.726178">
      </trkpt>
      <trkpt lat="41.946377" lon="-87.727395">
      </trkpt>
      <trkpt lat="41.95365" lon="-87.727612">
      </trkpt>
      <trkpt lat="41.953809" lon="-87.712908">
      </trkpt>
      <trkpt lat="41.968411" lon="-87.713373">
      </trkpt>
      <trkpt lat="41.968394" lon="-87.714891">
      </trkpt>
      <trkpt lat="41.968394" lon="-87.714891">
      </trkpt>
      <trkpt lat="41.968457" lon="-87.708478">
      </trkpt>
      <trkpt lat="41.983076" lon="-87.708877">
      </trkpt>
      <trkpt lat="41.983147" lon="-87.69309">
      </trkpt>
      <trkpt lat="41.984973" lon="-87.693149">
      </trkpt>
      <trkpt lat="41.984966" lon="-87.694356">
      </trkpt>
      <trkpt lat="41.983837" lon="-87.69432">
      </trkpt>
      <trkpt lat="41.983837" lon="-87.69432">
      </trkpt>
      <trkpt lat="41.983141" lon="-87.694297">
      </trkpt>
      <trkpt lat="41.983166" lon="-87.689415">
      </trkpt>
      <trkpt lat="41.99044" lon="-87.689669">
      </trkpt>
      <trkpt lat="41.990752" lon="-87.67223">
      </trkpt>
      <trkpt lat="41.985105" lon="-87.662456">
      </trkpt>
      <trkpt lat="41.985586" lon="-87.654178">
      </trkpt>
      <trkpt lat="41.984999" lon="-87.653157">
      </trkpt>
      <trkpt lat="41.981232" lon="-87.652706">
      </trkpt>
      <trkpt lat="41.972134" lon="-87.648822">
      </trkpt>
      <trkpt lat="41.955203" lon="-87.644905">
      </trkpt>
      <trkpt lat="41.951193" lon="-87.64469">
      </trkpt>
      <trkpt lat="41.941067" lon="-87.638957">
      </trkpt>
      <trkpt lat="41.93482" lon="-87.632527">
      </trkpt>
      <trkpt lat="41.928427" lon="-87.632048">
      </trkpt>
      <trkpt lat="41.915117" lon="-87.627538">
      </trkpt>
      <trkpt lat="41.913042" lon="-87.627206">
      </trkpt>
      <trkpt lat="41.912346" lon="-87.628067">
      </trkpt>
      <trkpt lat="41.913404" lon="-87.631075">
      </trkpt>
      <trkpt lat="41.913169" lon="-87.632856">
      </trkpt>
      <trkpt lat="41.915623" lon="-87.634358">
      </trkpt>
      <trkpt lat="41.915479" lon="-87.634849">
      </trkpt>
      <trkpt lat="41.918106" lon="-87.638503">
      </trkpt>
      <trkpt lat="41.918106" lon="-87.638503">
      </trkpt>
      <trkpt lat="41.918322" lon="-87.638808">
      </trkpt>
      <trkpt lat="41.921954" lon="-87.638941">
      </trkpt>
      <trkpt lat="41.92199" lon="-87.63646">
      </trkpt>
      <trkpt lat="41.925658" lon="-87.636586">
      </trkpt>
      <trkpt lat="41.926223" lon="-87.63067">
      </trkpt>
      <trkpt lat="41.928415" lon="-87.631851">
      </trkpt>
      <trkpt lat="41.935386" lon="-87.632612">
      </trkpt>
      <trkpt lat="41.941219" lon="-87.638833">
      </trkpt>
      <trkpt lat="41.950931" lon="-87.644376">
      </trkpt>
      <trkpt lat="41.960253" lon="-87.646094">
      </trkpt>
      <trkpt lat="41.962086" lon="-87.645534">
      </trkpt>
      <trkpt lat="41.961593" lon="-87.669185">
      </trkpt>
      <trkpt lat="41.96524" lon="-87.669262">
      </trkpt>
      <trkpt lat="41.965218" lon="-87.670929">
      </trkpt>
      <trkpt lat="41.964075" lon="-87.670902">
      </trkpt>
      <trkpt lat="41.964075" lon="-87.670902">
      </trkpt>
      <trkpt lat="41.963394" lon="-87.670887">
      </trkpt>
      <trkpt lat="41.963349" lon="-87.674023">
      </trkpt>
      <trkpt lat="41.965175" lon="-87.674063">
      </trkpt>
      <trkpt lat="41.964873" lon="-87.688959">
      </trkpt>
      <trkpt lat="41.964757" lon="-87.713874">
      </trkpt>
      <trkpt lat="41.964757" lon="-87.713874">
      </trkpt>
      <trkpt lat="41.96472" lon="-87.713255">
      </trkpt>
      <trkpt lat="41.953916" lon="-87.712911">
      </trkpt>
      <trkpt lat="41.95365" lon="-87.727612">
      </trkpt>
      <trkpt lat="41.946377" lon="-87.727395">
      </trkpt>
      <trkpt lat="41.946215" lon="-87.739921">
      </trkpt>
      <trkpt lat="41.946215" lon="-87.739921">
      </trkpt>
      <trkpt lat="41.946484" lon="-87.71959">
      </trkpt>
      <trkpt lat="41.944989" lon="-87.718156">
      </trkpt>
      <trkpt lat="41.942115" lon="-87.715518">
      </trkpt>
      <trkpt lat="41.940414" lon="-87.710267">
      </trkpt>
      <trkpt lat="41.927358" lon="-87.687291">
      </trkpt>
      <trkpt lat="41.924962" lon="-87.683686">
      </trkpt>
      <trkpt lat="41.925491" lon="-87.646336">
      </trkpt>
      <trkpt lat="41.926694" lon="-87.64637">
      </trkpt>
      <trkpt lat="41.927017" lon="-87.641326">
      </trkpt>
      <trkpt lat="41.927956" lon="-87.641881">
      </trkpt>
      <trkpt lat="41.927956" lon="-87.641881">
      </trkpt>
      <trkpt lat="41.92558" lon="-87.640463">
      </trkpt>
      <trkpt lat="41.926223" lon="-87.63067">
      </trkpt>
      <trkpt lat="41.928415" lon="-87.631851">
      </trkpt>
      <trkpt lat="41.935386" lon="-87.632612">
      </trkpt>
      <trkpt lat="41.941219" lon="-87.638833">
      </trkpt>
      <trkpt lat="41.950931" lon="-87.644376">
      </trkpt>
      <trkpt lat="41.954749" lon="-87.644596">
      </trkpt>
      <trkpt lat="41.973046" lon="-87.648738">
      </trkpt>
      <trkpt lat="41.981039" lon="-87.652251">
      </trkpt>
      <trkpt lat="41.984951" lon="-87.652803">
      </trkpt>
      <trkpt lat="41.985556" lon="-87.655253">
      </trkpt>
      <trkpt lat="41.997803" lon="-87.655634">
      </trkpt>
      <trkpt lat="41.998196" lon="-87.659646">
      </trkpt>
      <trkpt lat="41.998874" lon="-87.660644">
      </trkpt>
      <trkpt lat="42.003604" lon="-87.660824">
      </trkpt>
      <trkpt lat="42.0035" lon="-87.664245">
      </trkpt>
      <trkpt lat="42.003481" lon="-87.665668">
      </trkpt>
      <trkpt lat="42.003627" lon="-87.665673">
      </trkpt>
      <trkpt lat="42.00362" lon="-87.666051">
      </trkpt>
      <trkpt lat="42.00362" lon="-87.666051">
      </trkpt>
      <trkpt lat="42.003606" lon="-87.666905">
      </trkpt>
      <trkpt lat="41.998129" lon="-87.666741">
      </trkpt>
      <trkpt lat="41.998083" lon="-87.67067">
      </trkpt>
      <trkpt lat="41.987608" lon="-87.669796">
      </trkpt>
      <trkpt lat="41.976173" lon="-87.66966">
      </trkpt>
      <trkpt lat="41.976095" lon="-87.674927">
      </trkpt>
      <trkpt lat="41.974623" lon="-87.67488">
      </trkpt>
    </trkseg>
  </trk>
</gpx>