<?xml version="1.0" encoding="UTF-8"?>
<gpx xmlns="http://www.topografix.com/GPX/1/1" xmlns:xsi="http://www.w3.org/2001/XMLSchema-instance" xsi:schemaLocation="http://www.topografix.com/GPX/1/1 http://www.topografix.com/GPX/1/1/gpx.xsd" version="1.1" creator="gpx.py -- https://github.com/tkrajina/gpxpy">
  <trk>
    <trkseg>
      <trkpt lat="41.983816" lon="-87.655197">
      </trkpt>
      <trkpt lat="41.983688" lon="-87.653702">
      </trkpt>
      <trkpt lat="41.972134" lon="-87.648822">
      </trkpt>
      <trkpt lat="41.950978" lon="-87.644611">
      </trkpt>
      <trkpt lat="41.941067" lon="-87.638957">
      </trkpt>
      <trkpt lat="41.93482" lon="-87.632527">
      </trkpt>
      <trkpt lat="41.928427" lon="-87.632048">
      </trkpt>
      <trkpt lat="41.902892" lon="-87.62428">
      </trkpt>
      <trkpt lat="41.900898" lon="-87.619617">
      </trkpt>
      <trkpt lat="41.893292" lon="-87.614447">
      </trkpt>
      <trkpt lat="41.886779" lon="-87.614132">
      </trkpt>
      <trkpt lat="41.884515" lon="-87.614444">
      </trkpt>
      <trkpt lat="41.884489" lon="-87.627902">
      </trkpt>
      <trkpt lat="41.883248" lon="-87.627866">
      </trkpt>
      <trkpt lat="41.883251" lon="-87.627421">
      </trkpt>
      <trkpt lat="41.883251" lon="-87.627421">
      </trkpt>
      <trkpt lat="41.883257" lon="-87.624233">
      </trkpt>
      <trkpt lat="41.88577" lon="-87.624431">
      </trkpt>
      <trkpt lat="41.88576" lon="-87.626286">
      </trkpt>
      <trkpt lat="41.887032" lon="-87.626374">
      </trkpt>
      <trkpt lat="41.887382" lon="-87.626488">
      </trkpt>
      <trkpt lat="41.888453" lon="-87.627125">
      </trkpt>
      <trkpt lat="41.888758" lon="-87.627082">
      </trkpt>
      <trkpt lat="41.889309" lon="-87.626679">
      </trkpt>
      <trkpt lat="41.889909" lon="-87.626665">
      </trkpt>
      <trkpt lat="41.889909" lon="-87.626665">
      </trkpt>
      <trkpt lat="41.891688" lon="-87.626725">
      </trkpt>
      <trkpt lat="41.891506" lon="-87.639878">
      </trkpt>
      <trkpt lat="41.891225" lon="-87.644384">
      </trkpt>
      <trkpt lat="41.889054" lon="-87.644337">
      </trkpt>
      <trkpt lat="41.889017" lon="-87.648718">
      </trkpt>
      <trkpt lat="41.887378" lon="-87.648695">
      </trkpt>
      <trkpt lat="41.887364" lon="-87.649864">
      </trkpt>
      <trkpt lat="41.886778" lon="-87.649838">
      </trkpt>
      <trkpt lat="41.886776" lon="-87.649954">
      </trkpt>
      <trkpt lat="41.886776" lon="-87.649954">
      </trkpt>
      <trkpt lat="41.88676" lon="-87.651006">
      </trkpt>
      <trkpt lat="41.885607" lon="-87.650961">
      </trkpt>
      <trkpt lat="41.885699" lon="-87.644242">
      </trkpt>
      <trkpt lat="41.884425" lon="-87.644184">
      </trkpt>
      <trkpt lat="41.884406" lon="-87.646033">
      </trkpt>
      <trkpt lat="41.884406" lon="-87.646033">
      </trkpt>
      <trkpt lat="41.884415" lon="-87.647438">
      </trkpt>
      <trkpt lat="41.881782" lon="-87.64736">
      </trkpt>
      <trkpt lat="41.881801" lon="-87.64573">
      </trkpt>
      <trkpt lat="41.885306" lon="-87.645735">
      </trkpt>
      <trkpt lat="41.886906" lon="-87.646327">
      </trkpt>
      <trkpt lat="41.888483" lon="-87.647404">
      </trkpt>
      <trkpt lat="41.889615" lon="-87.64861">
      </trkpt>
      <trkpt lat="41.895403" lon="-87.657024">
      </trkpt>
      <trkpt lat="41.897251" lon="-87.658783">
      </trkpt>
      <trkpt lat="41.898537" lon="-87.659213">
      </trkpt>
      <trkpt lat="41.89954" lon="-87.659164">
      </trkpt>
      <trkpt lat="41.899938" lon="-87.659701">
      </trkpt>
      <trkpt lat="41.899669" lon="-87.669849">
      </trkpt>
      <trkpt lat="41.900367" lon="-87.669869">
      </trkpt>
      <trkpt lat="41.900367" lon="-87.669869">
      </trkpt>
      <trkpt lat="41.90331" lon="-87.669955">
      </trkpt>
      <trkpt lat="41.903351" lon="-87.667439">
      </trkpt>
      <trkpt lat="41.90882" lon="-87.667586">
      </trkpt>
      <trkpt lat="41.908834" lon="-87.666429">
      </trkpt>
      <trkpt lat="41.909028" lon="-87.666435">
      </trkpt>
      <trkpt lat="41.909028" lon="-87.666435">
      </trkpt>
      <trkpt lat="41.910658" lon="-87.666509">
      </trkpt>
      <trkpt lat="41.910672" lon="-87.665662">
      </trkpt>
      <trkpt lat="41.910236" lon="-87.665325">
      </trkpt>
      <trkpt lat="41.906386" lon="-87.661439">
      </trkpt>
      <trkpt lat="41.901306" lon="-87.661057">
      </trkpt>
      <trkpt lat="41.896667" lon="-87.658834">
      </trkpt>
      <trkpt lat="41.889352" lon="-87.648602">
      </trkpt>
      <trkpt lat="41.886676" lon="-87.646473">
      </trkpt>
      <trkpt lat="41.857367" lon="-87.644363">
      </trkpt>
      <trkpt lat="41.852447" lon="-87.645793">
      </trkpt>
      <trkpt lat="41.849097" lon="-87.644333">
      </trkpt>
      <trkpt lat="41.847746" lon="-87.643981">
      </trkpt>
      <trkpt lat="41.846776" lon="-87.644894">
      </trkpt>
      <trkpt lat="41.845121" lon="-87.652275">
      </trkpt>
      <trkpt lat="41.838058" lon="-87.666643">
      </trkpt>
      <trkpt lat="41.837422" lon="-87.669478">
      </trkpt>
      <trkpt lat="41.837483" lon="-87.674176">
      </trkpt>
      <trkpt lat="41.836888" lon="-87.675521">
      </trkpt>
      <trkpt lat="41.830387" lon="-87.675278">
      </trkpt>
      <trkpt lat="41.830518" lon="-87.663497">
      </trkpt>
      <trkpt lat="41.830518" lon="-87.663497">
      </trkpt>
      <trkpt lat="41.830496" lon="-87.665501">
      </trkpt>
      <trkpt lat="41.83774" lon="-87.66568">
      </trkpt>
      <trkpt lat="41.848044" lon="-87.644778">
      </trkpt>
      <trkpt lat="41.849104" lon="-87.641877">
      </trkpt>
      <trkpt lat="41.851096" lon="-87.638494">
      </trkpt>
      <trkpt lat="41.857668" lon="-87.638934">
      </trkpt>
      <trkpt lat="41.85776" lon="-87.63188">
      </trkpt>
      <trkpt lat="41.859918" lon="-87.631765">
      </trkpt>
      <trkpt lat="41.860792" lon="-87.633218">
      </trkpt>
      <trkpt lat="41.860792" lon="-87.633218">
      </trkpt>
      <trkpt lat="41.859918" lon="-87.631765">
      </trkpt>
      <trkpt lat="41.85776" lon="-87.63188">
      </trkpt>
      <trkpt lat="41.857891" lon="-87.623921">
      </trkpt>
      <trkpt lat="41.867398" lon="-87.624158">
      </trkpt>
      <trkpt lat="41.867474" lon="-87.618739">
      </trkpt>
      <trkpt lat="41.869799" lon="-87.617003">
      </trkpt>
      <trkpt lat="41.881825" lon="-87.617167">
      </trkpt>
      <trkpt lat="41.884932" lon="-87.613613">
      </trkpt>
      <trkpt lat="41.89273" lon="-87.614003">
      </trkpt>
      <trkpt lat="41.900921" lon="-87.619441">
      </trkpt>
      <trkpt lat="41.90171" lon="-87.622727">
      </trkpt>
      <trkpt lat="41.902767" lon="-87.623983">
      </trkpt>
      <trkpt lat="41.912141" lon="-87.62589">
      </trkpt>
      <trkpt lat="41.918036" lon="-87.628743">
      </trkpt>
      <trkpt lat="41.924159" lon="-87.630534">
      </trkpt>
      <trkpt lat="41.926223" lon="-87.63067">
      </trkpt>
      <trkpt lat="41.92558" lon="-87.640463">
      </trkpt>
      <trkpt lat="41.929694" lon="-87.642943">
      </trkpt>
      <trkpt lat="41.929095" lon="-87.647955">
      </trkpt>
      <trkpt lat="41.929095" lon="-87.647955">
      </trkpt>
      <trkpt lat="41.929054" lon="-87.651301">
      </trkpt>
      <trkpt lat="41.93087" lon="-87.651366">
      </trkpt>
      <trkpt lat="41.930839" lon="-87.653074">
      </trkpt>
      <trkpt lat="41.930839" lon="-87.653074">
      </trkpt>
      <trkpt lat="41.930826" lon="-87.653802">
      </trkpt>
      <trkpt lat="41.929016" lon="-87.653741">
      </trkpt>
      <trkpt lat="41.925453" lon="-87.648766">
      </trkpt>
      <trkpt lat="41.890088" lon="-87.647611">
      </trkpt>
      <trkpt lat="41.890082" lon="-87.64876">
      </trkpt>
      <trkpt lat="41.889662" lon="-87.648752">
      </trkpt>
      <trkpt lat="41.889662" lon="-87.648752">
      </trkpt>
      <trkpt lat="41.890082" lon="-87.64876">
      </trkpt>
      <trkpt lat="41.890088" lon="-87.647611">
      </trkpt>
      <trkpt lat="41.929091" lon="-87.648892">
      </trkpt>
      <trkpt lat="41.929095" lon="-87.647955">
      </trkpt>
      <trkpt lat="41.929095" lon="-87.647955">
      </trkpt>
      <trkpt lat="41.929091" lon="-87.648892">
      </trkpt>
      <trkpt lat="41.905038" lon="-87.648124">
      </trkpt>
      <trkpt lat="41.905042" lon="-87.649202">
      </trkpt>
      <trkpt lat="41.905133" lon="-87.649323">
      </trkpt>
      <trkpt lat="41.905133" lon="-87.649323">
      </trkpt>
      <trkpt lat="41.905042" lon="-87.649202">
      </trkpt>
      <trkpt lat="41.905038" lon="-87.648124">
      </trkpt>
      <trkpt lat="41.903643" lon="-87.648086">
      </trkpt>
      <trkpt lat="41.903664" lon="-87.646585">
      </trkpt>
      <trkpt lat="41.903555" lon="-87.646541">
      </trkpt>
      <trkpt lat="41.90262" lon="-87.645749">
      </trkpt>
      <trkpt lat="41.902622" lon="-87.64562">
      </trkpt>
      <trkpt lat="41.903236" lon="-87.645648">
      </trkpt>
      <trkpt lat="41.903236" lon="-87.645648">
      </trkpt>
      <trkpt lat="41.903265" lon="-87.645649">
      </trkpt>
      <trkpt lat="41.903252" lon="-87.646293">
      </trkpt>
      <trkpt lat="41.900232" lon="-87.643793">
      </trkpt>
      <trkpt lat="41.900414" lon="-87.643088">
      </trkpt>
      <trkpt lat="41.896481" lon="-87.642947">
      </trkpt>
      <trkpt lat="41.896492" lon="-87.641559">
      </trkpt>
      <trkpt lat="41.893453" lon="-87.641445">
      </trkpt>
      <trkpt lat="41.891506" lon="-87.639878">
      </trkpt>
      <trkpt lat="41.891543" lon="-87.637019">
      </trkpt>
      <trkpt lat="41.888771" lon="-87.636943">
      </trkpt>
      <trkpt lat="41.887983" lon="-87.63637">
      </trkpt>
      <trkpt lat="41.888" lon="-87.63527">
      </trkpt>
      <trkpt lat="41.888" lon="-87.63527">
      </trkpt>
      <trkpt lat="41.887983" lon="-87.63637">
      </trkpt>
      <trkpt lat="41.888455" lon="-87.636789">
      </trkpt>
      <trkpt lat="41.888771" lon="-87.636943">
      </trkpt>
      <trkpt lat="41.889941" lon="-87.636984">
      </trkpt>
      <trkpt lat="41.890022" lon="-87.631091">
      </trkpt>
      <trkpt lat="41.889473" lon="-87.631072">
      </trkpt>
      <trkpt lat="41.889473" lon="-87.631072">
      </trkpt>
      <trkpt lat="41.875701" lon="-87.630715">
      </trkpt>
      <trkpt lat="41.875615" lon="-87.643841">
      </trkpt>
      <trkpt lat="41.87577" lon="-87.646243">
      </trkpt>
      <trkpt lat="41.875736" lon="-87.651991">
      </trkpt>
      <trkpt lat="41.876192" lon="-87.657268">
      </trkpt>
      <trkpt lat="41.876121" lon="-87.662425">
      </trkpt>
      <trkpt lat="41.876354" lon="-87.666742">
      </trkpt>
      <trkpt lat="41.871628" lon="-87.666599">
      </trkpt>
      <trkpt lat="41.871693" lon="-87.662941">
      </trkpt>
      <trkpt lat="41.870725" lon="-87.662955">
      </trkpt>
      <trkpt lat="41.870725" lon="-87.662955">
      </trkpt>
      <trkpt lat="41.870382" lon="-87.662906">
      </trkpt>
      <trkpt lat="41.870481" lon="-87.662838">
      </trkpt>
      <trkpt lat="41.871693" lon="-87.662941">
      </trkpt>
      <trkpt lat="41.871559" lon="-87.671494">
      </trkpt>
      <trkpt lat="41.874114" lon="-87.671566">
      </trkpt>
      <trkpt lat="41.874045" lon="-87.676526">
      </trkpt>
      <trkpt lat="41.873272" lon="-87.676486">
      </trkpt>
      <trkpt lat="41.873257" lon="-87.67764">
      </trkpt>
      <trkpt lat="41.873117" lon="-87.677638">
      </trkpt>
      <trkpt lat="41.873117" lon="-87.677638">
      </trkpt>
      <trkpt lat="41.873272" lon="-87.676486">
      </trkpt>
      <trkpt lat="41.872737" lon="-87.676462">
      </trkpt>
      <trkpt lat="41.880897" lon="-87.666718">
      </trkpt>
      <trkpt lat="41.884777" lon="-87.666835">
      </trkpt>
      <trkpt lat="41.907003" lon="-87.667524">
      </trkpt>
      <trkpt lat="41.904597" lon="-87.667605">
      </trkpt>
      <trkpt lat="41.904988" lon="-87.668222">
      </trkpt>
      <trkpt lat="41.904988" lon="-87.668222">
      </trkpt>
      <trkpt lat="41.904597" lon="-87.667605">
      </trkpt>
      <trkpt lat="41.899711" lon="-87.667457">
      </trkpt>
      <trkpt lat="41.899597" lon="-87.674089">
      </trkpt>
      <trkpt lat="41.90052" lon="-87.67412">
      </trkpt>
      <trkpt lat="41.90052" lon="-87.67412">
      </trkpt>
      <trkpt lat="41.899597" lon="-87.674089">
      </trkpt>
      <trkpt lat="41.899544" lon="-87.677161">
      </trkpt>
      <trkpt lat="41.895912" lon="-87.677057">
      </trkpt>
      <trkpt lat="41.89575" lon="-87.686835">
      </trkpt>
      <trkpt lat="41.881166" lon="-87.686432">
      </trkpt>
      <trkpt lat="41.881122" lon="-87.691073">
      </trkpt>
      <trkpt lat="41.880217" lon="-87.69106">
      </trkpt>
      <trkpt lat="41.880216" lon="-87.691159">
      </trkpt>
      <trkpt lat="41.879071" lon="-87.691131">
      </trkpt>
      <trkpt lat="41.879071" lon="-87.691131">
      </trkpt>
      <trkpt lat="41.880216" lon="-87.691159">
      </trkpt>
      <trkpt lat="41.880217" lon="-87.69106">
      </trkpt>
      <trkpt lat="41.881122" lon="-87.691073">
      </trkpt>
      <trkpt lat="41.881166" lon="-87.686432">
      </trkpt>
      <trkpt lat="41.89575" lon="-87.686835">
      </trkpt>
      <trkpt lat="41.895912" lon="-87.677057">
      </trkpt>
      <trkpt lat="41.899544" lon="-87.677161">
      </trkpt>
      <trkpt lat="41.899597" lon="-87.674089">
      </trkpt>
      <trkpt lat="41.90052" lon="-87.67412">
      </trkpt>
    </trkseg>
  </trk>
</gpx>