<?xml version="1.0" encoding="UTF-8"?>
<gpx xmlns="http://www.topografix.com/GPX/1/1" xmlns:xsi="http://www.w3.org/2001/XMLSchema-instance" xsi:schemaLocation="http://www.topografix.com/GPX/1/1 http://www.topografix.com/GPX/1/1/gpx.xsd" version="1.1" creator="gpx.py -- https://github.com/tkrajina/gpxpy">
  <trk>
    <trkseg>
      <trkpt lat="42.022132" lon="-87.681258">
      </trkpt>
      <trkpt lat="42.022127" lon="-87.680444">
      </trkpt>
      <trkpt lat="42.019449" lon="-87.680446">
      </trkpt>
      <trkpt lat="42.019248" lon="-87.666039">
      </trkpt>
      <trkpt lat="42.005557" lon="-87.660929">
      </trkpt>
      <trkpt lat="41.998191" lon="-87.66054">
      </trkpt>
      <trkpt lat="41.985467" lon="-87.660132">
      </trkpt>
      <trkpt lat="41.984999" lon="-87.653157">
      </trkpt>
      <trkpt lat="41.972134" lon="-87.648822">
      </trkpt>
      <trkpt lat="41.951193" lon="-87.64469">
      </trkpt>
      <trkpt lat="41.942042" lon="-87.639566">
      </trkpt>
      <trkpt lat="41.940268" lon="-87.638796">
      </trkpt>
      <trkpt lat="41.940035" lon="-87.64439">
      </trkpt>
      <trkpt lat="41.94114" lon="-87.644433">
      </trkpt>
      <trkpt lat="41.941134" lon="-87.644851">
      </trkpt>
      <trkpt lat="41.941134" lon="-87.644851">
      </trkpt>
      <trkpt lat="41.941079" lon="-87.649309">
      </trkpt>
      <trkpt lat="41.939973" lon="-87.649275">
      </trkpt>
      <trkpt lat="41.939759" lon="-87.663815">
      </trkpt>
      <trkpt lat="41.936111" lon="-87.663682">
      </trkpt>
      <trkpt lat="41.935776" lon="-87.663209">
      </trkpt>
      <trkpt lat="41.935776" lon="-87.663209">
      </trkpt>
      <trkpt lat="41.936111" lon="-87.663682">
      </trkpt>
      <trkpt lat="41.932479" lon="-87.66355">
      </trkpt>
      <trkpt lat="41.932278" lon="-87.678134">
      </trkpt>
      <trkpt lat="41.925026" lon="-87.677893">
      </trkpt>
      <trkpt lat="41.924981" lon="-87.681912">
      </trkpt>
      <trkpt lat="41.926707" lon="-87.685177">
      </trkpt>
      <trkpt lat="41.940439" lon="-87.709664">
      </trkpt>
      <trkpt lat="41.942208" lon="-87.714861">
      </trkpt>
      <trkpt lat="41.94785" lon="-87.719423">
      </trkpt>
      <trkpt lat="41.956778" lon="-87.735617">
      </trkpt>
      <trkpt lat="41.958584" lon="-87.738341">
      </trkpt>
      <trkpt lat="41.953535" lon="-87.738067">
      </trkpt>
      <trkpt lat="41.952761" lon="-87.801121">
      </trkpt>
      <trkpt lat="41.945766" lon="-87.800845">
      </trkpt>
      <trkpt lat="41.945766" lon="-87.800845">
      </trkpt>
      <trkpt lat="41.945388" lon="-87.80083">
      </trkpt>
      <trkpt lat="41.945262" lon="-87.807003">
      </trkpt>
      <trkpt lat="41.952771" lon="-87.807255">
      </trkpt>
      <trkpt lat="41.952624" lon="-87.81343">
      </trkpt>
      <trkpt lat="41.959889" lon="-87.813354">
      </trkpt>
      <trkpt lat="41.959803" lon="-87.816427">
      </trkpt>
      <trkpt lat="41.963925" lon="-87.816393">
      </trkpt>
      <trkpt lat="41.963925" lon="-87.816393">
      </trkpt>
      <trkpt lat="41.967049" lon="-87.81638">
      </trkpt>
      <trkpt lat="41.967283" lon="-87.807182">
      </trkpt>
      <trkpt lat="41.968273" lon="-87.807176">
      </trkpt>
      <trkpt lat="41.96853" lon="-87.778289">
      </trkpt>
      <trkpt lat="41.967665" lon="-87.77728">
      </trkpt>
      <trkpt lat="41.968033" lon="-87.747723">
      </trkpt>
      <trkpt lat="41.972896" lon="-87.747918">
      </trkpt>
      <trkpt lat="41.972794" lon="-87.747761">
      </trkpt>
      <trkpt lat="41.966563" lon="-87.747223">
      </trkpt>
      <trkpt lat="41.962358" lon="-87.745232">
      </trkpt>
      <trkpt lat="41.947613" lon="-87.719592">
      </trkpt>
      <trkpt lat="41.94215" lon="-87.715306">
      </trkpt>
      <trkpt lat="41.940372" lon="-87.709927">
      </trkpt>
      <trkpt lat="41.917654" lon="-87.670146">
      </trkpt>
      <trkpt lat="41.906646" lon="-87.66137">
      </trkpt>
      <trkpt lat="41.897394" lon="-87.659066">
      </trkpt>
      <trkpt lat="41.892534" lon="-87.653065">
      </trkpt>
      <trkpt lat="41.892476" lon="-87.628093">
      </trkpt>
      <trkpt lat="41.890065" lon="-87.628018">
      </trkpt>
      <trkpt lat="41.890081" lon="-87.627058">
      </trkpt>
      <trkpt lat="41.890081" lon="-87.627058">
      </trkpt>
      <trkpt lat="41.890127" lon="-87.624177">
      </trkpt>
      <trkpt lat="41.888229" lon="-87.624567">
      </trkpt>
      <trkpt lat="41.887462" lon="-87.615811">
      </trkpt>
      <trkpt lat="41.887175" lon="-87.614014">
      </trkpt>
      <trkpt lat="41.885118" lon="-87.61394">
      </trkpt>
      <trkpt lat="41.881821" lon="-87.617453">
      </trkpt>
      <trkpt lat="41.869765" lon="-87.617261">
      </trkpt>
      <trkpt lat="41.866068" lon="-87.619589">
      </trkpt>
      <trkpt lat="41.853242" lon="-87.614728">
      </trkpt>
      <trkpt lat="41.849799" lon="-87.613506">
      </trkpt>
      <trkpt lat="41.848506" lon="-87.614444">
      </trkpt>
      <trkpt lat="41.848101" lon="-87.623443">
      </trkpt>
      <trkpt lat="41.84732" lon="-87.626818">
      </trkpt>
      <trkpt lat="41.848155" lon="-87.630758">
      </trkpt>
      <trkpt lat="41.847855" lon="-87.631727">
      </trkpt>
      <trkpt lat="41.843118" lon="-87.631351">
      </trkpt>
      <trkpt lat="41.834246" lon="-87.631163">
      </trkpt>
      <trkpt lat="41.830937" lon="-87.631513">
      </trkpt>
      <trkpt lat="41.831008" lon="-87.626457">
      </trkpt>
      <trkpt lat="41.83283" lon="-87.626475">
      </trkpt>
      <trkpt lat="41.832863" lon="-87.625023">
      </trkpt>
      <trkpt lat="41.832863" lon="-87.625023">
      </trkpt>
      <trkpt lat="41.83283" lon="-87.626475">
      </trkpt>
      <trkpt lat="41.838297" lon="-87.626578">
      </trkpt>
      <trkpt lat="41.838265" lon="-87.630021">
      </trkpt>
      <trkpt lat="41.841613" lon="-87.6301">
      </trkpt>
      <trkpt lat="41.850822" lon="-87.644866">
      </trkpt>
      <trkpt lat="41.885013" lon="-87.645685">
      </trkpt>
      <trkpt lat="41.891702" lon="-87.651689">
      </trkpt>
      <trkpt lat="41.896836" lon="-87.65868">
      </trkpt>
      <trkpt lat="41.906646" lon="-87.66137">
      </trkpt>
      <trkpt lat="41.917654" lon="-87.670146">
      </trkpt>
      <trkpt lat="41.94215" lon="-87.715306">
      </trkpt>
      <trkpt lat="41.947613" lon="-87.719592">
      </trkpt>
      <trkpt lat="41.963594" lon="-87.746287">
      </trkpt>
      <trkpt lat="41.980044" lon="-87.746614">
      </trkpt>
      <trkpt lat="41.987222" lon="-87.751348">
      </trkpt>
      <trkpt lat="42.009149" lon="-87.749057">
      </trkpt>
      <trkpt lat="42.021915" lon="-87.766135">
      </trkpt>
      <trkpt lat="42.026582" lon="-87.768599">
      </trkpt>
      <trkpt lat="42.052877" lon="-87.761543">
      </trkpt>
      <trkpt lat="42.060438" lon="-87.755714">
      </trkpt>
      <trkpt lat="42.061803" lon="-87.754815">
      </trkpt>
      <trkpt lat="42.062484" lon="-87.730613">
      </trkpt>
      <trkpt lat="42.064611" lon="-87.728131">
      </trkpt>
      <trkpt lat="42.064377" lon="-87.703442">
      </trkpt>
      <trkpt lat="42.062244" lon="-87.703425">
      </trkpt>
      <trkpt lat="42.062223" lon="-87.699272">
      </trkpt>
      <trkpt lat="42.062223" lon="-87.699272">
      </trkpt>
      <trkpt lat="42.062223" lon="-87.699272">
      </trkpt>
      <trkpt lat="42.062223" lon="-87.699272">
      </trkpt>
      <trkpt lat="42.062092" lon="-87.6855">
      </trkpt>
      <trkpt lat="42.061705" lon="-87.683746">
      </trkpt>
      <trkpt lat="42.06163" lon="-87.677075">
      </trkpt>
      <trkpt lat="42.056866" lon="-87.677157">
      </trkpt>
      <trkpt lat="42.056866" lon="-87.677157">
      </trkpt>
      <trkpt lat="42.051106" lon="-87.677291">
      </trkpt>
      <trkpt lat="42.051106" lon="-87.677291">
      </trkpt>
      <trkpt lat="42.049451" lon="-87.678119">
      </trkpt>
      <trkpt lat="42.049881" lon="-87.679708">
      </trkpt>
      <trkpt lat="42.050636" lon="-87.68186">
      </trkpt>
      <trkpt lat="42.052088" lon="-87.683995">
      </trkpt>
      <trkpt lat="42.052166" lon="-87.687872">
      </trkpt>
      <trkpt lat="42.049394" lon="-87.688587">
      </trkpt>
      <trkpt lat="42.049394" lon="-87.688587">
      </trkpt>
      <trkpt lat="42.048527" lon="-87.688792">
      </trkpt>
      <trkpt lat="42.048521" lon="-87.68762">
      </trkpt>
      <trkpt lat="42.048596" lon="-87.687621">
      </trkpt>
      <trkpt lat="42.048631" lon="-87.687621">
      </trkpt>
      <trkpt lat="42.048628" lon="-87.68769">
      </trkpt>
      <trkpt lat="42.048837" lon="-87.687692">
      </trkpt>
      <trkpt lat="42.048837" lon="-87.687692">
      </trkpt>
      <trkpt lat="42.048837" lon="-87.687692">
      </trkpt>
      <trkpt lat="42.048837" lon="-87.687692">
      </trkpt>
      <trkpt lat="42.049121" lon="-87.687695">
      </trkpt>
      <trkpt lat="42.049135" lon="-87.688653">
      </trkpt>
      <trkpt lat="42.050898" lon="-87.688008">
      </trkpt>
      <trkpt lat="42.052166" lon="-87.687872">
      </trkpt>
      <trkpt lat="42.053962" lon="-87.687393">
      </trkpt>
      <trkpt lat="42.05387" lon="-87.679721">
      </trkpt>
      <trkpt lat="42.057045" lon="-87.679677">
      </trkpt>
      <trkpt lat="42.057045" lon="-87.679677">
      </trkpt>
      <trkpt lat="42.05387" lon="-87.679721">
      </trkpt>
      <trkpt lat="42.053962" lon="-87.687393">
      </trkpt>
      <trkpt lat="42.049394" lon="-87.688587">
      </trkpt>
      <trkpt lat="42.049394" lon="-87.688587">
      </trkpt>
      <trkpt lat="42.051264" lon="-87.687935">
      </trkpt>
      <trkpt lat="42.051664" lon="-87.688061">
      </trkpt>
      <trkpt lat="42.052175" lon="-87.688577">
      </trkpt>
      <trkpt lat="42.051955" lon="-87.70623">
      </trkpt>
      <trkpt lat="42.052495" lon="-87.709225">
      </trkpt>
      <trkpt lat="42.050762" lon="-87.710284">
      </trkpt>
      <trkpt lat="42.048194" lon="-87.710533">
      </trkpt>
      <trkpt lat="42.048046" lon="-87.724487">
      </trkpt>
      <trkpt lat="42.048046" lon="-87.724487">
      </trkpt>
      <trkpt lat="42.048014" lon="-87.727689">
      </trkpt>
      <trkpt lat="42.033463" lon="-87.728049">
      </trkpt>
      <trkpt lat="42.033507" lon="-87.723597">
      </trkpt>
      <trkpt lat="42.033507" lon="-87.723597">
      </trkpt>
      <trkpt lat="42.034032" lon="-87.68996">
      </trkpt>
      <trkpt lat="42.033982" lon="-87.684048">
      </trkpt>
      <trkpt lat="42.033266" lon="-87.684068">
      </trkpt>
      <trkpt lat="42.033266" lon="-87.684068">
      </trkpt>
      <trkpt lat="42.033982" lon="-87.684048">
      </trkpt>
      <trkpt lat="42.033994" lon="-87.685204">
      </trkpt>
      <trkpt lat="42.046334" lon="-87.685009">
      </trkpt>
      <trkpt lat="42.046334" lon="-87.685009">
      </trkpt>
      <trkpt lat="42.046334" lon="-87.685009">
      </trkpt>
      <trkpt lat="42.046334" lon="-87.685009">
      </trkpt>
      <trkpt lat="42.047061" lon="-87.684986">
      </trkpt>
      <trkpt lat="42.047097" lon="-87.68872">
      </trkpt>
      <trkpt lat="42.048527" lon="-87.688792">
      </trkpt>
      <trkpt lat="42.051264" lon="-87.687935">
      </trkpt>
      <trkpt lat="42.052175" lon="-87.688577">
      </trkpt>
      <trkpt lat="42.05196" lon="-87.706397">
      </trkpt>
      <trkpt lat="42.052495" lon="-87.709225">
      </trkpt>
      <trkpt lat="42.055047" lon="-87.714814">
      </trkpt>
      <trkpt lat="42.055369" lon="-87.716109">
      </trkpt>
      <trkpt lat="42.055335" lon="-87.746933">
      </trkpt>
      <trkpt lat="42.049895" lon="-87.746992">
      </trkpt>
      <trkpt lat="42.049895" lon="-87.746992">
      </trkpt>
      <trkpt lat="42.049713" lon="-87.746988">
      </trkpt>
      <trkpt lat="42.049852" lon="-87.746816">
      </trkpt>
      <trkpt lat="42.056878" lon="-87.746694">
      </trkpt>
      <trkpt lat="42.056826" lon="-87.748765">
      </trkpt>
      <trkpt lat="42.055754" lon="-87.749095">
      </trkpt>
      <trkpt lat="42.055778" lon="-87.750689">
      </trkpt>
      <trkpt lat="42.058577" lon="-87.750743">
      </trkpt>
      <trkpt lat="42.060698" lon="-87.750067">
      </trkpt>
      <trkpt lat="42.060853" lon="-87.750019">
      </trkpt>
      <trkpt lat="42.060853" lon="-87.750019">
      </trkpt>
      <trkpt lat="42.060796" lon="-87.750177">
      </trkpt>
      <trkpt lat="42.058577" lon="-87.750743">
      </trkpt>
      <trkpt lat="42.055778" lon="-87.750689">
      </trkpt>
      <trkpt lat="42.055754" lon="-87.749095">
      </trkpt>
      <trkpt lat="42.055351" lon="-87.749113">
      </trkpt>
      <trkpt lat="42.055351" lon="-87.752848">
      </trkpt>
      <trkpt lat="42.055369" lon="-87.716109">
      </trkpt>
      <trkpt lat="42.052539" lon="-87.709349">
      </trkpt>
      <trkpt lat="42.051981" lon="-87.706576">
      </trkpt>
      <trkpt lat="42.05225" lon="-87.690075">
      </trkpt>
      <trkpt lat="42.039451" lon="-87.68995">
      </trkpt>
      <trkpt lat="42.006264" lon="-87.6901">
      </trkpt>
      <trkpt lat="42.006428" lon="-87.681335">
      </trkpt>
      <trkpt lat="42.006428" lon="-87.681335">
      </trkpt>
      <trkpt lat="42.00644" lon="-87.680726">
      </trkpt>
      <trkpt lat="41.992132" lon="-87.67531">
      </trkpt>
      <trkpt lat="41.985105" lon="-87.662456">
      </trkpt>
      <trkpt lat="41.984999" lon="-87.653157">
      </trkpt>
      <trkpt lat="41.972134" lon="-87.648822">
      </trkpt>
      <trkpt lat="41.951193" lon="-87.64469">
      </trkpt>
      <trkpt lat="41.941067" lon="-87.638957">
      </trkpt>
      <trkpt lat="41.93482" lon="-87.632527">
      </trkpt>
      <trkpt lat="41.928427" lon="-87.632048">
      </trkpt>
      <trkpt lat="41.915117" lon="-87.627538">
      </trkpt>
      <trkpt lat="41.913042" lon="-87.627206">
      </trkpt>
      <trkpt lat="41.913169" lon="-87.632856">
      </trkpt>
      <trkpt lat="41.915623" lon="-87.634358">
      </trkpt>
      <trkpt lat="41.915479" lon="-87.634849">
      </trkpt>
      <trkpt lat="41.918106" lon="-87.638503">
      </trkpt>
    </trkseg>
  </trk>
</gpx>