<?xml version="1.0" encoding="UTF-8"?>
<gpx xmlns="http://www.topografix.com/GPX/1/1" xmlns:xsi="http://www.w3.org/2001/XMLSchema-instance" xsi:schemaLocation="http://www.topografix.com/GPX/1/1 http://www.topografix.com/GPX/1/1/gpx.xsd" version="1.1" creator="gpx.py -- https://github.com/tkrajina/gpxpy">
  <trk>
    <trkseg>
      <trkpt lat="41.983528" lon="-87.666707">
      </trkpt>
      <trkpt lat="41.983497" lon="-87.668766">
      </trkpt>
      <trkpt lat="41.989705" lon="-87.6699">
      </trkpt>
      <trkpt lat="41.992132" lon="-87.67531">
      </trkpt>
      <trkpt lat="41.994982" lon="-87.675425">
      </trkpt>
      <trkpt lat="42.015501" lon="-87.684163">
      </trkpt>
      <trkpt lat="42.029894" lon="-87.685845">
      </trkpt>
      <trkpt lat="42.041263" lon="-87.688374">
      </trkpt>
      <trkpt lat="42.049394" lon="-87.688587">
      </trkpt>
      <trkpt lat="42.049394" lon="-87.688587">
      </trkpt>
      <trkpt lat="42.050898" lon="-87.688008">
      </trkpt>
      <trkpt lat="42.051264" lon="-87.687935">
      </trkpt>
      <trkpt lat="42.052166" lon="-87.687872">
      </trkpt>
      <trkpt lat="42.052064" lon="-87.679936">
      </trkpt>
      <trkpt lat="42.052104" lon="-87.679653">
      </trkpt>
      <trkpt lat="42.052075" lon="-87.677807">
      </trkpt>
      <trkpt lat="42.052075" lon="-87.677807">
      </trkpt>
      <trkpt lat="42.052066" lon="-87.677251">
      </trkpt>
      <trkpt lat="42.051106" lon="-87.677291">
      </trkpt>
      <trkpt lat="42.049451" lon="-87.678119">
      </trkpt>
      <trkpt lat="42.049881" lon="-87.679708">
      </trkpt>
      <trkpt lat="42.050636" lon="-87.68186">
      </trkpt>
      <trkpt lat="42.052088" lon="-87.683995">
      </trkpt>
      <trkpt lat="42.052166" lon="-87.687872">
      </trkpt>
      <trkpt lat="42.049394" lon="-87.688587">
      </trkpt>
      <trkpt lat="42.049394" lon="-87.688587">
      </trkpt>
      <trkpt lat="42.015501" lon="-87.684163">
      </trkpt>
      <trkpt lat="41.992132" lon="-87.67531">
      </trkpt>
      <trkpt lat="41.985105" lon="-87.662456">
      </trkpt>
      <trkpt lat="41.984999" lon="-87.653157">
      </trkpt>
      <trkpt lat="41.972134" lon="-87.648822">
      </trkpt>
      <trkpt lat="41.951193" lon="-87.64469">
      </trkpt>
      <trkpt lat="41.942042" lon="-87.639566">
      </trkpt>
      <trkpt lat="41.940268" lon="-87.638796">
      </trkpt>
      <trkpt lat="41.939965" lon="-87.650679">
      </trkpt>
      <trkpt lat="41.939012" lon="-87.649915">
      </trkpt>
      <trkpt lat="41.938982" lon="-87.651855">
      </trkpt>
      <trkpt lat="41.938982" lon="-87.651855">
      </trkpt>
      <trkpt lat="41.938945" lon="-87.654074">
      </trkpt>
      <trkpt lat="41.937175" lon="-87.654016">
      </trkpt>
      <trkpt lat="41.937186" lon="-87.653552">
      </trkpt>
      <trkpt lat="41.937074" lon="-87.65355">
      </trkpt>
      <trkpt lat="41.937074" lon="-87.65355">
      </trkpt>
      <trkpt lat="41.937186" lon="-87.653552">
      </trkpt>
      <trkpt lat="41.937175" lon="-87.654016">
      </trkpt>
      <trkpt lat="41.938097" lon="-87.654046">
      </trkpt>
      <trkpt lat="41.937953" lon="-87.663749">
      </trkpt>
      <trkpt lat="41.938211" lon="-87.663758">
      </trkpt>
      <trkpt lat="41.938211" lon="-87.663758">
      </trkpt>
      <trkpt lat="41.939759" lon="-87.663815">
      </trkpt>
      <trkpt lat="41.940268" lon="-87.638796">
      </trkpt>
      <trkpt lat="41.939931" lon="-87.638606">
      </trkpt>
      <trkpt lat="41.936955" lon="-87.634194">
      </trkpt>
      <trkpt lat="41.934639" lon="-87.632453">
      </trkpt>
      <trkpt lat="41.928427" lon="-87.632048">
      </trkpt>
      <trkpt lat="41.918735" lon="-87.629189">
      </trkpt>
      <trkpt lat="41.911998" lon="-87.62605">
      </trkpt>
      <trkpt lat="41.904908" lon="-87.624861">
      </trkpt>
      <trkpt lat="41.901978" lon="-87.624179">
      </trkpt>
      <trkpt lat="41.895747" lon="-87.624376">
      </trkpt>
      <trkpt lat="41.895763" lon="-87.622799">
      </trkpt>
      <trkpt lat="41.894975" lon="-87.62278">
      </trkpt>
      <trkpt lat="41.894971" lon="-87.623046">
      </trkpt>
      <trkpt lat="41.894971" lon="-87.623046">
      </trkpt>
      <trkpt lat="41.89495" lon="-87.624182">
      </trkpt>
      <trkpt lat="41.895748" lon="-87.624197">
      </trkpt>
      <trkpt lat="41.895768" lon="-87.622402">
      </trkpt>
      <trkpt lat="41.895768" lon="-87.622402">
      </trkpt>
      <trkpt lat="41.895808" lon="-87.620354">
      </trkpt>
      <trkpt lat="41.896781" lon="-87.620387">
      </trkpt>
      <trkpt lat="41.896844" lon="-87.616893">
      </trkpt>
      <trkpt lat="41.892868" lon="-87.614264">
      </trkpt>
      <trkpt lat="41.885247" lon="-87.614081">
      </trkpt>
      <trkpt lat="41.884041" lon="-87.614645">
      </trkpt>
      <trkpt lat="41.882873" lon="-87.616685">
      </trkpt>
      <trkpt lat="41.881821" lon="-87.617453">
      </trkpt>
      <trkpt lat="41.873248" lon="-87.617318">
      </trkpt>
      <trkpt lat="41.873096" lon="-87.627645">
      </trkpt>
      <trkpt lat="41.8723" lon="-87.627625">
      </trkpt>
      <trkpt lat="41.872148" lon="-87.633566">
      </trkpt>
      <trkpt lat="41.868948" lon="-87.633487">
      </trkpt>
      <trkpt lat="41.868948" lon="-87.633487">
      </trkpt>
      <trkpt lat="41.874478" lon="-87.633665">
      </trkpt>
      <trkpt lat="41.874459" lon="-87.63498">
      </trkpt>
      <trkpt lat="41.874529" lon="-87.635036">
      </trkpt>
      <trkpt lat="41.876831" lon="-87.635203">
      </trkpt>
      <trkpt lat="41.876757" lon="-87.641048">
      </trkpt>
      <trkpt lat="41.872009" lon="-87.640908">
      </trkpt>
      <trkpt lat="41.871994" lon="-87.642146">
      </trkpt>
      <trkpt lat="41.871994" lon="-87.642146">
      </trkpt>
      <trkpt lat="41.871971" lon="-87.643814">
      </trkpt>
      <trkpt lat="41.867261" lon="-87.643657">
      </trkpt>
      <trkpt lat="41.867243" lon="-87.645153">
      </trkpt>
      <trkpt lat="41.866852" lon="-87.645098">
      </trkpt>
      <trkpt lat="41.857367" lon="-87.644363">
      </trkpt>
      <trkpt lat="41.852447" lon="-87.645793">
      </trkpt>
      <trkpt lat="41.849097" lon="-87.644333">
      </trkpt>
      <trkpt lat="41.846546" lon="-87.641933">
      </trkpt>
      <trkpt lat="41.847976" lon="-87.616851">
      </trkpt>
      <trkpt lat="41.847086" lon="-87.612314">
      </trkpt>
      <trkpt lat="41.832576" lon="-87.607188">
      </trkpt>
      <trkpt lat="41.825932" lon="-87.600839">
      </trkpt>
      <trkpt lat="41.815295" lon="-87.593977">
      </trkpt>
      <trkpt lat="41.803885" lon="-87.58209">
      </trkpt>
      <trkpt lat="41.794428" lon="-87.579597">
      </trkpt>
      <trkpt lat="41.792571" lon="-87.580573">
      </trkpt>
      <trkpt lat="41.792193" lon="-87.585251">
      </trkpt>
      <trkpt lat="41.787942" lon="-87.585422">
      </trkpt>
      <trkpt lat="41.787428" lon="-87.590153">
      </trkpt>
      <trkpt lat="41.789645" lon="-87.590211">
      </trkpt>
      <trkpt lat="41.789647" lon="-87.593169">
      </trkpt>
      <trkpt lat="41.789032" lon="-87.593146">
      </trkpt>
      <trkpt lat="41.789032" lon="-87.593146">
      </trkpt>
      <trkpt lat="41.791471" lon="-87.593219">
      </trkpt>
      <trkpt lat="41.791675" lon="-87.585424">
      </trkpt>
      <trkpt lat="41.792595" lon="-87.584421">
      </trkpt>
      <trkpt lat="41.792433" lon="-87.580163">
      </trkpt>
      <trkpt lat="41.795899" lon="-87.579065">
      </trkpt>
      <trkpt lat="41.799076" lon="-87.5812">
      </trkpt>
      <trkpt lat="41.803976" lon="-87.581975">
      </trkpt>
      <trkpt lat="41.815381" lon="-87.593676">
      </trkpt>
      <trkpt lat="41.821212" lon="-87.598158">
      </trkpt>
      <trkpt lat="41.826403" lon="-87.600955">
      </trkpt>
      <trkpt lat="41.832668" lon="-87.606909">
      </trkpt>
      <trkpt lat="41.835059" lon="-87.60772">
      </trkpt>
      <trkpt lat="41.838608" lon="-87.607817">
      </trkpt>
      <trkpt lat="41.838567" lon="-87.609219">
      </trkpt>
      <trkpt lat="41.832576" lon="-87.607188">
      </trkpt>
      <trkpt lat="41.827907" lon="-87.602929">
      </trkpt>
      <trkpt lat="41.827907" lon="-87.602929">
      </trkpt>
      <trkpt lat="41.827252" lon="-87.60211">
      </trkpt>
      <trkpt lat="41.82517" lon="-87.600903">
      </trkpt>
      <trkpt lat="41.825435" lon="-87.599849">
      </trkpt>
      <trkpt lat="41.829367" lon="-87.604294">
      </trkpt>
      <trkpt lat="41.833032" lon="-87.607125">
      </trkpt>
      <trkpt lat="41.838145" lon="-87.608141">
      </trkpt>
      <trkpt lat="41.852437" lon="-87.613467">
      </trkpt>
      <trkpt lat="41.863523" lon="-87.618709">
      </trkpt>
      <trkpt lat="41.86676" lon="-87.619168">
      </trkpt>
      <trkpt lat="41.869799" lon="-87.617003">
      </trkpt>
      <trkpt lat="41.881717" lon="-87.617191">
      </trkpt>
      <trkpt lat="41.884512" lon="-87.613723">
      </trkpt>
      <trkpt lat="41.889097" lon="-87.614006">
      </trkpt>
      <trkpt lat="41.890559" lon="-87.613604">
      </trkpt>
      <trkpt lat="41.890948" lon="-87.61169">
      </trkpt>
      <trkpt lat="41.891968" lon="-87.611597">
      </trkpt>
      <trkpt lat="41.891751" lon="-87.622685">
      </trkpt>
      <trkpt lat="41.89336" lon="-87.622735">
      </trkpt>
      <trkpt lat="41.893338" lon="-87.624118">
      </trkpt>
      <trkpt lat="41.893338" lon="-87.624118">
      </trkpt>
      <trkpt lat="41.893335" lon="-87.624316">
      </trkpt>
      <trkpt lat="41.889927" lon="-87.624211">
      </trkpt>
      <trkpt lat="41.887869" lon="-87.624661">
      </trkpt>
      <trkpt lat="41.884489" lon="-87.624571">
      </trkpt>
      <trkpt lat="41.884366" lon="-87.624344">
      </trkpt>
      <trkpt lat="41.884372" lon="-87.623414">
      </trkpt>
      <trkpt lat="41.884293" lon="-87.622907">
      </trkpt>
      <trkpt lat="41.884406" lon="-87.617529">
      </trkpt>
      <trkpt lat="41.884538" lon="-87.617389">
      </trkpt>
      <trkpt lat="41.885524" lon="-87.617418">
      </trkpt>
      <trkpt lat="41.885561" lon="-87.616288">
      </trkpt>
      <trkpt lat="41.886523" lon="-87.616289">
      </trkpt>
      <trkpt lat="41.886506" lon="-87.619106">
      </trkpt>
      <trkpt lat="41.88644" lon="-87.619147">
      </trkpt>
      <trkpt lat="41.88644" lon="-87.619147">
      </trkpt>
      <trkpt lat="41.885527" lon="-87.6191">
      </trkpt>
      <trkpt lat="41.885524" lon="-87.617418">
      </trkpt>
      <trkpt lat="41.884538" lon="-87.617389">
      </trkpt>
      <trkpt lat="41.884474" lon="-87.632402">
      </trkpt>
      <trkpt lat="41.887805" lon="-87.632518">
      </trkpt>
      <trkpt lat="41.888886" lon="-87.632424">
      </trkpt>
      <trkpt lat="41.8916" lon="-87.6325">
      </trkpt>
      <trkpt lat="41.891557" lon="-87.635588">
      </trkpt>
      <trkpt lat="41.891816" lon="-87.635594">
      </trkpt>
      <trkpt lat="41.891816" lon="-87.635594">
      </trkpt>
      <trkpt lat="41.890754" lon="-87.635571">
      </trkpt>
      <trkpt lat="41.890814" lon="-87.631109">
      </trkpt>
      <trkpt lat="41.889473" lon="-87.631072">
      </trkpt>
      <trkpt lat="41.889473" lon="-87.631072">
      </trkpt>
      <trkpt lat="41.88682" lon="-87.631009">
      </trkpt>
      <trkpt lat="41.886809" lon="-87.627383">
      </trkpt>
      <trkpt lat="41.886899" lon="-87.626849">
      </trkpt>
      <trkpt lat="41.887098" lon="-87.626404">
      </trkpt>
      <trkpt lat="41.887382" lon="-87.626488">
      </trkpt>
      <trkpt lat="41.888453" lon="-87.627125">
      </trkpt>
      <trkpt lat="41.888758" lon="-87.627082">
      </trkpt>
      <trkpt lat="41.889309" lon="-87.626679">
      </trkpt>
      <trkpt lat="41.889909" lon="-87.626665">
      </trkpt>
      <trkpt lat="41.889909" lon="-87.626665">
      </trkpt>
      <trkpt lat="41.889909" lon="-87.626665">
      </trkpt>
      <trkpt lat="41.889909" lon="-87.626665">
      </trkpt>
      <trkpt lat="41.889438" lon="-87.626657">
      </trkpt>
      <trkpt lat="41.888834" lon="-87.627171">
      </trkpt>
      <trkpt lat="41.888509" lon="-87.627249">
      </trkpt>
      <trkpt lat="41.887226" lon="-87.626463">
      </trkpt>
      <trkpt lat="41.887064" lon="-87.626741">
      </trkpt>
      <trkpt lat="41.886951" lon="-87.627165">
      </trkpt>
      <trkpt lat="41.88694" lon="-87.635298">
      </trkpt>
      <trkpt lat="41.886818" lon="-87.635662">
      </trkpt>
      <trkpt lat="41.886104" lon="-87.636754">
      </trkpt>
      <trkpt lat="41.885732" lon="-87.636973">
      </trkpt>
      <trkpt lat="41.885734" lon="-87.639866">
      </trkpt>
      <trkpt lat="41.887293" lon="-87.639932">
      </trkpt>
      <trkpt lat="41.887293" lon="-87.639932">
      </trkpt>
      <trkpt lat="41.889064" lon="-87.64001">
      </trkpt>
      <trkpt lat="41.889054" lon="-87.644337">
      </trkpt>
      <trkpt lat="41.895983" lon="-87.654976">
      </trkpt>
      <trkpt lat="41.89501" lon="-87.655808">
      </trkpt>
      <trkpt lat="41.89596" lon="-87.657675">
      </trkpt>
      <trkpt lat="41.897622" lon="-87.659011">
      </trkpt>
      <trkpt lat="41.901753" lon="-87.660805">
      </trkpt>
      <trkpt lat="41.906443" lon="-87.661061">
      </trkpt>
      <trkpt lat="41.910145" lon="-87.664439">
      </trkpt>
      <trkpt lat="41.915886" lon="-87.668091">
      </trkpt>
      <trkpt lat="41.91815" lon="-87.670574">
      </trkpt>
      <trkpt lat="41.922676" lon="-87.678438">
      </trkpt>
      <trkpt lat="41.924983" lon="-87.681585">
      </trkpt>
      <trkpt lat="41.925011" lon="-87.679109">
      </trkpt>
      <trkpt lat="41.923872" lon="-87.679077">
      </trkpt>
      <trkpt lat="41.923872" lon="-87.679077">
      </trkpt>
      <trkpt lat="41.925011" lon="-87.679109">
      </trkpt>
      <trkpt lat="41.924902" lon="-87.687645">
      </trkpt>
      <trkpt lat="41.910324" lon="-87.687207">
      </trkpt>
      <trkpt lat="41.910165" lon="-87.701875">
      </trkpt>
      <trkpt lat="41.907241" lon="-87.70125">
      </trkpt>
      <trkpt lat="41.902886" lon="-87.702278">
      </trkpt>
      <trkpt lat="41.902888" lon="-87.701605">
      </trkpt>
      <trkpt lat="41.902888" lon="-87.701605">
      </trkpt>
      <trkpt lat="41.902888" lon="-87.701605">
      </trkpt>
      <trkpt lat="41.902888" lon="-87.701605">
      </trkpt>
      <trkpt lat="41.902886" lon="-87.702278">
      </trkpt>
      <trkpt lat="41.907241" lon="-87.70125">
      </trkpt>
      <trkpt lat="41.910165" lon="-87.701875">
      </trkpt>
      <trkpt lat="41.910324" lon="-87.687207">
      </trkpt>
      <trkpt lat="41.924902" lon="-87.687645">
      </trkpt>
      <trkpt lat="41.925374" lon="-87.653601">
      </trkpt>
      <trkpt lat="41.931569" lon="-87.653827">
      </trkpt>
      <trkpt lat="41.931569" lon="-87.653827">
      </trkpt>
      <trkpt lat="41.931569" lon="-87.653827">
      </trkpt>
      <trkpt lat="41.931569" lon="-87.653827">
      </trkpt>
      <trkpt lat="41.929016" lon="-87.653741">
      </trkpt>
      <trkpt lat="41.918322" lon="-87.638808">
      </trkpt>
      <trkpt lat="41.918472" lon="-87.636131">
      </trkpt>
      <trkpt lat="41.911184" lon="-87.63166">
      </trkpt>
      <trkpt lat="41.910389" lon="-87.631638">
      </trkpt>
      <trkpt lat="41.910376" lon="-87.632468">
      </trkpt>
      <trkpt lat="41.910376" lon="-87.632468">
      </trkpt>
      <trkpt lat="41.911176" lon="-87.632527">
      </trkpt>
      <trkpt lat="41.911171" lon="-87.633223">
      </trkpt>
      <trkpt lat="41.907687" lon="-87.633117">
      </trkpt>
      <trkpt lat="41.907668" lon="-87.634589">
      </trkpt>
      <trkpt lat="41.905735" lon="-87.634531">
      </trkpt>
      <trkpt lat="41.905719" lon="-87.635365">
      </trkpt>
      <trkpt lat="41.905719" lon="-87.635365">
      </trkpt>
      <trkpt lat="41.905661" lon="-87.638408">
      </trkpt>
      <trkpt lat="41.911039" lon="-87.63858">
      </trkpt>
      <trkpt lat="41.911172" lon="-87.633071">
      </trkpt>
      <trkpt lat="41.913237" lon="-87.632269">
      </trkpt>
      <trkpt lat="41.912247" lon="-87.628505">
      </trkpt>
      <trkpt lat="41.912316" lon="-87.626932">
      </trkpt>
      <trkpt lat="41.90257" lon="-87.624114">
      </trkpt>
      <trkpt lat="41.900898" lon="-87.619617">
      </trkpt>
      <trkpt lat="41.892716" lon="-87.614229">
      </trkpt>
      <trkpt lat="41.884726" lon="-87.614184">
      </trkpt>
      <trkpt lat="41.881642" lon="-87.617484">
      </trkpt>
      <trkpt lat="41.869765" lon="-87.617261">
      </trkpt>
      <trkpt lat="41.866208" lon="-87.619588">
      </trkpt>
      <trkpt lat="41.862252" lon="-87.618646">
      </trkpt>
      <trkpt lat="41.832923" lon="-87.607384">
      </trkpt>
      <trkpt lat="41.813342" lon="-87.591653">
      </trkpt>
      <trkpt lat="41.810561" lon="-87.58976">
      </trkpt>
      <trkpt lat="41.809636" lon="-87.596831">
      </trkpt>
      <trkpt lat="41.797987" lon="-87.596611">
      </trkpt>
      <trkpt lat="41.798013" lon="-87.594578">
      </trkpt>
      <trkpt lat="41.798013" lon="-87.594578">
      </trkpt>
      <trkpt lat="41.798009" lon="-87.594993">
      </trkpt>
      <trkpt lat="41.799469" lon="-87.595022">
      </trkpt>
      <trkpt lat="41.799507" lon="-87.591784">
      </trkpt>
      <trkpt lat="41.798037" lon="-87.591755">
      </trkpt>
      <trkpt lat="41.798026" lon="-87.592617">
      </trkpt>
      <trkpt lat="41.796636" lon="-87.592587">
      </trkpt>
      <trkpt lat="41.796636" lon="-87.592587">
      </trkpt>
      <trkpt lat="41.796636" lon="-87.592587">
      </trkpt>
      <trkpt lat="41.796636" lon="-87.592587">
      </trkpt>
      <trkpt lat="41.795686" lon="-87.592545">
      </trkpt>
      <trkpt lat="41.795683" lon="-87.591695">
      </trkpt>
      <trkpt lat="41.795501" lon="-87.59169">
      </trkpt>
      <trkpt lat="41.795378" lon="-87.592194">
      </trkpt>
      <trkpt lat="41.79523" lon="-87.583945">
      </trkpt>
      <trkpt lat="41.792642" lon="-87.583879">
      </trkpt>
      <trkpt lat="41.792433" lon="-87.580163">
      </trkpt>
      <trkpt lat="41.803976" lon="-87.581975">
      </trkpt>
      <trkpt lat="41.833032" lon="-87.607125">
      </trkpt>
      <trkpt lat="41.861647" lon="-87.618159">
      </trkpt>
      <trkpt lat="41.892878" lon="-87.614041">
      </trkpt>
      <trkpt lat="41.900921" lon="-87.619441">
      </trkpt>
      <trkpt lat="41.902893" lon="-87.624048">
      </trkpt>
      <trkpt lat="41.934701" lon="-87.632273">
      </trkpt>
      <trkpt lat="41.951253" lon="-87.644496">
      </trkpt>
      <trkpt lat="41.974381" lon="-87.649207">
      </trkpt>
      <trkpt lat="41.976812" lon="-87.649649">
      </trkpt>
      <trkpt lat="41.975964" lon="-87.684288">
      </trkpt>
      <trkpt lat="41.977792" lon="-87.684347">
      </trkpt>
      <trkpt lat="41.977786" lon="-87.684838">
      </trkpt>
    </trkseg>
  </trk>
</gpx>