<?xml version="1.0" encoding="UTF-8"?>
<gpx xmlns="http://www.topografix.com/GPX/1/1" xmlns:xsi="http://www.w3.org/2001/XMLSchema-instance" xsi:schemaLocation="http://www.topografix.com/GPX/1/1 http://www.topografix.com/GPX/1/1/gpx.xsd" version="1.1" creator="gpx.py -- https://github.com/tkrajina/gpxpy">
  <trk>
    <trkseg>
      <trkpt lat="41.90052" lon="-87.67412">
      </trkpt>
      <trkpt lat="41.901415" lon="-87.67415">
      </trkpt>
      <trkpt lat="41.901426" lon="-87.673548">
      </trkpt>
      <trkpt lat="41.903247" lon="-87.673606">
      </trkpt>
      <trkpt lat="41.903351" lon="-87.667439">
      </trkpt>
      <trkpt lat="41.910635" lon="-87.667641">
      </trkpt>
      <trkpt lat="41.911172" lon="-87.633071">
      </trkpt>
      <trkpt lat="41.912903" lon="-87.633044">
      </trkpt>
      <trkpt lat="41.913237" lon="-87.632269">
      </trkpt>
      <trkpt lat="41.912247" lon="-87.628505">
      </trkpt>
      <trkpt lat="41.912475" lon="-87.626923">
      </trkpt>
      <trkpt lat="41.913347" lon="-87.626017">
      </trkpt>
      <trkpt lat="41.918036" lon="-87.628743">
      </trkpt>
      <trkpt lat="41.927967" lon="-87.631735">
      </trkpt>
      <trkpt lat="41.934701" lon="-87.632273">
      </trkpt>
      <trkpt lat="41.936704" lon="-87.633661">
      </trkpt>
      <trkpt lat="41.941219" lon="-87.638833">
      </trkpt>
      <trkpt lat="41.950931" lon="-87.644376">
      </trkpt>
      <trkpt lat="41.960253" lon="-87.646094">
      </trkpt>
      <trkpt lat="41.962086" lon="-87.645534">
      </trkpt>
      <trkpt lat="41.961772" lon="-87.655148">
      </trkpt>
      <trkpt lat="41.964503" lon="-87.656894">
      </trkpt>
      <trkpt lat="41.964503" lon="-87.656894">
      </trkpt>
      <trkpt lat="41.961772" lon="-87.655148">
      </trkpt>
      <trkpt lat="41.961843" lon="-87.649918">
      </trkpt>
      <trkpt lat="41.961373" lon="-87.649905">
      </trkpt>
      <trkpt lat="41.961373" lon="-87.649905">
      </trkpt>
      <trkpt lat="41.961843" lon="-87.649918">
      </trkpt>
      <trkpt lat="41.961908" lon="-87.646878">
      </trkpt>
      <trkpt lat="41.955203" lon="-87.644905">
      </trkpt>
      <trkpt lat="41.950978" lon="-87.644611">
      </trkpt>
      <trkpt lat="41.942042" lon="-87.639566">
      </trkpt>
      <trkpt lat="41.940268" lon="-87.638796">
      </trkpt>
      <trkpt lat="41.940119" lon="-87.639537">
      </trkpt>
      <trkpt lat="41.936919" lon="-87.639435">
      </trkpt>
      <trkpt lat="41.936919" lon="-87.639435">
      </trkpt>
      <trkpt lat="41.932914" lon="-87.63931">
      </trkpt>
      <trkpt lat="41.932636" lon="-87.653863">
      </trkpt>
      <trkpt lat="41.929016" lon="-87.653741">
      </trkpt>
      <trkpt lat="41.928972" lon="-87.65652">
      </trkpt>
      <trkpt lat="41.928972" lon="-87.65652">
      </trkpt>
      <trkpt lat="41.928939" lon="-87.658589">
      </trkpt>
      <trkpt lat="41.935883" lon="-87.658824">
      </trkpt>
      <trkpt lat="41.935883" lon="-87.658824">
      </trkpt>
      <trkpt lat="41.939838" lon="-87.658974">
      </trkpt>
      <trkpt lat="41.939729" lon="-87.666233">
      </trkpt>
      <trkpt lat="41.944708" lon="-87.666378">
      </trkpt>
      <trkpt lat="41.944708" lon="-87.666378">
      </trkpt>
      <trkpt lat="41.948859" lon="-87.666475">
      </trkpt>
      <trkpt lat="41.948845" lon="-87.667351">
      </trkpt>
      <trkpt lat="41.948845" lon="-87.667351">
      </trkpt>
      <trkpt lat="41.948897" lon="-87.664054">
      </trkpt>
      <trkpt lat="41.954357" lon="-87.664217">
      </trkpt>
      <trkpt lat="41.954634" lon="-87.645235">
      </trkpt>
      <trkpt lat="41.95936" lon="-87.646692">
      </trkpt>
      <trkpt lat="41.959313" lon="-87.649287">
      </trkpt>
      <trkpt lat="41.959313" lon="-87.649287">
      </trkpt>
      <trkpt lat="41.959302" lon="-87.649847">
      </trkpt>
      <trkpt lat="41.954561" lon="-87.649713">
      </trkpt>
      <trkpt lat="41.953982" lon="-87.698254">
      </trkpt>
      <trkpt lat="41.942795" lon="-87.697932">
      </trkpt>
      <trkpt lat="41.942777" lon="-87.701229">
      </trkpt>
      <trkpt lat="41.942777" lon="-87.701229">
      </trkpt>
      <trkpt lat="41.942766" lon="-87.703229">
      </trkpt>
      <trkpt lat="41.946623" lon="-87.708842">
      </trkpt>
      <trkpt lat="41.946565" lon="-87.712704">
      </trkpt>
      <trkpt lat="41.942239" lon="-87.712582">
      </trkpt>
      <trkpt lat="41.942233" lon="-87.714251">
      </trkpt>
      <trkpt lat="41.942233" lon="-87.714251">
      </trkpt>
      <trkpt lat="41.942239" lon="-87.712582">
      </trkpt>
      <trkpt lat="41.940478" lon="-87.712526">
      </trkpt>
      <trkpt lat="41.915851" lon="-87.668499">
      </trkpt>
      <trkpt lat="41.906635" lon="-87.661559">
      </trkpt>
      <trkpt lat="41.896667" lon="-87.658834">
      </trkpt>
      <trkpt lat="41.886973" lon="-87.646614">
      </trkpt>
      <trkpt lat="41.851247" lon="-87.645245">
      </trkpt>
      <trkpt lat="41.847384" lon="-87.642429">
      </trkpt>
      <trkpt lat="41.845323" lon="-87.634652">
      </trkpt>
      <trkpt lat="41.84209" lon="-87.63091">
      </trkpt>
      <trkpt lat="41.779686" lon="-87.631207">
      </trkpt>
      <trkpt lat="41.772231" lon="-87.626113">
      </trkpt>
      <trkpt lat="41.72052" lon="-87.624621">
      </trkpt>
      <trkpt lat="41.71536" lon="-87.62925">
      </trkpt>
      <trkpt lat="41.712978" lon="-87.652269">
      </trkpt>
      <trkpt lat="41.700924" lon="-87.653382">
      </trkpt>
      <trkpt lat="41.695638" lon="-87.65921">
      </trkpt>
      <trkpt lat="41.684066" lon="-87.662318">
      </trkpt>
      <trkpt lat="41.677524" lon="-87.662461">
      </trkpt>
      <trkpt lat="41.676752" lon="-87.714872">
      </trkpt>
      <trkpt lat="41.680844" lon="-87.715055">
      </trkpt>
      <trkpt lat="41.680858" lon="-87.714366">
      </trkpt>
      <trkpt lat="41.680858" lon="-87.714366">
      </trkpt>
      <trkpt lat="41.680894" lon="-87.712596">
      </trkpt>
      <trkpt lat="41.676791" lon="-87.71243">
      </trkpt>
      <trkpt lat="41.677536" lon="-87.661368">
      </trkpt>
      <trkpt lat="41.67848" lon="-87.661398">
      </trkpt>
      <trkpt lat="41.688215" lon="-87.661551">
      </trkpt>
      <trkpt lat="41.695796" lon="-87.658693">
      </trkpt>
      <trkpt lat="41.700714" lon="-87.653084">
      </trkpt>
      <trkpt lat="41.712247" lon="-87.652438">
      </trkpt>
      <trkpt lat="41.714432" lon="-87.648322">
      </trkpt>
      <trkpt lat="41.714662" lon="-87.632642">
      </trkpt>
      <trkpt lat="41.715693" lon="-87.627057">
      </trkpt>
      <trkpt lat="41.719562" lon="-87.624177">
      </trkpt>
      <trkpt lat="41.769497" lon="-87.625651">
      </trkpt>
      <trkpt lat="41.779495" lon="-87.630747">
      </trkpt>
      <trkpt lat="41.838631" lon="-87.630667">
      </trkpt>
      <trkpt lat="41.844069" lon="-87.631001">
      </trkpt>
      <trkpt lat="41.846653" lon="-87.630081">
      </trkpt>
      <trkpt lat="41.847976" lon="-87.616851">
      </trkpt>
      <trkpt lat="41.84938" lon="-87.612168">
      </trkpt>
      <trkpt lat="41.8661" lon="-87.619244">
      </trkpt>
      <trkpt lat="41.89273" lon="-87.614003">
      </trkpt>
      <trkpt lat="41.900921" lon="-87.619441">
      </trkpt>
      <trkpt lat="41.902767" lon="-87.623983">
      </trkpt>
      <trkpt lat="41.924159" lon="-87.630534">
      </trkpt>
      <trkpt lat="41.926223" lon="-87.63067">
      </trkpt>
      <trkpt lat="41.92558" lon="-87.640463">
      </trkpt>
      <trkpt lat="41.929694" lon="-87.642943">
      </trkpt>
      <trkpt lat="41.929095" lon="-87.647955">
      </trkpt>
      <trkpt lat="41.929095" lon="-87.647955">
      </trkpt>
      <trkpt lat="41.929016" lon="-87.653741">
      </trkpt>
      <trkpt lat="41.936111" lon="-87.663682">
      </trkpt>
      <trkpt lat="41.938211" lon="-87.663758">
      </trkpt>
      <trkpt lat="41.938211" lon="-87.663758">
      </trkpt>
      <trkpt lat="41.937029" lon="-87.663716">
      </trkpt>
      <trkpt lat="41.93707" lon="-87.661261">
      </trkpt>
      <trkpt lat="41.936154" lon="-87.661245">
      </trkpt>
      <trkpt lat="41.936197" lon="-87.658837">
      </trkpt>
      <trkpt lat="41.935883" lon="-87.658824">
      </trkpt>
      <trkpt lat="41.935883" lon="-87.658824">
      </trkpt>
      <trkpt lat="41.932557" lon="-87.658713">
      </trkpt>
      <trkpt lat="41.921883" lon="-87.643784">
      </trkpt>
      <trkpt lat="41.912815" lon="-87.6435">
      </trkpt>
      <trkpt lat="41.912841" lon="-87.641129">
      </trkpt>
      <trkpt lat="41.911281" lon="-87.641023">
      </trkpt>
      <trkpt lat="41.911281" lon="-87.641023">
      </trkpt>
      <trkpt lat="41.911281" lon="-87.641023">
      </trkpt>
      <trkpt lat="41.911281" lon="-87.641023">
      </trkpt>
      <trkpt lat="41.911125" lon="-87.641018">
      </trkpt>
      <trkpt lat="41.910674" lon="-87.664445">
      </trkpt>
      <trkpt lat="41.917096" lon="-87.669227">
      </trkpt>
      <trkpt lat="41.918549" lon="-87.671196">
      </trkpt>
      <trkpt lat="41.922676" lon="-87.678438">
      </trkpt>
      <trkpt lat="41.924981" lon="-87.681912">
      </trkpt>
      <trkpt lat="41.928348" lon="-87.6877">
      </trkpt>
      <trkpt lat="41.928661" lon="-87.687706">
      </trkpt>
      <trkpt lat="41.928366" lon="-87.689255">
      </trkpt>
      <trkpt lat="41.92852" lon="-87.691432">
      </trkpt>
      <trkpt lat="41.926611" lon="-87.691379">
      </trkpt>
      <trkpt lat="41.926611" lon="-87.691379">
      </trkpt>
      <trkpt lat="41.924867" lon="-87.691319">
      </trkpt>
      <trkpt lat="41.924854" lon="-87.692841">
      </trkpt>
      <trkpt lat="41.920087" lon="-87.692741">
      </trkpt>
      <trkpt lat="41.920649" lon="-87.693662">
      </trkpt>
      <trkpt lat="41.921362" lon="-87.693678">
      </trkpt>
      <trkpt lat="41.921362" lon="-87.693678">
      </trkpt>
      <trkpt lat="41.922987" lon="-87.693714">
      </trkpt>
      <trkpt lat="41.922971" lon="-87.695564">
      </trkpt>
      <trkpt lat="41.921793" lon="-87.695534">
      </trkpt>
      <trkpt lat="41.910469" lon="-87.677494">
      </trkpt>
      <trkpt lat="41.903184" lon="-87.677276">
      </trkpt>
      <trkpt lat="41.903226" lon="-87.674833">
      </trkpt>
      <trkpt lat="41.902204" lon="-87.674795">
      </trkpt>
      <trkpt lat="41.902204" lon="-87.674795">
      </trkpt>
      <trkpt lat="41.901404" lon="-87.674763">
      </trkpt>
      <trkpt lat="41.901426" lon="-87.673548">
      </trkpt>
      <trkpt lat="41.903247" lon="-87.673606">
      </trkpt>
      <trkpt lat="41.903351" lon="-87.667439">
      </trkpt>
      <trkpt lat="41.917197" lon="-87.667771">
      </trkpt>
      <trkpt lat="41.92163" lon="-87.66862">
      </trkpt>
      <trkpt lat="41.942431" lon="-87.668676">
      </trkpt>
      <trkpt lat="41.942462" lon="-87.666314">
      </trkpt>
      <trkpt lat="41.944708" lon="-87.666378">
      </trkpt>
      <trkpt lat="41.944708" lon="-87.666378">
      </trkpt>
      <trkpt lat="41.945214" lon="-87.666391">
      </trkpt>
      <trkpt lat="41.945247" lon="-87.663953">
      </trkpt>
      <trkpt lat="41.936111" lon="-87.663682">
      </trkpt>
      <trkpt lat="41.925453" lon="-87.648766">
      </trkpt>
      <trkpt lat="41.91779" lon="-87.648511">
      </trkpt>
      <trkpt lat="41.91779" lon="-87.648511">
      </trkpt>
      <trkpt lat="41.921814" lon="-87.648652">
      </trkpt>
      <trkpt lat="41.921849" lon="-87.646223">
      </trkpt>
      <trkpt lat="41.92499" lon="-87.646319">
      </trkpt>
      <trkpt lat="41.92499" lon="-87.646319">
      </trkpt>
      <trkpt lat="41.925491" lon="-87.646336">
      </trkpt>
      <trkpt lat="41.925694" lon="-87.634154">
      </trkpt>
      <trkpt lat="41.926001" lon="-87.631853">
      </trkpt>
      <trkpt lat="41.923776" lon="-87.630603">
      </trkpt>
      <trkpt lat="41.917816" lon="-87.628851">
      </trkpt>
      <trkpt lat="41.912297" lon="-87.626142">
      </trkpt>
      <trkpt lat="41.909073" lon="-87.62586">
      </trkpt>
      <trkpt lat="41.904908" lon="-87.624861">
      </trkpt>
      <trkpt lat="41.901978" lon="-87.624179">
      </trkpt>
      <trkpt lat="41.895747" lon="-87.624376">
      </trkpt>
      <trkpt lat="41.895768" lon="-87.622402">
      </trkpt>
      <trkpt lat="41.895768" lon="-87.622402">
      </trkpt>
      <trkpt lat="41.895768" lon="-87.622402">
      </trkpt>
      <trkpt lat="41.895768" lon="-87.622402">
      </trkpt>
      <trkpt lat="41.895808" lon="-87.620354">
      </trkpt>
      <trkpt lat="41.896781" lon="-87.620387">
      </trkpt>
      <trkpt lat="41.89691" lon="-87.616735">
      </trkpt>
      <trkpt lat="41.901011" lon="-87.619536">
      </trkpt>
      <trkpt lat="41.902893" lon="-87.624048">
      </trkpt>
      <trkpt lat="41.928213" lon="-87.631799">
      </trkpt>
      <trkpt lat="41.934701" lon="-87.632273">
      </trkpt>
      <trkpt lat="41.941219" lon="-87.638833">
      </trkpt>
      <trkpt lat="41.950931" lon="-87.644376">
      </trkpt>
      <trkpt lat="41.973046" lon="-87.648738">
      </trkpt>
      <trkpt lat="41.984951" lon="-87.652803">
      </trkpt>
      <trkpt lat="41.985105" lon="-87.662456">
      </trkpt>
      <trkpt lat="41.992132" lon="-87.67531">
      </trkpt>
      <trkpt lat="42.015501" lon="-87.684163">
      </trkpt>
      <trkpt lat="42.034007" lon="-87.686761">
      </trkpt>
      <trkpt lat="42.033882" lon="-87.699305">
      </trkpt>
      <trkpt lat="42.037503" lon="-87.69924">
      </trkpt>
      <trkpt lat="42.037482" lon="-87.700193">
      </trkpt>
      <trkpt lat="42.037482" lon="-87.700193">
      </trkpt>
      <trkpt lat="42.037667" lon="-87.689891">
      </trkpt>
      <trkpt lat="42.039352" lon="-87.68986">
      </trkpt>
      <trkpt lat="42.039451" lon="-87.68995">
      </trkpt>
      <trkpt lat="42.039436" lon="-87.685947">
      </trkpt>
      <trkpt lat="42.040173" lon="-87.685958">
      </trkpt>
      <trkpt lat="42.040173" lon="-87.685958">
      </trkpt>
      <trkpt lat="42.04124" lon="-87.685973">
      </trkpt>
      <trkpt lat="42.040938" lon="-87.763691">
      </trkpt>
      <trkpt lat="42.041577" lon="-87.764624">
      </trkpt>
      <trkpt lat="42.042189" lon="-87.763223">
      </trkpt>
      <trkpt lat="42.03371" lon="-87.768504">
      </trkpt>
      <trkpt lat="42.026512" lon="-87.768822">
      </trkpt>
      <trkpt lat="42.021309" lon="-87.765749">
      </trkpt>
      <trkpt lat="42.013632" lon="-87.752686">
      </trkpt>
      <trkpt lat="42.009007" lon="-87.749252">
      </trkpt>
      <trkpt lat="42.001046" lon="-87.748976">
      </trkpt>
      <trkpt lat="41.987219" lon="-87.751521">
      </trkpt>
      <trkpt lat="41.980228" lon="-87.746835">
      </trkpt>
      <trkpt lat="41.966563" lon="-87.747223">
      </trkpt>
      <trkpt lat="41.962358" lon="-87.745232">
      </trkpt>
      <trkpt lat="41.947613" lon="-87.719592">
      </trkpt>
      <trkpt lat="41.94215" lon="-87.715306">
      </trkpt>
      <trkpt lat="41.940372" lon="-87.709927">
      </trkpt>
      <trkpt lat="41.917654" lon="-87.670146">
      </trkpt>
      <trkpt lat="41.906646" lon="-87.66137">
      </trkpt>
      <trkpt lat="41.897394" lon="-87.659066">
      </trkpt>
      <trkpt lat="41.892534" lon="-87.653065">
      </trkpt>
      <trkpt lat="41.892368" lon="-87.63704">
      </trkpt>
      <trkpt lat="41.896556" lon="-87.637178">
      </trkpt>
      <trkpt lat="41.896586" lon="-87.63421">
      </trkpt>
      <trkpt lat="41.898867" lon="-87.634293">
      </trkpt>
      <trkpt lat="41.898867" lon="-87.634293">
      </trkpt>
      <trkpt lat="41.903857" lon="-87.634474">
      </trkpt>
      <trkpt lat="41.903783" lon="-87.638347">
      </trkpt>
      <trkpt lat="41.911164" lon="-87.638583">
      </trkpt>
      <trkpt lat="41.911125" lon="-87.641018">
      </trkpt>
      <trkpt lat="41.911281" lon="-87.641023">
      </trkpt>
      <trkpt lat="41.911281" lon="-87.641023">
      </trkpt>
      <trkpt lat="41.911125" lon="-87.641018">
      </trkpt>
      <trkpt lat="41.910674" lon="-87.664445">
      </trkpt>
      <trkpt lat="41.91815" lon="-87.670574">
      </trkpt>
      <trkpt lat="41.940439" lon="-87.709664">
      </trkpt>
      <trkpt lat="41.942208" lon="-87.714861">
      </trkpt>
      <trkpt lat="41.947985" lon="-87.719618">
      </trkpt>
      <trkpt lat="41.958569" lon="-87.738838">
      </trkpt>
      <trkpt lat="41.960451" lon="-87.741371">
      </trkpt>
      <trkpt lat="41.960061" lon="-87.794287">
      </trkpt>
      <trkpt lat="41.946631" lon="-87.822074">
      </trkpt>
      <trkpt lat="41.937842" lon="-87.821404">
      </trkpt>
      <trkpt lat="41.937866" lon="-87.820185">
      </trkpt>
      <trkpt lat="41.936076" lon="-87.820102">
      </trkpt>
      <trkpt lat="41.936062" lon="-87.820727">
      </trkpt>
      <trkpt lat="41.934634" lon="-87.82067">
      </trkpt>
      <trkpt lat="41.934634" lon="-87.82067">
      </trkpt>
      <trkpt lat="41.93424" lon="-87.820654">
      </trkpt>
      <trkpt lat="41.934229" lon="-87.821275">
      </trkpt>
      <trkpt lat="41.937842" lon="-87.821404">
      </trkpt>
      <trkpt lat="41.93728" lon="-87.850333">
      </trkpt>
      <trkpt lat="41.953491" lon="-87.856531">
      </trkpt>
      <trkpt lat="41.956419" lon="-87.877683">
      </trkpt>
      <trkpt lat="41.978438" lon="-87.869432">
      </trkpt>
      <trkpt lat="41.980974" lon="-87.868435">
      </trkpt>
      <trkpt lat="41.985041" lon="-87.867087">
      </trkpt>
      <trkpt lat="41.996518" lon="-87.875224">
      </trkpt>
      <trkpt lat="42.250248" lon="-88.962426">
      </trkpt>
      <trkpt lat="42.800369" lon="-89.00473">
      </trkpt>
      <trkpt lat="42.799124" lon="-89.005142">
      </trkpt>
      <trkpt lat="42.250536" lon="-88.963349">
      </trkpt>
      <trkpt lat="42.1691" lon="-88.593791">
      </trkpt>
      <trkpt lat="41.988327" lon="-87.864082">
      </trkpt>
      <trkpt lat="41.93423" lon="-87.699724">
      </trkpt>
      <trkpt lat="41.932688" lon="-87.697687">
      </trkpt>
      <trkpt lat="41.910223" lon="-87.697029">
      </trkpt>
      <trkpt lat="41.910165" lon="-87.701875">
      </trkpt>
      <trkpt lat="41.902886" lon="-87.702278">
      </trkpt>
      <trkpt lat="41.902888" lon="-87.701605">
      </trkpt>
      <trkpt lat="41.902888" lon="-87.701605">
      </trkpt>
      <trkpt lat="41.902888" lon="-87.701605">
      </trkpt>
      <trkpt lat="41.902888" lon="-87.701605">
      </trkpt>
      <trkpt lat="41.903643" lon="-87.648086">
      </trkpt>
      <trkpt lat="41.905038" lon="-87.648124">
      </trkpt>
      <trkpt lat="41.905042" lon="-87.649202">
      </trkpt>
      <trkpt lat="41.905133" lon="-87.649323">
      </trkpt>
      <trkpt lat="41.905133" lon="-87.649323">
      </trkpt>
      <trkpt lat="41.905042" lon="-87.649202">
      </trkpt>
      <trkpt lat="41.905038" lon="-87.648124">
      </trkpt>
      <trkpt lat="41.903643" lon="-87.648086">
      </trkpt>
      <trkpt lat="41.903664" lon="-87.646585">
      </trkpt>
      <trkpt lat="41.900232" lon="-87.643793">
      </trkpt>
      <trkpt lat="41.90041" lon="-87.643303">
      </trkpt>
      <trkpt lat="41.90053" lon="-87.63435">
      </trkpt>
      <trkpt lat="41.898205" lon="-87.634269">
      </trkpt>
      <trkpt lat="41.898197" lon="-87.634817">
      </trkpt>
      <trkpt lat="41.898197" lon="-87.634817">
      </trkpt>
      <trkpt lat="41.898205" lon="-87.634269">
      </trkpt>
      <trkpt lat="41.891576" lon="-87.634054">
      </trkpt>
      <trkpt lat="41.891225" lon="-87.644384">
      </trkpt>
      <trkpt lat="41.885699" lon="-87.644242">
      </trkpt>
      <trkpt lat="41.885686" lon="-87.645903">
      </trkpt>
      <trkpt lat="41.851399" lon="-87.645288">
      </trkpt>
      <trkpt lat="41.847384" lon="-87.642429">
      </trkpt>
      <trkpt lat="41.845323" lon="-87.634652">
      </trkpt>
      <trkpt lat="41.842516" lon="-87.631557">
      </trkpt>
      <trkpt lat="41.819121" lon="-87.630789">
      </trkpt>
      <trkpt lat="41.816682" lon="-87.631192">
      </trkpt>
      <trkpt lat="41.816426" lon="-87.631192">
      </trkpt>
      <trkpt lat="41.816544" lon="-87.623022">
      </trkpt>
      <trkpt lat="41.815421" lon="-87.623001">
      </trkpt>
      <trkpt lat="41.815421" lon="-87.623001">
      </trkpt>
      <trkpt lat="41.814738" lon="-87.622988">
      </trkpt>
      <trkpt lat="41.814689" lon="-87.626222">
      </trkpt>
      <trkpt lat="41.816493" lon="-87.626265">
      </trkpt>
      <trkpt lat="41.816426" lon="-87.631192">
      </trkpt>
      <trkpt lat="41.816105" lon="-87.631174">
      </trkpt>
      <trkpt lat="41.807984" lon="-87.632226">
      </trkpt>
      <trkpt lat="41.779333" lon="-87.631154">
      </trkpt>
      <trkpt lat="41.772231" lon="-87.626113">
      </trkpt>
      <trkpt lat="41.72052" lon="-87.624621">
      </trkpt>
      <trkpt lat="41.716318" lon="-87.624396">
      </trkpt>
      <trkpt lat="41.713653" lon="-87.621065">
      </trkpt>
      <trkpt lat="41.713191" lon="-87.600337">
      </trkpt>
      <trkpt lat="41.711572" lon="-87.595871">
      </trkpt>
      <trkpt lat="41.708673" lon="-87.592948">
      </trkpt>
      <trkpt lat="41.703483" lon="-87.592406">
      </trkpt>
      <trkpt lat="41.685512" lon="-87.601798">
      </trkpt>
      <trkpt lat="41.676933" lon="-87.601728">
      </trkpt>
      <trkpt lat="41.67318" lon="-87.600256">
      </trkpt>
      <trkpt lat="41.660202" lon="-87.589096">
      </trkpt>
      <trkpt lat="41.659004" lon="-87.589407">
      </trkpt>
      <trkpt lat="41.659512" lon="-87.59119">
      </trkpt>
      <trkpt lat="41.660368" lon="-87.5874">
      </trkpt>
      <trkpt lat="41.659223" lon="-87.581596">
      </trkpt>
      <trkpt lat="41.658851" lon="-87.560717">
      </trkpt>
      <trkpt lat="41.656176" lon="-87.555878">
      </trkpt>
      <trkpt lat="41.65737" lon="-87.555649">
      </trkpt>
      <trkpt lat="41.65736" lon="-87.553811">
      </trkpt>
      <trkpt lat="41.656889" lon="-87.553812">
      </trkpt>
      <trkpt lat="41.656889" lon="-87.553812">
      </trkpt>
      <trkpt lat="41.65736" lon="-87.553811">
      </trkpt>
      <trkpt lat="41.657281" lon="-87.557102">
      </trkpt>
      <trkpt lat="41.660149" lon="-87.585314">
      </trkpt>
      <trkpt lat="41.662478" lon="-87.590822">
      </trkpt>
      <trkpt lat="41.675885" lon="-87.601403">
      </trkpt>
      <trkpt lat="41.685726" lon="-87.601563">
      </trkpt>
      <trkpt lat="41.69908" lon="-87.594329">
      </trkpt>
      <trkpt lat="41.705863" lon="-87.591535">
      </trkpt>
      <trkpt lat="41.711823" lon="-87.595707">
      </trkpt>
      <trkpt lat="41.713575" lon="-87.618809">
      </trkpt>
      <trkpt lat="41.717096" lon="-87.62372">
      </trkpt>
      <trkpt lat="41.769497" lon="-87.625651">
      </trkpt>
      <trkpt lat="41.779495" lon="-87.630747">
      </trkpt>
      <trkpt lat="41.838631" lon="-87.630667">
      </trkpt>
      <trkpt lat="41.844225" lon="-87.63193">
      </trkpt>
      <trkpt lat="41.847354" lon="-87.642036">
      </trkpt>
      <trkpt lat="41.850632" lon="-87.644778">
      </trkpt>
      <trkpt lat="41.867845" lon="-87.644517">
      </trkpt>
      <trkpt lat="41.873521" lon="-87.644628">
      </trkpt>
      <trkpt lat="41.875863" lon="-87.649223">
      </trkpt>
      <trkpt lat="41.87589" lon="-87.651853">
      </trkpt>
      <trkpt lat="41.87787" lon="-87.651907">
      </trkpt>
      <trkpt lat="41.877909" lon="-87.64957">
      </trkpt>
      <trkpt lat="41.878315" lon="-87.649583">
      </trkpt>
      <trkpt lat="41.878307" lon="-87.649942">
      </trkpt>
      <trkpt lat="41.878307" lon="-87.649942">
      </trkpt>
      <trkpt lat="41.878315" lon="-87.649583">
      </trkpt>
      <trkpt lat="41.884284" lon="-87.649775">
      </trkpt>
      <trkpt lat="41.884306" lon="-87.648603">
      </trkpt>
      <trkpt lat="41.885876" lon="-87.648651">
      </trkpt>
      <trkpt lat="41.885876" lon="-87.648651">
      </trkpt>
      <trkpt lat="41.890082" lon="-87.64876">
      </trkpt>
      <trkpt lat="41.890088" lon="-87.647611">
      </trkpt>
      <trkpt lat="41.905038" lon="-87.648124">
      </trkpt>
      <trkpt lat="41.905042" lon="-87.649202">
      </trkpt>
      <trkpt lat="41.915829" lon="-87.65826">
      </trkpt>
      <trkpt lat="41.916182" lon="-87.65779">
      </trkpt>
      <trkpt lat="41.917121" lon="-87.659108">
      </trkpt>
      <trkpt lat="41.917114" lon="-87.66003">
      </trkpt>
      <trkpt lat="41.919363" lon="-87.663134">
      </trkpt>
      <trkpt lat="41.943419" lon="-87.663907">
      </trkpt>
      <trkpt lat="41.943396" lon="-87.665475">
      </trkpt>
      <trkpt lat="41.943396" lon="-87.665475">
      </trkpt>
      <trkpt lat="41.943346" lon="-87.668829">
      </trkpt>
      <trkpt lat="41.9324" lon="-87.668452">
      </trkpt>
      <trkpt lat="41.932278" lon="-87.678134">
      </trkpt>
      <trkpt lat="41.925026" lon="-87.677893">
      </trkpt>
      <trkpt lat="41.924981" lon="-87.681912">
      </trkpt>
      <trkpt lat="41.926707" lon="-87.685177">
      </trkpt>
      <trkpt lat="41.960998" lon="-87.742619">
      </trkpt>
      <trkpt lat="41.996518" lon="-87.875224">
      </trkpt>
      <trkpt lat="42.250248" lon="-88.962426">
      </trkpt>
      <trkpt lat="42.800369" lon="-89.00473">
      </trkpt>
    </trkseg>
  </trk>
</gpx>