<?xml version="1.0" encoding="UTF-8"?>
<gpx xmlns="http://www.topografix.com/GPX/1/1" xmlns:xsi="http://www.w3.org/2001/XMLSchema-instance" xsi:schemaLocation="http://www.topografix.com/GPX/1/1 http://www.topografix.com/GPX/1/1/gpx.xsd" version="1.1" creator="gpx.py -- https://github.com/tkrajina/gpxpy">
  <trk>
    <trkseg>
      <trkpt lat="41.993781" lon="-87.703168">
      </trkpt>
      <trkpt lat="41.990427" lon="-87.703049">
      </trkpt>
      <trkpt lat="41.990371" lon="-87.711022">
      </trkpt>
      <trkpt lat="41.983076" lon="-87.708877">
      </trkpt>
      <trkpt lat="41.968457" lon="-87.708478">
      </trkpt>
      <trkpt lat="41.968394" lon="-87.714891">
      </trkpt>
      <trkpt lat="41.968394" lon="-87.714891">
      </trkpt>
      <trkpt lat="41.968753" lon="-87.679185">
      </trkpt>
      <trkpt lat="41.975076" lon="-87.679366">
      </trkpt>
      <trkpt lat="41.975076" lon="-87.679366">
      </trkpt>
      <trkpt lat="41.976029" lon="-87.679392">
      </trkpt>
      <trkpt lat="41.976453" lon="-87.651813">
      </trkpt>
      <trkpt lat="41.972134" lon="-87.648822">
      </trkpt>
      <trkpt lat="41.950978" lon="-87.644611">
      </trkpt>
      <trkpt lat="41.941067" lon="-87.638957">
      </trkpt>
      <trkpt lat="41.934639" lon="-87.632453">
      </trkpt>
      <trkpt lat="41.928427" lon="-87.632048">
      </trkpt>
      <trkpt lat="41.902733" lon="-87.62421">
      </trkpt>
      <trkpt lat="41.900898" lon="-87.619617">
      </trkpt>
      <trkpt lat="41.892868" lon="-87.614264">
      </trkpt>
      <trkpt lat="41.884928" lon="-87.614127">
      </trkpt>
      <trkpt lat="41.881821" lon="-87.617453">
      </trkpt>
      <trkpt lat="41.869765" lon="-87.617261">
      </trkpt>
      <trkpt lat="41.866068" lon="-87.619589">
      </trkpt>
      <trkpt lat="41.841157" lon="-87.609757">
      </trkpt>
      <trkpt lat="41.839163" lon="-87.609375">
      </trkpt>
      <trkpt lat="41.854301" lon="-87.615619">
      </trkpt>
      <trkpt lat="41.855615" lon="-87.616027">
      </trkpt>
      <trkpt lat="41.855561" lon="-87.616271">
      </trkpt>
      <trkpt lat="41.854397" lon="-87.615604">
      </trkpt>
      <trkpt lat="41.854329" lon="-87.615902">
      </trkpt>
      <trkpt lat="41.854329" lon="-87.615902">
      </trkpt>
      <trkpt lat="41.854329" lon="-87.615902">
      </trkpt>
      <trkpt lat="41.854329" lon="-87.615902">
      </trkpt>
      <trkpt lat="41.854397" lon="-87.615604">
      </trkpt>
      <trkpt lat="41.855561" lon="-87.616271">
      </trkpt>
      <trkpt lat="41.855615" lon="-87.616027">
      </trkpt>
      <trkpt lat="41.854301" lon="-87.615619">
      </trkpt>
      <trkpt lat="41.85521" lon="-87.615992">
      </trkpt>
      <trkpt lat="41.854986" lon="-87.616959">
      </trkpt>
      <trkpt lat="41.85573" lon="-87.616876">
      </trkpt>
      <trkpt lat="41.856402" lon="-87.616543">
      </trkpt>
      <trkpt lat="41.857757" lon="-87.617503">
      </trkpt>
      <trkpt lat="41.857849" lon="-87.61714">
      </trkpt>
      <trkpt lat="41.853242" lon="-87.614728">
      </trkpt>
      <trkpt lat="41.849799" lon="-87.613506">
      </trkpt>
      <trkpt lat="41.849027" lon="-87.613796">
      </trkpt>
      <trkpt lat="41.848403" lon="-87.614678">
      </trkpt>
      <trkpt lat="41.848065" lon="-87.623817">
      </trkpt>
      <trkpt lat="41.84709" lon="-87.628154">
      </trkpt>
      <trkpt lat="41.847424" lon="-87.630973">
      </trkpt>
      <trkpt lat="41.847955" lon="-87.634449">
      </trkpt>
      <trkpt lat="41.84749" lon="-87.636524">
      </trkpt>
      <trkpt lat="41.847736" lon="-87.641219">
      </trkpt>
      <trkpt lat="41.848618" lon="-87.64329">
      </trkpt>
      <trkpt lat="41.850742" lon="-87.644555">
      </trkpt>
      <trkpt lat="41.854173" lon="-87.644616">
      </trkpt>
      <trkpt lat="41.857362" lon="-87.644156">
      </trkpt>
      <trkpt lat="41.867845" lon="-87.644517">
      </trkpt>
      <trkpt lat="41.873521" lon="-87.644628">
      </trkpt>
      <trkpt lat="41.874907" lon="-87.644827">
      </trkpt>
      <trkpt lat="41.875725" lon="-87.645646">
      </trkpt>
      <trkpt lat="41.875961" lon="-87.646533">
      </trkpt>
      <trkpt lat="41.875863" lon="-87.649223">
      </trkpt>
      <trkpt lat="41.875763" lon="-87.652598">
      </trkpt>
      <trkpt lat="41.876197" lon="-87.657603">
      </trkpt>
      <trkpt lat="41.875763" lon="-87.688313">
      </trkpt>
      <trkpt lat="41.875862" lon="-87.692409">
      </trkpt>
      <trkpt lat="41.875983" lon="-87.696151">
      </trkpt>
      <trkpt lat="41.886538" lon="-87.696444">
      </trkpt>
      <trkpt lat="41.886566" lon="-87.693163">
      </trkpt>
      <trkpt lat="41.88732" lon="-87.692874">
      </trkpt>
      <trkpt lat="41.88732" lon="-87.692874">
      </trkpt>
      <trkpt lat="41.88657" lon="-87.692734">
      </trkpt>
      <trkpt lat="41.886623" lon="-87.686589">
      </trkpt>
      <trkpt lat="41.932179" lon="-87.687832">
      </trkpt>
      <trkpt lat="41.939039" lon="-87.69781">
      </trkpt>
      <trkpt lat="41.956867" lon="-87.698335">
      </trkpt>
      <trkpt lat="41.956867" lon="-87.698335">
      </trkpt>
      <trkpt lat="41.932108" lon="-87.697602">
      </trkpt>
      <trkpt lat="41.932116" lon="-87.696547">
      </trkpt>
      <trkpt lat="41.916444" lon="-87.669025">
      </trkpt>
      <trkpt lat="41.906635" lon="-87.661559">
      </trkpt>
      <trkpt lat="41.896968" lon="-87.659049">
      </trkpt>
      <trkpt lat="41.888343" lon="-87.647531">
      </trkpt>
      <trkpt lat="41.881827" lon="-87.645999">
      </trkpt>
      <trkpt lat="41.880956" lon="-87.646134">
      </trkpt>
      <trkpt lat="41.879569" lon="-87.646145">
      </trkpt>
      <trkpt lat="41.878121" lon="-87.646166">
      </trkpt>
      <trkpt lat="41.876334" lon="-87.646815">
      </trkpt>
      <trkpt lat="41.875728" lon="-87.649135">
      </trkpt>
      <trkpt lat="41.875658" lon="-87.697235">
      </trkpt>
      <trkpt lat="41.874195" lon="-87.716326">
      </trkpt>
      <trkpt lat="41.874448" lon="-87.720405">
      </trkpt>
      <trkpt lat="41.868047" lon="-87.720159">
      </trkpt>
      <trkpt lat="41.868063" lon="-87.718768">
      </trkpt>
      <trkpt lat="41.868063" lon="-87.718768">
      </trkpt>
      <trkpt lat="41.868055" lon="-87.719619">
      </trkpt>
      <trkpt lat="41.873518" lon="-87.719779">
      </trkpt>
      <trkpt lat="41.873525" lon="-87.719121">
      </trkpt>
      <trkpt lat="41.875189" lon="-87.697594">
      </trkpt>
      <trkpt lat="41.875329" lon="-87.650308">
      </trkpt>
      <trkpt lat="41.874563" lon="-87.645452">
      </trkpt>
      <trkpt lat="41.876036" lon="-87.64458">
      </trkpt>
      <trkpt lat="41.886419" lon="-87.646101">
      </trkpt>
      <trkpt lat="41.891702" lon="-87.651689">
      </trkpt>
      <trkpt lat="41.896836" lon="-87.65868">
      </trkpt>
      <trkpt lat="41.906646" lon="-87.66137">
      </trkpt>
      <trkpt lat="41.917654" lon="-87.670146">
      </trkpt>
      <trkpt lat="41.940372" lon="-87.709927">
      </trkpt>
      <trkpt lat="41.94215" lon="-87.715306">
      </trkpt>
      <trkpt lat="41.947613" lon="-87.719592">
      </trkpt>
      <trkpt lat="41.95982" lon="-87.741635">
      </trkpt>
      <trkpt lat="41.963594" lon="-87.746287">
      </trkpt>
      <trkpt lat="41.980044" lon="-87.746614">
      </trkpt>
      <trkpt lat="41.987222" lon="-87.751348">
      </trkpt>
      <trkpt lat="41.989907" lon="-87.75017">
      </trkpt>
      <trkpt lat="41.990432" lon="-87.701839">
      </trkpt>
      <trkpt lat="41.993954" lon="-87.701956">
      </trkpt>
      <trkpt lat="41.993968" lon="-87.700743">
      </trkpt>
      <trkpt lat="41.993673" lon="-87.700733">
      </trkpt>
      <trkpt lat="41.993673" lon="-87.700733">
      </trkpt>
      <trkpt lat="41.990441" lon="-87.700623">
      </trkpt>
      <trkpt lat="41.99044" lon="-87.689669">
      </trkpt>
      <trkpt lat="41.990703" lon="-87.675256">
      </trkpt>
      <trkpt lat="41.994982" lon="-87.675425">
      </trkpt>
      <trkpt lat="42.004103" lon="-87.679672">
      </trkpt>
      <trkpt lat="42.004091" lon="-87.680339">
      </trkpt>
      <trkpt lat="42.004141" lon="-87.68034">
      </trkpt>
      <trkpt lat="42.004141" lon="-87.68034">
      </trkpt>
      <trkpt lat="42.004091" lon="-87.680339">
      </trkpt>
      <trkpt lat="42.004103" lon="-87.679672">
      </trkpt>
      <trkpt lat="42.005209" lon="-87.680175">
      </trkpt>
      <trkpt lat="42.00518" lon="-87.68169">
      </trkpt>
      <trkpt lat="42.006411" lon="-87.682235">
      </trkpt>
      <trkpt lat="42.006428" lon="-87.681335">
      </trkpt>
      <trkpt lat="42.006428" lon="-87.681335">
      </trkpt>
      <trkpt lat="42.00644" lon="-87.680726">
      </trkpt>
      <trkpt lat="41.992132" lon="-87.67531">
      </trkpt>
      <trkpt lat="41.985105" lon="-87.662456">
      </trkpt>
      <trkpt lat="41.984999" lon="-87.653157">
      </trkpt>
      <trkpt lat="41.972134" lon="-87.648822">
      </trkpt>
      <trkpt lat="41.951193" lon="-87.64469">
      </trkpt>
      <trkpt lat="41.941067" lon="-87.638957">
      </trkpt>
      <trkpt lat="41.93482" lon="-87.632527">
      </trkpt>
      <trkpt lat="41.928427" lon="-87.632048">
      </trkpt>
      <trkpt lat="41.915117" lon="-87.627538">
      </trkpt>
      <trkpt lat="41.913042" lon="-87.627206">
      </trkpt>
      <trkpt lat="41.912907" lon="-87.633196">
      </trkpt>
      <trkpt lat="41.89661" lon="-87.632793">
      </trkpt>
      <trkpt lat="41.896146" lon="-87.662395">
      </trkpt>
      <trkpt lat="41.894339" lon="-87.662352">
      </trkpt>
      <trkpt lat="41.894312" lon="-87.663988">
      </trkpt>
      <trkpt lat="41.895209" lon="-87.664011">
      </trkpt>
      <trkpt lat="41.895231" lon="-87.662558">
      </trkpt>
      <trkpt lat="41.895231" lon="-87.662558">
      </trkpt>
      <trkpt lat="41.895233" lon="-87.662372">
      </trkpt>
      <trkpt lat="41.899796" lon="-87.66251">
      </trkpt>
      <trkpt lat="41.899842" lon="-87.660982">
      </trkpt>
      <trkpt lat="41.899711" lon="-87.660843">
      </trkpt>
      <trkpt lat="41.895493" lon="-87.657719">
      </trkpt>
      <trkpt lat="41.889352" lon="-87.648602">
      </trkpt>
      <trkpt lat="41.886973" lon="-87.646614">
      </trkpt>
      <trkpt lat="41.864445" lon="-87.64461">
      </trkpt>
      <trkpt lat="41.857055" lon="-87.644357">
      </trkpt>
      <trkpt lat="41.851247" lon="-87.645245">
      </trkpt>
      <trkpt lat="41.847384" lon="-87.642429">
      </trkpt>
      <trkpt lat="41.845323" lon="-87.634652">
      </trkpt>
      <trkpt lat="41.843952" lon="-87.632305">
      </trkpt>
      <trkpt lat="41.841797" lon="-87.631511">
      </trkpt>
      <trkpt lat="41.834597" lon="-87.631593">
      </trkpt>
      <trkpt lat="41.834642" lon="-87.628886">
      </trkpt>
      <trkpt lat="41.833673" lon="-87.628847">
      </trkpt>
      <trkpt lat="41.833673" lon="-87.628847">
      </trkpt>
      <trkpt lat="41.834642" lon="-87.628886">
      </trkpt>
      <trkpt lat="41.834623" lon="-87.629907">
      </trkpt>
      <trkpt lat="41.841613" lon="-87.6301">
      </trkpt>
      <trkpt lat="41.844491" lon="-87.631814">
      </trkpt>
      <trkpt lat="41.847354" lon="-87.642036">
      </trkpt>
      <trkpt lat="41.850632" lon="-87.644778">
      </trkpt>
      <trkpt lat="41.865222" lon="-87.644396">
      </trkpt>
      <trkpt lat="41.885816" lon="-87.645875">
      </trkpt>
      <trkpt lat="41.8891" lon="-87.648003">
      </trkpt>
      <trkpt lat="41.897003" lon="-87.6586">
      </trkpt>
      <trkpt lat="41.901753" lon="-87.660805">
      </trkpt>
      <trkpt lat="41.906186" lon="-87.660967">
      </trkpt>
      <trkpt lat="41.907951" lon="-87.662226">
      </trkpt>
      <trkpt lat="41.910674" lon="-87.664445">
      </trkpt>
      <trkpt lat="41.910672" lon="-87.665662">
      </trkpt>
      <trkpt lat="41.910236" lon="-87.665325">
      </trkpt>
      <trkpt lat="41.90885" lon="-87.665207">
      </trkpt>
      <trkpt lat="41.908834" lon="-87.666429">
      </trkpt>
      <trkpt lat="41.909028" lon="-87.666435">
      </trkpt>
      <trkpt lat="41.909028" lon="-87.666435">
      </trkpt>
      <trkpt lat="41.910658" lon="-87.666509">
      </trkpt>
      <trkpt lat="41.910633" lon="-87.66776">
      </trkpt>
      <trkpt lat="41.903349" lon="-87.667572">
      </trkpt>
      <trkpt lat="41.903268" lon="-87.67239">
      </trkpt>
      <trkpt lat="41.903498" lon="-87.672395">
      </trkpt>
      <trkpt lat="41.903498" lon="-87.672395">
      </trkpt>
      <trkpt lat="41.903268" lon="-87.67239">
      </trkpt>
      <trkpt lat="41.903184" lon="-87.677276">
      </trkpt>
      <trkpt lat="41.895912" lon="-87.677057">
      </trkpt>
      <trkpt lat="41.89575" lon="-87.686835">
      </trkpt>
      <trkpt lat="41.881166" lon="-87.686432">
      </trkpt>
      <trkpt lat="41.881077" lon="-87.696286">
      </trkpt>
      <trkpt lat="41.880169" lon="-87.696261">
      </trkpt>
      <trkpt lat="41.880173" lon="-87.695733">
      </trkpt>
      <trkpt lat="41.880173" lon="-87.695733">
      </trkpt>
      <trkpt lat="41.880169" lon="-87.696261">
      </trkpt>
      <trkpt lat="41.884255" lon="-87.69636">
      </trkpt>
      <trkpt lat="41.88533" lon="-87.66685">
      </trkpt>
      <trkpt lat="41.910635" lon="-87.667641">
      </trkpt>
      <trkpt lat="41.910646" lon="-87.667084">
      </trkpt>
      <trkpt lat="41.910411" lon="-87.667076">
      </trkpt>
      <trkpt lat="41.910411" lon="-87.667076">
      </trkpt>
      <trkpt lat="41.910646" lon="-87.667084">
      </trkpt>
      <trkpt lat="41.910633" lon="-87.66776">
      </trkpt>
      <trkpt lat="41.886928" lon="-87.667087">
      </trkpt>
      <trkpt lat="41.886827" lon="-87.673532">
      </trkpt>
      <trkpt lat="41.886827" lon="-87.673532">
      </trkpt>
      <trkpt lat="41.886776" lon="-87.676791">
      </trkpt>
      <trkpt lat="41.903184" lon="-87.677276">
      </trkpt>
      <trkpt lat="41.903226" lon="-87.674833">
      </trkpt>
      <trkpt lat="41.902204" lon="-87.674795">
      </trkpt>
      <trkpt lat="41.902204" lon="-87.674795">
      </trkpt>
      <trkpt lat="41.899586" lon="-87.674717">
      </trkpt>
      <trkpt lat="41.899842" lon="-87.660982">
      </trkpt>
      <trkpt lat="41.899711" lon="-87.660843">
      </trkpt>
      <trkpt lat="41.896667" lon="-87.658834">
      </trkpt>
      <trkpt lat="41.895018" lon="-87.657114">
      </trkpt>
      <trkpt lat="41.89377" lon="-87.655657">
      </trkpt>
      <trkpt lat="41.89226" lon="-87.654831">
      </trkpt>
      <trkpt lat="41.891931" lon="-87.653963">
      </trkpt>
      <trkpt lat="41.892554" lon="-87.651034">
      </trkpt>
      <trkpt lat="41.892541" lon="-87.624121">
      </trkpt>
      <trkpt lat="41.899218" lon="-87.62406">
      </trkpt>
      <trkpt lat="41.89923" lon="-87.623008">
      </trkpt>
      <trkpt lat="41.89923" lon="-87.623008">
      </trkpt>
      <trkpt lat="41.899246" lon="-87.621885">
      </trkpt>
      <trkpt lat="41.900045" lon="-87.621902">
      </trkpt>
      <trkpt lat="41.900012" lon="-87.624245">
      </trkpt>
      <trkpt lat="41.897917" lon="-87.624198">
      </trkpt>
      <trkpt lat="41.896443" lon="-87.624388">
      </trkpt>
      <trkpt lat="41.890945" lon="-87.624246">
      </trkpt>
      <trkpt lat="41.890981" lon="-87.621986">
      </trkpt>
      <trkpt lat="41.890848" lon="-87.621861">
      </trkpt>
      <trkpt lat="41.890945" lon="-87.62164">
      </trkpt>
      <trkpt lat="41.891098" lon="-87.621785">
      </trkpt>
      <trkpt lat="41.890981" lon="-87.621986">
      </trkpt>
      <trkpt lat="41.890948" lon="-87.624074">
      </trkpt>
      <trkpt lat="41.891505" lon="-87.624094">
      </trkpt>
      <trkpt lat="41.891505" lon="-87.624094">
      </trkpt>
      <trkpt lat="41.892541" lon="-87.624121">
      </trkpt>
      <trkpt lat="41.892588" lon="-87.620263">
      </trkpt>
      <trkpt lat="41.887855" lon="-87.620762">
      </trkpt>
      <trkpt lat="41.887462" lon="-87.615811">
      </trkpt>
      <trkpt lat="41.887175" lon="-87.614014">
      </trkpt>
      <trkpt lat="41.885118" lon="-87.61394">
      </trkpt>
      <trkpt lat="41.884041" lon="-87.614645">
      </trkpt>
      <trkpt lat="41.882873" lon="-87.616685">
      </trkpt>
      <trkpt lat="41.881821" lon="-87.617453">
      </trkpt>
      <trkpt lat="41.869895" lon="-87.617247">
      </trkpt>
      <trkpt lat="41.869058" lon="-87.617557">
      </trkpt>
      <trkpt lat="41.86764" lon="-87.618862">
      </trkpt>
      <trkpt lat="41.867466" lon="-87.627505">
      </trkpt>
      <trkpt lat="41.860173" lon="-87.627357">
      </trkpt>
      <trkpt lat="41.860127" lon="-87.630281">
      </trkpt>
      <trkpt lat="41.867992" lon="-87.630401">
      </trkpt>
      <trkpt lat="41.867992" lon="-87.630401">
      </trkpt>
      <trkpt lat="41.872252" lon="-87.63061">
      </trkpt>
      <trkpt lat="41.872301" lon="-87.627486">
      </trkpt>
      <trkpt lat="41.873099" lon="-87.627503">
      </trkpt>
      <trkpt lat="41.873248" lon="-87.617318">
      </trkpt>
      <trkpt lat="41.8695" lon="-87.617333">
      </trkpt>
      <trkpt lat="41.86721" lon="-87.619235">
      </trkpt>
      <trkpt lat="41.866208" lon="-87.619588">
      </trkpt>
      <trkpt lat="41.863883" lon="-87.619138">
      </trkpt>
      <trkpt lat="41.860907" lon="-87.618099">
      </trkpt>
      <trkpt lat="41.857849" lon="-87.61714">
      </trkpt>
      <trkpt lat="41.857825" lon="-87.617238">
      </trkpt>
      <trkpt lat="41.856365" lon="-87.616421">
      </trkpt>
      <trkpt lat="41.854301" lon="-87.615619">
      </trkpt>
      <trkpt lat="41.855615" lon="-87.616027">
      </trkpt>
      <trkpt lat="41.855561" lon="-87.616271">
      </trkpt>
      <trkpt lat="41.854397" lon="-87.615604">
      </trkpt>
      <trkpt lat="41.854329" lon="-87.615902">
      </trkpt>
      <trkpt lat="41.854329" lon="-87.615902">
      </trkpt>
      <trkpt lat="41.854397" lon="-87.615604">
      </trkpt>
      <trkpt lat="41.855561" lon="-87.616271">
      </trkpt>
      <trkpt lat="41.855615" lon="-87.616027">
      </trkpt>
      <trkpt lat="41.854301" lon="-87.615619">
      </trkpt>
      <trkpt lat="41.85521" lon="-87.615992">
      </trkpt>
      <trkpt lat="41.854986" lon="-87.616959">
      </trkpt>
      <trkpt lat="41.85573" lon="-87.616876">
      </trkpt>
      <trkpt lat="41.856402" lon="-87.616543">
      </trkpt>
      <trkpt lat="41.857757" lon="-87.617503">
      </trkpt>
      <trkpt lat="41.858122" lon="-87.616068">
      </trkpt>
      <trkpt lat="41.859955" lon="-87.61744">
      </trkpt>
      <trkpt lat="41.861647" lon="-87.618159">
      </trkpt>
      <trkpt lat="41.866344" lon="-87.619249">
      </trkpt>
      <trkpt lat="41.869799" lon="-87.617003">
      </trkpt>
      <trkpt lat="41.881825" lon="-87.617167">
      </trkpt>
      <trkpt lat="41.882664" lon="-87.61661">
      </trkpt>
      <trkpt lat="41.883639" lon="-87.614476">
      </trkpt>
      <trkpt lat="41.884512" lon="-87.613723">
      </trkpt>
      <trkpt lat="41.889097" lon="-87.614006">
      </trkpt>
      <trkpt lat="41.890559" lon="-87.613604">
      </trkpt>
      <trkpt lat="41.890879" lon="-87.613057">
      </trkpt>
      <trkpt lat="41.890948" lon="-87.61169">
      </trkpt>
      <trkpt lat="41.891968" lon="-87.611597">
      </trkpt>
      <trkpt lat="41.891751" lon="-87.622685">
      </trkpt>
      <trkpt lat="41.893947" lon="-87.622751">
      </trkpt>
      <trkpt lat="41.893947" lon="-87.622751">
      </trkpt>
      <trkpt lat="41.894975" lon="-87.62278">
      </trkpt>
      <trkpt lat="41.89495" lon="-87.624182">
      </trkpt>
      <trkpt lat="41.896353" lon="-87.624207">
      </trkpt>
      <trkpt lat="41.897744" lon="-87.624029">
      </trkpt>
      <trkpt lat="41.899218" lon="-87.62406">
      </trkpt>
      <trkpt lat="41.89923" lon="-87.623008">
      </trkpt>
      <trkpt lat="41.89923" lon="-87.623008">
      </trkpt>
      <trkpt lat="41.899246" lon="-87.621885">
      </trkpt>
      <trkpt lat="41.900045" lon="-87.621902">
      </trkpt>
      <trkpt lat="41.900014" lon="-87.624077">
      </trkpt>
      <trkpt lat="41.900824" lon="-87.624042">
      </trkpt>
      <trkpt lat="41.902709" lon="-87.623664">
      </trkpt>
      <trkpt lat="41.906002" lon="-87.624883">
      </trkpt>
      <trkpt lat="41.909833" lon="-87.625717">
      </trkpt>
      <trkpt lat="41.912497" lon="-87.625477">
      </trkpt>
      <trkpt lat="41.913347" lon="-87.626017">
      </trkpt>
      <trkpt lat="41.912624" lon="-87.626875">
      </trkpt>
      <trkpt lat="41.912344" lon="-87.627835">
      </trkpt>
      <trkpt lat="41.913382" lon="-87.630971">
      </trkpt>
      <trkpt lat="41.913334" lon="-87.632438">
      </trkpt>
      <trkpt lat="41.912907" lon="-87.633196">
      </trkpt>
      <trkpt lat="41.911171" lon="-87.633223">
      </trkpt>
      <trkpt lat="41.910199" lon="-87.699087">
      </trkpt>
      <trkpt lat="41.912352" lon="-87.699156">
      </trkpt>
      <trkpt lat="41.912356" lon="-87.698734">
      </trkpt>
      <trkpt lat="41.912356" lon="-87.698734">
      </trkpt>
      <trkpt lat="41.912372" lon="-87.697059">
      </trkpt>
      <trkpt lat="41.910223" lon="-87.697029">
      </trkpt>
      <trkpt lat="41.910324" lon="-87.687207">
      </trkpt>
      <trkpt lat="41.903025" lon="-87.687018">
      </trkpt>
      <trkpt lat="41.903226" lon="-87.674833">
      </trkpt>
      <trkpt lat="41.902204" lon="-87.674795">
      </trkpt>
      <trkpt lat="41.902204" lon="-87.674795">
      </trkpt>
      <trkpt lat="41.899586" lon="-87.674717">
      </trkpt>
      <trkpt lat="41.899379" lon="-87.686926">
      </trkpt>
      <trkpt lat="41.89575" lon="-87.686835">
      </trkpt>
      <trkpt lat="41.895606" lon="-87.701213">
      </trkpt>
      <trkpt lat="41.895606" lon="-87.701213">
      </trkpt>
      <trkpt lat="41.896338" lon="-87.651173">
      </trkpt>
      <trkpt lat="41.895044" lon="-87.65115">
      </trkpt>
      <trkpt lat="41.89505" lon="-87.650724">
      </trkpt>
      <trkpt lat="41.89505" lon="-87.650724">
      </trkpt>
      <trkpt lat="41.895022" lon="-87.652616">
      </trkpt>
      <trkpt lat="41.894693" lon="-87.653012">
      </trkpt>
      <trkpt lat="41.895983" lon="-87.654976">
      </trkpt>
      <trkpt lat="41.89501" lon="-87.655808">
      </trkpt>
      <trkpt lat="41.89596" lon="-87.657675">
      </trkpt>
      <trkpt lat="41.898217" lon="-87.65932">
      </trkpt>
      <trkpt lat="41.901753" lon="-87.660805">
      </trkpt>
      <trkpt lat="41.907216" lon="-87.661536">
      </trkpt>
      <trkpt lat="41.910145" lon="-87.664439">
      </trkpt>
      <trkpt lat="41.916712" lon="-87.668818">
      </trkpt>
      <trkpt lat="41.920831" lon="-87.675191">
      </trkpt>
      <trkpt lat="41.922669" lon="-87.677815">
      </trkpt>
      <trkpt lat="41.935932" lon="-87.678243">
      </trkpt>
      <trkpt lat="41.935976" lon="-87.674697">
      </trkpt>
      <trkpt lat="41.935976" lon="-87.674697">
      </trkpt>
      <trkpt lat="41.936057" lon="-87.668463">
      </trkpt>
      <trkpt lat="41.961593" lon="-87.669185">
      </trkpt>
      <trkpt lat="41.961772" lon="-87.655148">
      </trkpt>
      <trkpt lat="41.964503" lon="-87.656894">
      </trkpt>
      <trkpt lat="41.964503" lon="-87.656894">
      </trkpt>
      <trkpt lat="41.961156" lon="-87.654742">
      </trkpt>
      <trkpt lat="41.954492" lon="-87.654549">
      </trkpt>
      <trkpt lat="41.954086" lon="-87.688469">
      </trkpt>
      <trkpt lat="41.949742" lon="-87.688345">
      </trkpt>
      <trkpt lat="41.949742" lon="-87.688345">
      </trkpt>
      <trkpt lat="41.919088" lon="-87.68746">
      </trkpt>
      <trkpt lat="41.919134" lon="-87.685015">
      </trkpt>
      <trkpt lat="41.918313" lon="-87.684989">
      </trkpt>
      <trkpt lat="41.918313" lon="-87.684989">
      </trkpt>
      <trkpt lat="41.91763" lon="-87.684968">
      </trkpt>
      <trkpt lat="41.917756" lon="-87.677846">
      </trkpt>
      <trkpt lat="41.917756" lon="-87.677846">
      </trkpt>
      <trkpt lat="41.91776" lon="-87.677621">
      </trkpt>
      <trkpt lat="41.925026" lon="-87.677893">
      </trkpt>
      <trkpt lat="41.925011" lon="-87.679109">
      </trkpt>
      <trkpt lat="41.923872" lon="-87.679077">
      </trkpt>
      <trkpt lat="41.923872" lon="-87.679077">
      </trkpt>
      <trkpt lat="41.925011" lon="-87.679109">
      </trkpt>
      <trkpt lat="41.925026" lon="-87.677893">
      </trkpt>
      <trkpt lat="41.92139" lon="-87.677765">
      </trkpt>
      <trkpt lat="41.921395" lon="-87.677255">
      </trkpt>
      <trkpt lat="41.918139" lon="-87.671115">
      </trkpt>
      <trkpt lat="41.915543" lon="-87.668247">
      </trkpt>
      <trkpt lat="41.909975" lon="-87.664752">
      </trkpt>
      <trkpt lat="41.906635" lon="-87.661559">
      </trkpt>
      <trkpt lat="41.905221" lon="-87.66114">
      </trkpt>
      <trkpt lat="41.902553" lon="-87.661288">
      </trkpt>
      <trkpt lat="41.900902" lon="-87.660921">
      </trkpt>
      <trkpt lat="41.896968" lon="-87.659049">
      </trkpt>
      <trkpt lat="41.895018" lon="-87.657114">
      </trkpt>
      <trkpt lat="41.89377" lon="-87.655657">
      </trkpt>
      <trkpt lat="41.89226" lon="-87.654831">
      </trkpt>
      <trkpt lat="41.891931" lon="-87.653963">
      </trkpt>
      <trkpt lat="41.892554" lon="-87.651034">
      </trkpt>
      <trkpt lat="41.892439" lon="-87.631145">
      </trkpt>
      <trkpt lat="41.889218" lon="-87.631063">
      </trkpt>
      <trkpt lat="41.889251" lon="-87.628704">
      </trkpt>
      <trkpt lat="41.889251" lon="-87.628704">
      </trkpt>
      <trkpt lat="41.889133" lon="-87.639082">
      </trkpt>
      <trkpt lat="41.889057" lon="-87.639841">
      </trkpt>
      <trkpt lat="41.88911" lon="-87.641057">
      </trkpt>
      <trkpt lat="41.889017" lon="-87.648718">
      </trkpt>
      <trkpt lat="41.889662" lon="-87.648752">
      </trkpt>
      <trkpt lat="41.889662" lon="-87.648752">
      </trkpt>
      <trkpt lat="41.890082" lon="-87.64876">
      </trkpt>
      <trkpt lat="41.890088" lon="-87.647611">
      </trkpt>
      <trkpt lat="41.905038" lon="-87.648124">
      </trkpt>
      <trkpt lat="41.905042" lon="-87.649202">
      </trkpt>
      <trkpt lat="41.915829" lon="-87.65826">
      </trkpt>
      <trkpt lat="41.916182" lon="-87.65779">
      </trkpt>
      <trkpt lat="41.917121" lon="-87.659108">
      </trkpt>
      <trkpt lat="41.917114" lon="-87.66003">
      </trkpt>
      <trkpt lat="41.919363" lon="-87.663134">
      </trkpt>
      <trkpt lat="41.934302" lon="-87.663616">
      </trkpt>
      <trkpt lat="41.934287" lon="-87.664529">
      </trkpt>
      <trkpt lat="41.934287" lon="-87.664529">
      </trkpt>
      <trkpt lat="41.934224" lon="-87.668395">
      </trkpt>
      <trkpt lat="41.974347" lon="-87.669495">
      </trkpt>
      <trkpt lat="41.974275" lon="-87.674356">
      </trkpt>
      <trkpt lat="41.990816" lon="-87.674716">
      </trkpt>
      <trkpt lat="41.990472" lon="-87.695751">
      </trkpt>
      <trkpt lat="41.994028" lon="-87.695868">
      </trkpt>
      <trkpt lat="41.99401" lon="-87.697261">
      </trkpt>
    </trkseg>
  </trk>
</gpx>