<?xml version="1.0" encoding="UTF-8"?>
<gpx xmlns="http://www.topografix.com/GPX/1/1" xmlns:xsi="http://www.w3.org/2001/XMLSchema-instance" xsi:schemaLocation="http://www.topografix.com/GPX/1/1 http://www.topografix.com/GPX/1/1/gpx.xsd" version="1.1" creator="gpx.py -- https://github.com/tkrajina/gpxpy">
  <trk>
    <trkseg>
      <trkpt lat="41.950014" lon="-87.646833">
      </trkpt>
      <trkpt lat="41.947931" lon="-87.645566">
      </trkpt>
      <trkpt lat="41.947328" lon="-87.647357">
      </trkpt>
      <trkpt lat="41.947315" lon="-87.649493">
      </trkpt>
      <trkpt lat="41.945447" lon="-87.649434">
      </trkpt>
      <trkpt lat="41.945453" lon="-87.650648">
      </trkpt>
      <trkpt lat="41.94643" lon="-87.65068">
      </trkpt>
      <trkpt lat="41.94643" lon="-87.65068">
      </trkpt>
      <trkpt lat="41.947303" lon="-87.650709">
      </trkpt>
      <trkpt lat="41.947315" lon="-87.649493">
      </trkpt>
      <trkpt lat="41.91731" lon="-87.648495">
      </trkpt>
      <trkpt lat="41.91731" lon="-87.648495">
      </trkpt>
      <trkpt lat="41.932728" lon="-87.649013">
      </trkpt>
      <trkpt lat="41.932682" lon="-87.65143">
      </trkpt>
      <trkpt lat="41.932534" lon="-87.651425">
      </trkpt>
      <trkpt lat="41.932534" lon="-87.651425">
      </trkpt>
      <trkpt lat="41.932682" lon="-87.65143">
      </trkpt>
      <trkpt lat="41.932567" lon="-87.65822">
      </trkpt>
      <trkpt lat="41.932567" lon="-87.65822">
      </trkpt>
      <trkpt lat="41.932557" lon="-87.658713">
      </trkpt>
      <trkpt lat="41.917264" lon="-87.658201">
      </trkpt>
      <trkpt lat="41.916455" lon="-87.666413">
      </trkpt>
      <trkpt lat="41.910715" lon="-87.66216">
      </trkpt>
      <trkpt lat="41.910672" lon="-87.665662">
      </trkpt>
      <trkpt lat="41.910236" lon="-87.665325">
      </trkpt>
      <trkpt lat="41.896667" lon="-87.658834">
      </trkpt>
      <trkpt lat="41.886261" lon="-87.646315">
      </trkpt>
      <trkpt lat="41.850609" lon="-87.644998">
      </trkpt>
      <trkpt lat="41.847255" lon="-87.642186">
      </trkpt>
      <trkpt lat="41.845323" lon="-87.634652">
      </trkpt>
      <trkpt lat="41.84209" lon="-87.63091">
      </trkpt>
      <trkpt lat="41.779686" lon="-87.631207">
      </trkpt>
      <trkpt lat="41.772555" lon="-87.62615">
      </trkpt>
      <trkpt lat="41.740605" lon="-87.625104">
      </trkpt>
      <trkpt lat="41.740446" lon="-87.625189">
      </trkpt>
      <trkpt lat="41.736214" lon="-87.625442">
      </trkpt>
      <trkpt lat="41.736501" lon="-87.614537">
      </trkpt>
      <trkpt lat="41.729206" lon="-87.614347">
      </trkpt>
      <trkpt lat="41.729242" lon="-87.611901">
      </trkpt>
      <trkpt lat="41.727308" lon="-87.611859">
      </trkpt>
      <trkpt lat="41.727308" lon="-87.611859">
      </trkpt>
      <trkpt lat="41.729242" lon="-87.611901">
      </trkpt>
      <trkpt lat="41.72941" lon="-87.601">
      </trkpt>
      <trkpt lat="41.728013" lon="-87.600975">
      </trkpt>
      <trkpt lat="41.728013" lon="-87.600975">
      </trkpt>
      <trkpt lat="41.725763" lon="-87.600936">
      </trkpt>
      <trkpt lat="41.72571" lon="-87.604554">
      </trkpt>
      <trkpt lat="41.72205" lon="-87.604486">
      </trkpt>
      <trkpt lat="41.721781" lon="-87.623729">
      </trkpt>
      <trkpt lat="41.722801" lon="-87.62377">
      </trkpt>
      <trkpt lat="41.769497" lon="-87.625651">
      </trkpt>
      <trkpt lat="41.779495" lon="-87.630747">
      </trkpt>
      <trkpt lat="41.838631" lon="-87.630667">
      </trkpt>
      <trkpt lat="41.844069" lon="-87.631001">
      </trkpt>
      <trkpt lat="41.846653" lon="-87.630081">
      </trkpt>
      <trkpt lat="41.847976" lon="-87.616851">
      </trkpt>
      <trkpt lat="41.849732" lon="-87.612177">
      </trkpt>
      <trkpt lat="41.863523" lon="-87.618709">
      </trkpt>
      <trkpt lat="41.889573" lon="-87.620395">
      </trkpt>
      <trkpt lat="41.889608" lon="-87.621589">
      </trkpt>
      <trkpt lat="41.890134" lon="-87.621608">
      </trkpt>
      <trkpt lat="41.890952" lon="-87.621327">
      </trkpt>
      <trkpt lat="41.890952" lon="-87.621327">
      </trkpt>
      <trkpt lat="41.890997" lon="-87.620784">
      </trkpt>
      <trkpt lat="41.891015" lon="-87.621649">
      </trkpt>
      <trkpt lat="41.891098" lon="-87.621842">
      </trkpt>
      <trkpt lat="41.890981" lon="-87.621986">
      </trkpt>
      <trkpt lat="41.889658" lon="-87.621963">
      </trkpt>
      <trkpt lat="41.889484" lon="-87.621814">
      </trkpt>
      <trkpt lat="41.889608" lon="-87.621589">
      </trkpt>
      <trkpt lat="41.889573" lon="-87.620395">
      </trkpt>
      <trkpt lat="41.890916" lon="-87.620211">
      </trkpt>
      <trkpt lat="41.892588" lon="-87.620263">
      </trkpt>
      <trkpt lat="41.892685" lon="-87.614597">
      </trkpt>
      <trkpt lat="41.893135" lon="-87.61463">
      </trkpt>
      <trkpt lat="41.89823" lon="-87.618028">
      </trkpt>
      <trkpt lat="41.89823" lon="-87.618028">
      </trkpt>
      <trkpt lat="41.89684" lon="-87.617065">
      </trkpt>
      <trkpt lat="41.896781" lon="-87.620387">
      </trkpt>
      <trkpt lat="41.890916" lon="-87.620211">
      </trkpt>
      <trkpt lat="41.887957" lon="-87.620761">
      </trkpt>
      <trkpt lat="41.888296" lon="-87.623281">
      </trkpt>
      <trkpt lat="41.888311" lon="-87.625188">
      </trkpt>
      <trkpt lat="41.88815" lon="-87.625586">
      </trkpt>
      <trkpt lat="41.887194" lon="-87.626429">
      </trkpt>
      <trkpt lat="41.886941" lon="-87.627036">
      </trkpt>
      <trkpt lat="41.886919" lon="-87.635171">
      </trkpt>
      <trkpt lat="41.886721" lon="-87.635761">
      </trkpt>
      <trkpt lat="41.88588" lon="-87.636873">
      </trkpt>
      <trkpt lat="41.884459" lon="-87.636965">
      </trkpt>
      <trkpt lat="41.884448" lon="-87.639799">
      </trkpt>
      <trkpt lat="41.885734" lon="-87.639866">
      </trkpt>
      <trkpt lat="41.886808" lon="-87.641353">
      </trkpt>
      <trkpt lat="41.886807" lon="-87.642802">
      </trkpt>
      <trkpt lat="41.887871" lon="-87.642815">
      </trkpt>
      <trkpt lat="41.887871" lon="-87.642815">
      </trkpt>
      <trkpt lat="41.886807" lon="-87.642802">
      </trkpt>
      <trkpt lat="41.886808" lon="-87.641353">
      </trkpt>
      <trkpt lat="41.880567" lon="-87.64118">
      </trkpt>
      <trkpt lat="41.880598" lon="-87.639693">
      </trkpt>
      <trkpt lat="41.881889" lon="-87.639706">
      </trkpt>
      <trkpt lat="41.881877" lon="-87.640505">
      </trkpt>
      <trkpt lat="41.881877" lon="-87.640505">
      </trkpt>
      <trkpt lat="41.881801" lon="-87.64573">
      </trkpt>
      <trkpt lat="41.885306" lon="-87.645735">
      </trkpt>
      <trkpt lat="41.888483" lon="-87.647404">
      </trkpt>
      <trkpt lat="41.889615" lon="-87.64861">
      </trkpt>
      <trkpt lat="41.895403" lon="-87.657024">
      </trkpt>
      <trkpt lat="41.897251" lon="-87.658783">
      </trkpt>
      <trkpt lat="41.901753" lon="-87.660805">
      </trkpt>
      <trkpt lat="41.906186" lon="-87.660967">
      </trkpt>
      <trkpt lat="41.907951" lon="-87.662226">
      </trkpt>
      <trkpt lat="41.910674" lon="-87.664445">
      </trkpt>
      <trkpt lat="41.910672" lon="-87.665662">
      </trkpt>
      <trkpt lat="41.910236" lon="-87.665325">
      </trkpt>
      <trkpt lat="41.90885" lon="-87.665207">
      </trkpt>
      <trkpt lat="41.908834" lon="-87.666429">
      </trkpt>
      <trkpt lat="41.909028" lon="-87.666435">
      </trkpt>
      <trkpt lat="41.909028" lon="-87.666435">
      </trkpt>
      <trkpt lat="41.910658" lon="-87.666509">
      </trkpt>
      <trkpt lat="41.910165" lon="-87.701875">
      </trkpt>
      <trkpt lat="41.907241" lon="-87.70125">
      </trkpt>
      <trkpt lat="41.904322" lon="-87.70207">
      </trkpt>
      <trkpt lat="41.902886" lon="-87.702278">
      </trkpt>
      <trkpt lat="41.902888" lon="-87.701605">
      </trkpt>
      <trkpt lat="41.902888" lon="-87.701605">
      </trkpt>
      <trkpt lat="41.902886" lon="-87.702278">
      </trkpt>
      <trkpt lat="41.907241" lon="-87.70125">
      </trkpt>
      <trkpt lat="41.910165" lon="-87.701875">
      </trkpt>
      <trkpt lat="41.911039" lon="-87.63858">
      </trkpt>
      <trkpt lat="41.918322" lon="-87.638808">
      </trkpt>
      <trkpt lat="41.918106" lon="-87.638503">
      </trkpt>
      <trkpt lat="41.918106" lon="-87.638503">
      </trkpt>
      <trkpt lat="41.918322" lon="-87.638808">
      </trkpt>
      <trkpt lat="41.918178" lon="-87.648523">
      </trkpt>
      <trkpt lat="41.91731" lon="-87.648495">
      </trkpt>
      <trkpt lat="41.91731" lon="-87.648495">
      </trkpt>
      <trkpt lat="41.910927" lon="-87.648286">
      </trkpt>
      <trkpt lat="41.910768" lon="-87.658619">
      </trkpt>
      <trkpt lat="41.907139" lon="-87.659943">
      </trkpt>
      <trkpt lat="41.904817" lon="-87.659508">
      </trkpt>
      <trkpt lat="41.903997" lon="-87.658892">
      </trkpt>
      <trkpt lat="41.903661" lon="-87.658708">
      </trkpt>
      <trkpt lat="41.90348" lon="-87.658875">
      </trkpt>
      <trkpt lat="41.903374" lon="-87.665045">
      </trkpt>
      <trkpt lat="41.903929" lon="-87.665061">
      </trkpt>
      <trkpt lat="41.903929" lon="-87.665061">
      </trkpt>
      <trkpt lat="41.907034" lon="-87.665154">
      </trkpt>
      <trkpt lat="41.907003" lon="-87.667524">
      </trkpt>
      <trkpt lat="41.916129" lon="-87.66782">
      </trkpt>
      <trkpt lat="41.917067" lon="-87.663815">
      </trkpt>
      <trkpt lat="41.917264" lon="-87.658201">
      </trkpt>
      <trkpt lat="41.925291" lon="-87.658464">
      </trkpt>
      <trkpt lat="41.925453" lon="-87.648766">
      </trkpt>
      <trkpt lat="41.929091" lon="-87.648892">
      </trkpt>
      <trkpt lat="41.929095" lon="-87.647955">
      </trkpt>
      <trkpt lat="41.929095" lon="-87.647955">
      </trkpt>
      <trkpt lat="41.929091" lon="-87.648892">
      </trkpt>
      <trkpt lat="41.938193" lon="-87.649228">
      </trkpt>
      <trkpt lat="41.954753" lon="-87.662484">
      </trkpt>
      <trkpt lat="41.959819" lon="-87.665276">
      </trkpt>
      <trkpt lat="41.965274" lon="-87.66673">
      </trkpt>
      <trkpt lat="41.965292" lon="-87.665433">
      </trkpt>
      <trkpt lat="41.965194" lon="-87.665414">
      </trkpt>
      <trkpt lat="41.965194" lon="-87.665414">
      </trkpt>
      <trkpt lat="41.963473" lon="-87.66506">
      </trkpt>
      <trkpt lat="41.963415" lon="-87.669215">
      </trkpt>
      <trkpt lat="41.976174" lon="-87.669543">
      </trkpt>
      <trkpt lat="41.976095" lon="-87.674927">
      </trkpt>
      <trkpt lat="41.974623" lon="-87.67488">
      </trkpt>
      <trkpt lat="41.974623" lon="-87.67488">
      </trkpt>
      <trkpt lat="41.97335" lon="-87.674845">
      </trkpt>
      <trkpt lat="41.973436" lon="-87.669592">
      </trkpt>
      <trkpt lat="41.968876" lon="-87.669477">
      </trkpt>
      <trkpt lat="41.969276" lon="-87.648824">
      </trkpt>
      <trkpt lat="41.965793" lon="-87.64734">
      </trkpt>
      <trkpt lat="41.950978" lon="-87.644611">
      </trkpt>
      <trkpt lat="41.941067" lon="-87.638957">
      </trkpt>
      <trkpt lat="41.93482" lon="-87.632527">
      </trkpt>
      <trkpt lat="41.928427" lon="-87.632048">
      </trkpt>
      <trkpt lat="41.915117" lon="-87.627538">
      </trkpt>
      <trkpt lat="41.913042" lon="-87.627206">
      </trkpt>
      <trkpt lat="41.912346" lon="-87.628067">
      </trkpt>
      <trkpt lat="41.913459" lon="-87.631428">
      </trkpt>
      <trkpt lat="41.912907" lon="-87.633196">
      </trkpt>
      <trkpt lat="41.903886" lon="-87.633004">
      </trkpt>
      <trkpt lat="41.903768" lon="-87.639563">
      </trkpt>
      <trkpt lat="41.904375" lon="-87.6404">
      </trkpt>
      <trkpt lat="41.904515" lon="-87.64022">
      </trkpt>
      <trkpt lat="41.904149" lon="-87.639718">
      </trkpt>
      <trkpt lat="41.904149" lon="-87.639718">
      </trkpt>
      <trkpt lat="41.904515" lon="-87.64022">
      </trkpt>
      <trkpt lat="41.904375" lon="-87.6404">
      </trkpt>
      <trkpt lat="41.903768" lon="-87.639563">
      </trkpt>
      <trkpt lat="41.902888" lon="-87.701605">
      </trkpt>
      <trkpt lat="41.902888" lon="-87.701605">
      </trkpt>
      <trkpt lat="41.903364" lon="-87.666488">
      </trkpt>
      <trkpt lat="41.899711" lon="-87.660843">
      </trkpt>
      <trkpt lat="41.895493" lon="-87.657719">
      </trkpt>
      <trkpt lat="41.889964" lon="-87.649448">
      </trkpt>
      <trkpt lat="41.888343" lon="-87.647531">
      </trkpt>
      <trkpt lat="41.885929" lon="-87.646219">
      </trkpt>
      <trkpt lat="41.881827" lon="-87.645999">
      </trkpt>
      <trkpt lat="41.880956" lon="-87.646134">
      </trkpt>
      <trkpt lat="41.87924" lon="-87.64632">
      </trkpt>
      <trkpt lat="41.879181" lon="-87.649612">
      </trkpt>
      <trkpt lat="41.878315" lon="-87.649583">
      </trkpt>
      <trkpt lat="41.878315" lon="-87.649583">
      </trkpt>
      <trkpt lat="41.877909" lon="-87.64957">
      </trkpt>
      <trkpt lat="41.877947" lon="-87.647235">
      </trkpt>
      <trkpt lat="41.858102" lon="-87.646649">
      </trkpt>
      <trkpt lat="41.857936" lon="-87.657651">
      </trkpt>
      <trkpt lat="41.856527" lon="-87.657612">
      </trkpt>
      <trkpt lat="41.856527" lon="-87.657612">
      </trkpt>
      <trkpt lat="41.852481" lon="-87.657498">
      </trkpt>
      <trkpt lat="41.852666" lon="-87.646499">
      </trkpt>
      <trkpt lat="41.844914" lon="-87.646443">
      </trkpt>
      <trkpt lat="41.84492" lon="-87.646259">
      </trkpt>
      <trkpt lat="41.844758" lon="-87.646255">
      </trkpt>
      <trkpt lat="41.844758" lon="-87.646255">
      </trkpt>
      <trkpt lat="41.844917" lon="-87.646335">
      </trkpt>
      <trkpt lat="41.844914" lon="-87.646443">
      </trkpt>
      <trkpt lat="41.852666" lon="-87.646499">
      </trkpt>
      <trkpt lat="41.852672" lon="-87.64473">
      </trkpt>
      <trkpt lat="41.855471" lon="-87.643738">
      </trkpt>
      <trkpt lat="41.857758" lon="-87.643778">
      </trkpt>
      <trkpt lat="41.867845" lon="-87.644517">
      </trkpt>
      <trkpt lat="41.873521" lon="-87.644628">
      </trkpt>
      <trkpt lat="41.875725" lon="-87.645646">
      </trkpt>
      <trkpt lat="41.875863" lon="-87.649223">
      </trkpt>
      <trkpt lat="41.876121" lon="-87.662425">
      </trkpt>
      <trkpt lat="41.876357" lon="-87.66659">
      </trkpt>
      <trkpt lat="41.880897" lon="-87.666718">
      </trkpt>
      <trkpt lat="41.884284" lon="-87.663241">
      </trkpt>
      <trkpt lat="41.891345" lon="-87.658694">
      </trkpt>
      <trkpt lat="41.891345" lon="-87.658694">
      </trkpt>
      <trkpt lat="41.891822" lon="-87.658299">
      </trkpt>
      <trkpt lat="41.891837" lon="-87.657392">
      </trkpt>
      <trkpt lat="41.891076" lon="-87.657374">
      </trkpt>
      <trkpt lat="41.891194" lon="-87.647627">
      </trkpt>
      <trkpt lat="41.885665" lon="-87.647482">
      </trkpt>
      <trkpt lat="41.885682" lon="-87.646258">
      </trkpt>
      <trkpt lat="41.861936" lon="-87.644538">
      </trkpt>
      <trkpt lat="41.855528" lon="-87.645083">
      </trkpt>
      <trkpt lat="41.854689" lon="-87.64655">
      </trkpt>
      <trkpt lat="41.847216" lon="-87.646483">
      </trkpt>
      <trkpt lat="41.843501" lon="-87.65413">
      </trkpt>
      <trkpt lat="41.841443" lon="-87.652381">
      </trkpt>
      <trkpt lat="41.841016" lon="-87.653267">
      </trkpt>
      <trkpt lat="41.84159" lon="-87.653764">
      </trkpt>
      <trkpt lat="41.84159" lon="-87.653764">
      </trkpt>
      <trkpt lat="41.843071" lon="-87.655026">
      </trkpt>
      <trkpt lat="41.847216" lon="-87.646483">
      </trkpt>
      <trkpt lat="41.862359" lon="-87.646778">
      </trkpt>
      <trkpt lat="41.862292" lon="-87.650889">
      </trkpt>
      <trkpt lat="41.863505" lon="-87.650938">
      </trkpt>
      <trkpt lat="41.863458" lon="-87.653231">
      </trkpt>
      <trkpt lat="41.863051" lon="-87.653216">
      </trkpt>
      <trkpt lat="41.863051" lon="-87.653216">
      </trkpt>
      <trkpt lat="41.863458" lon="-87.653231">
      </trkpt>
      <trkpt lat="41.863505" lon="-87.650938">
      </trkpt>
      <trkpt lat="41.867148" lon="-87.65105">
      </trkpt>
      <trkpt lat="41.867056" lon="-87.656679">
      </trkpt>
      <trkpt lat="41.881621" lon="-87.657142">
      </trkpt>
      <trkpt lat="41.881565" lon="-87.660565">
      </trkpt>
      <trkpt lat="41.888286" lon="-87.660981">
      </trkpt>
      <trkpt lat="41.891345" lon="-87.658694">
      </trkpt>
      <trkpt lat="41.891345" lon="-87.658694">
      </trkpt>
      <trkpt lat="41.896273" lon="-87.654527">
      </trkpt>
      <trkpt lat="41.896405" lon="-87.647675">
      </trkpt>
      <trkpt lat="41.903643" lon="-87.648086">
      </trkpt>
      <trkpt lat="41.903768" lon="-87.639563">
      </trkpt>
      <trkpt lat="41.904375" lon="-87.6404">
      </trkpt>
      <trkpt lat="41.904515" lon="-87.64022">
      </trkpt>
      <trkpt lat="41.904149" lon="-87.639718">
      </trkpt>
      <trkpt lat="41.904149" lon="-87.639718">
      </trkpt>
      <trkpt lat="41.904515" lon="-87.64022">
      </trkpt>
      <trkpt lat="41.904375" lon="-87.6404">
      </trkpt>
      <trkpt lat="41.910903" lon="-87.649501">
      </trkpt>
      <trkpt lat="41.910469" lon="-87.677494">
      </trkpt>
      <trkpt lat="41.908257" lon="-87.677416">
      </trkpt>
      <trkpt lat="41.908215" lon="-87.679848">
      </trkpt>
      <trkpt lat="41.909327" lon="-87.679878">
      </trkpt>
      <trkpt lat="41.909364" lon="-87.677955">
      </trkpt>
      <trkpt lat="41.909364" lon="-87.677955">
      </trkpt>
      <trkpt lat="41.909373" lon="-87.677447">
      </trkpt>
      <trkpt lat="41.899544" lon="-87.677161">
      </trkpt>
      <trkpt lat="41.899648" lon="-87.67107">
      </trkpt>
      <trkpt lat="41.900741" lon="-87.671103">
      </trkpt>
      <trkpt lat="41.900741" lon="-87.671103">
      </trkpt>
      <trkpt lat="41.903289" lon="-87.67118">
      </trkpt>
      <trkpt lat="41.903351" lon="-87.667439">
      </trkpt>
      <trkpt lat="41.910635" lon="-87.667641">
      </trkpt>
      <trkpt lat="41.910674" lon="-87.664445">
      </trkpt>
      <trkpt lat="41.915886" lon="-87.668091">
      </trkpt>
      <trkpt lat="41.91815" lon="-87.670574">
      </trkpt>
      <trkpt lat="41.929581" lon="-87.690595">
      </trkpt>
      <trkpt lat="41.932133" lon="-87.694122">
      </trkpt>
      <trkpt lat="41.932179" lon="-87.687832">
      </trkpt>
      <trkpt lat="41.975899" lon="-87.689151">
      </trkpt>
      <trkpt lat="41.975964" lon="-87.684288">
      </trkpt>
      <trkpt lat="41.977792" lon="-87.684347">
      </trkpt>
      <trkpt lat="41.977786" lon="-87.684838">
      </trkpt>
      <trkpt lat="41.977786" lon="-87.684838">
      </trkpt>
      <trkpt lat="41.977758" lon="-87.686799">
      </trkpt>
      <trkpt lat="41.97593" lon="-87.686732">
      </trkpt>
      <trkpt lat="41.975339" lon="-87.747984">
      </trkpt>
      <trkpt lat="41.962872" lon="-87.747013">
      </trkpt>
      <trkpt lat="41.962173" lon="-87.747605">
      </trkpt>
      <trkpt lat="41.916928" lon="-87.746096">
      </trkpt>
      <trkpt lat="41.916843" lon="-87.753381">
      </trkpt>
      <trkpt lat="41.916619" lon="-87.752822">
      </trkpt>
      <trkpt lat="41.91491" lon="-87.75284">
      </trkpt>
      <trkpt lat="41.914836" lon="-87.754209">
      </trkpt>
      <trkpt lat="41.914836" lon="-87.754209">
      </trkpt>
      <trkpt lat="41.91491" lon="-87.75284">
      </trkpt>
      <trkpt lat="41.916619" lon="-87.752822">
      </trkpt>
      <trkpt lat="41.916664" lon="-87.752934">
      </trkpt>
      <trkpt lat="41.916928" lon="-87.746096">
      </trkpt>
      <trkpt lat="41.953418" lon="-87.747303">
      </trkpt>
      <trkpt lat="41.954587" lon="-87.647939">
      </trkpt>
      <trkpt lat="41.951737" lon="-87.647873">
      </trkpt>
      <trkpt lat="41.950014" lon="-87.646833">
      </trkpt>
      <trkpt lat="41.950014" lon="-87.646833">
      </trkpt>
      <trkpt lat="41.94974" lon="-87.646666">
      </trkpt>
      <trkpt lat="41.950465" lon="-87.644573">
      </trkpt>
      <trkpt lat="41.954634" lon="-87.645235">
      </trkpt>
      <trkpt lat="41.950978" lon="-87.644611">
      </trkpt>
      <trkpt lat="41.941594" lon="-87.639315">
      </trkpt>
      <trkpt lat="41.93482" lon="-87.632527">
      </trkpt>
      <trkpt lat="41.928427" lon="-87.632048">
      </trkpt>
      <trkpt lat="41.915117" lon="-87.627538">
      </trkpt>
      <trkpt lat="41.913042" lon="-87.627206">
      </trkpt>
      <trkpt lat="41.912346" lon="-87.628067">
      </trkpt>
      <trkpt lat="41.913334" lon="-87.632438">
      </trkpt>
      <trkpt lat="41.912907" lon="-87.633196">
      </trkpt>
      <trkpt lat="41.911171" lon="-87.633223">
      </trkpt>
      <trkpt lat="41.910927" lon="-87.648286">
      </trkpt>
      <trkpt lat="41.91731" lon="-87.648495">
      </trkpt>
      <trkpt lat="41.91731" lon="-87.648495">
      </trkpt>
      <trkpt lat="41.910927" lon="-87.648286">
      </trkpt>
      <trkpt lat="41.910674" lon="-87.664445">
      </trkpt>
      <trkpt lat="41.915886" lon="-87.668091">
      </trkpt>
      <trkpt lat="41.91815" lon="-87.670574">
      </trkpt>
      <trkpt lat="41.937344" lon="-87.704001">
      </trkpt>
      <trkpt lat="41.939132" lon="-87.706803">
      </trkpt>
      <trkpt lat="41.93884" lon="-87.746879">
      </trkpt>
      <trkpt lat="41.931542" lon="-87.746595">
      </trkpt>
      <trkpt lat="41.93147" lon="-87.751741">
      </trkpt>
      <trkpt lat="41.93147" lon="-87.751741">
      </trkpt>
      <trkpt lat="41.931542" lon="-87.746595">
      </trkpt>
      <trkpt lat="41.953418" lon="-87.747303">
      </trkpt>
      <trkpt lat="41.954306" lon="-87.668983">
      </trkpt>
      <trkpt lat="41.968877" lon="-87.669348">
      </trkpt>
      <trkpt lat="41.969012" lon="-87.66105">
      </trkpt>
      <trkpt lat="41.972662" lon="-87.661128">
      </trkpt>
      <trkpt lat="41.972674" lon="-87.660107">
      </trkpt>
    </trkseg>
  </trk>
</gpx>