{"type": "FeatureCollection", "features": [{"type": "Feature", "geometry": {"coordinates": [[-87.850966, 41.986522], [-87.852095, 41.988175], [-87.852779, 41.988287], [-87.852741, 41.98856], [-87.823337, 41.984459], [-87.8235, 41.983191], [-87.821798, 41.983238], [-87.812646, 41.982178], [-87.792871, 41.982345], [-87.788361, 41.982061], [-87.787747, 41.982061], [-87.787729, 41.982911], [-87.764532, 41.983038], [-87.747761, 41.972794], [-87.747223, 41.966563], [-87.745232, 41.962358], [-87.719592, 41.947613], [-87.715306, 41.94215], [-87.709927, 41.940372], [-87.670146, 41.917654], [-87.66137, 41.906646], [-87.659066, 41.897394], [-87.653065, 41.892534], [-87.617714, 41.892632], [-87.617676, 41.891456]], "type": "LineString"}, "properties": {"timestamp": "2023-05-28T11:11:25"}}, {"type": "Feature", "geometry": {"coordinates": [[-87.617676, 41.891456], [-87.617714, 41.892632], [-87.614597, 41.892685], [-87.61463, 41.893135], [-87.618028, 41.89823]], "type": "LineString"}, "properties": {"timestamp": "2023-05-28T11:28:35"}}, {"type": "Feature", "geometry": {"coordinates": [[-87.618028, 41.89823], [-87.617653, 41.897681], [-87.621852, 41.897618], [-87.621834, 41.896766], [-87.616893, 41.896844], [-87.614081, 41.885247], [-87.617453, 41.881821], [-87.619589, 41.866068], [-87.614728, 41.853242], [-87.614444, 41.848506], [-87.626818, 41.84732], [-87.631727, 41.847855], [-87.631351, 41.843118], [-87.631207, 41.779686], [-87.626113, 41.772231], [-87.624621, 41.72052], [-87.62925, 41.71536], [-87.652269, 41.712978], [-87.653382, 41.700924], [-87.65921, 41.695638], [-87.662318, 41.684066], [-87.662461, 41.677524], [-87.719742, 41.676676], [-87.71966, 41.674707], [-87.7227, 41.674661], [-87.72258, 41.671707], [-87.725242, 41.672535]], "type": "LineString"}, "properties": {"timestamp": "2023-05-28T11:28:35"}}, {"type": "Feature", "geometry": {"coordinates": [[-87.725242, 41.672535], [-87.72634, 41.672671], [-87.726445, 41.675499], [-87.729402, 41.675469], [-87.729479, 41.677091], [-87.732897, 41.677015], [-87.733274, 41.677094], [-87.734977, 41.679756], [-87.735038, 41.680495], [-87.731587, 41.680558]], "type": "LineString"}, "properties": {"timestamp": "2023-05-28T12:13:39"}}, {"type": "Feature", "geometry": {"coordinates": [[-87.731587, 41.680558], [-87.73544, 41.68059], [-87.737345, 41.683666], [-87.73946, 41.683685], [-87.73886, 41.666204], [-87.750768, 41.665917], [-87.772531, 41.676645], [-87.779635, 41.683674], [-87.787611, 41.702461], [-87.805185, 41.716955], [-87.812282, 41.728985], [-87.828696, 41.740705], [-87.84289, 41.74646], [-87.856988, 41.747271], [-87.903115, 41.76636], [-87.907051, 41.772785], [-87.908162, 41.797088], [-87.919237, 41.83858], [-87.923783, 41.85016], [-87.930023, 41.853412], [-87.93502, 41.852381], [-87.947079, 41.845202], [-87.978457, 41.84403], [-88.005619, 41.835098], [-88.010418, 41.834573], [-88.010849, 41.835184], [-87.99419, 41.841639], [-87.994645, 41.843559]], "type": "LineString"}, "properties": {"timestamp": "2023-05-28T12:13:39"}}, {"type": "Feature", "geometry": {"coordinates": [[-87.994645, 41.843559], [-87.994641, 41.84231], [-87.99419, 41.841639], [-88.00518, 41.837227], [-88.009089, 41.835967], [-88.01421, 41.834952], [-88.025059, 41.833659]], "type": "LineString"}, "properties": {"timestamp": "2023-05-28T13:14:39"}}, {"type": "Feature", "geometry": {"coordinates": [[-88.025059, 41.833659], [-88.029956, 41.833089], [-88.02893, 41.827499], [-88.029008, 41.824493], [-88.027611, 41.822486], [-88.02472, 41.822475], [-88.017113, 41.831291], [-88.000391, 41.836259], [-87.978408, 41.843825], [-87.947329, 41.844922], [-87.934852, 41.85191], [-87.929177, 41.852971], [-87.923272, 41.849337], [-87.92016, 41.844405], [-87.918148, 41.825922], [-87.914719, 41.819609], [-87.913728, 41.811745], [-87.908492, 41.797318], [-87.907702, 41.777082], [-87.907057, 41.770138], [-87.908565, 41.766463], [-87.905448, 41.76355], [-87.903511, 41.761967], [-87.901985, 41.759834], [-87.903019, 41.759037], [-87.902515, 41.760505], [-87.873751, 41.760882], [-87.851994, 41.763899], [-87.818688, 41.795245], [-87.807905, 41.796609], [-87.749519, 41.814944], [-87.7435, 41.816718], [-87.741532, 41.784351], [-87.742426, 41.78485], [-87.743755, 41.78386], [-87.746931, 41.786276]], "type": "LineString"}, "properties": {"timestamp": "2023-05-28T13:14:39"}}, {"type": "Feature", "geometry": {"coordinates": [[-87.746931, 41.786276], [-87.746841, 41.786047], [-87.743755, 41.78386], [-87.742426, 41.78485], [-87.741532, 41.784351], [-87.742472, 41.782744], [-87.742387, 41.778439], [-87.780041, 41.777694]], "type": "LineString"}, "properties": {"timestamp": "2023-05-28T13:57:35"}}, {"type": "Feature", "geometry": {"coordinates": [[-87.780041, 41.777694], [-87.761708, 41.778048], [-87.762738, 41.810298], [-87.680867, 41.836574], [-87.667241, 41.837594], [-87.658964, 41.841885], [-87.642563, 41.846659], [-87.644555, 41.850742], [-87.644854, 41.873493], [-87.645275, 41.880374], [-87.645355, 41.881847], [-87.645393, 41.882198], [-87.645396, 41.883308], [-87.645365, 41.885689], [-87.647482, 41.885665], [-87.647675, 41.896405], [-87.642947, 41.896481], [-87.643088, 41.900414], [-87.641906, 41.900434], [-87.641864, 41.899352], [-87.642068, 41.899348]], "type": "LineString"}, "properties": {"timestamp": "2023-05-28T13:57:35"}}, {"type": "Feature", "geometry": {"coordinates": [[-87.642068, 41.899348], [-87.641864, 41.899352], [-87.641772, 41.896963], [-87.641559, 41.896492], [-87.637178, 41.896556], [-87.63724, 41.898165], [-87.634817, 41.898197]], "type": "LineString"}, "properties": {"timestamp": "2023-05-28T14:30:46"}}, {"type": "Feature", "geometry": {"coordinates": [[-87.634817, 41.898197], [-87.634269, 41.898205], [-87.634054, 41.891576], [-87.644384, 41.891225], [-87.644242, 41.885699], [-87.645903, 41.885686], [-87.645999, 41.881827], [-87.646134, 41.880956], [-87.646145, 41.879569], [-87.646166, 41.878121], [-87.649135, 41.875728], [-87.697949, 41.875633], [-87.767488, 41.871015], [-87.810299, 41.874235], [-87.887193, 41.869778], [-87.903102, 41.873868], [-87.918965, 41.868556], [-87.929548, 41.857187], [-87.946695, 41.845298], [-87.978457, 41.84403], [-88.015984, 41.832098], [-88.021676, 41.827558], [-88.028569, 41.813668], [-88.034292, 41.810006], [-88.073498, 41.810084], [-88.087614, 41.805662], [-88.159381, 41.806483], [-88.164816, 41.807737], [-88.166633, 41.808158], [-88.17093, 41.842049], [-88.160935, 41.856978], [-88.176889, 41.857012], [-88.192877, 41.861458], [-88.19473, 41.863763], [-88.194407, 41.885083], [-88.204904, 41.884636]], "type": "LineString"}, "properties": {"timestamp": "2023-05-28T14:30:46"}}, {"type": "Feature", "geometry": {"coordinates": [[-88.204904, 41.884636], [-88.151092, 41.888137], [-88.150531, 41.907621], [-88.102946, 41.902084], [-88.037137, 41.904083], [-88.037235, 41.947209], [-88.026829, 41.958023], [-88.023332, 41.979277], [-88.023633, 41.993285], [-88.030784, 42.017964], [-88.029844, 42.045111], [-88.028387, 42.052731], [-88.024448, 42.056683], [-88.012455, 42.05373], [-87.97554, 42.03647], [-87.954188, 42.021115], [-87.898161, 42.007134], [-87.87696, 41.997457], [-87.864082, 41.988327], [-87.850425, 41.983769], [-87.78387, 41.982055], [-87.720007, 41.947686], [-87.715518, 41.942115], [-87.712526, 41.940478], [-87.712582, 41.942239], [-87.715459, 41.942862]], "type": "LineString"}, "properties": {"timestamp": "2023-05-29T11:45:44"}}]}