{"type": "FeatureCollection", "features": [{"type": "Feature", "geometry": {"coordinates": [[-87.65652, 41.928972], [-87.658589, 41.928939], [-87.658464, 41.925291], [-87.681912, 41.924981], [-87.685177, 41.926707], [-87.709664, 41.940439], [-87.714861, 41.942208], [-87.719618, 41.947985], [-87.738838, 41.958569], [-87.741371, 41.960451], [-87.74187, 41.960845], [-87.794161, 41.960081], [-87.807297, 41.953879], [-87.807233, 41.952116]], "type": "LineString"}, "properties": {"timestamp": "2023-09-06T16:59:10"}}, {"type": "Feature", "geometry": {"coordinates": [[-87.807233, 41.952116], [-87.807297, 41.953879], [-87.794287, 41.960061], [-87.747538, 41.960724], [-87.747627, 41.96438], [-87.745977, 41.964394], [-87.746614, 41.980044], [-87.751348, 41.987222], [-87.748898, 42.00867], [-87.752849, 42.014015], [-87.764685, 42.020691], [-87.768078, 42.024765], [-87.768407, 42.033299], [-87.764702, 42.038593], [-87.759717, 42.040844], [-87.690263, 42.041268], [-87.690207, 42.044647]], "type": "LineString"}, "properties": {"timestamp": "2023-09-06T19:01:10"}}, {"type": "Feature", "geometry": {"coordinates": [[-87.690207, 42.044647], [-87.690141, 42.048544], [-87.688792, 42.048527], [-87.687935, 42.051264], [-87.688175, 42.051825], [-87.689961, 42.053534], [-87.691181, 42.055254], [-87.694945, 42.059727], [-87.698812, 42.057894], [-87.698808, 42.058195]], "type": "LineString"}, "properties": {"timestamp": "2023-09-06T19:01:10"}}, {"type": "Feature", "geometry": {"coordinates": [[-87.698808, 42.058195], [-87.698812, 42.057894], [-87.694945, 42.059727], [-87.69372, 42.058289], [-87.693251, 42.05837], [-87.686041, 42.058418], [-87.685695, 42.058479], [-87.679659, 42.058405], [-87.679688, 42.056254], [-87.678194, 42.056237]], "type": "LineString"}, "properties": {"timestamp": "2023-09-06T19:04:52"}}, {"type": "Feature", "geometry": {"coordinates": [[-87.678194, 42.056237], [-87.677168, 42.056225], [-87.677291, 42.051106], [-87.680401, 42.044546], [-87.680565, 42.040143], [-87.673261, 42.005964], [-87.67037, 41.996873], [-87.669796, 41.987608], [-87.669769, 41.987519]], "type": "LineString"}, "properties": {"timestamp": "2023-09-06T19:04:52"}}, {"type": "Feature", "geometry": {"coordinates": [[-87.669769, 41.987519], [-87.669181, 41.985433], [-87.668766, 41.983497], [-87.661354, 41.983611], [-87.661271, 41.980907]], "type": "LineString"}, "properties": {"timestamp": "2023-09-06T19:31:30"}}, {"type": "Feature", "geometry": {"coordinates": [[-87.661271, 41.980907], [-87.661247, 41.979959], [-87.659972, 41.979979], [-87.659864, 41.976324], [-87.651813, 41.976453], [-87.650906, 41.976077], [-87.649079, 41.973006], [-87.645733, 41.957427], [-87.645546, 41.955777], [-87.644996, 41.953061], [-87.649638, 41.952749], [-87.64961, 41.95119], [-87.64957, 41.950114], [-87.650789, 41.950097]], "type": "LineString"}, "properties": {"timestamp": "2023-09-06T19:31:30"}}, {"type": "Feature", "geometry": {"coordinates": [[-87.650789, 41.950097], [-87.651978, 41.950079], [-87.651901, 41.947284], [-87.66644, 41.947045], [-87.666475, 41.948859], [-87.667351, 41.948845]], "type": "LineString"}, "properties": {"timestamp": "2023-09-06T19:49:46"}}, {"type": "Feature", "geometry": {"coordinates": [[-87.667351, 41.948845], [-87.667692, 41.94884], [-87.667642, 41.947026], [-87.698037, 41.946686], [-87.697902, 41.941887], [-87.700544, 41.941872], [-87.701556, 41.941084], [-87.704719, 41.941061]], "type": "LineString"}, "properties": {"timestamp": "2023-09-06T19:49:46"}}, {"type": "Feature", "geometry": {"coordinates": [[-87.704719, 41.941061], [-87.705221, 41.941057], [-87.705182, 41.939366], [-87.723912, 41.939142], [-87.735605, 41.946271], [-87.739921, 41.946215]], "type": "LineString"}, "properties": {"timestamp": "2023-09-06T20:07:56"}}, {"type": "Feature", "geometry": {"coordinates": [[-87.739921, 41.946215], [-87.739311, 41.946223], [-87.740947, 41.949504], [-87.749242, 41.954581], [-87.760755, 41.967869], [-87.761466, 41.967596], [-87.765021, 41.967822], [-87.77728, 41.967665], [-87.778289, 41.96853], [-87.784382, 41.968458], [-87.784371, 41.968977]], "type": "LineString"}, "properties": {"timestamp": "2023-09-06T20:07:56"}}, {"type": "Feature", "geometry": {"coordinates": [[-87.784371, 41.968977], [-87.784382, 41.968458], [-87.778289, 41.96853], [-87.77728, 41.967665], [-87.747723, 41.968033], [-87.747918, 41.972896], [-87.747761, 41.972794], [-87.747223, 41.966563], [-87.745232, 41.962358], [-87.719592, 41.947613], [-87.715306, 41.94215], [-87.709927, 41.940372], [-87.670146, 41.917654], [-87.66137, 41.906646], [-87.659246, 41.897685], [-87.647531, 41.888343], [-87.645999, 41.881827], [-87.646134, 41.880956], [-87.646145, 41.879569], [-87.646166, 41.878121], [-87.646107, 41.877218], [-87.645662, 41.872433], [-87.645367, 41.869682], [-87.644897, 41.859935], [-87.652249, 41.859831], [-87.6522, 41.858323]], "type": "LineString"}, "properties": {"timestamp": "2023-09-07T16:34:08"}}]}