{"type": "FeatureCollection", "features": [{"type": "Feature", "geometry": {"coordinates": [[-87.621085, 41.884319], [-87.620576, 41.884316], [-87.624371, 41.884484], [-87.624042, 41.900824], [-87.623664, 41.902709], [-87.62589, 41.912141], [-87.628743, 41.918036], [-87.631851, 41.928415], [-87.632273, 41.934701], [-87.633661, 41.936704], [-87.638342, 41.94059], [-87.64225, 41.947356], [-87.642515, 41.948658], [-87.643541, 41.95042]], "type": "LineString"}, "properties": {"timestamp": "2023-09-22T13:40:31"}}, {"type": "Feature", "geometry": {"coordinates": [[-87.643541, 41.95042], [-87.644356, 41.952797], [-87.643828, 41.954466], [-87.644162, 41.954667], [-87.64569, 41.95795], [-87.646094, 41.960253], [-87.645534, 41.962086], [-87.639779, 41.962798], [-87.639059, 41.963055], [-87.638571, 41.963606]], "type": "LineString"}, "properties": {"timestamp": "2023-09-22T14:04:11"}}, {"type": "Feature", "geometry": {"coordinates": [[-87.638571, 41.963606], [-87.639779, 41.962798], [-87.645534, 41.962086], [-87.646617, 41.963703], [-87.648867, 41.973421], [-87.652386, 41.98144], [-87.652765, 41.984866], [-87.653488, 41.985504], [-87.655253, 41.985556], [-87.655324, 41.987812]], "type": "LineString"}, "properties": {"timestamp": "2023-09-22T14:04:11"}}, {"type": "Feature", "geometry": {"coordinates": [[-87.655324, 41.987812], [-87.655324, 41.987812]], "type": "LineString"}, "properties": {"timestamp": "2023-09-22T14:09:38"}}, {"type": "Feature", "geometry": {"coordinates": [[-87.655324, 41.987812], [-87.655253, 41.985556], [-87.653157, 41.984999], [-87.652706, 41.981232], [-87.648822, 41.972134], [-87.644905, 41.955203], [-87.64469, 41.951193], [-87.639566, 41.942042], [-87.638796, 41.940268], [-87.653077, 41.939933]], "type": "LineString"}, "properties": {"timestamp": "2023-09-22T14:09:38"}}, {"type": "Feature", "geometry": {"coordinates": [[-87.653077, 41.939933], [-87.650679, 41.939965], [-87.649228, 41.938193], [-87.648495, 41.91731]], "type": "LineString"}, "properties": {"timestamp": "2023-09-22T14:43:58"}}, {"type": "Feature", "geometry": {"coordinates": [[-87.648495, 41.91731], [-87.64782, 41.896403], [-87.667365, 41.896069], [-87.667248, 41.892436], [-87.674614, 41.892319]], "type": "LineString"}, "properties": {"timestamp": "2023-09-22T14:43:58"}}, {"type": "Feature", "geometry": {"coordinates": [[-87.674614, 41.892319], [-87.674497, 41.892321], [-87.674452, 41.890868], [-87.667205, 41.890972], [-87.667101, 41.887379], [-87.666562, 41.887388]], "type": "LineString"}, "properties": {"timestamp": "2023-09-22T15:09:50"}}, {"type": "Feature", "geometry": {"coordinates": [[-87.666562, 41.887388], [-87.666979, 41.887381], [-87.667085, 41.890974], [-87.686683, 41.890646], [-87.687397, 41.916684], [-87.692276, 41.91663], [-87.692287, 41.917031]], "type": "LineString"}, "properties": {"timestamp": "2023-09-22T15:09:50"}}, {"type": "Feature", "geometry": {"coordinates": [[-87.692287, 41.917031], [-87.692301, 41.917536], [-87.705789, 41.917413]], "type": "LineString"}, "properties": {"timestamp": "2023-09-22T15:51:36"}}, {"type": "Feature", "geometry": {"coordinates": [[-87.705789, 41.917413], [-87.706934, 41.917401], [-87.707229, 41.924722], [-87.746319, 41.92425], [-87.746595, 41.931542], [-87.761321, 41.931344], [-87.761514, 41.936816], [-87.760791, 41.936824]], "type": "LineString"}, "properties": {"timestamp": "2023-09-22T15:51:36"}}, {"type": "Feature", "geometry": {"coordinates": [[-87.760791, 41.936824], [-87.756622, 41.936878], [-87.756691, 41.938708], [-87.732041, 41.939035], [-87.732084, 41.940855], [-87.73462, 41.940823], [-87.734593, 41.939903], [-87.732233, 41.939937]], "type": "LineString"}, "properties": {"timestamp": "2023-09-22T16:25:44"}}, {"type": "Feature", "geometry": {"coordinates": [[-87.732233, 41.939937], [-87.732062, 41.939939], [-87.732163, 41.944176], [-87.749242, 41.954581], [-87.766589, 41.974381], [-87.768475, 41.975215], [-87.768582, 41.972916], [-87.768993, 41.972594], [-87.769441, 41.972693], [-87.769407, 41.973665], [-87.762947, 41.971161]], "type": "LineString"}, "properties": {"timestamp": "2023-09-22T16:25:44"}}, {"type": "Feature", "geometry": {"coordinates": [[-87.762947, 41.971161], [-87.759145, 41.969592], [-87.756709, 41.967916], [-87.747723, 41.968033], [-87.747918, 41.972896], [-87.747761, 41.972794], [-87.747223, 41.966563], [-87.745961, 41.963113], [-87.742125, 41.960129], [-87.719592, 41.947613], [-87.715306, 41.94215], [-87.710219, 41.940524], [-87.698173, 41.933659], [-87.671115, 41.918139], [-87.668499, 41.915851], [-87.666712, 41.913088], [-87.665662, 41.910672], [-87.66776, 41.910633], [-87.667495, 41.901054], [-87.669888, 41.901009], [-87.669869, 41.900367]], "type": "LineString"}, "properties": {"timestamp": "2023-09-22T17:10:25"}}, {"type": "Feature", "geometry": {"coordinates": [[-87.669869, 41.900367], [-87.669955, 41.90331], [-87.667439, 41.903351], [-87.667641, 41.910635], [-87.664445, 41.910674], [-87.668091, 41.915886], [-87.670574, 41.91815], [-87.704001, 41.937344], [-87.706803, 41.939132], [-87.707849, 41.939349], [-87.717392, 41.939221], [-87.717269, 41.934647], [-87.718762, 41.934633]], "type": "LineString"}, "properties": {"timestamp": "2023-09-22T17:10:25"}}, {"type": "Feature", "geometry": {"coordinates": [[-87.718762, 41.934633], [-87.717269, 41.934647], [-87.716768, 41.917289], [-87.710267, 41.917363], [-87.710199, 41.914054]], "type": "LineString"}, "properties": {"timestamp": "2023-09-22T17:41:25"}}, {"type": "Feature", "geometry": {"coordinates": [[-87.710199, 41.914054], [-87.710192, 41.913804], [-87.710069, 41.910066], [-87.665662, 41.910672], [-87.665325, 41.910236], [-87.661439, 41.906386], [-87.658834, 41.896667], [-87.648602, 41.889352], [-87.646315, 41.886261], [-87.644998, 41.850609], [-87.642186, 41.847255], [-87.634652, 41.845323], [-87.63091, 41.84209], [-87.631289, 41.79178], [-87.631532, 41.783322], [-87.631833, 41.779372], [-87.632128, 41.779366], [-87.632538, 41.778543]], "type": "LineString"}, "properties": {"timestamp": "2023-09-22T17:41:25"}}, {"type": "Feature", "geometry": {"coordinates": [[-87.632538, 41.778543], [-87.632128, 41.779366], [-87.631833, 41.779372], [-87.631812, 41.778124], [-87.635009, 41.778077], [-87.635057, 41.779907], [-87.630139, 41.779931], [-87.630149, 41.780433], [-87.630393, 41.837743], [-87.631347, 41.844144], [-87.642036, 41.847354], [-87.644778, 41.850632], [-87.64591, 41.885931], [-87.6586, 41.897003], [-87.661061, 41.906443], [-87.668478, 41.916334], [-87.715161, 41.942387], [-87.719618, 41.947985], [-87.738838, 41.958569], [-87.741371, 41.960451], [-87.794161, 41.960081], [-87.816945, 41.949144], [-87.816641, 41.941072]], "type": "LineString"}, "properties": {"timestamp": "2023-09-22T18:39:22"}}, {"type": "Feature", "geometry": {"coordinates": [[-87.816641, 41.941072], [-87.816587, 41.939617], [-87.817797, 41.939594], [-87.818384, 41.948419], [-87.794287, 41.960061], [-87.786816, 41.960205], [-87.786909, 41.962988], [-87.788044, 41.964947], [-87.787472, 41.997353], [-87.718742, 41.997236], [-87.680123, 41.997903], [-87.680263, 42.001583], [-87.68146, 42.001563]], "type": "LineString"}, "properties": {"timestamp": "2023-09-22T18:39:22"}}, {"type": "Feature", "geometry": {"coordinates": [[-87.68146, 42.001563], [-87.681531, 42.004215], [-87.680342, 42.00423], [-87.680339, 42.004091], [-87.679672, 42.004103], [-87.680175, 42.005209], [-87.666961, 42.005444], [-87.666905, 42.003606], [-87.668125, 42.003585], [-87.668176, 42.005122]], "type": "LineString"}, "properties": {"timestamp": "2023-09-22T19:14:23"}}, {"type": "Feature", "geometry": {"coordinates": [[-87.668176, 42.005122], [-87.668185, 42.005422], [-87.660929, 42.005557], [-87.66054, 41.998191], [-87.660132, 41.985467], [-87.653157, 41.984999], [-87.648822, 41.972134], [-87.644611, 41.950978], [-87.638957, 41.941067], [-87.632527, 41.93482], [-87.632048, 41.928427], [-87.62421, 41.902733], [-87.619617, 41.900898], [-87.614304, 41.892985], [-87.614127, 41.884928], [-87.617453, 41.881821], [-87.617247, 41.869895], [-87.618862, 41.86764], [-87.632553, 41.867398], [-87.632533, 41.868904]], "type": "LineString"}, "properties": {"timestamp": "2023-09-22T19:14:23"}}, {"type": "Feature", "geometry": {"coordinates": [[-87.632533, 41.868904], [-87.632553, 41.867398], [-87.618739, 41.867474], [-87.617003, 41.869799], [-87.617167, 41.881825], [-87.613613, 41.884932], [-87.614041, 41.892878], [-87.619441, 41.900921], [-87.624048, 41.902893], [-87.631799, 41.928213], [-87.632273, 41.934701], [-87.638962, 41.941399], [-87.644572, 41.952992], [-87.644162, 41.954667], [-87.654549, 41.954492], [-87.65452, 41.95355], [-87.653557, 41.953599]], "type": "LineString"}, "properties": {"timestamp": "2023-10-02T16:41:12"}}]}