{"type": "FeatureCollection", "features": [{"type": "Feature", "geometry": {"coordinates": [[-87.650209, 41.902692], [-87.650958, 41.903601], [-87.660665, 41.90345], [-87.661253, 41.906799], [-87.669906, 41.91766], [-87.704001, 41.937344], [-87.707163, 41.939332], [-87.707595, 41.939599], [-87.707815, 41.945936], [-87.706972, 41.945366], [-87.706585, 41.946642], [-87.702918, 41.946663], [-87.702922, 41.946815]], "type": "LineString"}, "properties": {"timestamp": "2023-12-18T17:24:45"}}, {"type": "Feature", "geometry": {"coordinates": [[-87.702922, 41.946815], [-87.702918, 41.946663], [-87.698037, 41.946686], [-87.697848, 41.940244], [-87.695246, 41.940262], [-87.69448, 41.940229], [-87.694671, 41.940836]], "type": "LineString"}, "properties": {"timestamp": "2023-12-18T17:40:07"}}, {"type": "Feature", "geometry": {"coordinates": [[-87.694671, 41.940836], [-87.694511, 41.940307], [-87.695268, 41.939421], [-87.697818, 41.939404], [-87.697602, 41.932108], [-87.696547, 41.932116], [-87.669746, 41.917124], [-87.661559, 41.906635], [-87.658834, 41.896667], [-87.647099, 41.887778], [-87.645245, 41.851247], [-87.642429, 41.847384], [-87.634652, 41.845323], [-87.63091, 41.84209], [-87.631207, 41.779686], [-87.62615, 41.772555], [-87.624773, 41.727257], [-87.625042, 41.721653], [-87.614148, 41.721847], [-87.613623, 41.701839], [-87.611176, 41.701873], [-87.611204, 41.702924]], "type": "LineString"}, "properties": {"timestamp": "2023-12-18T17:40:07"}}, {"type": "Feature", "geometry": {"coordinates": [[-87.611204, 41.702924], [-87.611333, 41.70735], [-87.613769, 41.707313], [-87.613969, 41.714097], [-87.620899, 41.714985], [-87.623994, 41.718201], [-87.625651, 41.769497], [-87.626008, 41.77431], [-87.630456, 41.779138], [-87.630633, 41.789529], [-87.630499, 41.794196], [-87.615669, 41.794482], [-87.611263, 41.793256], [-87.607951, 41.791279], [-87.595743, 41.791442]], "type": "LineString"}, "properties": {"timestamp": "2023-12-18T18:37:04"}}, {"type": "Feature", "geometry": {"coordinates": [[-87.595743, 41.791442], [-87.585424, 41.791675], [-87.585162, 41.792279], [-87.584421, 41.792595], [-87.580163, 41.792433], [-87.579065, 41.795899], [-87.5812, 41.799076], [-87.581464, 41.802511], [-87.581975, 41.803976], [-87.585457, 41.806763], [-87.590001, 41.812328], [-87.593676, 41.815381], [-87.598158, 41.821212], [-87.599195, 41.823136], [-87.599849, 41.825435], [-87.604296, 41.824226], [-87.605374, 41.8244], [-87.606923, 41.823974], [-87.619991, 41.823804], [-87.619964, 41.822908]], "type": "LineString"}, "properties": {"timestamp": "2023-12-18T18:37:04"}}, {"type": "Feature", "geometry": {"coordinates": [[-87.619964, 41.822908], [-87.619964, 41.822908]], "type": "LineString"}, "properties": {"timestamp": "2023-12-18T18:59:17"}}, {"type": "Feature", "geometry": {"coordinates": [[-87.619964, 41.822908], [-87.619991, 41.823804], [-87.631351, 41.823664], [-87.631372, 41.823339], [-87.630703, 41.812695], [-87.63223, 41.807383], [-87.631289, 41.778978], [-87.626564, 41.773198], [-87.626239, 41.768925], [-87.626556, 41.766175], [-87.626545, 41.7655], [-87.644417, 41.765212], [-87.644436, 41.766001]], "type": "LineString"}, "properties": {"timestamp": "2023-12-18T18:59:17"}}, {"type": "Feature", "geometry": {"coordinates": [[-87.644436, 41.766001], [-87.644417, 41.765212], [-87.624899, 41.765368], [-87.624908, 41.765772], [-87.62543, 41.769557], [-87.626008, 41.77431], [-87.630526, 41.779578], [-87.630393, 41.837743], [-87.631347, 41.844144], [-87.642036, 41.847354], [-87.644829, 41.85074], [-87.644517, 41.867845], [-87.644628, 41.873521], [-87.645646, 41.875725], [-87.649223, 41.875863], [-87.688313, 41.875763], [-87.692409, 41.875862], [-87.698604, 41.87596], [-87.698638, 41.877405], [-87.69832, 41.877408]], "type": "LineString"}, "properties": {"timestamp": "2023-12-18T19:11:56"}}, {"type": "Feature", "geometry": {"coordinates": [[-87.69832, 41.877408], [-87.69832, 41.877408]], "type": "LineString"}, "properties": {"timestamp": "2023-12-18T19:11:56"}}, {"type": "Feature", "geometry": {"coordinates": [[-87.69832, 41.877408], [-87.696189, 41.877434], [-87.696127, 41.874902], [-87.695509, 41.874908], [-87.690201, 41.875125], [-87.659837, 41.87561], [-87.651569, 41.875318], [-87.635788, 41.875572], [-87.634246, 41.875312], [-87.634438, 41.874721], [-87.635124, 41.874834], [-87.635957, 41.875828], [-87.636629, 41.876812], [-87.636803, 41.876812]], "type": "LineString"}, "properties": {"timestamp": "2023-12-18T19:27:12"}}, {"type": "Feature", "geometry": {"coordinates": [[-87.636803, 41.876812], [-87.639817, 41.876769], [-87.639823, 41.875803], [-87.641365, 41.875647], [-87.651991, 41.875736], [-87.657268, 41.876192], [-87.662425, 41.876121], [-87.666742, 41.876354], [-87.666531, 41.869262], [-87.664071, 41.869299], [-87.664046, 41.868499], [-87.662379, 41.868526]], "type": "LineString"}, "properties": {"timestamp": "2023-12-18T19:27:12"}}, {"type": "Feature", "geometry": {"coordinates": [[-87.662379, 41.868526], [-87.661622, 41.868538], [-87.66156, 41.866979], [-87.666488, 41.866899], [-87.66624, 41.858705], [-87.666424, 41.858703]], "type": "LineString"}, "properties": {"timestamp": "2023-12-18T19:36:13"}}, {"type": "Feature", "geometry": {"coordinates": [[-87.666424, 41.858703], [-87.66624, 41.858705], [-87.666133, 41.855063], [-87.664038, 41.855112]], "type": "LineString"}, "properties": {"timestamp": "2023-12-18T19:36:13"}}, {"type": "Feature", "geometry": {"coordinates": [[-87.664038, 41.855112], [-87.666016, 41.855077], [-87.66633, 41.8669], [-87.700784, 41.866463], [-87.702431, 41.897899], [-87.701248, 41.907279], [-87.701932, 41.912147], [-87.698734, 41.912356]], "type": "LineString"}, "properties": {"timestamp": "2023-12-19T08:49:07"}}]}