{"type": "FeatureCollection", "features": [{"type": "Feature", "geometry": {"coordinates": [[-87.702344, 41.914235], [-87.702283, 41.912], [-87.701932, 41.912147], [-87.701837, 41.909559], [-87.701248, 41.907279], [-87.702278, 41.902886], [-87.745973, 41.902357], [-87.745806, 41.895007], [-87.751931, 41.894964], [-87.752005, 41.898397]], "type": "LineString"}, "properties": {"timestamp": "2023-12-20T09:22:06"}}, {"type": "Feature", "geometry": {"coordinates": [[-87.752005, 41.898397], [-87.75201, 41.898631], [-87.715822, 41.899117]], "type": "LineString"}, "properties": {"timestamp": "2023-12-20T09:35:37"}}, {"type": "Feature", "geometry": {"coordinates": [[-87.715822, 41.899117], [-87.716429, 41.899112], [-87.716556, 41.902232], [-87.746005, 41.913935], [-87.746595, 41.931542], [-87.742095, 41.931601], [-87.742172, 41.933579]], "type": "LineString"}, "properties": {"timestamp": "2023-12-20T09:35:37"}}, {"type": "Feature", "geometry": {"coordinates": [[-87.742172, 41.933579], [-87.742237, 41.935241], [-87.754096, 41.935091], [-87.754065, 41.93418], [-87.754361, 41.934176]], "type": "LineString"}, "properties": {"timestamp": "2023-12-20T09:59:07"}}, {"type": "Feature", "geometry": {"coordinates": [[-87.754361, 41.934176], [-87.756522, 41.934148], [-87.756691, 41.938708], [-87.746879, 41.93884], [-87.747918, 41.972896], [-87.747761, 41.972794], [-87.747223, 41.966563], [-87.745232, 41.962358], [-87.719592, 41.947613], [-87.715306, 41.94215], [-87.709927, 41.940372], [-87.670146, 41.917654], [-87.66137, 41.906646], [-87.659246, 41.897685], [-87.646473, 41.886676], [-87.644538, 41.861936], [-87.644794, 41.857575], [-87.646633, 41.857542], [-87.646649, 41.858102], [-87.66163, 41.857876]], "type": "LineString"}, "properties": {"timestamp": "2023-12-20T09:59:07"}}, {"type": "Feature", "geometry": {"coordinates": [[-87.66163, 41.857876], [-87.646649, 41.858102], [-87.646633, 41.857542], [-87.643769, 41.857593], [-87.643778, 41.857758], [-87.645711, 41.877665], [-87.645685, 41.885013], [-87.646457, 41.887151], [-87.64861, 41.889615], [-87.658396, 41.896733], [-87.660726, 41.901461], [-87.661061, 41.906443], [-87.664439, 41.910145], [-87.668818, 41.916712], [-87.678438, 41.922676], [-87.681513, 41.924733], [-87.721872, 41.924553], [-87.721865, 41.924264]], "type": "LineString"}, "properties": {"timestamp": "2023-12-21T08:40:57"}}]}