{"type": "FeatureCollection", "features": [{"type": "Feature", "geometry": {"coordinates": [[-87.685699, 42.047071], [-87.68872, 42.047097], [-87.688792, 42.048527], [-87.687935, 42.051264], [-87.711058, 42.078937], [-87.71652, 42.078997], [-87.716532, 42.077611]], "type": "LineString"}, "properties": {"timestamp": "2023-12-15T16:47:10"}}, {"type": "Feature", "geometry": {"coordinates": [[-87.716532, 42.077611], [-87.71652, 42.078997], [-87.72495, 42.079096], [-87.724943, 42.079767]], "type": "LineString"}, "properties": {"timestamp": "2023-12-15T16:59:58"}}, {"type": "Feature", "geometry": {"coordinates": [[-87.724943, 42.079767], [-87.72495, 42.079096], [-87.711058, 42.078937], [-87.688186, 42.051727], [-87.688792, 42.048527], [-87.685633, 42.048504], [-87.680792, 42.048251], [-87.680072, 42.049698], [-87.681446, 42.049972]], "type": "LineString"}, "properties": {"timestamp": "2023-12-15T16:59:58"}}, {"type": "Feature", "geometry": {"coordinates": [[-87.681446, 42.049972], [-87.683347, 42.049984], [-87.683358, 42.049605]], "type": "LineString"}, "properties": {"timestamp": "2023-12-15T17:21:58"}}, {"type": "Feature", "geometry": {"coordinates": [[-87.683358, 42.049605], [-87.683358, 42.049605]], "type": "LineString"}, "properties": {"timestamp": "2023-12-15T17:21:58"}}, {"type": "Feature", "geometry": {"coordinates": [[-87.683358, 42.049605], [-87.683297, 42.051626], [-87.683837, 42.052035], [-87.683995, 42.052088], [-87.687872, 42.052166], [-87.688123, 42.05095], [-87.688517, 42.0498], [-87.688587, 42.049394]], "type": "LineString"}, "properties": {"timestamp": "2023-12-15T17:26:40"}}, {"type": "Feature", "geometry": {"coordinates": [[-87.688587, 42.049394], [-87.687935, 42.051264], [-87.688577, 42.052175], [-87.706397, 42.05196], [-87.709225, 42.052495], [-87.716109, 42.055369], [-87.740001, 42.055271], [-87.753443, 42.044448], [-87.769885, 42.022521], [-87.772571, 42.020662], [-87.772675, 42.019497], [-87.777105, 42.019194], [-87.773348, 42.011959], [-87.771833, 42.011895], [-87.77079, 42.008293], [-87.770118, 42.008278]], "type": "LineString"}, "properties": {"timestamp": "2023-12-15T17:26:40"}}, {"type": "Feature", "geometry": {"coordinates": [[-87.770118, 42.008278], [-87.77079, 42.008293], [-87.77088, 42.008351], [-87.771875, 42.010274], [-87.771834, 42.012007], [-87.773219, 42.012], [-87.773348, 42.011959], [-87.77782, 42.011989]], "type": "LineString"}, "properties": {"timestamp": "2023-12-15T18:03:24"}}, {"type": "Feature", "geometry": {"coordinates": [[-87.77782, 42.011989], [-87.773348, 42.011959], [-87.765439, 41.996715], [-87.753476, 41.991079], [-87.749259, 41.989853], [-87.728634, 41.990146], [-87.728031, 41.968251], [-87.714891, 41.968394]], "type": "LineString"}, "properties": {"timestamp": "2023-12-15T18:03:24"}}, {"type": "Feature", "geometry": {"coordinates": [[-87.714891, 41.968394], [-87.715821, 41.968384], [-87.715763, 41.966567], [-87.716128, 41.966563]], "type": "LineString"}, "properties": {"timestamp": "2023-12-15T18:36:16"}}, {"type": "Feature", "geometry": {"coordinates": [[-87.716128, 41.966563], [-87.715763, 41.966567], [-87.715377, 41.953886], [-87.727612, 41.95365], [-87.727395, 41.946377], [-87.735605, 41.946271], [-87.734699, 41.9457], [-87.734572, 41.939174]], "type": "LineString"}, "properties": {"timestamp": "2023-12-15T18:36:16"}}, {"type": "Feature", "geometry": {"coordinates": [[-87.734572, 41.939174], [-87.734567, 41.939004], [-87.727187, 41.939096], [-87.726455, 41.92266], [-87.72708, 41.92265], [-87.726719, 41.921834], [-87.726341, 41.90987], [-87.718643, 41.909964]], "type": "LineString"}, "properties": {"timestamp": "2023-12-15T19:37:32"}}, {"type": "Feature", "geometry": {"coordinates": [[-87.718643, 41.909964], [-87.706907, 41.910104], [-87.706651, 41.898325], [-87.702222, 41.896575], [-87.701974, 41.891131], [-87.701479, 41.889426], [-87.70111, 41.877385], [-87.693785, 41.877461], [-87.693796, 41.878371], [-87.696046, 41.878346]], "type": "LineString"}, "properties": {"timestamp": "2023-12-15T19:37:32"}}, {"type": "Feature", "geometry": {"coordinates": [[-87.696046, 41.878346], [-87.696214, 41.878344], [-87.696237, 41.879261], [-87.69254, 41.879282]], "type": "LineString"}, "properties": {"timestamp": "2023-12-15T20:11:29"}}, {"type": "Feature", "geometry": {"coordinates": [[-87.69254, 41.879282], [-87.693898, 41.879284], [-87.69393, 41.880189], [-87.696261, 41.880169], [-87.696127, 41.874902], [-87.695509, 41.874908], [-87.690201, 41.875125], [-87.659837, 41.87561], [-87.650308, 41.875329], [-87.647601, 41.875302], [-87.645452, 41.874563], [-87.644482, 41.875077], [-87.64458, 41.876036], [-87.64558, 41.877925], [-87.645654, 41.884644], [-87.646015, 41.886212], [-87.647638, 41.88874], [-87.650048, 41.890597], [-87.651108, 41.891699], [-87.650775, 41.89225], [-87.65007, 41.892434], [-87.626742, 41.892498], [-87.626665, 41.889909]], "type": "LineString"}, "properties": {"timestamp": "2023-12-15T20:11:29"}}, {"type": "Feature", "geometry": {"coordinates": [[-87.626665, 41.889909], [-87.626758, 41.893295], [-87.632534, 41.893212], [-87.632844, 41.90389], [-87.639563, 41.903768], [-87.664499, 41.921692]], "type": "LineString"}, "properties": {"timestamp": "2023-12-16T17:50:03"}}]}