{"type": "FeatureCollection", "features": [{"type": "Feature", "geometry": {"coordinates": [[-87.736648, 41.948162], [-87.736694, 41.949925], [-87.738048, 41.949908], [-87.738018, 41.948431], [-87.73847, 41.948006], [-87.735605, 41.946271], [-87.747072, 41.946122], [-87.746595, 41.931542], [-87.751741, 41.93147]], "type": "LineString"}, "properties": {"timestamp": "2023-11-12T14:47:34"}}, {"type": "Feature", "geometry": {"coordinates": [[-87.751741, 41.93147], [-87.746595, 41.931542], [-87.74658, 41.929301], [-87.746494, 41.929238], [-87.746319, 41.92425], [-87.733273, 41.924417]], "type": "LineString"}, "properties": {"timestamp": "2023-11-12T15:05:36"}}, {"type": "Feature", "geometry": {"coordinates": [[-87.733273, 41.924417], [-87.687645, 41.924902], [-87.68746, 41.919088], [-87.682568, 41.91918], [-87.682542, 41.918425], [-87.683685, 41.918404]], "type": "LineString"}, "properties": {"timestamp": "2023-11-12T15:05:36"}}, {"type": "Feature", "geometry": {"coordinates": [[-87.683685, 41.918404], [-87.684991, 41.918381], [-87.684968, 41.91763], [-87.673991, 41.917824], [-87.673782, 41.90961], [-87.673955, 41.909456]], "type": "LineString"}, "properties": {"timestamp": "2023-11-12T15:26:28"}}, {"type": "Feature", "geometry": {"coordinates": [[-87.673955, 41.909456], [-87.673782, 41.90961], [-87.673945, 41.916014], [-87.66782, 41.916129], [-87.663815, 41.917067], [-87.66003, 41.917114], [-87.663134, 41.919363], [-87.663168, 41.920731], [-87.664499, 41.921692]], "type": "LineString"}, "properties": {"timestamp": "2023-11-12T15:26:28"}}, {"type": "Feature", "geometry": {"coordinates": [[-87.664499, 41.921692], [-87.664379, 41.921608], [-87.6632, 41.921626], [-87.663616, 41.934302], [-87.664529, 41.934287]], "type": "LineString"}, "properties": {"timestamp": "2023-11-12T15:33:37"}}, {"type": "Feature", "geometry": {"coordinates": [[-87.664529, 41.934287], [-87.666043, 41.934262], [-87.66601, 41.933349], [-87.668485, 41.933309], [-87.668122, 41.924169], [-87.668616, 41.921563], [-87.677255, 41.921395], [-87.671848, 41.918587], [-87.669405, 41.916815], [-87.667999, 41.915202], [-87.664752, 41.909975], [-87.661748, 41.90696], [-87.661171, 41.905495], [-87.661131, 41.901587], [-87.659383, 41.897534], [-87.658904, 41.896502], [-87.657508, 41.895016], [-87.657432, 41.893502], [-87.658764, 41.893479]], "type": "LineString"}, "properties": {"timestamp": "2023-11-12T15:33:37"}}, {"type": "Feature", "geometry": {"coordinates": [[-87.658764, 41.893479], [-87.66233, 41.893417], [-87.662267, 41.891027], [-87.687437, 41.890657], [-87.699899, 41.895625], [-87.702191, 41.895594], [-87.70214, 41.893559], [-87.700875, 41.893207], [-87.695059, 41.890806], [-87.694676, 41.891316], [-87.694237, 41.89119]], "type": "LineString"}, "properties": {"timestamp": "2023-11-12T15:55:46"}}, {"type": "Feature", "geometry": {"coordinates": [[-87.694237, 41.89119], [-87.695059, 41.890806], [-87.70214, 41.893559], [-87.701026, 41.874345], [-87.695509, 41.874908], [-87.690201, 41.875125], [-87.650308, 41.875329], [-87.648052, 41.875215], [-87.646014, 41.874037], [-87.644983, 41.869485], [-87.644998, 41.850609], [-87.642186, 41.847255], [-87.634652, 41.845323], [-87.63091, 41.84209], [-87.631289, 41.79178], [-87.631289, 41.778978], [-87.626564, 41.773198], [-87.626239, 41.768925], [-87.626556, 41.766175], [-87.626545, 41.7655], [-87.658969, 41.764986], [-87.658872, 41.761357]], "type": "LineString"}, "properties": {"timestamp": "2023-11-12T15:55:46"}}, {"type": "Feature", "geometry": {"coordinates": [[-87.658872, 41.761357], [-87.658969, 41.764986], [-87.654113, 41.765061], [-87.655253, 41.808751], [-87.645541, 41.808882], [-87.645788, 41.818634], [-87.648779, 41.818747], [-87.648815, 41.819697]], "type": "LineString"}, "properties": {"timestamp": "2023-11-12T16:25:09"}}, {"type": "Feature", "geometry": {"coordinates": [[-87.648815, 41.819697], [-87.648779, 41.818747], [-87.65541, 41.818606], [-87.655335, 41.815987], [-87.664428, 41.815875], [-87.664845, 41.815401], [-87.665068, 41.815399], [-87.665079, 41.815874], [-87.684051, 41.815705], [-87.684046, 41.815484], [-87.684007, 41.813884], [-87.683875, 41.808416], [-87.714276, 41.808006], [-87.724727, 41.801549], [-87.743005, 41.798665], [-87.742983, 41.797609], [-87.743235, 41.797604], [-87.743185, 41.795686], [-87.747745, 41.795505]], "type": "LineString"}, "properties": {"timestamp": "2023-11-12T16:25:09"}}, {"type": "Feature", "geometry": {"coordinates": [[-87.747745, 41.795505], [-87.743185, 41.795686], [-87.743235, 41.797604], [-87.742983, 41.797609], [-87.742962, 41.79668], [-87.743306, 41.816777], [-87.680385, 41.836711], [-87.667241, 41.837594], [-87.651015, 41.845157], [-87.641938, 41.847117], [-87.616851, 41.847976], [-87.613392, 41.848153], [-87.612168, 41.84938], [-87.619244, 41.8661], [-87.617003, 41.869799], [-87.617167, 41.881825], [-87.613645, 41.884762], [-87.614003, 41.89273], [-87.619441, 41.900921], [-87.624048, 41.902893], [-87.631851, 41.928415], [-87.632152, 41.934381], [-87.63676, 41.939073], [-87.638088, 41.940568], [-87.649275, 41.939973], [-87.64915, 41.936386], [-87.651561, 41.936331], [-87.651544, 41.935872], [-87.652867, 41.935843]], "type": "LineString"}, "properties": {"timestamp": "2023-11-12T16:37:08"}}, {"type": "Feature", "geometry": {"coordinates": [[-87.652867, 41.935843], [-87.651544, 41.935872], [-87.651561, 41.936331], [-87.64915, 41.936386], [-87.649275, 41.939973], [-87.638796, 41.940268], [-87.638606, 41.939931], [-87.632453, 41.934639], [-87.632048, 41.928427], [-87.62421, 41.902733], [-87.619617, 41.900898], [-87.614264, 41.892868], [-87.614127, 41.884928], [-87.617453, 41.881821], [-87.617261, 41.869765], [-87.619588, 41.866208], [-87.614728, 41.853242], [-87.614444, 41.848506], [-87.626818, 41.84732], [-87.631727, 41.847855], [-87.631351, 41.843118], [-87.631163, 41.834246], [-87.631513, 41.830937], [-87.628964, 41.830973], [-87.628906, 41.830427]], "type": "LineString"}, "properties": {"timestamp": "2023-11-12T16:37:08"}}, {"type": "Feature", "geometry": {"coordinates": [[-87.628906, 41.830427], [-87.628964, 41.830973], [-87.629817, 41.830961], [-87.629831, 41.831311], [-87.630393, 41.837743], [-87.630317, 41.842376], [-87.631347, 41.844144], [-87.633465, 41.84523], [-87.642036, 41.847354], [-87.644778, 41.850632], [-87.644396, 41.865222], [-87.64591, 41.885931], [-87.648317, 41.889375], [-87.65785, 41.896124], [-87.660194, 41.900116], [-87.660665, 41.90345], [-87.665045, 41.903374], [-87.665061, 41.903929]], "type": "LineString"}, "properties": {"timestamp": "2023-11-12T17:31:46"}}, {"type": "Feature", "geometry": {"coordinates": [[-87.665061, 41.903929], [-87.665154, 41.907034], [-87.667524, 41.907003], [-87.66782, 41.916129], [-87.663815, 41.917067], [-87.658201, 41.917264], [-87.65877, 41.934372], [-87.65635, 41.934416], [-87.656389, 41.935584]], "type": "LineString"}, "properties": {"timestamp": "2023-11-12T17:31:46"}}, {"type": "Feature", "geometry": {"coordinates": [[-87.656389, 41.935584], [-87.656415, 41.93624], [-87.653987, 41.936284], [-87.653741, 41.929016], [-87.638503, 41.918106]], "type": "LineString"}, "properties": {"timestamp": "2023-11-12T17:45:43"}}, {"type": "Feature", "geometry": {"coordinates": [[-87.638503, 41.918106], [-87.638808, 41.918322], [-87.658214, 41.918041], [-87.658378, 41.917139], [-87.663815, 41.917067], [-87.666413, 41.916455], [-87.667946, 41.918441], [-87.672314, 41.921495], [-87.677765, 41.92139], [-87.677716, 41.920058], [-87.685039, 41.91991], [-87.685062, 41.920656], [-87.684471, 41.920667]], "type": "LineString"}, "properties": {"timestamp": "2023-11-12T17:45:43"}}, {"type": "Feature", "geometry": {"coordinates": [[-87.684471, 41.920667], [-87.683659, 41.920683], [-87.683684, 41.921904], [-87.684684, 41.921892], [-87.684702, 41.922659], [-87.685139, 41.922653], [-87.685228, 41.924938], [-87.682301, 41.924978], [-87.685177, 41.926707], [-87.709664, 41.940439], [-87.714861, 41.942208], [-87.719618, 41.947985], [-87.738838, 41.958569], [-87.741371, 41.960451], [-87.74187, 41.960845], [-87.794287, 41.960061], [-87.822074, 41.946631], [-87.821404, 41.937842], [-87.820185, 41.937866], [-87.820102, 41.936076], [-87.820727, 41.936062], [-87.82067, 41.934634]], "type": "LineString"}, "properties": {"timestamp": "2023-11-12T18:05:15"}}, {"type": "Feature", "geometry": {"coordinates": [[-87.82067, 41.934634], [-87.820654, 41.93424], [-87.821275, 41.934229], [-87.821404, 41.937842], [-87.786046, 41.938315], [-87.786299, 41.945676], [-87.71959, 41.946484], [-87.718156, 41.944989], [-87.715518, 41.942115], [-87.709442, 41.939977], [-87.673831, 41.919706], [-87.671882, 41.918264], [-87.671723, 41.918151], [-87.667505, 41.91793], [-87.666413, 41.916455], [-87.663815, 41.917067], [-87.658378, 41.917139], [-87.658214, 41.918041], [-87.648523, 41.918178], [-87.648495, 41.91731]], "type": "LineString"}, "properties": {"timestamp": "2023-11-12T18:05:15"}}, {"type": "Feature", "geometry": {"coordinates": [[-87.71618, 41.849994], [-87.716226, 41.851656], [-87.711165, 41.851938], [-87.710877, 41.851661], [-87.685627, 41.852039], [-87.6858, 41.85724], [-87.684175, 41.857567], [-87.66163, 41.857876]], "type": "LineString"}, "properties": {"timestamp": "2023-11-12T18:43:38"}}, {"type": "Feature", "geometry": {"coordinates": [[-87.66163, 41.857876], [-87.661146, 41.857883], [-87.653364, 41.867014], [-87.646914, 41.86712], [-87.646884, 41.869551], [-87.644443, 41.869691], [-87.644854, 41.873493], [-87.644167, 41.87559], [-87.645364, 41.877863], [-87.645275, 41.880374], [-87.645355, 41.881847], [-87.645213, 41.883151], [-87.641266, 41.883178], [-87.639745, 41.883185], [-87.631699, 41.883246], [-87.630932, 41.883184], [-87.63088, 41.882086]], "type": "LineString"}, "properties": {"timestamp": "2023-11-12T18:43:38"}}, {"type": "Feature", "geometry": {"coordinates": [[-87.63088, 41.882086], [-87.630875, 41.881984], [-87.631509, 41.881974], [-87.632365, 41.882009], [-87.632417, 41.883243], [-87.629431, 41.883235], [-87.629727, 41.894584]], "type": "LineString"}, "properties": {"timestamp": "2023-11-12T19:07:22"}}, {"type": "Feature", "geometry": {"coordinates": [[-87.629727, 41.894584], [-87.629736, 41.89485], [-87.631201, 41.894831], [-87.630953, 41.884477], [-87.635401, 41.884465], [-87.635419, 41.885733], [-87.634134, 41.885735]], "type": "LineString"}, "properties": {"timestamp": "2023-11-12T19:07:22"}}, {"type": "Feature", "geometry": {"coordinates": [[-87.634134, 41.885735], [-87.633948, 41.885735], [-87.633848, 41.881941], [-87.64573, 41.881801], [-87.645735, 41.885306], [-87.646327, 41.886906], [-87.647404, 41.888483], [-87.64861, 41.889615], [-87.657024, 41.895403], [-87.658783, 41.897251], [-87.659213, 41.898537], [-87.659164, 41.89954], [-87.659701, 41.899938], [-87.674089, 41.899597], [-87.67412, 41.90052]], "type": "LineString"}, "properties": {"timestamp": "2023-11-12T20:24:47"}}, {"type": "Feature", "geometry": {"coordinates": [[-87.67412, 41.90052], [-87.674089, 41.899597], [-87.677161, 41.899544], [-87.677057, 41.895912], [-87.701213, 41.895606]], "type": "LineString"}, "properties": {"timestamp": "2023-11-12T20:24:47"}}, {"type": "Feature", "geometry": {"coordinates": [[-87.701213, 41.895606], [-87.631243, 41.896633], [-87.631219, 41.895637], [-87.630373, 41.895653]], "type": "LineString"}, "properties": {"timestamp": "2023-11-12T20:36:06"}}, {"type": "Feature", "geometry": {"coordinates": [[-87.630373, 41.895653], [-87.629762, 41.895665], [-87.62978, 41.896655], [-87.631243, 41.896633], [-87.630715, 41.875701], [-87.651339, 41.875719], [-87.657603, 41.876197], [-87.688313, 41.875763], [-87.692409, 41.875862], [-87.695752, 41.875985]], "type": "LineString"}, "properties": {"timestamp": "2023-11-12T20:36:06"}}, {"type": "Feature", "geometry": {"coordinates": [[-87.695752, 41.875985], [-87.696151, 41.875983], [-87.696127, 41.874902], [-87.695509, 41.874908], [-87.690201, 41.875125], [-87.662068, 41.875578], [-87.656893, 41.875346], [-87.657028, 41.877789], [-87.64957, 41.877909], [-87.649583, 41.878315]], "type": "LineString"}, "properties": {"timestamp": "2023-11-12T20:45:25"}}, {"type": "Feature", "geometry": {"coordinates": [[-87.649583, 41.878315], [-87.649697, 41.881744], [-87.645827, 41.8818], [-87.645988, 41.877697], [-87.644752, 41.867365], [-87.644363, 41.857367], [-87.645793, 41.852447], [-87.644333, 41.849097], [-87.643039, 41.847022], [-87.641933, 41.846546], [-87.638623, 41.847063], [-87.636332, 41.847079], [-87.634629, 41.84669], [-87.632091, 41.847362], [-87.628234, 41.846918], [-87.624498, 41.847737], [-87.622076, 41.847894], [-87.619892, 41.847688], [-87.618334, 41.847696], [-87.618041, 41.848104], [-87.618375, 41.848483], [-87.623694, 41.848423], [-87.623807, 41.852795], [-87.622709, 41.85281]], "type": "LineString"}, "properties": {"timestamp": "2023-11-12T20:45:25"}}, {"type": "Feature", "geometry": {"coordinates": [[-87.622709, 41.85281], [-87.622234, 41.852813], [-87.622136, 41.848387], [-87.622953, 41.848481], [-87.624768, 41.848314], [-87.626571, 41.847768], [-87.626637, 41.847047], [-87.626399, 41.846884], [-87.626258, 41.84692], [-87.624884, 41.847492], [-87.622663, 41.847885], [-87.616851, 41.847976], [-87.613392, 41.848153], [-87.612502, 41.848702], [-87.612168, 41.84938], [-87.612223, 41.849917], [-87.613531, 41.852962], [-87.615427, 41.855833], [-87.616068, 41.858122], [-87.617238, 41.857825], [-87.616421, 41.856365], [-87.615619, 41.854301], [-87.616027, 41.855615], [-87.616271, 41.855561], [-87.615604, 41.854397], [-87.615902, 41.854329]], "type": "LineString"}, "properties": {"timestamp": "2023-11-12T21:04:45"}}, {"type": "Feature", "geometry": {"coordinates": [[-87.615902, 41.854329], [-87.615604, 41.854397], [-87.616271, 41.855561], [-87.616027, 41.855615], [-87.615619, 41.854301], [-87.615992, 41.85521], [-87.616959, 41.854986], [-87.616876, 41.85573], [-87.616543, 41.856402], [-87.617503, 41.857757], [-87.616068, 41.858122], [-87.61744, 41.859955], [-87.618709, 41.863523], [-87.62045, 41.867696], [-87.62062, 41.875872]], "type": "LineString"}, "properties": {"timestamp": "2023-11-12T21:04:45"}}, {"type": "Feature", "geometry": {"coordinates": [[-87.62062, 41.875872], [-87.620697, 41.878331], [-87.624208, 41.878293], [-87.624303, 41.880103], [-87.624209, 41.88245], [-87.624344, 41.884366], [-87.623414, 41.884372], [-87.622907, 41.884293], [-87.620237, 41.884324], [-87.617593, 41.884399], [-87.617441, 41.884426], [-87.617389, 41.884538], [-87.615772, 41.884596], [-87.615797, 41.885979]], "type": "LineString"}, "properties": {"timestamp": "2023-11-12T21:25:04"}}, {"type": "Feature", "geometry": {"coordinates": [[-87.615797, 41.885979], [-87.615832, 41.884562], [-87.627902, 41.884489], [-87.627799, 41.882046], [-87.630875, 41.881984], [-87.630743, 41.876886], [-87.633707, 41.876853], [-87.633684, 41.87567], [-87.641651, 41.875644], [-87.643837, 41.875809], [-87.645614, 41.876437], [-87.646562, 41.876207], [-87.646845, 41.87554], [-87.645662, 41.872433], [-87.644752, 41.867365], [-87.644538, 41.861936], [-87.644794, 41.857575], [-87.646633, 41.857542], [-87.646649, 41.858102], [-87.66163, 41.857876]], "type": "LineString"}, "properties": {"timestamp": "2023-11-12T21:25:04"}}, {"type": "Feature", "geometry": {"coordinates": [[-87.66163, 41.857876], [-87.661146, 41.857883], [-87.657196, 41.862517], [-87.651784, 41.862587], [-87.650889, 41.862292], [-87.650938, 41.863505], [-87.653231, 41.863458], [-87.653216, 41.863051]], "type": "LineString"}, "properties": {"timestamp": "2023-11-12T21:41:42"}}, {"type": "Feature", "geometry": {"coordinates": [[-87.653216, 41.863051], [-87.653231, 41.863458], [-87.650938, 41.863505], [-87.651046, 41.867054], [-87.645128, 41.867138], [-87.645098, 41.866852], [-87.644357, 41.857055], [-87.645374, 41.852823], [-87.644998, 41.850609], [-87.642186, 41.847255], [-87.634652, 41.845323], [-87.632773, 41.844384], [-87.631597, 41.842703], [-87.631069, 41.830548], [-87.631351, 41.823664], [-87.619991, 41.823804], [-87.619964, 41.822908]], "type": "LineString"}, "properties": {"timestamp": "2023-11-12T21:41:42"}}, {"type": "Feature", "geometry": {"coordinates": [[-87.619964, 41.822908], [-87.619991, 41.823804], [-87.606897, 41.823876], [-87.605315, 41.824296], [-87.604016, 41.824107], [-87.599849, 41.825435], [-87.600748, 41.826609], [-87.604294, 41.829367], [-87.607125, 41.833032], [-87.608141, 41.838145], [-87.611271, 41.845693], [-87.613467, 41.852437], [-87.615427, 41.855833], [-87.616068, 41.858122], [-87.617238, 41.857825], [-87.615619, 41.854301], [-87.616027, 41.855615], [-87.616271, 41.855561], [-87.615604, 41.854397], [-87.615902, 41.854329]], "type": "LineString"}, "properties": {"timestamp": "2023-11-12T21:50:45"}}, {"type": "Feature", "geometry": {"coordinates": [[-87.615902, 41.854329], [-87.615604, 41.854397], [-87.616271, 41.855561], [-87.616027, 41.855615], [-87.615619, 41.854301], [-87.615992, 41.85521], [-87.616959, 41.854986], [-87.616876, 41.85573], [-87.616543, 41.856402], [-87.617503, 41.857757], [-87.616068, 41.858122], [-87.61744, 41.859955], [-87.618159, 41.861647], [-87.619249, 41.866344], [-87.617003, 41.869799], [-87.617167, 41.881825], [-87.61661, 41.882664], [-87.614476, 41.883639], [-87.613723, 41.884512], [-87.614006, 41.889097], [-87.613604, 41.890559], [-87.613057, 41.890879], [-87.61169, 41.890948], [-87.611597, 41.891968], [-87.628071, 41.891667], [-87.628109, 41.893025]], "type": "LineString"}, "properties": {"timestamp": "2023-11-12T21:50:45"}}, {"type": "Feature", "geometry": {"coordinates": [[-87.628109, 41.893025], [-87.628071, 41.891667], [-87.631127, 41.891621], [-87.631072, 41.889473]], "type": "LineString"}, "properties": {"timestamp": "2023-11-12T22:16:07"}}, {"type": "Feature", "geometry": {"coordinates": [[-87.631072, 41.889473], [-87.631063, 41.889218], [-87.644337, 41.889054], [-87.666488, 41.903364], [-87.67239, 41.903268], [-87.672395, 41.903498]], "type": "LineString"}, "properties": {"timestamp": "2023-11-12T22:16:07"}}, {"type": "Feature", "geometry": {"coordinates": [[-87.672395, 41.903498], [-87.67239, 41.903268], [-87.667439, 41.903351], [-87.667641, 41.910635], [-87.664445, 41.910674], [-87.668091, 41.915886], [-87.670574, 41.91815], [-87.709664, 41.940439], [-87.714861, 41.942208], [-87.719618, 41.947985], [-87.738838, 41.958569], [-87.741371, 41.960451], [-87.731425, 41.960918], [-87.733603, 41.962417]], "type": "LineString"}, "properties": {"timestamp": "2023-11-13T16:09:58"}}]}