{"type": "FeatureCollection", "features": [{"type": "Feature", "geometry": {"coordinates": [[-87.736648, 41.948162], [-87.736807, 41.953551], [-87.731304, 41.953617], [-87.719717, 41.947499], [-87.715518, 41.942115], [-87.709442, 41.939977], [-87.670155, 41.917456], [-87.661559, 41.906635], [-87.660921, 41.900902], [-87.659049, 41.896968], [-87.657114, 41.895018], [-87.653963, 41.891931], [-87.651034, 41.892554], [-87.632701, 41.89242], [-87.6324, 41.882849]], "type": "LineString"}, "properties": {"timestamp": "2023-08-24T08:21:48"}}, {"type": "Feature", "geometry": {"coordinates": [[-87.6324, 41.882849], [-87.632417, 41.883243], [-87.629431, 41.883235], [-87.629727, 41.894584]], "type": "LineString"}, "properties": {"timestamp": "2023-08-24T09:02:52"}}, {"type": "Feature", "geometry": {"coordinates": [[-87.629727, 41.894584], [-87.629736, 41.89485], [-87.631201, 41.894831], [-87.631163, 41.893233], [-87.637063, 41.893148], [-87.64596, 41.892522], [-87.65028, 41.892674], [-87.653268, 41.892622], [-87.658404, 41.896481], [-87.660896, 41.901399], [-87.66137, 41.906646], [-87.670146, 41.917654], [-87.709927, 41.940372], [-87.715306, 41.94215], [-87.719592, 41.947613], [-87.741635, 41.95982], [-87.746287, 41.963594], [-87.747426, 41.975724], [-87.74607, 41.976396], [-87.745776, 41.975364], [-87.765782, 41.975122], [-87.766315, 41.975691], [-87.771273, 41.975715], [-87.784738, 41.982513], [-87.812691, 41.982443], [-87.826001, 41.984517], [-87.831845, 41.984836], [-87.836934, 41.984644], [-87.847951, 41.984101], [-87.869867, 41.98434], [-87.876278, 41.982187], [-87.879427, 41.989209], [-87.883479, 41.992283], [-87.88441, 41.994995], [-87.882827, 41.991428]], "type": "LineString"}, "properties": {"timestamp": "2023-08-24T09:02:52"}}, {"type": "Feature", "geometry": {"coordinates": [[-87.882827, 41.991428], [-87.879243, 41.98845], [-87.879094, 41.980047], [-87.880655, 41.979344], [-87.874663, 41.982537], [-87.869231, 41.983195], [-87.868748, 41.981951], [-87.869207, 41.984496], [-87.865494, 41.996472], [-87.868334, 42.005309], [-87.868234, 42.013682], [-87.865444, 42.021071], [-87.865405, 42.029611], [-87.867423, 42.036181], [-87.867474, 42.038274], [-87.865583, 42.039097], [-87.830561, 42.040191], [-87.799043, 42.040784], [-87.799415, 42.055172], [-87.716446, 42.05538], [-87.706397, 42.05196], [-87.688763, 42.052194], [-87.688587, 42.049394]], "type": "LineString"}, "properties": {"timestamp": "2023-08-24T15:50:15"}}, {"type": "Feature", "geometry": {"coordinates": [[-87.688587, 42.049394], [-87.687935, 42.051264], [-87.688577, 42.052175], [-87.706397, 42.05196], [-87.715818, 42.055334], [-87.727398, 42.055257], [-87.727298, 42.062542], [-87.753215, 42.062561], [-87.754516, 42.062909], [-87.758492, 42.072988], [-87.759076, 42.088109], [-87.784082, 42.126781], [-87.78834, 42.138224], [-87.788146, 42.139175], [-87.786696, 42.138526], [-87.848428, 42.138325], [-87.848668, 42.12662]], "type": "LineString"}, "properties": {"timestamp": "2023-08-24T15:50:15"}}, {"type": "Feature", "geometry": {"coordinates": [[-87.848668, 42.12662], [-87.848737, 42.122705], [-87.84887, 42.120862], [-87.848792, 42.120129], [-87.848855, 42.116587], [-87.843551, 42.116566]], "type": "LineString"}, "properties": {"timestamp": "2023-08-24T17:02:28"}}, {"type": "Feature", "geometry": {"coordinates": [[-87.843551, 42.116566], [-87.82935, 42.116463], [-87.829418, 42.116351], [-87.829438, 42.113112], [-87.829293, 42.113114], [-87.829289, 42.113521]], "type": "LineString"}, "properties": {"timestamp": "2023-08-24T17:02:28"}}, {"type": "Feature", "geometry": {"coordinates": [[-87.829289, 42.113521], [-87.82935, 42.116463], [-87.843551, 42.116566]], "type": "LineString"}, "properties": {"timestamp": "2023-08-24T17:10:10"}}, {"type": "Feature", "geometry": {"coordinates": [[-87.843551, 42.116566], [-87.82935, 42.116463], [-87.829418, 42.116351], [-87.829438, 42.113112], [-87.829293, 42.113114], [-87.829289, 42.113521]], "type": "LineString"}, "properties": {"timestamp": "2023-08-24T17:10:10"}}, {"type": "Feature", "geometry": {"coordinates": [[-87.829289, 42.113521], [-87.829285, 42.113862], [-87.82946, 42.105555], [-87.787555, 42.105216], [-87.781421, 42.101596], [-87.769209, 42.101376], [-87.759119, 42.087684], [-87.758738, 42.073162], [-87.754905, 42.064039], [-87.761767, 42.05296], [-87.768822, 42.026512], [-87.765749, 42.021309], [-87.749252, 42.009007], [-87.751521, 41.987219], [-87.746835, 41.980228], [-87.747223, 41.966563], [-87.745232, 41.962358], [-87.719592, 41.947613], [-87.715306, 41.94215], [-87.670146, 41.917654], [-87.66137, 41.906646], [-87.659246, 41.897685], [-87.647531, 41.888343], [-87.645999, 41.881827], [-87.646134, 41.880956], [-87.646145, 41.879569], [-87.646166, 41.878121], [-87.649135, 41.875728], [-87.688313, 41.875763], [-87.692409, 41.875862], [-87.696151, 41.875983], [-87.696098, 41.873794], [-87.697016, 41.873784]], "type": "LineString"}, "properties": {"timestamp": "2023-08-24T18:57:34"}}, {"type": "Feature", "geometry": {"coordinates": [[-87.697016, 41.873784], [-87.696098, 41.873794], [-87.696127, 41.874902], [-87.695509, 41.874908], [-87.690201, 41.875125], [-87.659837, 41.87561], [-87.650308, 41.875329], [-87.647601, 41.875302], [-87.645452, 41.874563], [-87.644482, 41.875077], [-87.64458, 41.876036], [-87.645364, 41.877863], [-87.645275, 41.880374], [-87.645355, 41.881847], [-87.645393, 41.882198], [-87.645396, 41.883308], [-87.645365, 41.885689], [-87.642764, 41.885711], [-87.642815, 41.887871]], "type": "LineString"}, "properties": {"timestamp": "2023-08-24T18:57:34"}}, {"type": "Feature", "geometry": {"coordinates": [[-87.642815, 41.887871], [-87.642815, 41.887871]], "type": "LineString"}, "properties": {"timestamp": "2023-08-24T19:06:24"}}, {"type": "Feature", "geometry": {"coordinates": [[-87.642815, 41.887871], [-87.642802, 41.886807], [-87.644278, 41.886799], [-87.644337, 41.889054], [-87.647627, 41.891194], [-87.648086, 41.903643], [-87.638347, 41.903783], [-87.638941, 41.921954], [-87.638269, 41.921963], [-87.641881, 41.927956]], "type": "LineString"}, "properties": {"timestamp": "2023-08-24T19:06:24"}}, {"type": "Feature", "geometry": {"coordinates": [[-87.641881, 41.927956], [-87.642943, 41.929694], [-87.644199, 41.929324], [-87.645552, 41.929135], [-87.653741, 41.929016], [-87.663682, 41.936111], [-87.663758, 41.938211]], "type": "LineString"}, "properties": {"timestamp": "2023-08-24T20:28:37"}}, {"type": "Feature", "geometry": {"coordinates": [[-87.663758, 41.938211], [-87.663134, 41.919363], [-87.66003, 41.917114], [-87.663815, 41.917067], [-87.666413, 41.916455], [-87.660908, 41.908679]], "type": "LineString"}, "properties": {"timestamp": "2023-08-24T20:28:37"}}, {"type": "Feature", "geometry": {"coordinates": [[-87.660908, 41.908679], [-87.659943, 41.907139], [-87.659389, 41.904542], [-87.657866, 41.903014], [-87.6567, 41.901311], [-87.656554, 41.896984], [-87.654976, 41.895983], [-87.659133, 41.891059], [-87.65893, 41.891061], [-87.658694, 41.891345]], "type": "LineString"}, "properties": {"timestamp": "2023-08-24T20:42:45"}}, {"type": "Feature", "geometry": {"coordinates": [[-87.658694, 41.891345], [-87.658299, 41.891822], [-87.657392, 41.891837], [-87.657374, 41.891076], [-87.647627, 41.891194], [-87.647482, 41.885665], [-87.646258, 41.885682], [-87.644363, 41.857367], [-87.645793, 41.852447], [-87.644333, 41.849097], [-87.644894, 41.846776], [-87.652708, 41.844955], [-87.66744, 41.837772], [-87.680834, 41.836863], [-87.737915, 41.818901], [-87.743523, 41.817821], [-87.741532, 41.784351], [-87.742426, 41.78485], [-87.743755, 41.78386], [-87.746931, 41.786276]], "type": "LineString"}, "properties": {"timestamp": "2023-08-24T20:42:45"}}, {"type": "Feature", "geometry": {"coordinates": [[-87.750906, 41.788347], [-87.750906, 41.788347]], "type": "LineString"}, "properties": {"timestamp": "2023-08-24T21:12:46"}}, {"type": "Feature", "geometry": {"coordinates": [[-87.746931, 41.786276], [-87.743755, 41.78386], [-87.742426, 41.78485], [-87.741532, 41.784351], [-87.742487, 41.782119], [-87.740263, 41.705577], [-87.731788, 41.705726], [-87.731779, 41.705408]], "type": "LineString"}, "properties": {"timestamp": "2023-08-24T21:12:46"}}, {"type": "Feature", "geometry": {"coordinates": [[-87.731779, 41.705408], [-87.731788, 41.705726], [-87.740263, 41.705577], [-87.739424, 41.682787], [-87.738779, 41.677673], [-87.739117, 41.675523], [-87.738977, 41.671435], [-87.735361, 41.671496], [-87.735326, 41.670466]], "type": "LineString"}, "properties": {"timestamp": "2023-08-24T21:39:10"}}, {"type": "Feature", "geometry": {"coordinates": [[-87.735326, 41.670466], [-87.735279, 41.66911], [-87.70004, 41.66966], [-87.699901, 41.665997]], "type": "LineString"}, "properties": {"timestamp": "2023-08-24T21:39:10"}}, {"type": "Feature", "geometry": {"coordinates": [[-87.699901, 41.665997], [-87.700281, 41.676981], [-87.661368, 41.677536], [-87.661398, 41.67848], [-87.661551, 41.688215], [-87.658693, 41.695796], [-87.653084, 41.700714], [-87.652438, 41.712247], [-87.648322, 41.714432], [-87.632642, 41.714662], [-87.627057, 41.715693], [-87.624177, 41.719562], [-87.625651, 41.769497], [-87.630747, 41.779495], [-87.630667, 41.838631], [-87.63193, 41.844225], [-87.642036, 41.847354], [-87.644778, 41.850632], [-87.644517, 41.867845], [-87.644628, 41.873521], [-87.643468, 41.875355], [-87.631448, 41.875518]], "type": "LineString"}, "properties": {"timestamp": "2023-08-25T16:41:53"}}]}