{"type": "FeatureCollection", "features": [{"type": "Feature", "geometry": {"coordinates": [[-87.66518, 41.991183], [-87.665337, 41.99639], [-87.664158, 41.996348], [-87.664178, 41.997184]], "type": "LineString"}, "properties": {"timestamp": "2024-04-26T17:48:26"}}, {"type": "Feature", "geometry": {"coordinates": [[-87.664178, 41.997184], [-87.664109, 41.99452], [-87.670263, 41.994451], [-87.670085, 41.989706], [-87.669796, 41.987608], [-87.669878, 41.984305], [-87.669348, 41.98441]], "type": "LineString"}, "properties": {"timestamp": "2024-04-26T17:53:37"}}, {"type": "Feature", "geometry": {"coordinates": [[-87.669348, 41.98441], [-87.668976, 41.984461], [-87.669576, 41.986751], [-87.670138, 41.99639], [-87.670719, 41.998633], [-87.670426, 41.999512], [-87.670603, 42.00538], [-87.669957, 42.005389], [-87.670148, 42.011246]], "type": "LineString"}, "properties": {"timestamp": "2024-04-26T17:53:37"}}, {"type": "Feature", "geometry": {"coordinates": [[-87.670148, 42.011246], [-87.670155, 42.011487], [-87.662865, 42.011614], [-87.660904, 42.005442], [-87.66054, 41.998191], [-87.656369, 41.998227], [-87.65567, 41.997897], [-87.655324, 41.987812]], "type": "LineString"}, "properties": {"timestamp": "2024-04-26T18:03:03"}}, {"type": "Feature", "geometry": {"coordinates": [[-87.655324, 41.987812], [-87.655253, 41.985556], [-87.653749, 41.985549], [-87.653157, 41.984999], [-87.652706, 41.981232], [-87.649277, 41.973607], [-87.647684, 41.967243], [-87.647973, 41.965571], [-87.657469, 41.965401], [-87.656894, 41.964503]], "type": "LineString"}, "properties": {"timestamp": "2024-04-26T18:03:03"}}, {"type": "Feature", "geometry": {"coordinates": [[-87.656894, 41.964503], [-87.654742, 41.961156], [-87.653863, 41.932636], [-87.655177, 41.932615], [-87.655116, 41.93032]], "type": "LineString"}, "properties": {"timestamp": "2024-04-26T18:31:51"}}, {"type": "Feature", "geometry": {"coordinates": [[-87.655116, 41.93032], [-87.655107, 41.929995], [-87.648766, 41.925453], [-87.63436, 41.925687], [-87.631853, 41.926001], [-87.630603, 41.923776], [-87.628851, 41.917816], [-87.626142, 41.912297], [-87.62586, 41.909073], [-87.624861, 41.904908], [-87.624179, 41.901978], [-87.624316, 41.893335], [-87.628116, 41.893279], [-87.628018, 41.890065], [-87.627058, 41.890081]], "type": "LineString"}, "properties": {"timestamp": "2024-04-26T18:31:51"}}, {"type": "Feature", "geometry": {"coordinates": [[-87.627058, 41.890081], [-87.62534, 41.890108], [-87.625362, 41.890916], [-87.62021, 41.891016], [-87.620313, 41.894445]], "type": "LineString"}, "properties": {"timestamp": "2024-04-26T19:36:16"}}, {"type": "Feature", "geometry": {"coordinates": [[-87.620313, 41.894445], [-87.620387, 41.896781], [-87.616893, 41.896844], [-87.614264, 41.892868], [-87.614081, 41.885247], [-87.614645, 41.884041], [-87.616685, 41.882873], [-87.617453, 41.881821], [-87.617247, 41.869895], [-87.617557, 41.869058], [-87.618862, 41.86764], [-87.627505, 41.867466], [-87.627357, 41.860173], [-87.630281, 41.860127], [-87.630401, 41.867992]], "type": "LineString"}, "properties": {"timestamp": "2024-04-26T19:36:16"}}, {"type": "Feature", "geometry": {"coordinates": [[-87.630401, 41.867992], [-87.630686, 41.874518], [-87.633036, 41.874483], [-87.633082, 41.875667], [-87.641651, 41.875644], [-87.646562, 41.876207], [-87.645662, 41.872433], [-87.645091, 41.850828], [-87.642257, 41.847292], [-87.634652, 41.845323], [-87.63091, 41.84209], [-87.631207, 41.779686], [-87.626113, 41.772231], [-87.624621, 41.72052], [-87.621065, 41.713653], [-87.600337, 41.713191], [-87.592948, 41.708673], [-87.592406, 41.703483], [-87.601798, 41.685512], [-87.601728, 41.676933], [-87.589096, 41.660202], [-87.59119, 41.659512], [-87.560717, 41.658851], [-87.555878, 41.656176], [-87.555649, 41.65737], [-87.553811, 41.65736], [-87.553812, 41.656889]], "type": "LineString"}, "properties": {"timestamp": "2024-04-26T19:49:52"}}, {"type": "Feature", "geometry": {"coordinates": [[-87.553812, 41.656889], [-87.553811, 41.65736], [-87.557102, 41.657281], [-87.585314, 41.660149], [-87.590822, 41.662478], [-87.601403, 41.675885], [-87.601563, 41.685726], [-87.594329, 41.69908], [-87.591535, 41.705863], [-87.595707, 41.711823], [-87.618809, 41.713575], [-87.62372, 41.717096], [-87.625651, 41.769497], [-87.630747, 41.779495], [-87.630667, 41.838631], [-87.63193, 41.844225], [-87.642221, 41.847448], [-87.644903, 41.850908], [-87.644854, 41.873493], [-87.645275, 41.880374], [-87.645355, 41.881847], [-87.645393, 41.882198], [-87.645396, 41.883308], [-87.645365, 41.885689], [-87.648644, 41.885646], [-87.648752, 41.889662]], "type": "LineString"}, "properties": {"timestamp": "2024-04-26T19:49:52"}}, {"type": "Feature", "geometry": {"coordinates": [[-87.648752, 41.889662], [-87.648752, 41.889662]], "type": "LineString"}, "properties": {"timestamp": "2024-04-26T20:10:14"}}, {"type": "Feature", "geometry": {"coordinates": [[-87.648752, 41.889662], [-87.648644, 41.885646], [-87.646258, 41.885682], [-87.644363, 41.857367], [-87.645245, 41.851247], [-87.642429, 41.847384], [-87.634652, 41.845323], [-87.632484, 41.844131], [-87.631557, 41.842516], [-87.630789, 41.819121], [-87.631192, 41.816682], [-87.631192, 41.816426], [-87.623022, 41.816544], [-87.623001, 41.815421]], "type": "LineString"}, "properties": {"timestamp": "2024-04-26T20:10:14"}}, {"type": "Feature", "geometry": {"coordinates": [[-87.623001, 41.815421], [-87.622988, 41.814738], [-87.626222, 41.814689], [-87.626265, 41.816493], [-87.629441, 41.816448], [-87.629907, 41.834623], [-87.628886, 41.834642], [-87.628847, 41.833673]], "type": "LineString"}, "properties": {"timestamp": "2024-04-26T20:25:59"}}, {"type": "Feature", "geometry": {"coordinates": [[-87.628847, 41.833673], [-87.628886, 41.834642], [-87.629907, 41.834623], [-87.6301, 41.841613], [-87.637745, 41.846207], [-87.642471, 41.847782], [-87.651785, 41.845286], [-87.66744, 41.837772], [-87.680834, 41.836863], [-87.808237, 41.796778], [-87.817366, 41.796078], [-87.851381, 41.764376], [-87.908438, 41.759873], [-87.929886, 41.750764], [-87.942855, 41.742302], [-87.988831, 41.725985], [-88.019759, 41.710259], [-88.024495, 41.70796], [-88.030495, 41.708791], [-88.032452, 41.714051], [-88.035607, 41.760282], [-88.053955, 41.781558], [-88.056776, 41.796783], [-88.05321, 41.805428], [-88.05712, 41.810702], [-88.074639, 41.809953], [-88.087614, 41.805662], [-88.159381, 41.806483], [-88.164816, 41.807737], [-88.166633, 41.808158], [-88.17093, 41.842049], [-88.160935, 41.856978], [-88.176889, 41.857012], [-88.192877, 41.861458], [-88.19473, 41.863763], [-88.194407, 41.885083], [-88.204904, 41.884636]], "type": "LineString"}, "properties": {"timestamp": "2024-04-26T20:25:59"}}, {"type": "Feature", "geometry": {"coordinates": [[-88.204904, 41.884636], [-88.151092, 41.888137], [-88.150531, 41.907621], [-88.102946, 41.902084], [-88.037137, 41.904083], [-88.037235, 41.947209], [-88.026829, 41.958023], [-88.023332, 41.979277], [-88.023633, 41.993285], [-88.030784, 42.017964], [-88.029844, 42.045111], [-88.028387, 42.052731], [-88.024448, 42.056683], [-88.012455, 42.05373], [-87.97554, 42.03647], [-87.954188, 42.021115], [-87.898161, 42.007134], [-87.87696, 41.997457], [-87.864082, 41.988327], [-87.850425, 41.983769], [-87.784218, 41.98215], [-87.73715, 41.957103], [-87.731304, 41.953617], [-87.654549, 41.954492], [-87.65452, 41.95355], [-87.653557, 41.953599]], "type": "LineString"}, "properties": {"timestamp": "2024-04-26T20:53:47"}}, {"type": "Feature", "geometry": {"coordinates": [[-87.653557, 41.953599], [-87.650054, 41.95384], [-87.650527, 41.954553], [-87.645235, 41.954634], [-87.644611, 41.950978], [-87.639315, 41.941594], [-87.637339, 41.939301], [-87.633807, 41.936608], [-87.632527, 41.93482], [-87.631858, 41.927741], [-87.631853, 41.926001], [-87.636586, 41.925658], [-87.636391, 41.919706]], "type": "LineString"}, "properties": {"timestamp": "2024-04-26T20:53:47"}}, {"type": "Feature", "geometry": {"coordinates": [[-87.636391, 41.919706], [-87.636586, 41.925658], [-87.633621, 41.925745], [-87.635446, 41.928785], [-87.637134, 41.931132], [-87.636082, 41.933168], [-87.636648, 41.934349], [-87.636832, 41.936481]], "type": "LineString"}, "properties": {"timestamp": "2024-04-26T21:08:26"}}, {"type": "Feature", "geometry": {"coordinates": [[-87.636832, 41.936481], [-87.637899, 41.938798], [-87.639495, 41.938773], [-87.639537, 41.940119], [-87.638088, 41.940568], [-87.644496, 41.951253], [-87.644596, 41.954749], [-87.648738, 41.973046], [-87.652251, 41.981039], [-87.652803, 41.984951], [-87.654178, 41.985586], [-87.662456, 41.985105], [-87.665884, 41.987189], [-87.669585, 41.987146], [-87.669707, 41.988054], [-87.669796, 41.987608], [-87.669769, 41.987519]], "type": "LineString"}, "properties": {"timestamp": "2024-04-26T21:08:26"}}, {"type": "Feature", "geometry": {"coordinates": [[-87.669769, 41.987519], [-87.669343, 41.985953], [-87.669943, 41.985943], [-87.669385, 41.965239], [-87.670929, 41.965218], [-87.670902, 41.964075]], "type": "LineString"}, "properties": {"timestamp": "2024-04-26T21:41:22"}}, {"type": "Feature", "geometry": {"coordinates": [[-87.670902, 41.964075], [-87.670887, 41.963394], [-87.669339, 41.963416], [-87.668133, 41.918578], [-87.660908, 41.908679]], "type": "LineString"}, "properties": {"timestamp": "2024-04-26T21:41:22"}}, {"type": "Feature", "geometry": {"coordinates": [[-87.660908, 41.908679], [-87.659943, 41.907139], [-87.659432, 41.904628], [-87.659164, 41.904243], [-87.658338, 41.903492], [-87.639563, 41.903768], [-87.6404, 41.904375], [-87.64022, 41.904515], [-87.639718, 41.904149]], "type": "LineString"}, "properties": {"timestamp": "2024-04-26T22:01:20"}}, {"type": "Feature", "geometry": {"coordinates": [[-87.639718, 41.904149], [-87.64022, 41.904515], [-87.6404, 41.904375], [-87.639563, 41.903768], [-87.633004, 41.903886], [-87.632793, 41.89661], [-87.62821, 41.896678], [-87.628109, 41.893025]], "type": "LineString"}, "properties": {"timestamp": "2024-04-26T22:01:20"}}, {"type": "Feature", "geometry": {"coordinates": [[-87.628109, 41.893025], [-87.628121, 41.887841], [-87.627593, 41.874392], [-87.626634, 41.874402], [-87.626671, 41.874067]], "type": "LineString"}, "properties": {"timestamp": "2024-04-26T22:13:35"}}, {"type": "Feature", "geometry": {"coordinates": [[-87.626671, 41.874067], [-87.626634, 41.874402], [-87.627593, 41.874392], [-87.6276, 41.874559], [-87.629195, 41.874543], [-87.629616, 41.89084], [-87.628048, 41.890871], [-87.628071, 41.891667], [-87.628847, 41.891657]], "type": "LineString"}, "properties": {"timestamp": "2024-04-26T22:13:35"}}, {"type": "Feature", "geometry": {"coordinates": [[-87.628847, 41.891657], [-87.628847, 41.891657]], "type": "LineString"}, "properties": {"timestamp": "2024-04-26T22:24:55"}}, {"type": "Feature", "geometry": {"coordinates": [[-87.628847, 41.891657], [-87.639878, 41.891506], [-87.643004, 41.891239], [-87.644384, 41.891225], [-87.644184, 41.884425], [-87.646033, 41.884406]], "type": "LineString"}, "properties": {"timestamp": "2024-04-26T22:24:55"}}, {"type": "Feature", "geometry": {"coordinates": [[-87.646033, 41.884406], [-87.647438, 41.884415], [-87.652104, 41.884333], [-87.652212, 41.888087]], "type": "LineString"}, "properties": {"timestamp": "2024-04-26T22:38:04"}}, {"type": "Feature", "geometry": {"coordinates": [[-87.652212, 41.888087], [-87.652141, 41.885588], [-87.646258, 41.885682], [-87.646031, 41.885494], [-87.645922, 41.884746], [-87.645999, 41.881827], [-87.646134, 41.880956], [-87.646145, 41.879569], [-87.646166, 41.878121], [-87.646544, 41.876602], [-87.64712, 41.87613], [-87.647927, 41.875847], [-87.651339, 41.875719], [-87.657268, 41.876192], [-87.662425, 41.876121], [-87.666742, 41.876354], [-87.666531, 41.869262], [-87.670488, 41.8692]], "type": "LineString"}, "properties": {"timestamp": "2024-04-26T22:38:04"}}, {"type": "Feature", "geometry": {"coordinates": [[-87.670488, 41.8692], [-87.666531, 41.869262], [-87.664826, 41.800728]], "type": "LineString"}, "properties": {"timestamp": "2024-04-26T22:49:26"}}, {"type": "Feature", "geometry": {"coordinates": [[-87.664826, 41.800728], [-87.664794, 41.7995], [-87.666188, 41.861473], [-87.663866, 41.861503], [-87.663879, 41.862144]], "type": "LineString"}, "properties": {"timestamp": "2024-04-26T22:49:26"}}, {"type": "Feature", "geometry": {"coordinates": [[-87.663879, 41.862144], [-87.663866, 41.861503], [-87.661417, 41.861535], [-87.66131, 41.857881], [-87.646649, 41.858102], [-87.646633, 41.857542], [-87.63188, 41.85776], [-87.631731, 41.859839], [-87.632052, 41.860175], [-87.633115, 41.860635], [-87.633284, 41.861304]], "type": "LineString"}, "properties": {"timestamp": "2024-04-26T22:55:21"}}, {"type": "Feature", "geometry": {"coordinates": [[-87.633284, 41.861304], [-87.633684, 41.87567], [-87.64257, 41.875632], [-87.644772, 41.875942], [-87.645648, 41.877134], [-87.645685, 41.885013], [-87.646594, 41.887382], [-87.64861, 41.889615], [-87.6586, 41.897003], [-87.660805, 41.901753], [-87.661061, 41.906443], [-87.664439, 41.910145], [-87.667973, 41.915739], [-87.66968, 41.917898], [-87.667964, 41.917936], [-87.66862, 41.92163], [-87.668327, 41.932402], [-87.65822, 41.932567]], "type": "LineString"}, "properties": {"timestamp": "2024-04-26T22:55:21"}}, {"type": "Feature", "geometry": {"coordinates": [[-87.65822, 41.932567], [-87.658713, 41.932557], [-87.638503, 41.918106]], "type": "LineString"}, "properties": {"timestamp": "2024-04-26T23:30:12"}}, {"type": "Feature", "geometry": {"coordinates": [[-87.638503, 41.918106], [-87.638808, 41.918322], [-87.638583, 41.911164], [-87.664445, 41.910674], [-87.668091, 41.915886], [-87.670574, 41.91815], [-87.709664, 41.940439], [-87.714861, 41.942208], [-87.719618, 41.947985], [-87.742619, 41.960998], [-87.74678, 41.965157], [-87.747426, 41.975724], [-87.746886, 41.976477], [-87.74607, 41.976396], [-87.745776, 41.975364], [-87.755278, 41.975246], [-87.755249, 41.974331], [-87.756662, 41.974319]], "type": "LineString"}, "properties": {"timestamp": "2024-04-26T23:30:12"}}, {"type": "Feature", "geometry": {"coordinates": [[-87.756662, 41.974319], [-87.755249, 41.974331], [-87.755221, 41.973433], [-87.749213, 41.973672], [-87.747918, 41.972896], [-87.747627, 41.96438], [-87.747013, 41.962872], [-87.747605, 41.962173], [-87.746879, 41.93884], [-87.743881, 41.938879], [-87.743909, 41.939556]], "type": "LineString"}, "properties": {"timestamp": "2024-04-26T23:56:42"}}, {"type": "Feature", "geometry": {"coordinates": [[-87.743909, 41.939556], [-87.744004, 41.942524], [-87.739597, 41.942585], [-87.739491, 41.938939], [-87.727187, 41.939096], [-87.727137, 41.93727], [-87.72591, 41.937285], [-87.723937, 41.936078], [-87.724624, 41.935463], [-87.724532, 41.93209]], "type": "LineString"}, "properties": {"timestamp": "2024-04-26T23:56:42"}}, {"type": "Feature", "geometry": {"coordinates": [[-87.724532, 41.93209], [-87.724523, 41.931828], [-87.726988, 41.931796], [-87.727167, 41.938375]], "type": "LineString"}, "properties": {"timestamp": "2024-04-27T00:03:21"}}, {"type": "Feature", "geometry": {"coordinates": [[-87.727167, 41.938375], [-87.726763, 41.924493], [-87.707229, 41.924722], [-87.706735, 41.901143]], "type": "LineString"}, "properties": {"timestamp": "2024-04-27T00:03:21"}}, {"type": "Feature", "geometry": {"coordinates": [[-87.706735, 41.901143], [-87.706735, 41.901143]], "type": "LineString"}, "properties": {"timestamp": "2024-04-27T00:13:51"}}, {"type": "Feature", "geometry": {"coordinates": [[-87.706735, 41.901143], [-87.706787, 41.902833], [-87.758251, 41.902229], [-87.758302, 41.904042], [-87.758595, 41.904039]], "type": "LineString"}, "properties": {"timestamp": "2024-04-27T00:13:51"}}, {"type": "Feature", "geometry": {"coordinates": [[-87.758595, 41.904039], [-87.761016, 41.904006], [-87.76106, 41.905814], [-87.760808, 41.905817], [-87.760925, 41.909443], [-87.706907, 41.910104], [-87.707315, 41.927605], [-87.70699, 41.927966], [-87.705222, 41.928405], [-87.702415, 41.928423], [-87.702789, 41.94193], [-87.702467, 41.94223], [-87.705317, 41.944219], [-87.705281, 41.943085]], "type": "LineString"}, "properties": {"timestamp": "2024-04-27T00:26:16"}}, {"type": "Feature", "geometry": {"coordinates": [[-87.705281, 41.943085], [-87.705182, 41.939366], [-87.712487, 41.939288], [-87.712571, 41.941642], [-87.714459, 41.942133], [-87.715981, 41.943044], [-87.718472, 41.946973], [-87.719618, 41.947985], [-87.722225, 41.949188], [-87.740356, 41.95942], [-87.742619, 41.960998], [-87.744732, 41.962462], [-87.749421, 41.964156], [-87.752403, 41.966033], [-87.75503, 41.967937], [-87.757623, 41.967938], [-87.758399, 41.968431]], "type": "LineString"}, "properties": {"timestamp": "2024-04-27T00:26:16"}}, {"type": "Feature", "geometry": {"coordinates": [[-87.758399, 41.968431], [-87.758399, 41.968431]], "type": "LineString"}, "properties": {"timestamp": "2024-04-27T00:33:32"}}, {"type": "Feature", "geometry": {"coordinates": [[-87.758399, 41.968431], [-87.757622, 41.967875], [-87.747723, 41.968033], [-87.748329, 41.989843], [-87.67223, 41.990752], [-87.670085, 41.989706], [-87.669796, 41.987608], [-87.669181, 41.985433], [-87.664001, 41.985518]], "type": "LineString"}, "properties": {"timestamp": "2024-04-27T00:33:32"}}, {"type": "Feature", "geometry": {"coordinates": [[-87.664001, 41.985518], [-87.663294, 41.985603], [-87.662456, 41.985105], [-87.653157, 41.984999], [-87.644611, 41.950978], [-87.632527, 41.93482], [-87.62421, 41.902733], [-87.619617, 41.900898], [-87.614304, 41.892985], [-87.619588, 41.866208], [-87.614728, 41.853242], [-87.614444, 41.848506], [-87.626818, 41.84732], [-87.631727, 41.847855], [-87.631351, 41.843118], [-87.631207, 41.779686], [-87.626245, 41.773009], [-87.625795, 41.75723], [-87.625875, 41.753851], [-87.625855, 41.751395], [-87.625836, 41.751085], [-87.648883, 41.75057], [-87.648894, 41.750983], [-87.649295, 41.750978]], "type": "LineString"}, "properties": {"timestamp": "2024-04-27T17:27:17"}}]}