{"type": "FeatureCollection", "features": [{"type": "Feature", "geometry": {"coordinates": [[-87.651547, 41.9236], [-87.651547, 41.9236]], "type": "LineString"}, "properties": {"timestamp": "2024-02-01T14:46:19"}}, {"type": "Feature", "geometry": {"coordinates": [[-87.651547, 41.9236], [-87.643848, 41.923717], [-87.643933, 41.925527], [-87.639998, 41.925595]], "type": "LineString"}, "properties": {"timestamp": "2024-02-01T15:00:16"}}, {"type": "Feature", "geometry": {"coordinates": [[-87.639998, 41.925595], [-87.64148, 41.925565], [-87.641303, 41.920109], [-87.638808, 41.918322], [-87.638637, 41.912857], [-87.638064, 41.912834]], "type": "LineString"}, "properties": {"timestamp": "2024-02-01T15:00:16"}}, {"type": "Feature", "geometry": {"coordinates": [[-87.638064, 41.912834], [-87.636718, 41.912856], [-87.636759, 41.914154], [-87.636919, 41.914204], [-87.638678, 41.914166], [-87.638751, 41.916498], [-87.638657, 41.9165]], "type": "LineString"}, "properties": {"timestamp": "2024-02-01T15:13:22"}}, {"type": "Feature", "geometry": {"coordinates": [[-87.638657, 41.9165], [-87.634961, 41.916582], [-87.632796, 41.913071], [-87.631046, 41.913236], [-87.628505, 41.912247], [-87.626932, 41.912316], [-87.62645, 41.912166], [-87.626204, 41.911491], [-87.624861, 41.904908], [-87.624179, 41.901978], [-87.624246, 41.890945], [-87.621986, 41.890981], [-87.62164, 41.890945], [-87.624074, 41.890948], [-87.624094, 41.891505]], "type": "LineString"}, "properties": {"timestamp": "2024-02-01T15:13:22"}}, {"type": "Feature", "geometry": {"coordinates": [[-87.624094, 41.891505], [-87.624208, 41.896271], [-87.624066, 41.897586], [-87.623421, 41.897599]], "type": "LineString"}, "properties": {"timestamp": "2024-02-01T15:31:57"}}, {"type": "Feature", "geometry": {"coordinates": [[-87.623421, 41.897599], [-87.621852, 41.897618], [-87.621867, 41.898422], [-87.624042, 41.898389], [-87.624042, 41.900824], [-87.62589, 41.912141], [-87.631851, 41.928415], [-87.632152, 41.934381], [-87.638833, 41.941219], [-87.644376, 41.950931], [-87.648738, 41.973046], [-87.652803, 41.984951], [-87.655253, 41.985556], [-87.655634, 41.997803], [-87.659646, 41.998196], [-87.660824, 42.003604], [-87.664245, 42.0035], [-87.665668, 42.003481], [-87.665673, 42.003627], [-87.666051, 42.00362]], "type": "LineString"}, "properties": {"timestamp": "2024-02-01T15:31:57"}}, {"type": "Feature", "geometry": {"coordinates": [[-87.666051, 42.00362], [-87.668125, 42.003585], [-87.668185, 42.005422], [-87.68169, 42.00518], [-87.682235, 42.006411], [-87.681335, 42.006428]], "type": "LineString"}, "properties": {"timestamp": "2024-02-01T15:52:10"}}, {"type": "Feature", "geometry": {"coordinates": [[-87.681335, 42.006428], [-87.680726, 42.00644], [-87.684163, 42.015501], [-87.685845, 42.029894], [-87.688374, 42.041263], [-87.688534, 42.044191], [-87.690213, 42.044213], [-87.690207, 42.044647]], "type": "LineString"}, "properties": {"timestamp": "2024-02-01T15:52:10"}}, {"type": "Feature", "geometry": {"coordinates": [[-87.690207, 42.044647], [-87.690213, 42.044213], [-87.688534, 42.044191], [-87.684163, 42.015501], [-87.675425, 41.994982], [-87.675256, 41.990703], [-87.674711, 41.990712], [-87.674411, 41.976102], [-87.674927, 41.976095], [-87.67488, 41.974623]], "type": "LineString"}, "properties": {"timestamp": "2024-02-01T17:11:04"}}, {"type": "Feature", "geometry": {"coordinates": [[-87.67488, 41.974623], [-87.674845, 41.97335], [-87.676325, 41.973309], [-87.676201, 41.968803], [-87.688893, 41.968612], [-87.688512, 41.955627], [-87.687413, 41.917587], [-87.692301, 41.917536], [-87.692287, 41.917031]], "type": "LineString"}, "properties": {"timestamp": "2024-02-01T17:11:04"}}, {"type": "Feature", "geometry": {"coordinates": [[-87.692287, 41.917031], [-87.692301, 41.917536], [-87.687413, 41.917587], [-87.687645, 41.924902], [-87.682301, 41.924978], [-87.685177, 41.926707], [-87.709664, 41.940439], [-87.714861, 41.942208], [-87.719618, 41.947985], [-87.738838, 41.958569], [-87.741371, 41.960451], [-87.741062, 41.960809]], "type": "LineString"}, "properties": {"timestamp": "2024-02-01T17:29:06"}}, {"type": "Feature", "geometry": {"coordinates": [[-87.741062, 41.960809], [-87.743853, 41.960812], [-87.740635, 41.958818], [-87.739456, 41.958438], [-87.73715, 41.957103], [-87.734704, 41.955492], [-87.731304, 41.953617], [-87.706798, 41.953889], [-87.706753, 41.952356]], "type": "LineString"}, "properties": {"timestamp": "2024-02-01T17:29:06"}}, {"type": "Feature", "geometry": {"coordinates": [[-87.706753, 41.952356], [-87.706746, 41.952117], [-87.707967, 41.95211], [-87.708017, 41.953983], [-87.809667, 41.952719], [-87.822074, 41.946631], [-87.821404, 41.937842], [-87.820185, 41.937866], [-87.820102, 41.936076], [-87.820727, 41.936062], [-87.82067, 41.934634]], "type": "LineString"}, "properties": {"timestamp": "2024-02-01T17:49:35"}}, {"type": "Feature", "geometry": {"coordinates": [[-87.82067, 41.934634], [-87.820654, 41.93424], [-87.806613, 41.934519], [-87.806486, 41.930831], [-87.74413, 41.931576], [-87.744098, 41.930554], [-87.746147, 41.930525]], "type": "LineString"}, "properties": {"timestamp": "2024-02-01T17:49:35"}}, {"type": "Feature", "geometry": {"coordinates": [[-87.746147, 41.930525], [-87.746543, 41.93052], [-87.746595, 41.931542], [-87.751741, 41.93147]], "type": "LineString"}, "properties": {"timestamp": "2024-02-01T18:10:05"}}, {"type": "Feature", "geometry": {"coordinates": [[-87.751741, 41.93147], [-87.751741, 41.93147]], "type": "LineString"}, "properties": {"timestamp": "2024-02-01T18:10:05"}}, {"type": "Feature", "geometry": {"coordinates": [[-87.751741, 41.93147], [-87.687832, 41.932179], [-87.688003, 41.939468], [-87.663815, 41.939759], [-87.663907, 41.943419], [-87.665475, 41.943396]], "type": "LineString"}, "properties": {"timestamp": "2024-02-01T18:33:25"}}, {"type": "Feature", "geometry": {"coordinates": [[-87.665475, 41.943396], [-87.668699, 41.943348], [-87.669622, 41.978917], [-87.668313, 41.978937], [-87.668328, 41.980471]], "type": "LineString"}, "properties": {"timestamp": "2024-02-01T18:33:25"}}, {"type": "Feature", "geometry": {"coordinates": [[-87.668328, 41.980471], [-87.668222, 41.97445], [-87.665949, 41.961638], [-87.656348, 41.961762], [-87.656253, 41.958601], [-87.656079, 41.958288], [-87.656894, 41.958194]], "type": "LineString"}, "properties": {"timestamp": "2024-02-01T21:50:55"}}, {"type": "Feature", "geometry": {"coordinates": [[-87.656894, 41.958194], [-87.656767, 41.95446], [-87.698254, 41.953982], [-87.698335, 41.956867]], "type": "LineString"}, "properties": {"timestamp": "2024-02-01T21:50:55"}}, {"type": "Feature", "geometry": {"coordinates": [[-87.698335, 41.956867], [-87.697902, 41.941887], [-87.700544, 41.941872], [-87.701556, 41.941084], [-87.702765, 41.941075], [-87.702516, 41.932074], [-87.707434, 41.932039], [-87.707505, 41.930261], [-87.707814, 41.929332], [-87.707541, 41.929168], [-87.706541, 41.89556], [-87.707768, 41.895547], [-87.707739, 41.894407]], "type": "LineString"}, "properties": {"timestamp": "2024-02-01T22:14:57"}}, {"type": "Feature", "geometry": {"coordinates": [[-87.707739, 41.894407], [-87.707721, 41.893715], [-87.708939, 41.893702], [-87.708992, 41.895533], [-87.706541, 41.89556], [-87.70699, 41.927966], [-87.697517, 41.928471], [-87.698335, 41.956867]], "type": "LineString"}, "properties": {"timestamp": "2024-02-01T22:14:57"}}, {"type": "Feature", "geometry": {"coordinates": [[-87.698335, 41.956867], [-87.698254, 41.953982], [-87.809667, 41.952719], [-87.822074, 41.946631], [-87.821404, 41.937842], [-87.820185, 41.937866], [-87.820102, 41.936076], [-87.820727, 41.936062], [-87.82067, 41.934634]], "type": "LineString"}, "properties": {"timestamp": "2024-02-01T22:29:58"}}, {"type": "Feature", "geometry": {"coordinates": [[-87.82067, 41.934634], [-87.820654, 41.93424], [-87.821275, 41.934229], [-87.821404, 41.937842], [-87.786046, 41.938315], [-87.786299, 41.945676], [-87.71959, 41.946484], [-87.718156, 41.944989], [-87.715518, 41.942115], [-87.710267, 41.940414], [-87.699724, 41.93423], [-87.697687, 41.932688], [-87.697602, 41.932108], [-87.65629, 41.932598], [-87.656389, 41.935584]], "type": "LineString"}, "properties": {"timestamp": "2024-02-01T22:29:58"}}, {"type": "Feature", "geometry": {"coordinates": [[-87.656389, 41.935584], [-87.656415, 41.93624], [-87.64915, 41.936386], [-87.648523, 41.918178], [-87.647123, 41.918199]], "type": "LineString"}, "properties": {"timestamp": "2024-02-01T22:39:41"}}, {"type": "Feature", "geometry": {"coordinates": [[-87.647123, 41.918199], [-87.636131, 41.918472], [-87.632796, 41.913071], [-87.631046, 41.913236], [-87.628505, 41.912247], [-87.626932, 41.912316], [-87.62645, 41.912166], [-87.626204, 41.911491], [-87.624861, 41.904908], [-87.624179, 41.901978], [-87.624246, 41.890945], [-87.621986, 41.890981], [-87.621327, 41.890952]], "type": "LineString"}, "properties": {"timestamp": "2024-02-01T22:39:41"}}, {"type": "Feature", "geometry": {"coordinates": [[-87.621327, 41.890952], [-87.621327, 41.890952]], "type": "LineString"}, "properties": {"timestamp": "2024-02-01T22:57:03"}}, {"type": "Feature", "geometry": {"coordinates": [[-87.621327, 41.890952], [-87.620784, 41.890997], [-87.621649, 41.891015], [-87.624074, 41.890948], [-87.624042, 41.900824], [-87.623664, 41.902709], [-87.62589, 41.912141], [-87.628743, 41.918036], [-87.631851, 41.928415], [-87.632152, 41.934381], [-87.633661, 41.936704], [-87.63676, 41.939073], [-87.638088, 41.940568], [-87.639537, 41.940119], [-87.668609, 41.939697], [-87.672471, 41.945127], [-87.673616, 41.945115], [-87.67364, 41.945816]], "type": "LineString"}, "properties": {"timestamp": "2024-02-01T22:57:03"}}, {"type": "Feature", "geometry": {"coordinates": [[-87.67364, 41.945816], [-87.673616, 41.945115], [-87.670026, 41.945164], [-87.670073, 41.946986], [-87.668799, 41.947006], [-87.670138, 41.99639], [-87.678089, 42.026691], [-87.680541, 42.043378]], "type": "LineString"}, "properties": {"timestamp": "2024-02-02T16:39:42"}}]}