{"type": "FeatureCollection", "features": [{"type": "Feature", "geometry": {"coordinates": [[-87.688771, 42.023489], [-87.690117, 42.0235], [-87.68995, 42.039451], [-87.687984, 42.039458], [-87.688792, 42.048527], [-87.686917, 42.055784], [-87.684456, 42.061855], [-87.674164, 42.061551], [-87.674176, 42.060747], [-87.674782, 42.060216], [-87.674772, 42.059162], [-87.672861, 42.059078], [-87.673012, 42.057403], [-87.673466, 42.056446]], "type": "LineString"}, "properties": {"timestamp": "2024-02-07T15:42:45"}}, {"type": "Feature", "geometry": {"coordinates": [[-87.673466, 42.056446], [-87.673416, 42.0568], [-87.673067, 42.057349], [-87.673012, 42.057403], [-87.672766, 42.05728], [-87.672592, 42.057366], [-87.672638, 42.057705], [-87.672893, 42.057853], [-87.672861, 42.059078], [-87.674721, 42.059127], [-87.674801, 42.059231], [-87.674782, 42.060216], [-87.674675, 42.060385], [-87.674289, 42.060575], [-87.674176, 42.060747], [-87.674164, 42.061551], [-87.674376, 42.061616], [-87.677075, 42.06163], [-87.677114, 42.059371], [-87.678231, 42.059386]], "type": "LineString"}, "properties": {"timestamp": "2024-02-07T15:56:22"}}, {"type": "Feature", "geometry": {"coordinates": [[-87.678231, 42.059386], [-87.679645, 42.059404], [-87.679614, 42.061657], [-87.683746, 42.061705], [-87.6855, 42.062092], [-87.69702, 42.062211], [-87.698762, 42.064341], [-87.704473, 42.064385]], "type": "LineString"}, "properties": {"timestamp": "2024-02-07T15:56:22"}}, {"type": "Feature", "geometry": {"coordinates": [[-87.704473, 42.064385], [-87.727344, 42.0646], [-87.727487, 42.065185], [-87.728615, 42.065952], [-87.731201, 42.069175], [-87.733656, 42.068606], [-87.739785, 42.067843], [-87.74132, 42.06751]], "type": "LineString"}, "properties": {"timestamp": "2024-02-07T16:10:41"}}, {"type": "Feature", "geometry": {"coordinates": [[-87.74132, 42.06751], [-87.7441, 42.06655], [-87.744075, 42.068947], [-87.74218, 42.069202], [-87.742002, 42.081132], [-87.741674, 42.082109], [-87.741868, 42.088448], [-87.743648, 42.088496], [-87.744423, 42.089378], [-87.746313, 42.089182]], "type": "LineString"}, "properties": {"timestamp": "2024-02-07T16:10:41"}}, {"type": "Feature", "geometry": {"coordinates": [[-87.746313, 42.089182], [-87.744423, 42.089378], [-87.744013, 42.089151], [-87.743648, 42.088496], [-87.741868, 42.088448], [-87.741923, 42.085207], [-87.745172, 42.085464], [-87.751662, 42.084873], [-87.751768, 42.079438], [-87.761472, 42.079588], [-87.761593, 42.074306]], "type": "LineString"}, "properties": {"timestamp": "2024-02-07T16:28:21"}}, {"type": "Feature", "geometry": {"coordinates": [[-87.761593, 42.074306], [-87.761473, 42.079501], [-87.761021, 42.079494], [-87.758832, 42.078768], [-87.758574, 42.072344], [-87.755329, 42.066253], [-87.75495, 42.063156], [-87.756285, 42.059955], [-87.76041, 42.055592], [-87.761767, 42.05296], [-87.762482, 42.042734], [-87.76384, 42.039909], [-87.768058, 42.034858], [-87.768822, 42.026512], [-87.767525, 42.023258], [-87.765062, 42.020736], [-87.753226, 42.013995], [-87.750699, 42.01165], [-87.751005, 42.01047], [-87.751837, 42.011239], [-87.751253, 42.011764], [-87.711668, 42.011822], [-87.682444, 42.012621], [-87.676853, 42.012606]], "type": "LineString"}, "properties": {"timestamp": "2024-02-07T16:28:21"}}, {"type": "Feature", "geometry": {"coordinates": [[-87.676853, 42.012606], [-87.682294, 42.012511], [-87.682444, 42.012621], [-87.69024, 42.012287], [-87.688686, 41.961319], [-87.698474, 41.961247], [-87.698335, 41.956867]], "type": "LineString"}, "properties": {"timestamp": "2024-02-07T17:40:59"}}, {"type": "Feature", "geometry": {"coordinates": [[-87.698335, 41.956867], [-87.698474, 41.961247], [-87.688686, 41.961319], [-87.69024, 42.012287], [-87.682444, 42.012621], [-87.670195, 42.012718], [-87.670267, 42.014929], [-87.667467, 42.014978]], "type": "LineString"}, "properties": {"timestamp": "2024-02-07T17:40:59"}}, {"type": "Feature", "geometry": {"coordinates": [[-87.667467, 42.014978], [-87.664678, 42.015024], [-87.662865, 42.011614], [-87.660929, 42.005557], [-87.66054, 41.998191], [-87.656369, 41.998227], [-87.65567, 41.997897], [-87.655324, 41.987812]], "type": "LineString"}, "properties": {"timestamp": "2024-02-07T18:29:32"}}, {"type": "Feature", "geometry": {"coordinates": [[-87.655324, 41.987812], [-87.655253, 41.985556], [-87.653157, 41.984999], [-87.652706, 41.981232], [-87.648822, 41.972134], [-87.644905, 41.955203], [-87.64469, 41.951193], [-87.639566, 41.942042], [-87.638796, 41.940268], [-87.654106, 41.939918], [-87.654016, 41.937175], [-87.653552, 41.937186], [-87.65355, 41.937074]], "type": "LineString"}, "properties": {"timestamp": "2024-02-07T18:29:32"}}, {"type": "Feature", "geometry": {"coordinates": [[-87.65355, 41.937074], [-87.653552, 41.937186], [-87.654016, 41.937175], [-87.654106, 41.939918], [-87.723912, 41.939142], [-87.735605, 41.946271], [-87.739921, 41.946215]], "type": "LineString"}, "properties": {"timestamp": "2024-02-07T18:58:10"}}, {"type": "Feature", "geometry": {"coordinates": [[-87.739921, 41.946215], [-87.791262, 41.945578], [-87.7913, 41.946512]], "type": "LineString"}, "properties": {"timestamp": "2024-02-07T18:58:10"}}, {"type": "Feature", "geometry": {"coordinates": [[-87.7913, 41.946512], [-87.791262, 41.945578], [-87.786299, 41.945676], [-87.786554, 41.95292], [-87.757157, 41.953293], [-87.757274, 41.956953], [-87.747419, 41.957075], [-87.747918, 41.972896], [-87.747761, 41.972794], [-87.747223, 41.966563], [-87.745232, 41.962358], [-87.719592, 41.947613], [-87.715306, 41.94215], [-87.709927, 41.940372], [-87.670146, 41.917654], [-87.66137, 41.906646], [-87.659246, 41.897685], [-87.647794, 41.888636], [-87.646108, 41.885119], [-87.646413, 41.883144], [-87.642677, 41.883172], [-87.642815, 41.887871]], "type": "LineString"}, "properties": {"timestamp": "2024-02-07T19:23:22"}}, {"type": "Feature", "geometry": {"coordinates": [[-87.642815, 41.887871], [-87.642802, 41.886807], [-87.644278, 41.886799], [-87.644242, 41.885699], [-87.645903, 41.885686], [-87.645999, 41.881827], [-87.646134, 41.880956], [-87.646145, 41.879569], [-87.646166, 41.878121], [-87.646815, 41.876334], [-87.647774, 41.87588], [-87.649135, 41.875728], [-87.657603, 41.876197], [-87.688313, 41.875763], [-87.692409, 41.875862], [-87.698604, 41.87596], [-87.698638, 41.877405], [-87.69832, 41.877408]], "type": "LineString"}, "properties": {"timestamp": "2024-02-07T19:23:22"}}, {"type": "Feature", "geometry": {"coordinates": [[-87.69832, 41.877408], [-87.696189, 41.877434], [-87.696286, 41.881077], [-87.660012, 41.881574]], "type": "LineString"}, "properties": {"timestamp": "2024-02-07T19:44:22"}}, {"type": "Feature", "geometry": {"coordinates": [[-87.660012, 41.881574], [-87.666737, 41.881465], [-87.666835, 41.884777], [-87.667439, 41.903351], [-87.674833, 41.903226], [-87.674795, 41.902204]], "type": "LineString"}, "properties": {"timestamp": "2024-02-07T19:44:22"}}, {"type": "Feature", "geometry": {"coordinates": [[-87.674795, 41.902204], [-87.674717, 41.899586], [-87.660982, 41.899842], [-87.657543, 41.897624], [-87.65753, 41.897142], [-87.658055, 41.897137]], "type": "LineString"}, "properties": {"timestamp": "2024-02-07T19:57:04"}}, {"type": "Feature", "geometry": {"coordinates": [[-87.658055, 41.897137], [-87.65753, 41.897142], [-87.657506, 41.896233], [-87.647675, 41.896405], [-87.648892, 41.929091], [-87.647955, 41.929095]], "type": "LineString"}, "properties": {"timestamp": "2024-02-07T19:57:04"}}, {"type": "Feature", "geometry": {"coordinates": [[-87.647955, 41.929095], [-87.648892, 41.929091], [-87.647661, 41.89225], [-87.649183, 41.892223], [-87.650448, 41.893035]], "type": "LineString"}, "properties": {"timestamp": "2024-02-07T20:02:33"}}, {"type": "Feature", "geometry": {"coordinates": [[-87.650448, 41.893035], [-87.647627, 41.891194], [-87.647482, 41.885665], [-87.646258, 41.885682], [-87.645922, 41.884746], [-87.645999, 41.881827], [-87.646134, 41.880956], [-87.646145, 41.879569], [-87.646166, 41.878121], [-87.646815, 41.876334], [-87.647774, 41.87588], [-87.649135, 41.875728], [-87.657603, 41.876197], [-87.697235, 41.875658], [-87.708052, 41.874348], [-87.716326, 41.874195], [-87.720405, 41.874448], [-87.720162, 41.868144]], "type": "LineString"}, "properties": {"timestamp": "2024-02-07T20:02:33"}}, {"type": "Feature", "geometry": {"coordinates": [[-87.720162, 41.868144], [-87.720159, 41.868047], [-87.719619, 41.868055], [-87.719779, 41.873518], [-87.719121, 41.873525], [-87.716086, 41.873851], [-87.708482, 41.873969], [-87.699066, 41.875134], [-87.680246, 41.875358], [-87.676418, 41.875016], [-87.677302, 41.904122], [-87.674861, 41.904153], [-87.674751, 41.90551], [-87.673347, 41.90553]], "type": "LineString"}, "properties": {"timestamp": "2024-02-07T20:47:04"}}, {"type": "Feature", "geometry": {"coordinates": [[-87.673347, 41.90553], [-87.674751, 41.90551], [-87.672507, 41.907543], [-87.667547, 41.907612], [-87.66782, 41.916129], [-87.663815, 41.917067], [-87.658201, 41.917264], [-87.658464, 41.925291], [-87.648766, 41.925453], [-87.649013, 41.932728], [-87.642737, 41.932848], [-87.64278, 41.934284], [-87.641783, 41.934301], [-87.64182, 41.935387]], "type": "LineString"}, "properties": {"timestamp": "2024-02-07T20:47:04"}}, {"type": "Feature", "geometry": {"coordinates": [[-87.64182, 41.935387], [-87.641858, 41.936539], [-87.639423, 41.936578], [-87.639537, 41.940119], [-87.638088, 41.940568], [-87.644496, 41.951253], [-87.644596, 41.954749], [-87.648738, 41.973046], [-87.652251, 41.981039], [-87.652803, 41.984951], [-87.654178, 41.985586], [-87.662456, 41.985105], [-87.665884, 41.987189], [-87.669585, 41.987146], [-87.669707, 41.988054], [-87.669796, 41.987608], [-87.669769, 41.987519]], "type": "LineString"}, "properties": {"timestamp": "2024-02-07T21:21:15"}}, {"type": "Feature", "geometry": {"coordinates": [[-87.669769, 41.987519], [-87.669181, 41.985433], [-87.663294, 41.985603], [-87.662456, 41.985105], [-87.660947, 41.985463], [-87.654178, 41.985586], [-87.653214, 41.985103], [-87.652706, 41.981232], [-87.649277, 41.973607], [-87.646868, 41.963721], [-87.647093, 41.962397], [-87.646878, 41.961908], [-87.65234, 41.9618], [-87.652341, 41.961895]], "type": "LineString"}, "properties": {"timestamp": "2024-02-07T21:21:15"}}, {"type": "Feature", "geometry": {"coordinates": [[-87.652341, 41.961895], [-87.65234, 41.9618], [-87.654748, 41.961775], [-87.654549, 41.954492], [-87.688469, 41.954086], [-87.687413, 41.917587], [-87.710267, 41.917363], [-87.710199, 41.914054]], "type": "LineString"}, "properties": {"timestamp": "2024-02-09T19:24:32"}}]}