{"type": "FeatureCollection", "features": [{"type": "Feature", "geometry": {"coordinates": [[-87.676798, 41.97474], [-87.676368, 41.974747], [-87.676325, 41.973309], [-87.669592, 41.973436], [-87.669477, 41.968876], [-87.648824, 41.969276], [-87.644611, 41.950978], [-87.638957, 41.941067], [-87.632527, 41.93482], [-87.632048, 41.928427], [-87.62428, 41.902892], [-87.619617, 41.900898], [-87.614447, 41.893292], [-87.614132, 41.886779], [-87.614444, 41.884515], [-87.627902, 41.884489], [-87.627866, 41.883248], [-87.627421, 41.883251]], "type": "LineString"}, "properties": {"timestamp": "2024-03-30T14:17:14"}}, {"type": "Feature", "geometry": {"coordinates": [[-87.627421, 41.883251], [-87.624233, 41.883257], [-87.624431, 41.88577], [-87.626286, 41.88576], [-87.626374, 41.887032], [-87.626488, 41.887382], [-87.627125, 41.888453], [-87.627082, 41.888758], [-87.626679, 41.889309], [-87.626665, 41.889909]], "type": "LineString"}, "properties": {"timestamp": "2024-03-30T14:40:07"}}, {"type": "Feature", "geometry": {"coordinates": [[-87.626665, 41.889909], [-87.627249, 41.888509], [-87.626312, 41.886804], [-87.623818, 41.886817], [-87.620759, 41.886797], [-87.620794, 41.880871], [-87.617506, 41.88092], [-87.617261, 41.869765], [-87.619235, 41.86721], [-87.619588, 41.866208], [-87.618099, 41.860907], [-87.61714, 41.857849], [-87.617238, 41.857825], [-87.615619, 41.854301], [-87.616027, 41.855615], [-87.616271, 41.855561], [-87.615604, 41.854397], [-87.615902, 41.854329]], "type": "LineString"}, "properties": {"timestamp": "2024-03-30T14:40:07"}}, {"type": "Feature", "geometry": {"coordinates": [[-87.615902, 41.854329], [-87.615604, 41.854397], [-87.616271, 41.855561], [-87.616027, 41.855615], [-87.615619, 41.854301], [-87.615992, 41.85521], [-87.616959, 41.854986], [-87.616876, 41.85573], [-87.616543, 41.856402], [-87.617503, 41.857757], [-87.61714, 41.857849], [-87.615656, 41.855456], [-87.614728, 41.853242], [-87.613521, 41.849959], [-87.613663, 41.849226], [-87.614264, 41.84861], [-87.615074, 41.848286], [-87.61607, 41.848189], [-87.623007, 41.848129], [-87.624498, 41.848119], [-87.626571, 41.847768], [-87.626637, 41.847047], [-87.626399, 41.846884], [-87.626258, 41.84692], [-87.624549, 41.847578], [-87.622076, 41.847894], [-87.618737, 41.847534], [-87.618029, 41.847596], [-87.61739, 41.847844], [-87.617632, 41.848706], [-87.618838, 41.850123], [-87.61896, 41.852358], [-87.619135, 41.852702], [-87.619089, 41.854904]], "type": "LineString"}, "properties": {"timestamp": "2024-03-30T15:03:29"}}, {"type": "Feature", "geometry": {"coordinates": [[-87.619089, 41.854904], [-87.619142, 41.856843], [-87.619596, 41.857837], [-87.62226, 41.857909], [-87.622442, 41.867418], [-87.62038, 41.867447], [-87.62062, 41.875872]], "type": "LineString"}, "properties": {"timestamp": "2024-03-30T15:03:29"}}, {"type": "Feature", "geometry": {"coordinates": [[-87.62062, 41.875872], [-87.620589, 41.873218], [-87.617318, 41.873248], [-87.617289, 41.869641], [-87.619563, 41.865851], [-87.614728, 41.853242], [-87.613506, 41.849799], [-87.614444, 41.848506], [-87.623443, 41.848101], [-87.626818, 41.84732], [-87.630758, 41.848155], [-87.631727, 41.847855], [-87.631351, 41.843118], [-87.631163, 41.834246], [-87.631513, 41.830937], [-87.626457, 41.831008], [-87.626475, 41.83283], [-87.625023, 41.832863]], "type": "LineString"}, "properties": {"timestamp": "2024-03-30T15:31:02"}}, {"type": "Feature", "geometry": {"coordinates": [[-87.625023, 41.832863], [-87.625058, 41.83469], [-87.621834, 41.834721], [-87.621916, 41.838364], [-87.609219, 41.838567], [-87.607188, 41.832576], [-87.600839, 41.825932], [-87.598683, 41.821499], [-87.594475, 41.815931], [-87.585968, 41.806989], [-87.58209, 41.803885], [-87.581347, 41.799068], [-87.57922, 41.796009], [-87.58022, 41.791662], [-87.578194, 41.78918], [-87.577204, 41.784971], [-87.574954, 41.781232], [-87.579216, 41.779846], [-87.584175, 41.780203], [-87.587812, 41.780589], [-87.58783, 41.781391]], "type": "LineString"}, "properties": {"timestamp": "2024-03-30T15:31:02"}}, {"type": "Feature", "geometry": {"coordinates": [[-87.58783, 41.781391], [-87.587812, 41.780589], [-87.590737, 41.780612], [-87.599162, 41.780485], [-87.59912, 41.778345], [-87.599316, 41.777888], [-87.599292, 41.77685], [-87.601116, 41.776825]], "type": "LineString"}, "properties": {"timestamp": "2024-03-30T15:46:36"}}, {"type": "Feature", "geometry": {"coordinates": [[-87.601116, 41.776825], [-87.602804, 41.776802], [-87.602879, 41.780445], [-87.630141, 41.780011], [-87.630149, 41.780433], [-87.630393, 41.837743], [-87.631347, 41.844144], [-87.642036, 41.847354], [-87.644903, 41.850908], [-87.645685, 41.885013], [-87.651689, 41.891702], [-87.65868, 41.896836], [-87.66137, 41.906646], [-87.670146, 41.917654], [-87.715306, 41.94215], [-87.719592, 41.947613], [-87.746287, 41.963594], [-87.747426, 41.975724], [-87.74607, 41.976396], [-87.745776, 41.975364], [-87.74954, 41.975314]], "type": "LineString"}, "properties": {"timestamp": "2024-03-30T15:46:36"}}, {"type": "Feature", "geometry": {"coordinates": [[-87.74954, 41.975314], [-87.745776, 41.975364], [-87.746921, 41.977435], [-87.746796, 41.980645], [-87.750643, 41.985324], [-87.751348, 41.987222], [-87.750649, 41.995203], [-87.748745, 42.001173], [-87.749189, 42.009518], [-87.752849, 42.014015], [-87.765343, 42.021217], [-87.768358, 42.025543], [-87.768407, 42.033299], [-87.766831, 42.036458], [-87.764702, 42.038593], [-87.759717, 42.040844], [-87.680569, 42.041201], [-87.680405, 42.039269], [-87.678825, 42.039252], [-87.678821, 42.038819]], "type": "LineString"}, "properties": {"timestamp": "2024-03-30T20:50:40"}}, {"type": "Feature", "geometry": {"coordinates": [[-87.678821, 42.038819], [-87.678628, 42.037542], [-87.675011, 42.037512], [-87.674774, 42.033906], [-87.670571, 42.033783], [-87.670647, 42.027188], [-87.667622, 42.026688], [-87.665427, 42.023166], [-87.66692, 42.022252], [-87.660929, 42.005557], [-87.66054, 41.998191], [-87.660132, 41.985467], [-87.653995, 41.985582], [-87.653214, 41.985103], [-87.652706, 41.981232], [-87.649277, 41.973607], [-87.646868, 41.963721], [-87.647093, 41.962397], [-87.646878, 41.961908], [-87.654748, 41.961775], [-87.654643, 41.958427], [-87.656021, 41.958406], [-87.656894, 41.958194]], "type": "LineString"}, "properties": {"timestamp": "2024-03-30T20:50:40"}}, {"type": "Feature", "geometry": {"coordinates": [[-87.656894, 41.958194], [-87.656767, 41.95446], [-87.676324, 41.954253], [-87.6764, 41.956747]], "type": "LineString"}, "properties": {"timestamp": "2024-03-30T21:15:21"}}, {"type": "Feature", "geometry": {"coordinates": [[-87.6764, 41.956747], [-87.676321, 41.954148], [-87.66911, 41.954302], [-87.668729, 41.939809], [-87.648766, 41.925453], [-87.648495, 41.91731]], "type": "LineString"}, "properties": {"timestamp": "2024-03-30T21:15:21"}}, {"type": "Feature", "geometry": {"coordinates": [[-87.648495, 41.91731], [-87.648766, 41.925453], [-87.658713, 41.932557], [-87.659098, 41.944409], [-87.656319, 41.944451]], "type": "LineString"}, "properties": {"timestamp": "2024-03-30T21:47:56"}}, {"type": "Feature", "geometry": {"coordinates": [[-87.656319, 41.944451], [-87.654273, 41.944458], [-87.654106, 41.939918], [-87.666233, 41.939729], [-87.666175, 41.937916], [-87.668655, 41.93788], [-87.668616, 41.921563], [-87.677255, 41.921395], [-87.669405, 41.916815], [-87.664752, 41.909975], [-87.661748, 41.90696], [-87.661131, 41.901587], [-87.659383, 41.897534], [-87.657479, 41.894931], [-87.657339, 41.889382], [-87.656803, 41.88551], [-87.654782, 41.885544]], "type": "LineString"}, "properties": {"timestamp": "2024-03-30T21:47:56"}}, {"type": "Feature", "geometry": {"coordinates": [[-87.654782, 41.885544], [-87.649818, 41.885626], [-87.649838, 41.886778], [-87.649954, 41.886776]], "type": "LineString"}, "properties": {"timestamp": "2024-03-30T22:08:46"}}, {"type": "Feature", "geometry": {"coordinates": [[-87.649954, 41.886776], [-87.651006, 41.88676], [-87.650961, 41.885607], [-87.646258, 41.885682], [-87.644363, 41.857367], [-87.645793, 41.852447], [-87.644333, 41.849097], [-87.641933, 41.846546], [-87.616851, 41.847976], [-87.612314, 41.847086], [-87.607188, 41.832576], [-87.600839, 41.825932], [-87.593977, 41.815295], [-87.58209, 41.803885], [-87.579597, 41.794428], [-87.580573, 41.792571], [-87.585251, 41.792193], [-87.585422, 41.787942], [-87.590153, 41.787428], [-87.590195, 41.788984]], "type": "LineString"}, "properties": {"timestamp": "2024-03-30T22:08:46"}}, {"type": "Feature", "geometry": {"coordinates": [[-87.590195, 41.788984], [-87.590331, 41.794781], [-87.589529, 41.794816], [-87.588925, 41.795136], [-87.58254, 41.795244], [-87.582532, 41.794947]], "type": "LineString"}, "properties": {"timestamp": "2024-03-30T22:27:28"}}, {"type": "Feature", "geometry": {"coordinates": [[-87.582532, 41.794947], [-87.582492, 41.793435], [-87.583901, 41.793417], [-87.583879, 41.792642], [-87.580163, 41.792433], [-87.581975, 41.803976], [-87.60745, 41.833737], [-87.619244, 41.8661], [-87.614041, 41.892878], [-87.619441, 41.900921], [-87.624048, 41.902893], [-87.632273, 41.934701], [-87.644376, 41.950931], [-87.646094, 41.960253], [-87.645534, 41.962086], [-87.655148, 41.961772], [-87.656894, 41.964503]], "type": "LineString"}, "properties": {"timestamp": "2024-03-30T22:27:28"}}, {"type": "Feature", "geometry": {"coordinates": [[-87.656894, 41.964503], [-87.659673, 41.969021], [-87.714891, 41.968394]], "type": "LineString"}, "properties": {"timestamp": "2024-03-30T22:54:16"}}, {"type": "Feature", "geometry": {"coordinates": [[-87.714891, 41.968394], [-87.713373, 41.968411], [-87.712908, 41.953809], [-87.688469, 41.953985], [-87.688345, 41.949742]], "type": "LineString"}, "properties": {"timestamp": "2024-03-30T22:54:16"}}, {"type": "Feature", "geometry": {"coordinates": [[-87.688345, 41.949742], [-87.687207, 41.910324], [-87.701875, 41.910165], [-87.701241, 41.907558], [-87.702311, 41.902777], [-87.702191, 41.895594], [-87.701213, 41.895606]], "type": "LineString"}, "properties": {"timestamp": "2024-03-30T23:16:18"}}, {"type": "Feature", "geometry": {"coordinates": [[-87.701213, 41.895606], [-87.699899, 41.895625], [-87.687286, 41.890639], [-87.647627, 41.891194], [-87.644337, 41.889054], [-87.644278, 41.886799], [-87.639904, 41.886819], [-87.639953, 41.887994], [-87.640199, 41.88801]], "type": "LineString"}, "properties": {"timestamp": "2024-03-30T23:16:18"}}, {"type": "Feature", "geometry": {"coordinates": [[-87.640199, 41.88801], [-87.639953, 41.887994], [-87.64001, 41.889064], [-87.644337, 41.889054], [-87.644242, 41.885699], [-87.645903, 41.885686], [-87.645999, 41.881827], [-87.646134, 41.880956], [-87.646145, 41.879569], [-87.646166, 41.878121], [-87.646315, 41.877031], [-87.646815, 41.876334], [-87.647774, 41.87588], [-87.649135, 41.875728], [-87.653058, 41.875788], [-87.657603, 41.876197], [-87.673066, 41.8759], [-87.676512, 41.876215], [-87.676638, 41.881323], [-87.679085, 41.881324], [-87.678236, 41.88126]], "type": "LineString"}, "properties": {"timestamp": "2024-03-30T23:31:56"}}, {"type": "Feature", "geometry": {"coordinates": [[-87.678236, 41.88126], [-87.676638, 41.881323], [-87.676555, 41.875016], [-87.676128, 41.875021], [-87.671184, 41.875464], [-87.658969, 41.875609], [-87.651569, 41.875318], [-87.635788, 41.875572], [-87.634246, 41.875312], [-87.634438, 41.874721], [-87.635124, 41.874834], [-87.635957, 41.875828], [-87.6367, 41.876925], [-87.63689, 41.884877], [-87.636546, 41.886119], [-87.635215, 41.886847], [-87.627147, 41.88686], [-87.62512, 41.888251], [-87.620671, 41.887844], [-87.620283, 41.893412], [-87.621935, 41.893376]], "type": "LineString"}, "properties": {"timestamp": "2024-03-30T23:31:56"}}, {"type": "Feature", "geometry": {"coordinates": [[-87.621935, 41.893376], [-87.624316, 41.893335], [-87.624246, 41.890945], [-87.621986, 41.890981], [-87.621956, 41.890899], [-87.621861, 41.890848], [-87.621745, 41.890853], [-87.62164, 41.890945], [-87.621649, 41.891015], [-87.621785, 41.891098], [-87.621905, 41.891081], [-87.621986, 41.890981], [-87.624074, 41.890948], [-87.624094, 41.891505]], "type": "LineString"}, "properties": {"timestamp": "2024-03-30T23:48:19"}}, {"type": "Feature", "geometry": {"coordinates": [[-87.624094, 41.891505], [-87.62414, 41.893338], [-87.637063, 41.893148], [-87.637178, 41.896556], [-87.65541, 41.896254], [-87.660982, 41.899842], [-87.669849, 41.899669], [-87.669869, 41.900367]], "type": "LineString"}, "properties": {"timestamp": "2024-03-30T23:48:19"}}, {"type": "Feature", "geometry": {"coordinates": [[-87.669869, 41.900367], [-87.669955, 41.90331], [-87.667439, 41.903351], [-87.667641, 41.910635], [-87.664445, 41.910674], [-87.668091, 41.915886], [-87.671196, 41.918549], [-87.704001, 41.937344], [-87.715981, 41.943044], [-87.717815, 41.94651], [-87.739921, 41.946215]], "type": "LineString"}, "properties": {"timestamp": "2024-03-31T00:09:25"}}, {"type": "Feature", "geometry": {"coordinates": [[-87.739921, 41.946215], [-87.71959, 41.946484], [-87.718156, 41.944989], [-87.715518, 41.942115], [-87.709442, 41.939977], [-87.670155, 41.917456], [-87.661559, 41.906635], [-87.661131, 41.901587], [-87.659383, 41.897534], [-87.657463, 41.89442], [-87.662352, 41.894339], [-87.662444, 41.897978], [-87.660058, 41.898021]], "type": "LineString"}, "properties": {"timestamp": "2024-03-31T00:09:25"}}, {"type": "Feature", "geometry": {"coordinates": [[-87.660058, 41.898021], [-87.659962, 41.896189], [-87.65541, 41.896254], [-87.647627, 41.891194], [-87.647611, 41.890088], [-87.651106, 41.890059], [-87.651107, 41.890448]], "type": "LineString"}, "properties": {"timestamp": "2024-03-31T00:27:55"}}, {"type": "Feature", "geometry": {"coordinates": [[-87.651107, 41.890448], [-87.651106, 41.890059], [-87.647611, 41.890088], [-87.647482, 41.885665], [-87.646258, 41.885682], [-87.644363, 41.857367], [-87.645793, 41.852447], [-87.644333, 41.849097], [-87.643981, 41.847746], [-87.644894, 41.846776], [-87.652275, 41.845121], [-87.666643, 41.838058], [-87.669478, 41.837422], [-87.674176, 41.837483], [-87.675396, 41.8377], [-87.675739, 41.848542], [-87.676155, 41.848385]], "type": "LineString"}, "properties": {"timestamp": "2024-03-31T00:27:55"}}, {"type": "Feature", "geometry": {"coordinates": [[-87.676155, 41.848385], [-87.666338, 41.852164], [-87.666089, 41.852334], [-87.657498, 41.852481], [-87.657612, 41.856527]], "type": "LineString"}, "properties": {"timestamp": "2024-03-31T00:33:28"}}, {"type": "Feature", "geometry": {"coordinates": [[-87.657612, 41.856527], [-87.657651, 41.857936], [-87.646649, 41.858102], [-87.646633, 41.857542], [-87.643769, 41.857593], [-87.643778, 41.857758], [-87.646015, 41.886212], [-87.648317, 41.889375], [-87.658783, 41.897251], [-87.659247, 41.899676], [-87.660982, 41.899842], [-87.666488, 41.903364], [-87.674833, 41.903226], [-87.674795, 41.902204]], "type": "LineString"}, "properties": {"timestamp": "2024-03-31T00:33:28"}}, {"type": "Feature", "geometry": {"coordinates": [[-87.674795, 41.902204], [-87.674763, 41.901404], [-87.673548, 41.901426], [-87.673606, 41.903247], [-87.677276, 41.903184], [-87.677591, 41.916239]], "type": "LineString"}, "properties": {"timestamp": "2024-03-31T01:21:19"}}, {"type": "Feature", "geometry": {"coordinates": [[-87.677591, 41.916239], [-87.677893, 41.925026], [-87.66815, 41.925151], [-87.668327, 41.932402], [-87.65143, 41.932682], [-87.651528, 41.935411], [-87.65295, 41.935378]], "type": "LineString"}, "properties": {"timestamp": "2024-03-31T01:21:19"}}, {"type": "Feature", "geometry": {"coordinates": [[-87.65295, 41.935378], [-87.653955, 41.935355], [-87.654742, 41.961156], [-87.656894, 41.964503]], "type": "LineString"}, "properties": {"timestamp": "2024-03-31T01:46:56"}}, {"type": "Feature", "geometry": {"coordinates": [[-87.656894, 41.964503], [-87.655148, 41.961772], [-87.646878, 41.961908], [-87.644905, 41.955203], [-87.644507, 41.950757], [-87.638957, 41.941067], [-87.632527, 41.93482], [-87.632048, 41.928427], [-87.627538, 41.915117], [-87.627206, 41.913042], [-87.628067, 41.912346], [-87.632438, 41.913334], [-87.633196, 41.912907], [-87.633223, 41.911171], [-87.648286, 41.910927], [-87.648495, 41.91731]], "type": "LineString"}, "properties": {"timestamp": "2024-03-31T01:46:56"}}, {"type": "Feature", "geometry": {"coordinates": [[-87.648495, 41.91731], [-87.649228, 41.938193], [-87.654273, 41.944458], [-87.65452, 41.95355], [-87.653557, 41.953599]], "type": "LineString"}, "properties": {"timestamp": "2024-03-31T01:49:26"}}, {"type": "Feature", "geometry": {"coordinates": [[-87.653557, 41.953599], [-87.650054, 41.95384], [-87.650527, 41.954553], [-87.644162, 41.954667], [-87.64588, 41.958653], [-87.646256, 41.962081], [-87.648738, 41.973046], [-87.652251, 41.981039], [-87.65285, 41.985032], [-87.654178, 41.985586], [-87.660947, 41.985463], [-87.662456, 41.985105], [-87.663615, 41.985799], [-87.663554, 41.983576], [-87.664956, 41.983555], [-87.665016, 41.985508], [-87.664001, 41.985518]], "type": "LineString"}, "properties": {"timestamp": "2024-03-31T01:49:26"}}, {"type": "Feature", "geometry": {"coordinates": [[-87.664001, 41.985518], [-87.663294, 41.985603], [-87.672385, 41.990845], [-87.749719, 41.990005], [-87.753543, 41.991161], [-87.765439, 41.996715], [-87.773348, 42.011959], [-87.77782, 42.011989]], "type": "LineString"}, "properties": {"timestamp": "2024-04-02T17:20:30"}}]}