{"type": "FeatureCollection", "features": [{"type": "Feature", "geometry": {"coordinates": [[-87.686212, 41.99714], [-87.686201, 41.996892], [-87.684983, 41.996911], [-87.685016, 41.997818], [-87.689893, 41.997738], [-87.690082, 42.026745], [-87.72577, 42.026266], [-87.723981, 42.033502], [-87.723597, 42.033507]], "type": "LineString"}, "properties": {"timestamp": "2024-03-27T14:33:40"}}, {"type": "Feature", "geometry": {"coordinates": [[-87.723597, 42.033507], [-87.723597, 42.033507]], "type": "LineString"}, "properties": {"timestamp": "2024-03-27T14:51:35"}}, {"type": "Feature", "geometry": {"coordinates": [[-87.723597, 42.033507], [-87.710925, 42.033689], [-87.711074, 42.024506], [-87.710729, 42.021634], [-87.711292, 42.019113], [-87.699601, 42.019332], [-87.6998, 42.007558], [-87.697564, 42.007603]], "type": "LineString"}, "properties": {"timestamp": "2024-03-27T14:51:35"}}, {"type": "Feature", "geometry": {"coordinates": [[-87.697564, 42.007603], [-87.697381, 42.007607], [-87.697388, 42.006706], [-87.699813, 42.00666], [-87.699677, 41.999382], [-87.704583, 41.999299], [-87.704603, 42.000271]], "type": "LineString"}, "properties": {"timestamp": "2024-03-27T15:04:10"}}, {"type": "Feature", "geometry": {"coordinates": [[-87.704603, 42.000271], [-87.704621, 42.001119], [-87.699731, 42.001198], [-87.698683, 41.968549], [-87.702871, 41.96851], [-87.698437, 41.96359], [-87.698335, 41.956867]], "type": "LineString"}, "properties": {"timestamp": "2024-03-27T15:04:10"}}, {"type": "Feature", "geometry": {"coordinates": [[-87.698335, 41.956867], [-87.697602, 41.932108], [-87.696547, 41.932116], [-87.669746, 41.917124], [-87.661559, 41.906635], [-87.658834, 41.896667], [-87.647099, 41.887778], [-87.644363, 41.857367], [-87.645793, 41.852447], [-87.644333, 41.849097], [-87.644894, 41.846776], [-87.652708, 41.844955], [-87.667166, 41.837862], [-87.680151, 41.837032], [-87.695427, 41.832287], [-87.698851, 41.831418], [-87.700566, 41.830863], [-87.70462, 41.83001], [-87.70506, 41.844708]], "type": "LineString"}, "properties": {"timestamp": "2024-03-27T15:12:35"}}, {"type": "Feature", "geometry": {"coordinates": [[-87.70506, 41.844708], [-87.704642, 41.829034], [-87.699332, 41.830574], [-87.680385, 41.836711], [-87.66766, 41.83747], [-87.658964, 41.841885], [-87.642563, 41.846659], [-87.644555, 41.850742], [-87.645735, 41.885306], [-87.651689, 41.891702], [-87.65868, 41.896836], [-87.66137, 41.906646], [-87.670146, 41.917654], [-87.715306, 41.94215], [-87.719592, 41.947613], [-87.746287, 41.963594], [-87.746614, 41.980044], [-87.751368, 41.98759], [-87.748589, 42.006167], [-87.748003, 42.010101], [-87.746617, 42.026006], [-87.690082, 42.026745], [-87.69003, 42.030859], [-87.689427, 42.030852]], "type": "LineString"}, "properties": {"timestamp": "2024-03-27T15:12:35"}}, {"type": "Feature", "geometry": {"coordinates": [[-87.689427, 42.030852], [-87.686034, 42.03083], [-87.686761, 42.034007], [-87.674774, 42.033906], [-87.675008, 42.03578]], "type": "LineString"}, "properties": {"timestamp": "2024-03-27T15:18:06"}}, {"type": "Feature", "geometry": {"coordinates": [[-87.675008, 42.03578], [-87.674774, 42.033906], [-87.670571, 42.033783], [-87.670647, 42.027188], [-87.667622, 42.026688], [-87.665427, 42.023166], [-87.66692, 42.022252], [-87.660929, 42.005557], [-87.66054, 41.998191], [-87.660132, 41.985467], [-87.653157, 41.984999], [-87.648822, 41.972134], [-87.644611, 41.950978], [-87.638957, 41.941067], [-87.632527, 41.93482], [-87.632048, 41.928427], [-87.62421, 41.902733], [-87.619617, 41.900898], [-87.614345, 41.893094], [-87.614127, 41.884928], [-87.617506, 41.88092], [-87.624244, 41.880838], [-87.624206, 41.881322], [-87.625718, 41.882086]], "type": "LineString"}, "properties": {"timestamp": "2024-03-27T15:18:06"}}, {"type": "Feature", "geometry": {"coordinates": [[-87.625718, 41.882086], [-87.626192, 41.882079], [-87.626161, 41.880802], [-87.624471, 41.880835], [-87.624157, 41.867506], [-87.624039, 41.868888]], "type": "LineString"}, "properties": {"timestamp": "2024-03-27T15:55:40"}}, {"type": "Feature", "geometry": {"coordinates": [[-87.624039, 41.868888], [-87.624206, 41.881322], [-87.624508, 41.882115], [-87.639706, 41.881889], [-87.639866, 41.885734], [-87.641353, 41.886808], [-87.641369, 41.889103], [-87.648718, 41.889017], [-87.648752, 41.889662]], "type": "LineString"}, "properties": {"timestamp": "2024-03-27T15:55:40"}}, {"type": "Feature", "geometry": {"coordinates": [[-87.648752, 41.889662], [-87.648718, 41.889017], [-87.652236, 41.888996], [-87.652212, 41.888087]], "type": "LineString"}, "properties": {"timestamp": "2024-03-27T16:08:46"}}, {"type": "Feature", "geometry": {"coordinates": [[-87.652212, 41.888087], [-87.652288, 41.891135], [-87.643004, 41.891239], [-87.640016, 41.891501], [-87.637019, 41.891543], [-87.63704, 41.892368], [-87.624293, 41.892538], [-87.624246, 41.890945], [-87.621986, 41.890981], [-87.621861, 41.890848], [-87.62164, 41.890945], [-87.621785, 41.891098], [-87.621986, 41.890981], [-87.624074, 41.890948], [-87.624094, 41.891505]], "type": "LineString"}, "properties": {"timestamp": "2024-03-27T16:08:46"}}, {"type": "Feature", "geometry": {"coordinates": [[-87.624094, 41.891505], [-87.624094, 41.891505]], "type": "LineString"}, "properties": {"timestamp": "2024-03-27T16:20:25"}}, {"type": "Feature", "geometry": {"coordinates": [[-87.624094, 41.891505], [-87.624042, 41.900824], [-87.62589, 41.912141], [-87.631851, 41.928415], [-87.632152, 41.934381], [-87.638833, 41.941219], [-87.644376, 41.950931], [-87.648738, 41.973046], [-87.652803, 41.984951], [-87.662456, 41.985105], [-87.67531, 41.992132], [-87.6823, 42.010114], [-87.681616, 42.010074]], "type": "LineString"}, "properties": {"timestamp": "2024-03-27T16:20:25"}}, {"type": "Feature", "geometry": {"coordinates": [[-87.681616, 42.010074], [-87.682116, 42.010065], [-87.6823, 42.010114], [-87.681855, 42.008899], [-87.680175, 42.005209], [-87.683168, 42.005153]], "type": "LineString"}, "properties": {"timestamp": "2024-03-27T16:49:32"}}, {"type": "Feature", "geometry": {"coordinates": [[-87.683168, 42.005153], [-87.680175, 42.005209], [-87.675425, 41.994982], [-87.67531, 41.992132], [-87.669778, 41.989576], [-87.660074, 41.983631], [-87.659673, 41.968906], [-87.656894, 41.964503]], "type": "LineString"}, "properties": {"timestamp": "2024-03-27T16:49:32"}}, {"type": "Feature", "geometry": {"coordinates": [[-87.656894, 41.964503], [-87.650527, 41.954553], [-87.645235, 41.954634], [-87.645016, 41.95271]], "type": "LineString"}, "properties": {"timestamp": "2024-03-27T17:27:53"}}, {"type": "Feature", "geometry": {"coordinates": [[-87.645016, 41.95271], [-87.645235, 41.954634], [-87.644162, 41.954667], [-87.64588, 41.958653], [-87.646256, 41.962081], [-87.648738, 41.973046], [-87.652251, 41.981039], [-87.65285, 41.985032], [-87.654178, 41.985586], [-87.660947, 41.985463], [-87.662456, 41.985105], [-87.672113, 41.990814], [-87.674716, 41.990816], [-87.674682, 41.98969]], "type": "LineString"}, "properties": {"timestamp": "2024-03-27T17:27:53"}}, {"type": "Feature", "geometry": {"coordinates": [[-87.674682, 41.98969], [-87.674641, 41.98833], [-87.669926, 41.988432], [-87.669796, 41.987608], [-87.669769, 41.987519]], "type": "LineString"}, "properties": {"timestamp": "2024-03-27T17:48:44"}}, {"type": "Feature", "geometry": {"coordinates": [[-87.669769, 41.987519], [-87.669343, 41.985953], [-87.669821, 41.985945], [-87.670204, 41.996889], [-87.673112, 42.005339], [-87.678155, 42.027266], [-87.678958, 42.027274], [-87.679066, 42.027736], [-87.680382, 42.027754], [-87.680368, 42.028453]], "type": "LineString"}, "properties": {"timestamp": "2024-03-27T17:48:44"}}, {"type": "Feature", "geometry": {"coordinates": [[-87.680368, 42.028453], [-87.680397, 42.02658], [-87.678928, 42.026589], [-87.678958, 42.027274], [-87.668578, 42.027161], [-87.666902, 42.025972], [-87.665412, 42.023099], [-87.66691, 42.022304], [-87.666595, 42.021131], [-87.664892, 42.015441], [-87.662865, 42.011614], [-87.660929, 42.005557], [-87.66054, 41.998191], [-87.656369, 41.998227], [-87.65567, 41.997897], [-87.655324, 41.987812]], "type": "LineString"}, "properties": {"timestamp": "2024-03-27T18:02:17"}}, {"type": "Feature", "geometry": {"coordinates": [[-87.655324, 41.987812], [-87.655253, 41.985556], [-87.653749, 41.985549], [-87.653157, 41.984999], [-87.652706, 41.981232], [-87.649277, 41.973607], [-87.646482, 41.962051], [-87.645733, 41.957427], [-87.645546, 41.955777], [-87.645235, 41.954634], [-87.699463, 41.953978], [-87.699511, 41.955624]], "type": "LineString"}, "properties": {"timestamp": "2024-03-27T18:02:17"}}, {"type": "Feature", "geometry": {"coordinates": [[-87.699511, 41.955624], [-87.699516, 41.955785], [-87.69831, 41.955792], [-87.698254, 41.953982], [-87.709947, 41.953965]], "type": "LineString"}, "properties": {"timestamp": "2024-03-27T18:38:34"}}, {"type": "Feature", "geometry": {"coordinates": [[-87.709947, 41.953965], [-87.710466, 41.953958], [-87.710301, 41.947636], [-87.707815, 41.945936], [-87.707705, 41.938646], [-87.669746, 41.917124], [-87.664752, 41.909975], [-87.661559, 41.906635], [-87.661131, 41.901587], [-87.659383, 41.897534], [-87.657479, 41.894931], [-87.657374, 41.891076], [-87.648776, 41.891179], [-87.648752, 41.889662]], "type": "LineString"}, "properties": {"timestamp": "2024-03-27T18:38:34"}}, {"type": "Feature", "geometry": {"coordinates": [[-87.648752, 41.889662], [-87.64876, 41.890082], [-87.647611, 41.890088], [-87.647674, 41.896553], [-87.648124, 41.905038], [-87.649202, 41.905042], [-87.649323, 41.905133]], "type": "LineString"}, "properties": {"timestamp": "2024-03-27T18:58:12"}}, {"type": "Feature", "geometry": {"coordinates": [[-87.649323, 41.905133], [-87.649202, 41.905042], [-87.648124, 41.905038], [-87.648892, 41.929091], [-87.645275, 41.929156], [-87.642943, 41.929694], [-87.64343, 41.93001], [-87.641461, 41.930662], [-87.641716, 41.931096]], "type": "LineString"}, "properties": {"timestamp": "2024-03-27T18:58:12"}}, {"type": "Feature", "geometry": {"coordinates": [[-87.641716, 41.931096], [-87.641461, 41.930662], [-87.64343, 41.93001], [-87.642943, 41.929694], [-87.644199, 41.929324], [-87.645552, 41.929135], [-87.65652, 41.928972]], "type": "LineString"}, "properties": {"timestamp": "2024-03-27T19:24:03"}}, {"type": "Feature", "geometry": {"coordinates": [[-87.65652, 41.928972], [-87.653741, 41.929016], [-87.653863, 41.932636], [-87.649013, 41.932728], [-87.649228, 41.938193], [-87.649915, 41.939012], [-87.651855, 41.938982]], "type": "LineString"}, "properties": {"timestamp": "2024-03-27T19:24:03"}}, {"type": "Feature", "geometry": {"coordinates": [[-87.651855, 41.938982], [-87.654074, 41.938945], [-87.654106, 41.939918], [-87.723912, 41.939142], [-87.735605, 41.946271], [-87.739921, 41.946215]], "type": "LineString"}, "properties": {"timestamp": "2024-03-27T20:10:06"}}, {"type": "Feature", "geometry": {"coordinates": [[-87.739921, 41.946215], [-87.732228, 41.94631], [-87.732533, 41.955298], [-87.742619, 41.960998], [-87.746732, 41.965012], [-87.746614, 41.980044], [-87.751348, 41.987222], [-87.748589, 42.006167], [-87.748003, 42.010101], [-87.746617, 42.026006], [-87.678958, 42.027274], [-87.678155, 42.027266], [-87.678285, 42.028177]], "type": "LineString"}, "properties": {"timestamp": "2024-03-27T20:10:06"}}, {"type": "Feature", "geometry": {"coordinates": [[-87.678285, 42.028177], [-87.68054, 42.039944], [-87.680541, 42.043378]], "type": "LineString"}, "properties": {"timestamp": "2024-03-27T20:39:45"}}, {"type": "Feature", "geometry": {"coordinates": [[-87.680541, 42.043378], [-87.68054, 42.039944], [-87.678089, 42.026691], [-87.676332, 42.01941], [-87.675457, 42.017327], [-87.672778, 42.004383], [-87.670573, 42.004426], [-87.670564, 42.004146]], "type": "LineString"}, "properties": {"timestamp": "2024-03-27T20:39:45"}}, {"type": "Feature", "geometry": {"coordinates": [[-87.670564, 42.004146], [-87.670426, 41.999512], [-87.670965, 41.999116], [-87.670328, 41.996527], [-87.670133, 41.990797], [-87.689876, 41.990509], [-87.689669, 41.99044], [-87.689083, 41.974101], [-87.696404, 41.974012], [-87.696304, 41.970746], [-87.695921, 41.970749]], "type": "LineString"}, "properties": {"timestamp": "2024-03-27T21:05:03"}}, {"type": "Feature", "geometry": {"coordinates": [[-87.695921, 41.970749], [-87.695711, 41.970751], [-87.695674, 41.969664], [-87.696271, 41.96966], [-87.696237, 41.968561], [-87.713373, 41.968411], [-87.712911, 41.953916], [-87.727612, 41.95365], [-87.727167, 41.938375]], "type": "LineString"}, "properties": {"timestamp": "2024-03-27T21:05:03"}}, {"type": "Feature", "geometry": {"coordinates": [[-87.727167, 41.938375], [-87.727612, 41.95365], [-87.712908, 41.953809], [-87.713373, 41.968411], [-87.706019, 41.96848], [-87.706131, 41.97211], [-87.704528, 41.972126]], "type": "LineString"}, "properties": {"timestamp": "2024-03-27T21:24:24"}}, {"type": "Feature", "geometry": {"coordinates": [[-87.704528, 41.972126], [-87.704913, 41.972118], [-87.70487, 41.970314], [-87.703871, 41.970324], [-87.703607, 41.968503], [-87.648824, 41.969276], [-87.64734, 41.965793], [-87.644507, 41.950757], [-87.638957, 41.941067], [-87.633807, 41.936608], [-87.632453, 41.934639], [-87.632048, 41.928427], [-87.629189, 41.918735], [-87.62605, 41.911998], [-87.62421, 41.902733], [-87.62264, 41.901491], [-87.619617, 41.900898], [-87.614907, 41.893955], [-87.614335, 41.8919], [-87.614196, 41.891128], [-87.61158, 41.891141], [-87.611597, 41.891968], [-87.612627, 41.891945]], "type": "LineString"}, "properties": {"timestamp": "2024-03-27T21:24:24"}}, {"type": "Feature", "geometry": {"coordinates": [[-87.612627, 41.891945], [-87.620235, 41.891803], [-87.620212, 41.890902], [-87.620395, 41.889573], [-87.621589, 41.889608], [-87.621608, 41.890134], [-87.62164, 41.890945], [-87.621327, 41.890952]], "type": "LineString"}, "properties": {"timestamp": "2024-03-27T21:59:23"}}, {"type": "Feature", "geometry": {"coordinates": [[-87.621327, 41.890952], [-87.621649, 41.891015], [-87.621963, 41.889658], [-87.620395, 41.889573], [-87.620762, 41.887855], [-87.615811, 41.887462], [-87.614014, 41.887175], [-87.61394, 41.885118], [-87.617453, 41.881821], [-87.617261, 41.869765], [-87.619589, 41.866068], [-87.614728, 41.853242], [-87.614444, 41.848506], [-87.626818, 41.84732], [-87.631727, 41.847855], [-87.631351, 41.843118], [-87.631289, 41.79178], [-87.631532, 41.783322], [-87.631838, 41.7799], [-87.625367, 41.78006], [-87.6254, 41.779128]], "type": "LineString"}, "properties": {"timestamp": "2024-03-27T21:59:23"}}, {"type": "Feature", "geometry": {"coordinates": [[-87.6254, 41.779128], [-87.625218, 41.772818], [-87.62998, 41.772715], [-87.630149, 41.780433], [-87.63142, 41.807989], [-87.629665, 41.812785], [-87.630393, 41.837743], [-87.631001, 41.844069], [-87.630081, 41.846653], [-87.616851, 41.847976], [-87.613276, 41.848193], [-87.612177, 41.849732], [-87.618709, 41.863523], [-87.62045, 41.867696], [-87.62062, 41.875872]], "type": "LineString"}, "properties": {"timestamp": "2024-03-27T22:22:17"}}, {"type": "Feature", "geometry": {"coordinates": [[-87.62062, 41.875872], [-87.620794, 41.880871], [-87.620558, 41.882623], [-87.620609, 41.884517], [-87.624371, 41.884484], [-87.624484, 41.887965], [-87.624034, 41.889969], [-87.62414, 41.893338], [-87.629681, 41.893255], [-87.629727, 41.894584]], "type": "LineString"}, "properties": {"timestamp": "2024-03-27T22:22:17"}}, {"type": "Feature", "geometry": {"coordinates": [[-87.629727, 41.894584], [-87.629762, 41.895665], [-87.622799, 41.895763], [-87.62278, 41.894975], [-87.623046, 41.894971]], "type": "LineString"}, "properties": {"timestamp": "2024-03-27T22:30:53"}}, {"type": "Feature", "geometry": {"coordinates": [[-87.623046, 41.894971], [-87.624182, 41.89495], [-87.624042, 41.900824], [-87.623664, 41.902709], [-87.624883, 41.906002], [-87.625717, 41.909833], [-87.625477, 41.912497], [-87.626017, 41.913347], [-87.626875, 41.912624], [-87.627835, 41.912344], [-87.631075, 41.913404], [-87.632856, 41.913169], [-87.636131, 41.918472], [-87.647123, 41.918199]], "type": "LineString"}, "properties": {"timestamp": "2024-03-27T22:30:53"}}, {"type": "Feature", "geometry": {"coordinates": [[-87.647123, 41.918199], [-87.658214, 41.918041], [-87.658201, 41.917264], [-87.658378, 41.917139], [-87.663815, 41.917067], [-87.666413, 41.916455], [-87.667946, 41.918441], [-87.672314, 41.921495], [-87.677765, 41.92139], [-87.677716, 41.920058], [-87.684435, 41.919922]], "type": "LineString"}, "properties": {"timestamp": "2024-03-27T22:50:40"}}, {"type": "Feature", "geometry": {"coordinates": [[-87.684435, 41.919922], [-87.685039, 41.91991], [-87.685062, 41.920656], [-87.68262, 41.920704], [-87.682641, 41.92131], [-87.668616, 41.921563], [-87.668122, 41.924169], [-87.668327, 41.932402], [-87.649013, 41.932728], [-87.649275, 41.939973], [-87.64439, 41.940035], [-87.644433, 41.94114], [-87.644851, 41.941134]], "type": "LineString"}, "properties": {"timestamp": "2024-03-27T22:50:40"}}, {"type": "Feature", "geometry": {"coordinates": [[-87.644851, 41.941134], [-87.649309, 41.941079], [-87.649275, 41.939973], [-87.638088, 41.940568], [-87.644437, 41.951086], [-87.644596, 41.954749], [-87.648738, 41.973046], [-87.652251, 41.981039], [-87.652803, 41.984951], [-87.655253, 41.985556], [-87.655634, 41.997803], [-87.659646, 41.998196], [-87.660644, 41.998874], [-87.661292, 42.006762], [-87.666039, 42.019248], [-87.671924, 42.019377], [-87.671905, 42.020379]], "type": "LineString"}, "properties": {"timestamp": "2024-03-28T12:55:52"}}]}