{"type": "FeatureCollection", "features": [{"type": "Feature", "geometry": {"coordinates": [[-87.671905, 42.020379], [-87.671924, 42.019377], [-87.676332, 42.01941], [-87.678089, 42.026691], [-87.678285, 42.028177]], "type": "LineString"}, "properties": {"timestamp": "2024-03-28T12:55:52"}}, {"type": "Feature", "geometry": {"coordinates": [[-87.678285, 42.028177], [-87.68054, 42.039944], [-87.680521, 42.044073], [-87.677291, 42.051106], [-87.677209, 42.053841], [-87.679721, 42.05387], [-87.679677, 42.057045]], "type": "LineString"}, "properties": {"timestamp": "2024-03-28T13:06:52"}}, {"type": "Feature", "geometry": {"coordinates": [[-87.679677, 42.057045], [-87.679659, 42.058405], [-87.69372, 42.058289], [-87.694945, 42.059727], [-87.709225, 42.052495], [-87.740001, 42.055271], [-87.756258, 42.041109], [-87.763691, 42.040938], [-87.768822, 42.026512], [-87.749252, 42.009007], [-87.747223, 41.966563], [-87.715306, 41.94215], [-87.670146, 41.917654], [-87.659246, 41.897685], [-87.646315, 41.886261], [-87.644998, 41.850609], [-87.634652, 41.845323], [-87.624621, 41.72052], [-87.621065, 41.713653], [-87.600337, 41.713191], [-87.592948, 41.708673], [-87.601728, 41.676933], [-87.589096, 41.660202], [-87.555878, 41.656176], [-87.555649, 41.65737], [-87.553811, 41.65736], [-87.553812, 41.656889]], "type": "LineString"}, "properties": {"timestamp": "2024-03-28T13:06:52"}}, {"type": "Feature", "geometry": {"coordinates": [[-87.553812, 41.656889], [-87.553812, 41.656889]], "type": "LineString"}, "properties": {"timestamp": "2024-03-28T13:53:00"}}, {"type": "Feature", "geometry": {"coordinates": [[-87.553812, 41.656889], [-87.553811, 41.65736], [-87.557102, 41.657281], [-87.585314, 41.660149], [-87.590822, 41.662478], [-87.601403, 41.675885], [-87.601563, 41.685726], [-87.594329, 41.69908], [-87.591535, 41.705863], [-87.595707, 41.711823], [-87.618809, 41.713575], [-87.62372, 41.717096], [-87.625651, 41.769497], [-87.630747, 41.779495], [-87.630667, 41.838631], [-87.63193, 41.844225], [-87.642036, 41.847354], [-87.644778, 41.850632], [-87.64591, 41.885931], [-87.6586, 41.897003], [-87.661061, 41.906443], [-87.667973, 41.915739], [-87.66968, 41.917898], [-87.667964, 41.917936], [-87.668616, 41.921563], [-87.664379, 41.921608], [-87.664499, 41.921692]], "type": "LineString"}, "properties": {"timestamp": "2024-03-28T13:53:00"}}, {"type": "Feature", "geometry": {"coordinates": [[-87.664499, 41.921692], [-87.664379, 41.921608], [-87.668616, 41.921563], [-87.667771, 41.917197], [-87.667365, 41.896069], [-87.691761, 41.895706], [-87.691808, 41.897514], [-87.690593, 41.897528], [-87.690571, 41.896716]], "type": "LineString"}, "properties": {"timestamp": "2024-03-28T15:04:05"}}, {"type": "Feature", "geometry": {"coordinates": [[-87.690571, 41.896716], [-87.690545, 41.895717], [-87.667222, 41.896071], [-87.667339, 41.899713], [-87.660982, 41.899842], [-87.660843, 41.899711], [-87.657719, 41.895493], [-87.647794, 41.888636], [-87.646614, 41.886973], [-87.646108, 41.885119], [-87.646413, 41.883144], [-87.641266, 41.883178], [-87.639745, 41.883185], [-87.633501, 41.883243]], "type": "LineString"}, "properties": {"timestamp": "2024-03-28T15:04:05"}}, {"type": "Feature", "geometry": {"coordinates": [[-87.633501, 41.883243], [-87.632417, 41.883243], [-87.6325, 41.8916], [-87.635588, 41.891557], [-87.635594, 41.891816]], "type": "LineString"}, "properties": {"timestamp": "2024-03-28T15:20:57"}}, {"type": "Feature", "geometry": {"coordinates": [[-87.635594, 41.891816], [-87.635588, 41.891557], [-87.644384, 41.891225], [-87.644242, 41.885699], [-87.645903, 41.885686], [-87.645999, 41.881827], [-87.646134, 41.880956], [-87.646145, 41.879569], [-87.646166, 41.878121], [-87.646815, 41.876334], [-87.647774, 41.87588], [-87.649135, 41.875728], [-87.657603, 41.876197], [-87.688313, 41.875763], [-87.692409, 41.875862], [-87.695752, 41.875985]], "type": "LineString"}, "properties": {"timestamp": "2024-03-28T15:20:57"}}, {"type": "Feature", "geometry": {"coordinates": [[-87.695752, 41.875985], [-87.696151, 41.875983], [-87.695913, 41.866515], [-87.671352, 41.866763], [-87.671299, 41.865019], [-87.668853, 41.865052], [-87.668834, 41.864143]], "type": "LineString"}, "properties": {"timestamp": "2024-03-28T15:39:56"}}, {"type": "Feature", "geometry": {"coordinates": [[-87.668834, 41.864143], [-87.666265, 41.864179], [-87.666563, 41.875179], [-87.666292, 41.875183], [-87.662662, 41.87557], [-87.6605, 41.875604], [-87.650308, 41.875329], [-87.647601, 41.875302], [-87.646122, 41.87464], [-87.645452, 41.874563], [-87.644912, 41.874703], [-87.644482, 41.875077], [-87.644364, 41.875544], [-87.64458, 41.876036], [-87.645181, 41.877116], [-87.645364, 41.877863], [-87.645275, 41.880374], [-87.64518, 41.881808], [-87.644106, 41.881817], [-87.644087, 41.880532], [-87.639693, 41.880598], [-87.639706, 41.881889], [-87.640505, 41.881877]], "type": "LineString"}, "properties": {"timestamp": "2024-03-28T15:39:56"}}, {"type": "Feature", "geometry": {"coordinates": [[-87.640505, 41.881877], [-87.641227, 41.88187], [-87.64118, 41.880567], [-87.636998, 41.880628], [-87.636932, 41.878078], [-87.636803, 41.876812]], "type": "LineString"}, "properties": {"timestamp": "2024-03-28T15:55:26"}}, {"type": "Feature", "geometry": {"coordinates": [[-87.636803, 41.876812], [-87.636629, 41.876812], [-87.636785, 41.881915], [-87.640505, 41.881877]], "type": "LineString"}, "properties": {"timestamp": "2024-03-28T15:55:26"}}, {"type": "Feature", "geometry": {"coordinates": [[-87.640505, 41.881877], [-87.640505, 41.881877]], "type": "LineString"}, "properties": {"timestamp": "2024-03-28T16:14:53"}}, {"type": "Feature", "geometry": {"coordinates": [[-87.640505, 41.881877], [-87.641227, 41.88187], [-87.641048, 41.876757], [-87.639817, 41.876769], [-87.639823, 41.875803], [-87.641365, 41.875647], [-87.651991, 41.875736], [-87.657603, 41.876197], [-87.688313, 41.875763], [-87.692409, 41.875862], [-87.696151, 41.875983], [-87.696261, 41.880169], [-87.695733, 41.880173]], "type": "LineString"}, "properties": {"timestamp": "2024-03-28T16:14:53"}}, {"type": "Feature", "geometry": {"coordinates": [[-87.695733, 41.880173], [-87.696261, 41.880169], [-87.69636, 41.884255], [-87.662599, 41.885414], [-87.661497, 41.887468], [-87.659834, 41.889971], [-87.653442, 41.890032], [-87.653444, 41.890128]], "type": "LineString"}, "properties": {"timestamp": "2024-03-28T17:07:06"}}, {"type": "Feature", "geometry": {"coordinates": [[-87.653444, 41.890128], [-87.653449, 41.89112], [-87.647627, 41.891194], [-87.647683, 41.896808], [-87.648086, 41.903643], [-87.643216, 41.903716], [-87.643385, 41.909507]], "type": "LineString"}, "properties": {"timestamp": "2024-03-28T17:07:06"}}, {"type": "Feature", "geometry": {"coordinates": [[-87.643385, 41.909507], [-87.642968, 41.89784], [-87.643136, 41.897849], [-87.643211, 41.897708]], "type": "LineString"}, "properties": {"timestamp": "2024-03-28T17:12:34"}}, {"type": "Feature", "geometry": {"coordinates": [[-87.643211, 41.897708], [-87.642946, 41.897316], [-87.643088, 41.900414], [-87.628335, 41.9006], [-87.62834, 41.900747], [-87.624042, 41.900824], [-87.62589, 41.912141], [-87.631851, 41.928415], [-87.632152, 41.934381], [-87.638833, 41.941219], [-87.644376, 41.950931], [-87.648738, 41.973046], [-87.652803, 41.984951], [-87.655253, 41.985556], [-87.655634, 41.997803], [-87.659646, 41.998196], [-87.666816, 42.021956], [-87.665312, 42.023203], [-87.667277, 42.026585], [-87.670647, 42.027188], [-87.670554, 42.033741], [-87.671915, 42.033884], [-87.672063, 42.04031], [-87.674958, 42.040336], [-87.674669, 42.044876], [-87.673955, 42.046067], [-87.674388, 42.050166], [-87.677291, 42.051106], [-87.677157, 42.056866]], "type": "LineString"}, "properties": {"timestamp": "2024-03-28T17:12:34"}}, {"type": "Feature", "geometry": {"coordinates": [[-87.677157, 42.056866], [-87.677075, 42.06163], [-87.674376, 42.061616], [-87.674164, 42.061551], [-87.674176, 42.060747], [-87.674289, 42.060575], [-87.674675, 42.060385], [-87.674782, 42.060216], [-87.674772, 42.059162], [-87.674598, 42.059097], [-87.672861, 42.059078], [-87.672862, 42.057924], [-87.673096, 42.057669], [-87.673012, 42.057403], [-87.673416, 42.0568], [-87.673466, 42.056446]], "type": "LineString"}, "properties": {"timestamp": "2024-03-28T17:52:19"}}, {"type": "Feature", "geometry": {"coordinates": [[-87.673466, 42.056446], [-87.673067, 42.057349], [-87.672592, 42.057366], [-87.672638, 42.057705], [-87.672893, 42.057853], [-87.672861, 42.059078], [-87.674721, 42.059127], [-87.674782, 42.060216], [-87.674176, 42.060747], [-87.674164, 42.061551], [-87.681623, 42.061693], [-87.681868, 42.047749]], "type": "LineString"}, "properties": {"timestamp": "2024-03-28T17:52:19"}}, {"type": "Feature", "geometry": {"coordinates": [[-87.681868, 42.047749], [-87.681897, 42.047061], [-87.681941, 42.046823], [-87.682652, 42.047008], [-87.683456, 42.047037], [-87.683358, 42.049605]], "type": "LineString"}, "properties": {"timestamp": "2024-03-28T18:05:50"}}, {"type": "Feature", "geometry": {"coordinates": [[-87.683358, 42.049605], [-87.683392, 42.048484], [-87.681839, 42.048461], [-87.681897, 42.047061], [-87.681841, 42.046792]], "type": "LineString"}, "properties": {"timestamp": "2024-03-28T18:05:50"}}, {"type": "Feature", "geometry": {"coordinates": [[-87.681841, 42.046792], [-87.681865, 42.045816], [-87.680227, 42.049412], [-87.679803, 42.049915], [-87.678119, 42.049451], [-87.677274, 42.051173], [-87.677075, 42.06163], [-87.674164, 42.061551], [-87.674176, 42.060747], [-87.674782, 42.060216], [-87.674772, 42.059162], [-87.672861, 42.059078], [-87.672862, 42.057924], [-87.673095, 42.057588], [-87.672823, 42.057284], [-87.67256, 42.057473]], "type": "LineString"}, "properties": {"timestamp": "2024-03-28T18:09:36"}}, {"type": "Feature", "geometry": {"coordinates": [[-87.67256, 42.057473], [-87.672893, 42.057853], [-87.672861, 42.059078], [-87.674721, 42.059127], [-87.674782, 42.060216], [-87.674176, 42.060747], [-87.674164, 42.061551], [-87.677075, 42.06163], [-87.677291, 42.051106], [-87.680232, 42.045024], [-87.680521, 42.044073], [-87.682277, 42.044109], [-87.682549, 42.044837]], "type": "LineString"}, "properties": {"timestamp": "2024-03-28T18:09:36"}}, {"type": "Feature", "geometry": {"coordinates": [[-87.682549, 42.044837], [-87.682628, 42.045048], [-87.682607, 42.045573], [-87.683448, 42.045609], [-87.683524, 42.045583], [-87.684483, 42.047052], [-87.685699, 42.047071]], "type": "LineString"}, "properties": {"timestamp": "2024-03-28T18:29:12"}}, {"type": "Feature", "geometry": {"coordinates": [[-87.685699, 42.047071], [-87.690144, 42.047108], [-87.690141, 42.048544], [-87.739702, 42.048004], [-87.739828, 42.04437], [-87.740106, 42.044371]], "type": "LineString"}, "properties": {"timestamp": "2024-03-28T18:29:12"}}, {"type": "Feature", "geometry": {"coordinates": [[-87.740106, 42.044371], [-87.741072, 42.044373], [-87.741056, 42.040751], [-87.747149, 42.040804], [-87.747356, 42.033454], [-87.746349, 42.033452], [-87.746346, 42.033241]], "type": "LineString"}, "properties": {"timestamp": "2024-03-28T18:41:50"}}, {"type": "Feature", "geometry": {"coordinates": [[-87.746346, 42.033241], [-87.746349, 42.033452], [-87.737632, 42.033453], [-87.738089, 42.017202], [-87.73931, 42.017203], [-87.739319, 42.016906]], "type": "LineString"}, "properties": {"timestamp": "2024-03-28T18:41:50"}}, {"type": "Feature", "geometry": {"coordinates": [[-87.739319, 42.016906], [-87.739253, 42.019004], [-87.747705, 42.019034], [-87.747939, 42.011817], [-87.75189, 42.011856], [-87.752727, 42.0122], [-87.752369, 42.012826], [-87.750037, 42.010726], [-87.748838, 42.007194], [-87.748976, 42.001046], [-87.750842, 41.995176], [-87.751541, 41.987847], [-87.75107, 41.985727], [-87.749218, 41.983428], [-87.748154, 41.980346], [-87.747984, 41.975339], [-87.74954, 41.975314]], "type": "LineString"}, "properties": {"timestamp": "2024-03-28T19:18:54"}}, {"type": "Feature", "geometry": {"coordinates": [[-87.74954, 41.975314], [-87.749263, 41.975317], [-87.749213, 41.973672], [-87.747761, 41.972794], [-87.747119, 41.9645], [-87.746713, 41.963263], [-87.74508, 41.961682], [-87.73715, 41.957103], [-87.732489, 41.954216], [-87.732464, 41.953606], [-87.733959, 41.953587], [-87.733745, 41.946293], [-87.735605, 41.946271], [-87.734699, 41.9457], [-87.734646, 41.941726], [-87.733458, 41.941742]], "type": "LineString"}, "properties": {"timestamp": "2024-03-28T19:18:54"}}, {"type": "Feature", "geometry": {"coordinates": [[-87.733458, 41.941742], [-87.729709, 41.941774], [-87.729641, 41.939065], [-87.746879, 41.93884], [-87.746595, 41.931542], [-87.751741, 41.93147]], "type": "LineString"}, "properties": {"timestamp": "2024-03-28T19:43:37"}}, {"type": "Feature", "geometry": {"coordinates": [[-87.751741, 41.93147], [-87.746595, 41.931542], [-87.746879, 41.93884], [-87.732041, 41.939035], [-87.732084, 41.940855], [-87.73462, 41.940823], [-87.734572, 41.939174]], "type": "LineString"}, "properties": {"timestamp": "2024-03-28T19:43:37"}}, {"type": "Feature", "geometry": {"coordinates": [[-87.734572, 41.939174], [-87.734567, 41.939004], [-87.739491, 41.938939], [-87.739603, 41.942782]], "type": "LineString"}, "properties": {"timestamp": "2024-03-28T19:51:33"}}, {"type": "Feature", "geometry": {"coordinates": [[-87.739603, 41.942782], [-87.739491, 41.938939], [-87.746879, 41.93884], [-87.746595, 41.931542], [-87.751741, 41.93147]], "type": "LineString"}, "properties": {"timestamp": "2024-03-28T19:51:33"}}, {"type": "Feature", "geometry": {"coordinates": [[-87.751741, 41.93147], [-87.746595, 41.931542], [-87.745886, 41.910996], [-87.745973, 41.902357], [-87.725083, 41.902687], [-87.72502, 41.900672]], "type": "LineString"}, "properties": {"timestamp": "2024-03-28T20:06:10"}}, {"type": "Feature", "geometry": {"coordinates": [[-87.72502, 41.900672], [-87.72497, 41.899037], [-87.726198, 41.899026], [-87.72708, 41.92265], [-87.726455, 41.92266], [-87.727395, 41.946377], [-87.717815, 41.94651], [-87.719292, 41.947883], [-87.738838, 41.958569], [-87.741371, 41.960451], [-87.741062, 41.960809]], "type": "LineString"}, "properties": {"timestamp": "2024-03-28T20:06:10"}}, {"type": "Feature", "geometry": {"coordinates": [[-87.741062, 41.960809], [-87.747538, 41.960724], [-87.747918, 41.972896], [-87.747761, 41.972794], [-87.747223, 41.966563], [-87.745232, 41.962358], [-87.719592, 41.947613], [-87.715306, 41.94215], [-87.709927, 41.940372], [-87.670146, 41.917654], [-87.66137, 41.906646], [-87.659246, 41.897685], [-87.646315, 41.886261], [-87.644363, 41.857367], [-87.645793, 41.852447], [-87.644333, 41.849097], [-87.644894, 41.846776], [-87.652708, 41.844955], [-87.667166, 41.837862], [-87.679805, 41.837095], [-87.690167, 41.833938]], "type": "LineString"}, "properties": {"timestamp": "2024-03-28T20:21:20"}}, {"type": "Feature", "geometry": {"coordinates": [[-87.690167, 41.833938], [-87.695427, 41.832287], [-87.698851, 41.831418], [-87.700566, 41.830863], [-87.704666, 41.829715], [-87.704642, 41.829034], [-87.699332, 41.830574], [-87.680385, 41.836711], [-87.66766, 41.83747], [-87.658964, 41.841885], [-87.642563, 41.846659], [-87.644555, 41.850742], [-87.644829, 41.873194], [-87.646837, 41.887752], [-87.658396, 41.896733], [-87.661061, 41.906443], [-87.669227, 41.917096], [-87.704001, 41.937344], [-87.706803, 41.939132], [-87.727187, 41.939096], [-87.727167, 41.938375]], "type": "LineString"}, "properties": {"timestamp": "2024-03-28T20:21:20"}}, {"type": "Feature", "geometry": {"coordinates": [[-87.727167, 41.938375], [-87.727246, 41.941155], [-87.739835, 41.948878], [-87.739443, 41.949313], [-87.73952, 41.951696], [-87.73922, 41.951701], [-87.739316, 41.954118]], "type": "LineString"}, "properties": {"timestamp": "2024-03-28T20:39:24"}}, {"type": "Feature", "geometry": {"coordinates": [[-87.739316, 41.954118], [-87.739297, 41.95352], [-87.740968, 41.953498], [-87.740901, 41.950584], [-87.740065, 41.948949], [-87.734699, 41.9457], [-87.734572, 41.939174]], "type": "LineString"}, "properties": {"timestamp": "2024-03-28T20:39:24"}}, {"type": "Feature", "geometry": {"coordinates": [[-87.734572, 41.939174], [-87.734567, 41.939004], [-87.727187, 41.939096], [-87.727612, 41.95365], [-87.712908, 41.953809], [-87.713022, 41.957384]], "type": "LineString"}, "properties": {"timestamp": "2024-03-28T20:52:33"}}, {"type": "Feature", "geometry": {"coordinates": [[-87.713022, 41.957384], [-87.713373, 41.968411], [-87.698683, 41.968549], [-87.698757, 41.970722], [-87.695921, 41.970749]], "type": "LineString"}, "properties": {"timestamp": "2024-03-28T20:52:33"}}, {"type": "Feature", "geometry": {"coordinates": [[-87.695921, 41.970749], [-87.695711, 41.970751], [-87.695674, 41.969664], [-87.696271, 41.96966], [-87.696237, 41.968561], [-87.713373, 41.968411], [-87.713022, 41.957384]], "type": "LineString"}, "properties": {"timestamp": "2024-03-28T21:11:05"}}, {"type": "Feature", "geometry": {"coordinates": [[-87.713022, 41.957384], [-87.712908, 41.953809], [-87.668983, 41.954306], [-87.669185, 41.961593], [-87.655148, 41.961772], [-87.656894, 41.964503]], "type": "LineString"}, "properties": {"timestamp": "2024-03-28T21:11:05"}}, {"type": "Feature", "geometry": {"coordinates": [[-87.656894, 41.964503], [-87.656894, 41.964503]], "type": "LineString"}, "properties": {"timestamp": "2024-03-28T21:35:48"}}, {"type": "Feature", "geometry": {"coordinates": [[-87.656894, 41.964503], [-87.655148, 41.961772], [-87.646878, 41.961908], [-87.644507, 41.950757], [-87.638957, 41.941067], [-87.632453, 41.934639], [-87.632048, 41.928427], [-87.62421, 41.902733], [-87.619617, 41.900898], [-87.614304, 41.892985], [-87.614127, 41.884928], [-87.617321, 41.882167], [-87.617442, 41.878363], [-87.620697, 41.878331], [-87.62062, 41.875872]], "type": "LineString"}, "properties": {"timestamp": "2024-03-28T21:35:48"}}, {"type": "Feature", "geometry": {"coordinates": [[-87.62062, 41.875872], [-87.620619, 41.875815], [-87.620784, 41.875886], [-87.621081, 41.875931], [-87.623097, 41.875907], [-87.623973, 41.875811], [-87.62435, 41.875724], [-87.626887, 41.875674], [-87.626939, 41.878244], [-87.626508, 41.878253]], "type": "LineString"}, "properties": {"timestamp": "2024-03-28T21:48:47"}}, {"type": "Feature", "geometry": {"coordinates": [[-87.626508, 41.878253], [-87.626099, 41.878262], [-87.626035, 41.875694], [-87.64257, 41.875632], [-87.644772, 41.875942], [-87.645648, 41.877134], [-87.645685, 41.885013], [-87.646594, 41.887382], [-87.64861, 41.889615], [-87.658396, 41.896733], [-87.660726, 41.901461], [-87.661061, 41.906443], [-87.664439, 41.910145], [-87.668818, 41.916712], [-87.704001, 41.937344], [-87.706845, 41.939348], [-87.706369, 41.93936], [-87.706177, 41.944803], [-87.705317, 41.944219], [-87.705281, 41.943085]], "type": "LineString"}, "properties": {"timestamp": "2024-03-28T21:48:47"}}, {"type": "Feature", "geometry": {"coordinates": [[-87.705281, 41.943085], [-87.70527, 41.942755], [-87.703229, 41.942766], [-87.687832, 41.932179], [-87.644906, 41.932807], [-87.643564, 41.93012], [-87.642875, 41.92963], [-87.641881, 41.927956]], "type": "LineString"}, "properties": {"timestamp": "2024-03-29T15:42:26"}}]}