{"type": "FeatureCollection", "features": [{"type": "Feature", "geometry": {"coordinates": [[-87.687505, 42.017428], [-87.687761, 42.017429], [-87.687732, 42.019522], [-87.676332, 42.01941], [-87.677105, 42.02255], [-87.675437, 42.022528], [-87.674555, 42.021834], [-87.674244, 42.021794], [-87.674229, 42.022534], [-87.672219, 42.022524]], "type": "LineString"}, "properties": {"timestamp": "2024-03-14T16:05:16"}}, {"type": "Feature", "geometry": {"coordinates": [[-87.672219, 42.022524], [-87.670723, 42.022482], [-87.670705, 42.022268], [-87.66692, 42.022252], [-87.664892, 42.015441], [-87.664678, 42.015024], [-87.667467, 42.014978]], "type": "LineString"}, "properties": {"timestamp": "2024-03-14T16:16:06"}}, {"type": "Feature", "geometry": {"coordinates": [[-87.667467, 42.014978], [-87.670267, 42.014929], [-87.669957, 42.005389], [-87.670603, 42.00538], [-87.670426, 41.999512], [-87.670965, 41.999116], [-87.670328, 41.996527], [-87.669796, 41.987608], [-87.66966, 41.976173], [-87.674927, 41.976095], [-87.67488, 41.974623]], "type": "LineString"}, "properties": {"timestamp": "2024-03-14T16:16:06"}}, {"type": "Feature", "geometry": {"coordinates": [[-87.67488, 41.974623], [-87.674845, 41.97335], [-87.676325, 41.973309], [-87.676201, 41.968803], [-87.713373, 41.968411], [-87.713255, 41.96472], [-87.713874, 41.964757]], "type": "LineString"}, "properties": {"timestamp": "2024-03-14T16:40:37"}}, {"type": "Feature", "geometry": {"coordinates": [[-87.713874, 41.964757], [-87.713255, 41.96472], [-87.712526, 41.940478], [-87.709442, 41.939977], [-87.673831, 41.919706], [-87.671882, 41.918264], [-87.671723, 41.918151], [-87.667505, 41.91793], [-87.666413, 41.916455], [-87.663815, 41.917067], [-87.658378, 41.917139], [-87.658214, 41.918041], [-87.647123, 41.918199]], "type": "LineString"}, "properties": {"timestamp": "2024-03-14T16:40:37"}}, {"type": "Feature", "geometry": {"coordinates": [[-87.647123, 41.918199], [-87.638808, 41.918322], [-87.638941, 41.921954], [-87.638269, 41.921963], [-87.641881, 41.927956]], "type": "LineString"}, "properties": {"timestamp": "2024-03-14T17:04:08"}}, {"type": "Feature", "geometry": {"coordinates": [[-87.641881, 41.927956], [-87.640463, 41.92558], [-87.63067, 41.926223], [-87.631851, 41.928415], [-87.632612, 41.935386], [-87.638833, 41.941219], [-87.644376, 41.950931], [-87.647541, 41.967723], [-87.647273, 41.969474], [-87.714891, 41.968394]], "type": "LineString"}, "properties": {"timestamp": "2024-03-14T17:04:08"}}, {"type": "Feature", "geometry": {"coordinates": [[-87.714891, 41.968394], [-87.715821, 41.968384], [-87.715763, 41.966567], [-87.716128, 41.966563]], "type": "LineString"}, "properties": {"timestamp": "2024-03-14T17:30:29"}}, {"type": "Feature", "geometry": {"coordinates": [[-87.716128, 41.966563], [-87.716976, 41.966554], [-87.717028, 41.968371], [-87.74016, 41.968116], [-87.747761, 41.972794], [-87.747223, 41.966563], [-87.745961, 41.963113], [-87.742125, 41.960129], [-87.719592, 41.947613], [-87.715306, 41.94215], [-87.710219, 41.940524], [-87.698173, 41.933659], [-87.670155, 41.917456], [-87.661229, 41.905802], [-87.661667, 41.903435], [-87.666488, 41.903364], [-87.660982, 41.899842], [-87.66251, 41.899796], [-87.662504, 41.899631]], "type": "LineString"}, "properties": {"timestamp": "2024-03-14T17:30:29"}}, {"type": "Feature", "geometry": {"coordinates": [[-87.662504, 41.899631], [-87.662524, 41.900824], [-87.667446, 41.903976], [-87.66782, 41.916129], [-87.663815, 41.917067], [-87.658201, 41.917264], [-87.658464, 41.925291], [-87.648766, 41.925453], [-87.648892, 41.929091], [-87.647955, 41.929095]], "type": "LineString"}, "properties": {"timestamp": "2024-03-14T17:54:55"}}, {"type": "Feature", "geometry": {"coordinates": [[-87.647955, 41.929095], [-87.653741, 41.929016], [-87.658713, 41.932557], [-87.678134, 41.932278], [-87.688003, 41.939468], [-87.688345, 41.949742]], "type": "LineString"}, "properties": {"timestamp": "2024-03-14T17:54:55"}}, {"type": "Feature", "geometry": {"coordinates": [[-87.688345, 41.949742], [-87.687413, 41.917587], [-87.686834, 41.917597], [-87.686552, 41.917281], [-87.686958, 41.916886], [-87.687029, 41.916926], [-87.686738, 41.917246], [-87.68709, 41.917217]], "type": "LineString"}, "properties": {"timestamp": "2024-03-14T18:09:52"}}, {"type": "Feature", "geometry": {"coordinates": [[-87.68709, 41.917217], [-87.687403, 41.917196], [-87.687413, 41.917587], [-87.671089, 41.917871], [-87.670404, 41.917216], [-87.66811, 41.915355], [-87.664752, 41.909975], [-87.661559, 41.906635], [-87.66114, 41.905221], [-87.661057, 41.901306], [-87.658834, 41.896667], [-87.657114, 41.895018], [-87.648602, 41.889352], [-87.647099, 41.887778], [-87.646315, 41.886261], [-87.646574, 41.884406], [-87.650929, 41.884354], [-87.650961, 41.885607]], "type": "LineString"}, "properties": {"timestamp": "2024-03-14T18:09:52"}}, {"type": "Feature", "geometry": {"coordinates": [[-87.650961, 41.885607], [-87.646258, 41.885682], [-87.645922, 41.884746], [-87.645999, 41.881827], [-87.646134, 41.880956], [-87.646145, 41.879569], [-87.646166, 41.878121], [-87.646815, 41.876334], [-87.647774, 41.87588], [-87.649135, 41.875728], [-87.657603, 41.876197], [-87.688313, 41.875763], [-87.692409, 41.875862], [-87.698604, 41.87596], [-87.698638, 41.877405], [-87.69832, 41.877408]], "type": "LineString"}, "properties": {"timestamp": "2024-03-14T18:28:02"}}, {"type": "Feature", "geometry": {"coordinates": [[-87.69832, 41.877408], [-87.686341, 41.877547], [-87.68639, 41.875885], [-87.686226, 41.871336], [-87.684952, 41.871354], [-87.684901, 41.869615]], "type": "LineString"}, "properties": {"timestamp": "2024-03-14T18:28:02"}}, {"type": "Feature", "geometry": {"coordinates": [[-87.684901, 41.869615], [-87.684885, 41.869015], [-87.676363, 41.86911], [-87.676349, 41.866694], [-87.651046, 41.867054], [-87.651026, 41.868305], [-87.648898, 41.868337]], "type": "LineString"}, "properties": {"timestamp": "2024-03-14T18:51:03"}}, {"type": "Feature", "geometry": {"coordinates": [[-87.648898, 41.868337], [-87.651026, 41.868305], [-87.651118, 41.869507], [-87.644443, 41.869691], [-87.644854, 41.873493], [-87.644691, 41.874454], [-87.644224, 41.875161], [-87.644167, 41.87559], [-87.645364, 41.877863], [-87.645275, 41.880374], [-87.645355, 41.881847], [-87.645393, 41.882198], [-87.645396, 41.883308], [-87.645241, 41.884407], [-87.646033, 41.884406]], "type": "LineString"}, "properties": {"timestamp": "2024-03-14T18:51:03"}}, {"type": "Feature", "geometry": {"coordinates": [[-87.646033, 41.884406], [-87.647438, 41.884415], [-87.647482, 41.885665], [-87.646258, 41.885682], [-87.645922, 41.884746], [-87.645999, 41.881827], [-87.646134, 41.880956], [-87.646145, 41.879569], [-87.646166, 41.878121], [-87.646815, 41.876334], [-87.647774, 41.87588], [-87.649135, 41.875728], [-87.657603, 41.876197], [-87.688313, 41.875763], [-87.692409, 41.875862], [-87.696151, 41.875983], [-87.696261, 41.880169], [-87.695733, 41.880173]], "type": "LineString"}, "properties": {"timestamp": "2024-03-14T19:03:23"}}, {"type": "Feature", "geometry": {"coordinates": [[-87.695733, 41.880173], [-87.696261, 41.880169], [-87.696286, 41.881077], [-87.686432, 41.881166], [-87.686835, 41.89575], [-87.677057, 41.895912], [-87.677416, 41.908257], [-87.678238, 41.908243]], "type": "LineString"}, "properties": {"timestamp": "2024-03-14T19:03:23"}}, {"type": "Feature", "geometry": {"coordinates": [[-87.678238, 41.908243], [-87.679848, 41.908215], [-87.679878, 41.909327], [-87.677447, 41.909373], [-87.677893, 41.925026], [-87.66815, 41.925151], [-87.66875, 41.945181], [-87.664502, 41.945239]], "type": "LineString"}, "properties": {"timestamp": "2024-03-14T20:01:11"}}, {"type": "Feature", "geometry": {"coordinates": [[-87.664502, 41.945239], [-87.663953, 41.945247], [-87.66393, 41.944336], [-87.654273, 41.944458], [-87.650679, 41.939965], [-87.638796, 41.940268], [-87.638606, 41.939931], [-87.634194, 41.936955], [-87.632453, 41.934639], [-87.632048, 41.928427], [-87.629189, 41.918735], [-87.62605, 41.911998], [-87.624861, 41.904908], [-87.624179, 41.901978], [-87.624278, 41.900814], [-87.626352, 41.900781]], "type": "LineString"}, "properties": {"timestamp": "2024-03-14T20:01:11"}}, {"type": "Feature", "geometry": {"coordinates": [[-87.626352, 41.900781], [-87.624278, 41.900814], [-87.624203, 41.898297], [-87.624226, 41.897581], [-87.623421, 41.897599]], "type": "LineString"}, "properties": {"timestamp": "2024-03-14T20:13:29"}}, {"type": "Feature", "geometry": {"coordinates": [[-87.623421, 41.897599], [-87.621852, 41.897618], [-87.621867, 41.898422], [-87.624042, 41.898389], [-87.624042, 41.900824], [-87.62589, 41.912141], [-87.631851, 41.928415], [-87.632152, 41.934381], [-87.638833, 41.941219], [-87.644376, 41.950931], [-87.648738, 41.973046], [-87.652803, 41.984951], [-87.655253, 41.985556], [-87.655748, 41.998011], [-87.665468, 41.99814], [-87.665572, 41.999968], [-87.667137, 41.999957]], "type": "LineString"}, "properties": {"timestamp": "2024-03-14T20:13:29"}}, {"type": "Feature", "geometry": {"coordinates": [[-87.667137, 41.999957], [-87.668006, 41.99995], [-87.668065, 42.00176], [-87.66562, 42.001796], [-87.665571, 41.999934], [-87.663134, 41.99996], [-87.663104, 41.998978]], "type": "LineString"}, "properties": {"timestamp": "2024-03-14T20:34:41"}}, {"type": "Feature", "geometry": {"coordinates": [[-87.663104, 41.998978], [-87.662908, 41.994533], [-87.670263, 41.994451], [-87.670085, 41.989706], [-87.669796, 41.987608], [-87.669769, 41.987519]], "type": "LineString"}, "properties": {"timestamp": "2024-03-14T20:34:41"}}, {"type": "Feature", "geometry": {"coordinates": [[-87.669769, 41.987519], [-87.669343, 41.985953], [-87.669943, 41.985943], [-87.669293, 41.961591], [-87.674511, 41.961518], [-87.674291, 41.956955], [-87.676405, 41.956925], [-87.6764, 41.956747]], "type": "LineString"}, "properties": {"timestamp": "2024-03-14T21:48:22"}}, {"type": "Feature", "geometry": {"coordinates": [[-87.6764, 41.956747], [-87.676324, 41.954253], [-87.688469, 41.954086], [-87.688345, 41.949742]], "type": "LineString"}, "properties": {"timestamp": "2024-03-14T21:48:22"}}, {"type": "Feature", "geometry": {"coordinates": [[-87.688345, 41.949742], [-87.687207, 41.910324], [-87.701875, 41.910165], [-87.70125, 41.907241], [-87.702278, 41.902886], [-87.701605, 41.902888]], "type": "LineString"}, "properties": {"timestamp": "2024-03-14T22:08:22"}}, {"type": "Feature", "geometry": {"coordinates": [[-87.701605, 41.902888], [-87.721433, 41.902715], [-87.72138, 41.9009], [-87.720148, 41.900912], [-87.720195, 41.902469]], "type": "LineString"}, "properties": {"timestamp": "2024-03-14T22:08:22"}}, {"type": "Feature", "geometry": {"coordinates": [[-87.720195, 41.902469], [-87.720203, 41.902727], [-87.745973, 41.902357], [-87.746129, 41.909683], [-87.749173, 41.90959], [-87.784996, 41.909151], [-87.786299, 41.945676], [-87.791262, 41.945578], [-87.7913, 41.946512]], "type": "LineString"}, "properties": {"timestamp": "2024-03-14T22:25:28"}}, {"type": "Feature", "geometry": {"coordinates": [[-87.7913, 41.946512], [-87.791262, 41.945578], [-87.786299, 41.945676], [-87.785433, 41.923671], [-87.765997, 41.923987], [-87.765779, 41.918746], [-87.753381, 41.916843], [-87.717777, 41.902754], [-87.701605, 41.902888]], "type": "LineString"}, "properties": {"timestamp": "2024-03-14T22:25:28"}}, {"type": "Feature", "geometry": {"coordinates": [[-87.701605, 41.902888], [-87.701605, 41.902888]], "type": "LineString"}, "properties": {"timestamp": "2024-03-14T22:38:56"}}, {"type": "Feature", "geometry": {"coordinates": [[-87.701605, 41.902888], [-87.702278, 41.902886], [-87.70125, 41.907241], [-87.701875, 41.910165], [-87.687207, 41.910324], [-87.687645, 41.924902], [-87.66815, 41.925151], [-87.668531, 41.937882], [-87.669017, 41.937875]], "type": "LineString"}, "properties": {"timestamp": "2024-03-14T22:38:56"}}, {"type": "Feature", "geometry": {"coordinates": [[-87.669017, 41.937875], [-87.671019, 41.937845], [-87.671095, 41.939671], [-87.663815, 41.939759], [-87.663758, 41.938211]], "type": "LineString"}, "properties": {"timestamp": "2024-03-14T22:57:45"}}, {"type": "Feature", "geometry": {"coordinates": [[-87.663758, 41.938211], [-87.663749, 41.937953], [-87.669017, 41.937875]], "type": "LineString"}, "properties": {"timestamp": "2024-03-14T22:57:45"}}, {"type": "Feature", "geometry": {"coordinates": [[-87.669017, 41.937875], [-87.671019, 41.937845], [-87.671095, 41.939671], [-87.658974, 41.939838], [-87.659024, 41.941664], [-87.646384, 41.941839]], "type": "LineString"}, "properties": {"timestamp": "2024-03-14T23:19:33"}}, {"type": "Feature", "geometry": {"coordinates": [[-87.646384, 41.941839], [-87.644463, 41.941865], [-87.644532, 41.942862], [-87.64961, 41.95119], [-87.649662, 41.953239], [-87.657469, 41.965401], [-87.662408, 41.965333], [-87.662436, 41.965538]], "type": "LineString"}, "properties": {"timestamp": "2024-03-14T23:19:33"}}, {"type": "Feature", "geometry": {"coordinates": [[-87.662436, 41.965538], [-87.662408, 41.965333], [-87.669262, 41.96524], [-87.669348, 41.968877], [-87.714891, 41.968394]], "type": "LineString"}, "properties": {"timestamp": "2024-03-14T23:30:47"}}, {"type": "Feature", "geometry": {"coordinates": [[-87.714891, 41.968394], [-87.688893, 41.968612], [-87.689669, 41.99044], [-87.669967, 41.9908], [-87.670034, 41.993525], [-87.665432, 41.993579]], "type": "LineString"}, "properties": {"timestamp": "2024-03-14T23:30:47"}}, {"type": "Feature", "geometry": {"coordinates": [[-87.665432, 41.993579], [-87.660394, 41.993637], [-87.659673, 41.968906], [-87.656894, 41.964503]], "type": "LineString"}, "properties": {"timestamp": "2024-03-14T23:45:13"}}, {"type": "Feature", "geometry": {"coordinates": [[-87.656894, 41.964503], [-87.659673, 41.969021], [-87.669348, 41.968877], [-87.669674, 41.980744], [-87.673501, 41.98069]], "type": "LineString"}, "properties": {"timestamp": "2024-03-14T23:45:13"}}, {"type": "Feature", "geometry": {"coordinates": [[-87.673501, 41.98069], [-87.669674, 41.980744], [-87.669775, 41.984337], [-87.668976, 41.984461], [-87.669181, 41.985433], [-87.664001, 41.985518]], "type": "LineString"}, "properties": {"timestamp": "2024-03-14T23:50:06"}}, {"type": "Feature", "geometry": {"coordinates": [[-87.664001, 41.985518], [-87.663383, 41.985527], [-87.663294, 41.985603], [-87.669778, 41.989576], [-87.67009, 41.989823], [-87.669796, 41.987608], [-87.669769, 41.987519]], "type": "LineString"}, "properties": {"timestamp": "2024-03-14T23:50:06"}}, {"type": "Feature", "geometry": {"coordinates": [[-87.669769, 41.987519], [-87.669343, 41.985953], [-87.669943, 41.985943], [-87.669477, 41.968876], [-87.659673, 41.969021], [-87.656894, 41.964503]], "type": "LineString"}, "properties": {"timestamp": "2024-03-14T23:59:27"}}, {"type": "Feature", "geometry": {"coordinates": [[-87.656894, 41.964503], [-87.659673, 41.969021], [-87.669348, 41.968877], [-87.669543, 41.976174], [-87.692352, 41.975877], [-87.693045, 41.981931], [-87.729559, 42.004145], [-87.755918, 42.024826], [-87.754644, 42.026335], [-87.754567, 42.027869], [-87.752978, 42.030564]], "type": "LineString"}, "properties": {"timestamp": "2024-03-14T23:59:27"}}, {"type": "Feature", "geometry": {"coordinates": [[-87.752978, 42.030564], [-87.754567, 42.027869], [-87.754644, 42.026335], [-87.758439, 42.021831], [-87.759263, 42.021837]], "type": "LineString"}, "properties": {"timestamp": "2024-03-15T00:20:43"}}, {"type": "Feature", "geometry": {"coordinates": [[-87.759263, 42.021837], [-87.752515, 42.021773], [-87.752216, 42.021926], [-87.748642, 42.01904], [-87.720525, 42.019044], [-87.720549, 42.017198]], "type": "LineString"}, "properties": {"timestamp": "2024-03-15T00:20:43"}}, {"type": "Feature", "geometry": {"coordinates": [[-87.720549, 42.017198], [-87.720525, 42.019044], [-87.711292, 42.019113], [-87.711447, 42.011826], [-87.709065, 42.011874], [-87.709351, 42.001531]], "type": "LineString"}, "properties": {"timestamp": "2024-03-15T00:34:22"}}, {"type": "Feature", "geometry": {"coordinates": [[-87.709351, 42.001531], [-87.709354, 41.997394], [-87.748324, 41.997339], [-87.747918, 41.972896], [-87.747761, 41.972794], [-87.74707, 41.964162], [-87.745901, 41.962263], [-87.721846, 41.94853], [-87.718984, 41.946493], [-87.71959, 41.946484], [-87.718156, 41.944989], [-87.717188, 41.931929], [-87.719631, 41.931892], [-87.719618, 41.931377]], "type": "LineString"}, "properties": {"timestamp": "2024-03-15T00:34:22"}}, {"type": "Feature", "geometry": {"coordinates": [[-87.719618, 41.931377], [-87.719583, 41.93007], [-87.720201, 41.930065], [-87.720255, 41.931421], [-87.718413, 41.931444], [-87.718419, 41.931664]], "type": "LineString"}, "properties": {"timestamp": "2024-03-15T00:54:34"}}, {"type": "Feature", "geometry": {"coordinates": [[-87.718419, 41.931664], [-87.718427, 41.93191], [-87.696547, 41.932116], [-87.669405, 41.916815], [-87.664752, 41.909975], [-87.661559, 41.906635], [-87.660921, 41.900902], [-87.659049, 41.896968], [-87.657114, 41.895018], [-87.653963, 41.891931], [-87.651034, 41.892554], [-87.628093, 41.892476], [-87.628071, 41.891667], [-87.628847, 41.891657]], "type": "LineString"}, "properties": {"timestamp": "2024-03-15T00:54:34"}}, {"type": "Feature", "geometry": {"coordinates": [[-87.628847, 41.891657], [-87.639878, 41.891506], [-87.643004, 41.891239], [-87.647627, 41.891194], [-87.660982, 41.899842], [-87.66251, 41.899796], [-87.662504, 41.899631]], "type": "LineString"}, "properties": {"timestamp": "2024-03-15T01:08:25"}}, {"type": "Feature", "geometry": {"coordinates": [[-87.662504, 41.899631], [-87.66251, 41.899796], [-87.660982, 41.899842], [-87.660843, 41.899711], [-87.658834, 41.896667], [-87.658005, 41.895752], [-87.657114, 41.895018], [-87.648602, 41.889352], [-87.647099, 41.887778], [-87.646315, 41.886261], [-87.646574, 41.884406], [-87.647438, 41.884415], [-87.647463, 41.885101], [-87.647075, 41.885106]], "type": "LineString"}, "properties": {"timestamp": "2024-03-15T01:08:25"}}, {"type": "Feature", "geometry": {"coordinates": [[-87.647075, 41.885106], [-87.647463, 41.885101], [-87.647589, 41.889095], [-87.647567, 41.889962], [-87.647611, 41.890088], [-87.64876, 41.890082], [-87.648752, 41.889662]], "type": "LineString"}, "properties": {"timestamp": "2024-03-15T01:16:02"}}, {"type": "Feature", "geometry": {"coordinates": [[-87.648752, 41.889662], [-87.648644, 41.885646], [-87.646258, 41.885682], [-87.645245, 41.851247], [-87.642429, 41.847384], [-87.634652, 41.845323], [-87.63091, 41.84209], [-87.631207, 41.779686], [-87.626113, 41.772231], [-87.624621, 41.72052], [-87.621065, 41.713653], [-87.600337, 41.713191], [-87.592948, 41.708673], [-87.592406, 41.703483], [-87.601798, 41.685512], [-87.601728, 41.676933], [-87.589096, 41.660202], [-87.59119, 41.659512], [-87.560717, 41.658851], [-87.555878, 41.656176], [-87.555649, 41.65737], [-87.553811, 41.65736], [-87.553812, 41.656889]], "type": "LineString"}, "properties": {"timestamp": "2024-03-15T01:16:02"}}, {"type": "Feature", "geometry": {"coordinates": [[-87.553812, 41.656889], [-87.553811, 41.65736], [-87.557102, 41.657281], [-87.585314, 41.660149], [-87.590822, 41.662478], [-87.601403, 41.675885], [-87.601563, 41.685726], [-87.594329, 41.69908], [-87.591535, 41.705863], [-87.595707, 41.711823], [-87.618809, 41.713575], [-87.62372, 41.717096], [-87.625651, 41.769497], [-87.630526, 41.779578], [-87.630064, 41.823852], [-87.629817, 41.830961], [-87.626457, 41.831008], [-87.626475, 41.83283], [-87.625023, 41.832863]], "type": "LineString"}, "properties": {"timestamp": "2024-03-15T01:28:31"}}, {"type": "Feature", "geometry": {"coordinates": [[-87.625023, 41.832863], [-87.626475, 41.83283], [-87.626821, 41.846791], [-87.626258, 41.84692], [-87.622663, 41.847885], [-87.616851, 41.847976], [-87.613392, 41.848153], [-87.612168, 41.84938], [-87.617619, 41.860334], [-87.619244, 41.8661], [-87.617003, 41.869799], [-87.617167, 41.881825], [-87.613645, 41.884762], [-87.613978, 41.892577], [-87.619441, 41.900921], [-87.622526, 41.901629], [-87.623907, 41.902638], [-87.625717, 41.909833], [-87.626017, 41.913347], [-87.627054, 41.912538], [-87.626169, 41.90953], [-87.6314, 41.909428]], "type": "LineString"}, "properties": {"timestamp": "2024-03-15T01:28:31"}}, {"type": "Feature", "geometry": {"coordinates": [[-87.6314, 41.909428], [-87.631615, 41.909425], [-87.631438, 41.903908], [-87.634474, 41.903857], [-87.634293, 41.898867]], "type": "LineString"}, "properties": {"timestamp": "2024-03-15T01:42:47"}}, {"type": "Feature", "geometry": {"coordinates": [[-87.634293, 41.898867], [-87.63421, 41.896586], [-87.631243, 41.896633], [-87.631063, 41.889218], [-87.628704, 41.889251]], "type": "LineString"}, "properties": {"timestamp": "2024-03-15T01:42:47"}}, {"type": "Feature", "geometry": {"coordinates": [[-87.628704, 41.889251], [-87.628704, 41.889251]], "type": "LineString"}, "properties": {"timestamp": "2024-03-15T01:54:18"}}, {"type": "Feature", "geometry": {"coordinates": [[-87.628704, 41.889251], [-87.631063, 41.889218], [-87.630715, 41.875701], [-87.643841, 41.875615], [-87.651991, 41.875736], [-87.657268, 41.876192], [-87.662425, 41.876121], [-87.666742, 41.876354], [-87.66624, 41.858705], [-87.666424, 41.858703]], "type": "LineString"}, "properties": {"timestamp": "2024-03-15T01:54:18"}}, {"type": "Feature", "geometry": {"coordinates": [[-87.666424, 41.858703], [-87.666113, 41.858707], [-87.666563, 41.875179], [-87.666292, 41.875183], [-87.650308, 41.875329], [-87.645452, 41.874563], [-87.64458, 41.876036], [-87.645275, 41.880374], [-87.645355, 41.881847], [-87.645393, 41.882198], [-87.647404, 41.888483], [-87.658783, 41.897251], [-87.661061, 41.906443], [-87.667879, 41.91562], [-87.675191, 41.920831], [-87.677815, 41.922669], [-87.6785, 41.945048], [-87.68093, 41.945017], [-87.680928, 41.944938]], "type": "LineString"}, "properties": {"timestamp": "2024-03-15T15:06:17"}}]}