{"type": "FeatureCollection", "features": [{"type": "Feature", "geometry": {"coordinates": [[-87.684068, 42.033266], [-87.684083, 42.032795], [-87.679153, 42.032767], [-87.678155, 42.027266], [-87.668578, 42.027161], [-87.666902, 42.025972], [-87.665412, 42.023099], [-87.66691, 42.022304], [-87.666595, 42.021131], [-87.660929, 42.005557], [-87.66054, 41.998191], [-87.659673, 41.968906], [-87.658451, 41.966917], [-87.658845, 41.965382], [-87.659627, 41.965371], [-87.65963, 41.96558]], "type": "LineString"}, "properties": {"timestamp": "2024-03-22T12:16:51"}}, {"type": "Feature", "geometry": {"coordinates": [[-87.65963, 41.96558], [-87.65966, 41.967205], [-87.656208, 41.967254], [-87.656365, 41.974712]], "type": "LineString"}, "properties": {"timestamp": "2024-03-22T12:38:07"}}, {"type": "Feature", "geometry": {"coordinates": [[-87.656365, 41.974712], [-87.656375, 41.975268], [-87.654984, 41.97529], [-87.654549, 41.954492], [-87.698254, 41.953982], [-87.698335, 41.956867]], "type": "LineString"}, "properties": {"timestamp": "2024-03-22T12:38:07"}}, {"type": "Feature", "geometry": {"coordinates": [[-87.698335, 41.956867], [-87.698474, 41.961247], [-87.688686, 41.961319], [-87.689669, 41.99044], [-87.687195, 41.990491], [-87.687372, 41.995454]], "type": "LineString"}, "properties": {"timestamp": "2024-03-22T12:54:25"}}, {"type": "Feature", "geometry": {"coordinates": [[-87.687372, 41.995454], [-87.68739, 41.995958], [-87.686162, 41.99598], [-87.686084, 41.994168], [-87.689782, 41.994104], [-87.689151, 41.975899], [-87.715999, 41.975668], [-87.716002, 41.975154]], "type": "LineString"}, "properties": {"timestamp": "2024-03-22T12:54:25"}}, {"type": "Feature", "geometry": {"coordinates": [[-87.716002, 41.975154], [-87.715945, 41.97272], [-87.715319, 41.972555], [-87.714705, 41.972559], [-87.713495, 41.972764], [-87.713554, 41.975692], [-87.708696, 41.975749], [-87.708631, 41.973924], [-87.706438, 41.973943]], "type": "LineString"}, "properties": {"timestamp": "2024-03-22T13:12:34"}}, {"type": "Feature", "geometry": {"coordinates": [[-87.706438, 41.973943], [-87.706198, 41.973946], [-87.706131, 41.97211], [-87.704913, 41.972118], [-87.70487, 41.970314], [-87.703871, 41.970324], [-87.703652, 41.969886], [-87.703607, 41.968503], [-87.702871, 41.96851], [-87.702852, 41.968005], [-87.698437, 41.96359], [-87.698335, 41.956867]], "type": "LineString"}, "properties": {"timestamp": "2024-03-22T13:12:34"}}, {"type": "Feature", "geometry": {"coordinates": [[-87.698335, 41.956867], [-87.697902, 41.941887], [-87.700544, 41.941872], [-87.701556, 41.941084], [-87.702765, 41.941075], [-87.702101, 41.91745], [-87.703944, 41.917431], [-87.703892, 41.915416]], "type": "LineString"}, "properties": {"timestamp": "2024-03-22T13:27:20"}}, {"type": "Feature", "geometry": {"coordinates": [[-87.703892, 41.915416], [-87.703857, 41.913751], [-87.70233, 41.913772], [-87.702283, 41.912], [-87.701932, 41.912147], [-87.702101, 41.91745], [-87.687413, 41.917587], [-87.688469, 41.953985], [-87.668983, 41.954306], [-87.669262, 41.96524], [-87.659627, 41.965371], [-87.65963, 41.96558]], "type": "LineString"}, "properties": {"timestamp": "2024-03-22T13:27:20"}}, {"type": "Feature", "geometry": {"coordinates": [[-87.65963, 41.96558], [-87.65966, 41.967205], [-87.661129, 41.967179], [-87.661022, 41.965352], [-87.713874, 41.964757]], "type": "LineString"}, "properties": {"timestamp": "2024-03-22T13:37:26"}}, {"type": "Feature", "geometry": {"coordinates": [[-87.713874, 41.964757], [-87.713255, 41.96472], [-87.713554, 41.975692], [-87.689151, 41.975899], [-87.68922, 41.977715], [-87.688432, 41.977735], [-87.685014, 41.97925], [-87.679565, 41.982043], [-87.679477, 41.983198], [-87.674607, 41.983365], [-87.674682, 41.98969]], "type": "LineString"}, "properties": {"timestamp": "2024-03-22T13:37:26"}}, {"type": "Feature", "geometry": {"coordinates": [[-87.674682, 41.98969], [-87.674682, 41.98969]], "type": "LineString"}, "properties": {"timestamp": "2024-03-22T13:54:03"}}, {"type": "Feature", "geometry": {"coordinates": [[-87.674682, 41.98969], [-87.674711, 41.990712], [-87.67223, 41.990752], [-87.669778, 41.989576], [-87.662456, 41.985105], [-87.661136, 41.985452], [-87.658072, 41.985487], [-87.658038, 41.984272]], "type": "LineString"}, "properties": {"timestamp": "2024-03-22T13:54:03"}}, {"type": "Feature", "geometry": {"coordinates": [[-87.658038, 41.984272], [-87.658021, 41.983669], [-87.654482, 41.983848], [-87.653702, 41.983688], [-87.653016, 41.98172], [-87.649277, 41.973607], [-87.647684, 41.967243], [-87.647973, 41.965571], [-87.662408, 41.965333], [-87.662436, 41.965538]], "type": "LineString"}, "properties": {"timestamp": "2024-03-22T14:10:30"}}, {"type": "Feature", "geometry": {"coordinates": [[-87.662436, 41.965538], [-87.662408, 41.965333], [-87.647973, 41.965571], [-87.646868, 41.963721], [-87.644507, 41.950757], [-87.638957, 41.941067], [-87.633807, 41.936608], [-87.632453, 41.934639], [-87.632048, 41.928427], [-87.627538, 41.915117], [-87.627206, 41.913042], [-87.628067, 41.912346], [-87.631428, 41.913459], [-87.633196, 41.912907], [-87.632793, 41.89661], [-87.654734, 41.896269], [-87.657882, 41.892535], [-87.659522, 41.892518], [-87.659547, 41.893465], [-87.658764, 41.893479]], "type": "LineString"}, "properties": {"timestamp": "2024-03-22T14:10:30"}}, {"type": "Feature", "geometry": {"coordinates": [[-87.658764, 41.893479], [-87.66233, 41.893417], [-87.662267, 41.891027], [-87.687437, 41.890657], [-87.699899, 41.895625], [-87.701213, 41.895606]], "type": "LineString"}, "properties": {"timestamp": "2024-03-22T14:30:22"}}, {"type": "Feature", "geometry": {"coordinates": [[-87.701213, 41.895606], [-87.657506, 41.896233], [-87.657601, 41.899867], [-87.658881, 41.899846], [-87.658901, 41.900211], [-87.659328, 41.900649], [-87.660134, 41.900664], [-87.660179, 41.900807]], "type": "LineString"}, "properties": {"timestamp": "2024-03-22T14:30:22"}}, {"type": "Feature", "geometry": {"coordinates": [[-87.660179, 41.900807], [-87.660665, 41.90345], [-87.661667, 41.903435], [-87.661131, 41.901131], [-87.659243, 41.897272], [-87.658255, 41.896], [-87.648602, 41.889352], [-87.647099, 41.887778], [-87.646219, 41.885929], [-87.645999, 41.881827], [-87.646134, 41.880956], [-87.646145, 41.879569], [-87.646166, 41.878121], [-87.646815, 41.876334], [-87.647774, 41.87588], [-87.649135, 41.875728], [-87.657603, 41.876197], [-87.673066, 41.8759], [-87.676512, 41.876215], [-87.676638, 41.881323], [-87.679085, 41.881324], [-87.678236, 41.88126]], "type": "LineString"}, "properties": {"timestamp": "2024-03-22T14:48:07"}}, {"type": "Feature", "geometry": {"coordinates": [[-87.678236, 41.88126], [-87.666061, 41.881475], [-87.663241, 41.884284], [-87.659834, 41.889971], [-87.654527, 41.896273], [-87.639973, 41.896517], [-87.64005, 41.900464], [-87.632901, 41.900546], [-87.632884, 41.899913]], "type": "LineString"}, "properties": {"timestamp": "2024-03-22T14:48:07"}}, {"type": "Feature", "geometry": {"coordinates": [[-87.632884, 41.899913], [-87.632793, 41.89661], [-87.654734, 41.896269], [-87.655808, 41.89501], [-87.657675, 41.89596], [-87.65932, 41.898217], [-87.660805, 41.901753], [-87.661536, 41.907216], [-87.664439, 41.910145], [-87.668818, 41.916712], [-87.675191, 41.920831], [-87.677815, 41.922669], [-87.678134, 41.932278], [-87.683107, 41.935872], [-87.683176, 41.938607], [-87.681944, 41.938622]], "type": "LineString"}, "properties": {"timestamp": "2024-03-22T16:16:48"}}, {"type": "Feature", "geometry": {"coordinates": [[-87.681944, 41.938622], [-87.680748, 41.938638], [-87.680711, 41.934149], [-87.678134, 41.932278], [-87.677765, 41.92139], [-87.677255, 41.921395], [-87.669405, 41.916815], [-87.664752, 41.909975], [-87.661748, 41.90696], [-87.661131, 41.901587], [-87.659383, 41.897534], [-87.657479, 41.894931], [-87.657374, 41.891076], [-87.655792, 41.891092], [-87.655778, 41.890535]], "type": "LineString"}, "properties": {"timestamp": "2024-03-22T16:16:48"}}, {"type": "Feature", "geometry": {"coordinates": [[-87.655778, 41.890535], [-87.655792, 41.891092], [-87.648776, 41.891179], [-87.648798, 41.891975], [-87.650448, 41.893035]], "type": "LineString"}, "properties": {"timestamp": "2024-03-22T16:43:19"}}, {"type": "Feature", "geometry": {"coordinates": [[-87.650448, 41.893035], [-87.650924, 41.893342], [-87.647667, 41.89336], [-87.648252, 41.90987], [-87.649122, 41.909856]], "type": "LineString"}, "properties": {"timestamp": "2024-03-22T16:43:19"}}, {"type": "Feature", "geometry": {"coordinates": [[-87.649122, 41.909856], [-87.648252, 41.90987], [-87.648257, 41.910013], [-87.664499, 41.921692]], "type": "LineString"}, "properties": {"timestamp": "2024-03-22T16:54:41"}}, {"type": "Feature", "geometry": {"coordinates": [[-87.664499, 41.921692], [-87.668123, 41.924274], [-87.669473, 41.973437], [-87.677814, 41.973279], [-87.677853, 41.974722], [-87.676798, 41.97474]], "type": "LineString"}, "properties": {"timestamp": "2024-03-22T16:54:41"}}, {"type": "Feature", "geometry": {"coordinates": [[-87.676798, 41.97474], [-87.676368, 41.974747], [-87.676325, 41.973309], [-87.669403, 41.973438], [-87.667898, 41.973375], [-87.664676, 41.973425], [-87.664692, 41.972606], [-87.659771, 41.972678], [-87.659728, 41.971482], [-87.656283, 41.971565], [-87.656365, 41.974712]], "type": "LineString"}, "properties": {"timestamp": "2024-03-22T17:30:00"}}, {"type": "Feature", "geometry": {"coordinates": [[-87.656365, 41.974712], [-87.656408, 41.976381], [-87.659864, 41.976324], [-87.660904, 42.005442], [-87.662865, 42.011614], [-87.664678, 42.015024], [-87.667467, 42.014978]], "type": "LineString"}, "properties": {"timestamp": "2024-03-22T17:30:00"}}, {"type": "Feature", "geometry": {"coordinates": [[-87.667467, 42.014978], [-87.668213, 42.015005], [-87.668332, 42.014968], [-87.670267, 42.014929], [-87.670195, 42.012718], [-87.676853, 42.012606]], "type": "LineString"}, "properties": {"timestamp": "2024-03-22T17:47:12"}}, {"type": "Feature", "geometry": {"coordinates": [[-87.676853, 42.012606], [-87.682294, 42.012511], [-87.682444, 42.012621], [-87.683076, 42.012318], [-87.684163, 42.015501], [-87.684645, 42.019488], [-87.690179, 42.019532], [-87.711292, 42.019113], [-87.710729, 42.021634], [-87.710861, 42.022905]], "type": "LineString"}, "properties": {"timestamp": "2024-03-22T17:47:12"}}, {"type": "Feature", "geometry": {"coordinates": [[-87.710861, 42.022905], [-87.710729, 42.021634], [-87.711292, 42.019113], [-87.690179, 42.019532], [-87.689837, 41.995915], [-87.688612, 41.995937], [-87.688596, 41.995436]], "type": "LineString"}, "properties": {"timestamp": "2024-03-22T18:41:21"}}, {"type": "Feature", "geometry": {"coordinates": [[-87.688596, 41.995436], [-87.68844, 41.990584], [-87.689876, 41.990509], [-87.665171, 41.990857], [-87.66518, 41.991183]], "type": "LineString"}, "properties": {"timestamp": "2024-03-22T18:41:21"}}, {"type": "Feature", "geometry": {"coordinates": [[-87.66518, 41.991183], [-87.665197, 41.99177], [-87.670157, 41.991712], [-87.669796, 41.987608], [-87.669866, 41.986767], [-87.674649, 41.986688], [-87.674607, 41.983365], [-87.679477, 41.983198], [-87.679565, 41.982043], [-87.684398, 41.979533], [-87.684318, 41.976867], [-87.683701, 41.976877]], "type": "LineString"}, "properties": {"timestamp": "2024-03-22T18:58:54"}}, {"type": "Feature", "geometry": {"coordinates": [[-87.683701, 41.976877], [-87.681885, 41.976906], [-87.681857, 41.975993], [-87.692352, 41.975877], [-87.692693, 41.979508], [-87.702665, 41.979449]], "type": "LineString"}, "properties": {"timestamp": "2024-03-22T18:58:54"}}, {"type": "Feature", "geometry": {"coordinates": [[-87.702665, 41.979449], [-87.703963, 41.97944], [-87.705071, 41.983097], [-87.728412, 41.98284], [-87.728239, 41.975527], [-87.74954, 41.975314]], "type": "LineString"}, "properties": {"timestamp": "2024-03-22T19:08:53"}}, {"type": "Feature", "geometry": {"coordinates": [[-87.74954, 41.975314], [-87.749263, 41.975317], [-87.749213, 41.973672], [-87.747761, 41.972794], [-87.747223, 41.966563], [-87.745961, 41.963113], [-87.742125, 41.960129], [-87.719592, 41.947613], [-87.715306, 41.94215], [-87.710219, 41.940524], [-87.698173, 41.933659], [-87.687291, 41.927358], [-87.683686, 41.924962], [-87.66815, 41.925151], [-87.668609, 41.939697], [-87.654106, 41.939918], [-87.654325, 41.947246], [-87.651901, 41.947284], [-87.651828, 41.945437], [-87.653056, 41.945421], [-87.653062, 41.945555]], "type": "LineString"}, "properties": {"timestamp": "2024-03-22T19:08:53"}}, {"type": "Feature", "geometry": {"coordinates": [[-87.653062, 41.945555], [-87.653133, 41.947265], [-87.649493, 41.947315], [-87.649662, 41.953239], [-87.649905, 41.961373]], "type": "LineString"}, "properties": {"timestamp": "2024-03-22T19:24:47"}}, {"type": "Feature", "geometry": {"coordinates": [[-87.649905, 41.961373], [-87.649713, 41.954561], [-87.688469, 41.954086], [-87.688345, 41.949742]], "type": "LineString"}, "properties": {"timestamp": "2024-03-22T19:24:47"}}, {"type": "Feature", "geometry": {"coordinates": [[-87.688345, 41.949742], [-87.688469, 41.953985], [-87.678715, 41.954122], [-87.680652, 41.956871], [-87.682516, 41.956848]], "type": "LineString"}, "properties": {"timestamp": "2024-03-22T19:41:57"}}, {"type": "Feature", "geometry": {"coordinates": [[-87.682516, 41.956848], [-87.683697, 41.956833], [-87.683613, 41.954151], [-87.698254, 41.953982], [-87.698037, 41.946686], [-87.717815, 41.94651], [-87.719292, 41.947883], [-87.742619, 41.960998], [-87.74678, 41.965157], [-87.747426, 41.975724], [-87.746614, 41.980044], [-87.750967, 41.985896], [-87.751131, 41.99049], [-87.749995, 41.991278], [-87.750346, 41.990201], [-87.753543, 41.991161], [-87.781309, 42.004121], [-87.776297, 42.006556]], "type": "LineString"}, "properties": {"timestamp": "2024-03-22T19:41:57"}}, {"type": "Feature", "geometry": {"coordinates": [[-87.776297, 42.006556], [-87.781309, 42.004121], [-87.753476, 41.991079], [-87.753263, 41.98986], [-87.751657, 41.988489], [-87.750815, 41.98526], [-87.746835, 41.980228], [-87.7476, 41.975817], [-87.746855, 41.963527], [-87.745273, 41.961807], [-87.73715, 41.957103], [-87.732489, 41.954216], [-87.732464, 41.953606], [-87.733959, 41.953587], [-87.733804, 41.948121], [-87.736646, 41.948077], [-87.736648, 41.948162]], "type": "LineString"}, "properties": {"timestamp": "2024-03-22T20:37:11"}}, {"type": "Feature", "geometry": {"coordinates": [[-87.736648, 41.948162], [-87.736807, 41.953551], [-87.731304, 41.953617], [-87.728029, 41.951994], [-87.721846, 41.94853], [-87.718984, 41.946493], [-87.694882, 41.946711], [-87.694885, 41.947669]], "type": "LineString"}, "properties": {"timestamp": "2024-03-22T20:37:11"}}, {"type": "Feature", "geometry": {"coordinates": [[-87.694885, 41.947669], [-87.694882, 41.946711], [-87.698037, 41.946686], [-87.697932, 41.942795], [-87.701229, 41.942777]], "type": "LineString"}, "properties": {"timestamp": "2024-03-22T20:54:04"}}, {"type": "Feature", "geometry": {"coordinates": [[-87.701229, 41.942777], [-87.703229, 41.942766], [-87.702467, 41.94223], [-87.702616, 41.935677], [-87.669746, 41.917124], [-87.661559, 41.906635], [-87.658834, 41.896667], [-87.647099, 41.887778], [-87.645245, 41.851247], [-87.642429, 41.847384], [-87.634652, 41.845323], [-87.63091, 41.84209], [-87.631289, 41.79178], [-87.631532, 41.783322], [-87.631833, 41.779372], [-87.632128, 41.779366], [-87.632538, 41.778543]], "type": "LineString"}, "properties": {"timestamp": "2024-03-22T20:54:04"}}, {"type": "Feature", "geometry": {"coordinates": [[-87.632538, 41.778543], [-87.632128, 41.779366], [-87.631833, 41.779372], [-87.631812, 41.778124], [-87.635009, 41.778077], [-87.635057, 41.779907], [-87.630139, 41.779931], [-87.630149, 41.780433], [-87.63142, 41.807989], [-87.629665, 41.812785], [-87.630393, 41.837743], [-87.631001, 41.844069], [-87.630081, 41.846653], [-87.616851, 41.847976], [-87.613392, 41.848153], [-87.612168, 41.84938], [-87.619244, 41.8661], [-87.617003, 41.869799], [-87.617167, 41.881825], [-87.613645, 41.884762], [-87.613978, 41.892577], [-87.619441, 41.900921], [-87.623907, 41.902638], [-87.625717, 41.909833], [-87.626017, 41.913347], [-87.627835, 41.912344], [-87.632438, 41.913334], [-87.633223, 41.911171], [-87.643446, 41.911054], [-87.643529, 41.913908], [-87.644729, 41.913887]], "type": "LineString"}, "properties": {"timestamp": "2024-03-22T21:17:06"}}, {"type": "Feature", "geometry": {"coordinates": [[-87.644729, 41.913887], [-87.648378, 41.913826], [-87.648766, 41.925453], [-87.663682, 41.936111], [-87.663907, 41.943419], [-87.665475, 41.943396]], "type": "LineString"}, "properties": {"timestamp": "2024-03-22T21:17:06"}}, {"type": "Feature", "geometry": {"coordinates": [[-87.665475, 41.943396], [-87.666342, 41.943383], [-87.666233, 41.939729], [-87.654106, 41.939918], [-87.654016, 41.937175], [-87.653552, 41.937186], [-87.65355, 41.937074]], "type": "LineString"}, "properties": {"timestamp": "2024-03-22T21:31:14"}}, {"type": "Feature", "geometry": {"coordinates": [[-87.65355, 41.937074], [-87.653552, 41.937186], [-87.654016, 41.937175], [-87.654106, 41.939918], [-87.639537, 41.940119], [-87.638088, 41.940568], [-87.644496, 41.951253], [-87.644596, 41.954749], [-87.648738, 41.973046], [-87.652251, 41.981039], [-87.652803, 41.984951], [-87.654178, 41.985586], [-87.662456, 41.985105], [-87.665884, 41.987189], [-87.669585, 41.987146], [-87.669707, 41.988054], [-87.669796, 41.987608], [-87.669769, 41.987519]], "type": "LineString"}, "properties": {"timestamp": "2024-03-22T21:31:14"}}, {"type": "Feature", "geometry": {"coordinates": [[-87.669769, 41.987519], [-87.669181, 41.985433], [-87.663294, 41.985603], [-87.660074, 41.983631], [-87.659771, 41.972678], [-87.660107, 41.972674]], "type": "LineString"}, "properties": {"timestamp": "2024-03-22T22:10:49"}}, {"type": "Feature", "geometry": {"coordinates": [[-87.660107, 41.972674], [-87.659771, 41.972678], [-87.659673, 41.969021], [-87.648824, 41.969276], [-87.64734, 41.965793], [-87.644611, 41.950978], [-87.638957, 41.941067], [-87.632637, 41.935041], [-87.631858, 41.927741], [-87.631853, 41.926001], [-87.648766, 41.925453], [-87.648495, 41.91731]], "type": "LineString"}, "properties": {"timestamp": "2024-03-22T22:10:49"}}, {"type": "Feature", "geometry": {"coordinates": [[-87.648495, 41.91731], [-87.648766, 41.925453], [-87.668609, 41.939697], [-87.66884, 41.948822], [-87.667351, 41.948845]], "type": "LineString"}, "properties": {"timestamp": "2024-03-22T22:27:25"}}, {"type": "Feature", "geometry": {"coordinates": [[-87.667351, 41.948845], [-87.664054, 41.948897], [-87.664217, 41.954357], [-87.645235, 41.954634], [-87.644611, 41.950978], [-87.639315, 41.941594], [-87.632527, 41.93482], [-87.632048, 41.928427], [-87.627538, 41.915117], [-87.627206, 41.913042], [-87.628067, 41.912346], [-87.631428, 41.913459], [-87.633196, 41.912907], [-87.632901, 41.900546], [-87.63435, 41.90053], [-87.634293, 41.898867]], "type": "LineString"}, "properties": {"timestamp": "2024-03-22T22:27:25"}}, {"type": "Feature", "geometry": {"coordinates": [[-87.634293, 41.898867], [-87.634293, 41.898867]], "type": "LineString"}, "properties": {"timestamp": "2024-03-22T22:40:24"}}, {"type": "Feature", "geometry": {"coordinates": [[-87.634293, 41.898867], [-87.63421, 41.896586], [-87.654734, 41.896269], [-87.657882, 41.892535], [-87.659522, 41.892518], [-87.659547, 41.893465], [-87.658764, 41.893479]], "type": "LineString"}, "properties": {"timestamp": "2024-03-22T22:40:24"}}, {"type": "Feature", "geometry": {"coordinates": [[-87.658764, 41.893479], [-87.66233, 41.893417], [-87.662267, 41.891027], [-87.679339, 41.890782], [-87.67936, 41.891505], [-87.67804, 41.891528]], "type": "LineString"}, "properties": {"timestamp": "2024-03-22T22:52:00"}}, {"type": "Feature", "geometry": {"coordinates": [[-87.67804, 41.891528], [-87.676926, 41.891547], [-87.676904, 41.890825], [-87.645341, 41.891189], [-87.637019, 41.891543], [-87.63704, 41.892368], [-87.62966, 41.892457], [-87.629727, 41.894584]], "type": "LineString"}, "properties": {"timestamp": "2024-03-22T22:52:00"}}, {"type": "Feature", "geometry": {"coordinates": [[-87.629727, 41.894584], [-87.62978, 41.896655], [-87.631243, 41.896633], [-87.631219, 41.895637], [-87.630373, 41.895653]], "type": "LineString"}, "properties": {"timestamp": "2024-03-22T23:01:57"}}, {"type": "Feature", "geometry": {"coordinates": [[-87.630373, 41.895653], [-87.629762, 41.895665], [-87.62978, 41.896655], [-87.654734, 41.896269], [-87.655808, 41.89501], [-87.657675, 41.89596], [-87.65932, 41.898217], [-87.660805, 41.901753], [-87.661253, 41.906799], [-87.664439, 41.910145], [-87.669227, 41.917096], [-87.704001, 41.937344], [-87.706845, 41.939348], [-87.706369, 41.93936], [-87.706177, 41.944803], [-87.705317, 41.944219], [-87.705281, 41.943085]], "type": "LineString"}, "properties": {"timestamp": "2024-03-22T23:01:57"}}, {"type": "Feature", "geometry": {"coordinates": [[-87.705281, 41.943085], [-87.705182, 41.939366], [-87.702718, 41.939378], [-87.702616, 41.935677], [-87.669746, 41.917124], [-87.661559, 41.906635], [-87.658834, 41.896667], [-87.647099, 41.887778], [-87.644363, 41.857367], [-87.645793, 41.852447], [-87.644333, 41.849097], [-87.644894, 41.846776], [-87.652708, 41.844955], [-87.667166, 41.837862], [-87.680151, 41.837032], [-87.695427, 41.832287], [-87.698851, 41.831418], [-87.700566, 41.830863], [-87.704666, 41.829715], [-87.703846, 41.803404], [-87.705243, 41.803365], [-87.704121, 41.803552], [-87.705762, 41.803682]], "type": "LineString"}, "properties": {"timestamp": "2024-03-22T23:50:13"}}, {"type": "Feature", "geometry": {"coordinates": [[-87.705762, 41.803682], [-87.704121, 41.803552], [-87.705243, 41.803365], [-87.703846, 41.803404], [-87.706651, 41.898325], [-87.708783, 41.899176], [-87.715822, 41.899117]], "type": "LineString"}, "properties": {"timestamp": "2024-03-22T23:50:13"}}, {"type": "Feature", "geometry": {"coordinates": [[-87.715822, 41.899117], [-87.708783, 41.899176], [-87.702222, 41.896575], [-87.702191, 41.895594], [-87.701213, 41.895606]], "type": "LineString"}, "properties": {"timestamp": "2024-03-23T00:04:26"}}, {"type": "Feature", "geometry": {"coordinates": [[-87.701213, 41.895606], [-87.699899, 41.895625], [-87.687618, 41.890711], [-87.686683, 41.890646], [-87.686045, 41.866615], [-87.666485, 41.866796], [-87.66624, 41.858705], [-87.666424, 41.858703]], "type": "LineString"}, "properties": {"timestamp": "2024-03-23T00:04:26"}}, {"type": "Feature", "geometry": {"coordinates": [[-87.666424, 41.858703], [-87.666113, 41.858707], [-87.666563, 41.875179], [-87.666292, 41.875183], [-87.650308, 41.875329], [-87.647601, 41.875302], [-87.645452, 41.874563], [-87.644482, 41.875077], [-87.64458, 41.876036], [-87.645275, 41.880374], [-87.645355, 41.881847], [-87.645393, 41.882198], [-87.64591, 41.885931], [-87.647404, 41.888483], [-87.658783, 41.897251], [-87.660805, 41.901753], [-87.660967, 41.906186], [-87.662226, 41.907951], [-87.664445, 41.910674], [-87.648286, 41.910927], [-87.648523, 41.918178], [-87.647123, 41.918199]], "type": "LineString"}, "properties": {"timestamp": "2024-03-23T00:11:55"}}, {"type": "Feature", "geometry": {"coordinates": [[-87.647123, 41.918199], [-87.658214, 41.918041], [-87.658378, 41.917139], [-87.663815, 41.917067], [-87.666413, 41.916455], [-87.667505, 41.91793], [-87.66968, 41.917898], [-87.709664, 41.940439], [-87.714861, 41.942208], [-87.719618, 41.947985], [-87.738838, 41.958569], [-87.741371, 41.960451], [-87.74187, 41.960845], [-87.794287, 41.960061], [-87.822074, 41.946631], [-87.821404, 41.937842], [-87.820185, 41.937866], [-87.820102, 41.936076], [-87.820727, 41.936062], [-87.82067, 41.934634]], "type": "LineString"}, "properties": {"timestamp": "2024-03-23T00:11:55"}}, {"type": "Feature", "geometry": {"coordinates": [[-87.82067, 41.934634], [-87.820654, 41.93424], [-87.806613, 41.934519], [-87.804598, 41.873618], [-87.769061, 41.87064], [-87.739969, 41.871594], [-87.733001, 41.87362], [-87.680246, 41.875358], [-87.676555, 41.875016], [-87.675739, 41.848542], [-87.676155, 41.848385]], "type": "LineString"}, "properties": {"timestamp": "2024-03-23T00:31:27"}}, {"type": "Feature", "geometry": {"coordinates": [[-87.676155, 41.848385], [-87.675739, 41.848542], [-87.675278, 41.830387], [-87.672835, 41.830414], [-87.672742, 41.826774], [-87.671518, 41.826787], [-87.671523, 41.82698]], "type": "LineString"}, "properties": {"timestamp": "2024-03-23T00:31:27"}}, {"type": "Feature", "geometry": {"coordinates": [[-87.671523, 41.82698], [-87.671618, 41.830427], [-87.675278, 41.830387], [-87.675739, 41.848542], [-87.678183, 41.84761], [-87.678206, 41.84851], [-87.679493, 41.84802]], "type": "LineString"}, "properties": {"timestamp": "2024-03-23T00:50:54"}}, {"type": "Feature", "geometry": {"coordinates": [[-87.679493, 41.84802], [-87.675766, 41.849449], [-87.675532, 41.837577], [-87.674646, 41.83692], [-87.669646, 41.837057], [-87.66757, 41.837403], [-87.659905, 41.841443], [-87.651867, 41.844887], [-87.646596, 41.845741], [-87.642887, 41.846989], [-87.632344, 41.84739], [-87.628234, 41.846918], [-87.624498, 41.847737], [-87.622076, 41.847894], [-87.619892, 41.847688], [-87.618334, 41.847696], [-87.618041, 41.848104], [-87.618375, 41.848483], [-87.622136, 41.848387], [-87.62226, 41.857909], [-87.621984, 41.857911]], "type": "LineString"}, "properties": {"timestamp": "2024-03-23T00:50:54"}}, {"type": "Feature", "geometry": {"coordinates": [[-87.621984, 41.857911], [-87.623921, 41.857891], [-87.62314, 41.823762], [-87.619991, 41.823804], [-87.619964, 41.822908]], "type": "LineString"}, "properties": {"timestamp": "2024-03-23T01:05:01"}}, {"type": "Feature", "geometry": {"coordinates": [[-87.619964, 41.822908], [-87.619991, 41.823804], [-87.629633, 41.823673], [-87.629738, 41.827425], [-87.630393, 41.837743], [-87.631347, 41.844144], [-87.642036, 41.847354], [-87.644829, 41.85074], [-87.644517, 41.867845], [-87.644628, 41.873521], [-87.645646, 41.875725], [-87.649223, 41.875863], [-87.680757, 41.875819], [-87.686165, 41.876094], [-87.686683, 41.890646], [-87.696662, 41.894314], [-87.696939, 41.905668], [-87.694135, 41.905693]], "type": "LineString"}, "properties": {"timestamp": "2024-03-23T01:05:01"}}, {"type": "Feature", "geometry": {"coordinates": [[-87.694135, 41.905693], [-87.692014, 41.905712], [-87.692115, 41.910281], [-87.648286, 41.910927], [-87.648495, 41.91731]], "type": "LineString"}, "properties": {"timestamp": "2024-03-23T01:27:52"}}, {"type": "Feature", "geometry": {"coordinates": [[-87.648495, 41.91731], [-87.648286, 41.910927], [-87.664445, 41.910674], [-87.668091, 41.915886], [-87.670574, 41.91815], [-87.690595, 41.929581], [-87.694091, 41.931942], [-87.697602, 41.932108], [-87.698335, 41.956867]], "type": "LineString"}, "properties": {"timestamp": "2024-03-23T01:27:52"}}, {"type": "Feature", "geometry": {"coordinates": [[-87.698335, 41.956867], [-87.697602, 41.932108], [-87.696547, 41.932116], [-87.671115, 41.918139], [-87.668499, 41.915851], [-87.666712, 41.913088], [-87.665662, 41.910672], [-87.66776, 41.910633], [-87.667457, 41.899711], [-87.674089, 41.899597], [-87.67412, 41.90052]], "type": "LineString"}, "properties": {"timestamp": "2024-03-23T01:56:08"}}, {"type": "Feature", "geometry": {"coordinates": [[-87.67412, 41.90052], [-87.67415, 41.901415], [-87.673548, 41.901426], [-87.673606, 41.903247], [-87.667439, 41.903351], [-87.667641, 41.910635], [-87.633071, 41.911172], [-87.633044, 41.912903], [-87.632269, 41.913237], [-87.630561, 41.913114], [-87.628505, 41.912247], [-87.626932, 41.912316]], "type": "LineString"}, "properties": {"timestamp": "2024-03-23T01:56:08"}}, {"type": "Feature", "geometry": {"coordinates": [[-87.626932, 41.912316], [-87.624114, 41.90257], [-87.619617, 41.900898], [-87.614229, 41.892716], [-87.614127, 41.884928], [-87.617453, 41.881821], [-87.617261, 41.869765], [-87.619588, 41.866208], [-87.614728, 41.853242], [-87.614444, 41.848506], [-87.626818, 41.84732], [-87.631727, 41.847855], [-87.631351, 41.843118], [-87.631289, 41.79178], [-87.631532, 41.783322], [-87.631833, 41.779372], [-87.632128, 41.779366], [-87.632538, 41.778543]], "type": "LineString"}, "properties": {"timestamp": "2024-03-23T02:08:52"}}, {"type": "Feature", "geometry": {"coordinates": [[-87.632538, 41.778543], [-87.632128, 41.779366], [-87.631833, 41.779372], [-87.631812, 41.778124], [-87.635009, 41.778077], [-87.635057, 41.779907], [-87.630139, 41.779931], [-87.630149, 41.780433], [-87.63142, 41.807989], [-87.629665, 41.812785], [-87.630393, 41.837743], [-87.631347, 41.844144], [-87.642036, 41.847354], [-87.644829, 41.85074], [-87.644517, 41.867845], [-87.644628, 41.873521], [-87.643468, 41.875355], [-87.629223, 41.875546], [-87.629579, 41.889242], [-87.628704, 41.889251]], "type": "LineString"}, "properties": {"timestamp": "2024-03-23T02:08:52"}}, {"type": "Feature", "geometry": {"coordinates": [[-87.628704, 41.889251], [-87.639082, 41.889133], [-87.639841, 41.889057], [-87.641432, 41.889102], [-87.641308, 41.884445], [-87.646033, 41.884406]], "type": "LineString"}, "properties": {"timestamp": "2024-03-23T02:27:34"}}, {"type": "Feature", "geometry": {"coordinates": [[-87.646033, 41.884406], [-87.647438, 41.884415], [-87.648086, 41.903643], [-87.638347, 41.903783], [-87.638808, 41.918322], [-87.636131, 41.918472], [-87.636142, 41.918564], [-87.636391, 41.919706]], "type": "LineString"}, "properties": {"timestamp": "2024-03-23T02:27:34"}}, {"type": "Feature", "geometry": {"coordinates": [[-87.636391, 41.919706], [-87.636586, 41.925658], [-87.63067, 41.926223], [-87.631851, 41.928415], [-87.632612, 41.935386], [-87.638833, 41.941219], [-87.644437, 41.951086], [-87.644596, 41.954749], [-87.648738, 41.973046], [-87.652386, 41.98144], [-87.65229, 41.983909], [-87.666707, 41.983528]], "type": "LineString"}, "properties": {"timestamp": "2024-03-23T15:22:49"}}]}