{"type": "FeatureCollection", "features": [{"type": "Feature", "geometry": {"coordinates": [[-87.67857, 41.907124], [-87.679817, 41.9071], [-87.679912, 41.910446], [-87.711884, 41.910045], [-87.711856, 41.908233], [-87.714298, 41.90821], [-87.714347, 41.909624]], "type": "LineString"}, "properties": {"timestamp": "2024-03-11T17:33:02"}}, {"type": "Feature", "geometry": {"coordinates": [[-87.714347, 41.909624], [-87.71436, 41.910015], [-87.71669, 41.909987], [-87.717188, 41.931929], [-87.719631, 41.931892], [-87.719618, 41.931377]], "type": "LineString"}, "properties": {"timestamp": "2024-03-11T17:48:30"}}, {"type": "Feature", "geometry": {"coordinates": [[-87.719618, 41.931377], [-87.719534, 41.928233], [-87.726876, 41.928137], [-87.726455, 41.92266], [-87.72708, 41.92265], [-87.726704, 41.921568], [-87.726291, 41.902679], [-87.731211, 41.902599], [-87.731137, 41.899853], [-87.735367, 41.899795]], "type": "LineString"}, "properties": {"timestamp": "2024-03-11T17:48:30"}}, {"type": "Feature", "geometry": {"coordinates": [[-87.735367, 41.899795], [-87.736064, 41.899785], [-87.736145, 41.902516], [-87.717777, 41.902754], [-87.712727, 41.900725], [-87.711571, 41.899784], [-87.71147, 41.896431], [-87.710649, 41.896432]], "type": "LineString"}, "properties": {"timestamp": "2024-03-11T18:06:56"}}, {"type": "Feature", "geometry": {"coordinates": [[-87.710649, 41.896432], [-87.71147, 41.896431], [-87.711571, 41.899784], [-87.712727, 41.900725], [-87.716556, 41.902232], [-87.716622, 41.904574], [-87.715988, 41.90458], [-87.716651, 41.905353], [-87.71669, 41.909987], [-87.718643, 41.909964]], "type": "LineString"}, "properties": {"timestamp": "2024-03-11T18:06:56"}}, {"type": "Feature", "geometry": {"coordinates": [[-87.718643, 41.909964], [-87.71669, 41.909987], [-87.717392, 41.939221], [-87.712487, 41.939288], [-87.712571, 41.941642], [-87.715981, 41.943044], [-87.719618, 41.947985], [-87.742619, 41.960998], [-87.752403, 41.966033], [-87.75503, 41.967937], [-87.757623, 41.967938], [-87.758399, 41.968431]], "type": "LineString"}, "properties": {"timestamp": "2024-03-11T18:30:22"}}, {"type": "Feature", "geometry": {"coordinates": [[-87.758399, 41.968431], [-87.757622, 41.967875], [-87.747723, 41.968033], [-87.747918, 41.972896], [-87.747761, 41.972794], [-87.747223, 41.966563], [-87.745961, 41.963113], [-87.742125, 41.960129], [-87.719592, 41.947613], [-87.715306, 41.94215], [-87.710219, 41.940524], [-87.698173, 41.933659], [-87.687291, 41.927358], [-87.684125, 41.925223], [-87.687645, 41.924902], [-87.686835, 41.89575], [-87.681943, 41.895837], [-87.681892, 41.894023], [-87.684163, 41.893977]], "type": "LineString"}, "properties": {"timestamp": "2024-03-11T18:30:22"}}, {"type": "Feature", "geometry": {"coordinates": [[-87.684163, 41.893977], [-87.686781, 41.89393], [-87.686835, 41.89575], [-87.697952, 41.895645], [-87.698042, 41.899151]], "type": "LineString"}, "properties": {"timestamp": "2024-03-11T18:41:12"}}, {"type": "Feature", "geometry": {"coordinates": [[-87.698042, 41.899151], [-87.698045, 41.899277], [-87.686926, 41.899379], [-87.687645, 41.924902], [-87.690086, 41.924878], [-87.690204, 41.928243], [-87.689264, 41.928214]], "type": "LineString"}, "properties": {"timestamp": "2024-03-11T18:41:12"}}, {"type": "Feature", "geometry": {"coordinates": [[-87.689264, 41.928214], [-87.688923, 41.926707], [-87.687704, 41.926718], [-87.687672, 41.926885], [-87.683686, 41.924962], [-87.682301, 41.924978], [-87.685177, 41.926707], [-87.709664, 41.940439], [-87.714861, 41.942208], [-87.719618, 41.947985], [-87.738838, 41.958569], [-87.741371, 41.960451], [-87.74187, 41.960845], [-87.794287, 41.960061], [-87.822074, 41.946631], [-87.821404, 41.937842], [-87.820185, 41.937866], [-87.820102, 41.936076], [-87.820727, 41.936062], [-87.82067, 41.934634]], "type": "LineString"}, "properties": {"timestamp": "2024-03-11T18:55:56"}}, {"type": "Feature", "geometry": {"coordinates": [[-87.82067, 41.934634], [-87.820654, 41.93424], [-87.806613, 41.934519], [-87.804598, 41.873618], [-87.769061, 41.87064], [-87.739969, 41.871594], [-87.733001, 41.87362], [-87.69832, 41.875168], [-87.629223, 41.875546], [-87.629291, 41.878179], [-87.624208, 41.878293], [-87.624344, 41.884366], [-87.623414, 41.884372], [-87.621085, 41.884319]], "type": "LineString"}, "properties": {"timestamp": "2024-03-11T18:55:56"}}, {"type": "Feature", "geometry": {"coordinates": [[-87.621085, 41.884319], [-87.620576, 41.884316], [-87.620586, 41.884503], [-87.624571, 41.884489], [-87.624508, 41.882115], [-87.624759, 41.882108]], "type": "LineString"}, "properties": {"timestamp": "2024-03-11T19:12:52"}}, {"type": "Feature", "geometry": {"coordinates": [[-87.624759, 41.882108], [-87.626192, 41.882079], [-87.626161, 41.880802], [-87.617244, 41.880924], [-87.616723, 41.882559], [-87.614349, 41.883727], [-87.613645, 41.884762], [-87.614041, 41.892878], [-87.619441, 41.900921], [-87.622727, 41.90171], [-87.624048, 41.902893], [-87.62589, 41.912141], [-87.628743, 41.918036], [-87.631851, 41.928415], [-87.632152, 41.934381], [-87.633661, 41.936704], [-87.63676, 41.939073], [-87.638088, 41.940568], [-87.64439, 41.940035], [-87.644433, 41.94114], [-87.644851, 41.941134]], "type": "LineString"}, "properties": {"timestamp": "2024-03-11T19:12:52"}}, {"type": "Feature", "geometry": {"coordinates": [[-87.644851, 41.941134], [-87.649309, 41.941079], [-87.649275, 41.939973], [-87.663815, 41.939759], [-87.663583, 41.933389], [-87.663146, 41.933396]], "type": "LineString"}, "properties": {"timestamp": "2024-03-11T19:59:22"}}, {"type": "Feature", "geometry": {"coordinates": [[-87.663146, 41.933396], [-87.663583, 41.933389], [-87.6632, 41.921626], [-87.677255, 41.921395], [-87.671115, 41.918139], [-87.668247, 41.915543], [-87.664752, 41.909975], [-87.661559, 41.906635], [-87.661131, 41.901587], [-87.659049, 41.896968], [-87.647531, 41.888343], [-87.646219, 41.885929], [-87.645999, 41.881827], [-87.646134, 41.880956], [-87.64632, 41.87924], [-87.649612, 41.879181], [-87.649583, 41.878315], [-87.649942, 41.878307]], "type": "LineString"}, "properties": {"timestamp": "2024-03-11T19:59:22"}}, {"type": "Feature", "geometry": {"coordinates": [[-87.649942, 41.878307], [-87.649942, 41.878307]], "type": "LineString"}, "properties": {"timestamp": "2024-03-11T20:12:14"}}, {"type": "Feature", "geometry": {"coordinates": [[-87.649942, 41.878307], [-87.649583, 41.878315], [-87.64957, 41.877909], [-87.645564, 41.877963], [-87.645275, 41.880374], [-87.645355, 41.881847], [-87.645393, 41.882198], [-87.645735, 41.885306], [-87.646457, 41.887151], [-87.648003, 41.8891], [-87.650048, 41.890597], [-87.651108, 41.891699], [-87.650896, 41.892164], [-87.65026, 41.89242], [-87.632511, 41.892423], [-87.632783, 41.901829], [-87.631826, 41.90184]], "type": "LineString"}, "properties": {"timestamp": "2024-03-11T20:12:14"}}, {"type": "Feature", "geometry": {"coordinates": [[-87.631826, 41.90184], [-87.631392, 41.901845], [-87.631243, 41.896633], [-87.701213, 41.895606]], "type": "LineString"}, "properties": {"timestamp": "2024-03-11T20:26:52"}}, {"type": "Feature", "geometry": {"coordinates": [[-87.701213, 41.895606], [-87.699899, 41.895625], [-87.687286, 41.890639], [-87.648776, 41.891179], [-87.648695, 41.887378], [-87.649864, 41.887364], [-87.649838, 41.886778], [-87.649954, 41.886776]], "type": "LineString"}, "properties": {"timestamp": "2024-03-11T20:26:52"}}, {"type": "Feature", "geometry": {"coordinates": [[-87.649954, 41.886776], [-87.651006, 41.88676], [-87.650961, 41.885607], [-87.649818, 41.885626], [-87.649583, 41.878315], [-87.649942, 41.878307]], "type": "LineString"}, "properties": {"timestamp": "2024-03-11T20:40:20"}}, {"type": "Feature", "geometry": {"coordinates": [[-87.649942, 41.878307], [-87.649583, 41.878315], [-87.649612, 41.879181], [-87.664348, 41.878931], [-87.66442, 41.881502], [-87.679085, 41.881324], [-87.678236, 41.88126]], "type": "LineString"}, "properties": {"timestamp": "2024-03-11T20:40:20"}}, {"type": "Feature", "geometry": {"coordinates": [[-87.678236, 41.88126], [-87.676638, 41.881323], [-87.676545, 41.877479], [-87.66918, 41.877592], [-87.669139, 41.87632], [-87.669892, 41.876309], [-87.672211, 41.875914], [-87.676766, 41.875846]], "type": "LineString"}, "properties": {"timestamp": "2024-03-11T20:50:43"}}, {"type": "Feature", "geometry": {"coordinates": [[-87.676766, 41.875846], [-87.680757, 41.875819], [-87.686165, 41.876094], [-87.687018, 41.903025], [-87.679708, 41.903145], [-87.679724, 41.903748]], "type": "LineString"}, "properties": {"timestamp": "2024-03-11T20:50:43"}}, {"type": "Feature", "geometry": {"coordinates": [[-87.679724, 41.903748], [-87.679734, 41.904077], [-87.677302, 41.904122], [-87.677057, 41.895912], [-87.686835, 41.89575], [-87.686532, 41.884621], [-87.688567, 41.884544], [-87.688508, 41.88207], [-87.688351, 41.882072]], "type": "LineString"}, "properties": {"timestamp": "2024-03-11T21:03:22"}}, {"type": "Feature", "geometry": {"coordinates": [[-87.688351, 41.882072], [-87.666341, 41.882396], [-87.664612, 41.882852], [-87.655717, 41.894874], [-87.657675, 41.89596], [-87.65932, 41.898217], [-87.660805, 41.901753], [-87.661253, 41.906799], [-87.669906, 41.91766], [-87.702937, 41.93676], [-87.710036, 41.940632], [-87.713979, 41.941793], [-87.715981, 41.943044], [-87.717815, 41.94651], [-87.723631, 41.946429], [-87.723636, 41.946606]], "type": "LineString"}, "properties": {"timestamp": "2024-03-11T21:03:22"}}, {"type": "Feature", "geometry": {"coordinates": [[-87.723636, 41.946606], [-87.723695, 41.948712], [-87.720091, 41.946669], [-87.720056, 41.946478], [-87.71959, 41.946484], [-87.718735, 41.945881], [-87.718156, 41.944989], [-87.718165, 41.94468], [-87.71756, 41.943897], [-87.717283, 41.935091], [-87.709827, 41.93055], [-87.709962, 41.930418]], "type": "LineString"}, "properties": {"timestamp": "2024-03-11T21:37:42"}}, {"type": "Feature", "geometry": {"coordinates": [[-87.709962, 41.930418], [-87.709827, 41.93055], [-87.708256, 41.9296], [-87.707414, 41.930357], [-87.707434, 41.932039], [-87.687832, 41.932179], [-87.688345, 41.949742]], "type": "LineString"}, "properties": {"timestamp": "2024-03-11T21:37:42"}}, {"type": "Feature", "geometry": {"coordinates": [[-87.688345, 41.949742], [-87.688469, 41.954086], [-87.809667, 41.952719], [-87.822074, 41.946631], [-87.821404, 41.937842], [-87.820185, 41.937866], [-87.820102, 41.936076], [-87.820727, 41.936062], [-87.82067, 41.934634]], "type": "LineString"}, "properties": {"timestamp": "2024-03-11T21:42:22"}}, {"type": "Feature", "geometry": {"coordinates": [[-87.82067, 41.934634], [-87.820654, 41.93424], [-87.806613, 41.934519], [-87.804598, 41.873618], [-87.769061, 41.87064], [-87.739969, 41.871594], [-87.733001, 41.87362], [-87.69832, 41.875168], [-87.629223, 41.875546], [-87.629291, 41.878179], [-87.624208, 41.878293], [-87.624344, 41.884366], [-87.623414, 41.884372], [-87.617389, 41.884538], [-87.615772, 41.884596], [-87.615811, 41.886931], [-87.61618, 41.886949]], "type": "LineString"}, "properties": {"timestamp": "2024-03-11T21:42:22"}}, {"type": "Feature", "geometry": {"coordinates": [[-87.61618, 41.886949], [-87.61744, 41.887001], [-87.617443, 41.887718], [-87.620783, 41.887992], [-87.620376, 41.887783], [-87.615811, 41.887462], [-87.61394, 41.885118], [-87.617453, 41.881821], [-87.619589, 41.866068], [-87.614728, 41.853242], [-87.614444, 41.848506], [-87.626818, 41.84732], [-87.631727, 41.847855], [-87.631351, 41.843118], [-87.631207, 41.779686], [-87.626113, 41.772231], [-87.624621, 41.72052], [-87.621065, 41.713653], [-87.600337, 41.713191], [-87.592948, 41.708673], [-87.592406, 41.703483], [-87.601798, 41.685512], [-87.601728, 41.676933], [-87.589096, 41.660202], [-87.59119, 41.659512], [-87.560717, 41.658851], [-87.555878, 41.656176], [-87.555649, 41.65737], [-87.553811, 41.65736], [-87.553812, 41.656889]], "type": "LineString"}, "properties": {"timestamp": "2024-03-11T22:06:03"}}, {"type": "Feature", "geometry": {"coordinates": [[-87.553812, 41.656889], [-87.553811, 41.65736], [-87.557102, 41.657281], [-87.585314, 41.660149], [-87.590822, 41.662478], [-87.601403, 41.675885], [-87.601563, 41.685726], [-87.594329, 41.69908], [-87.591535, 41.705863], [-87.595707, 41.711823], [-87.618809, 41.713575], [-87.62372, 41.717096], [-87.625651, 41.769497], [-87.630747, 41.779495], [-87.630667, 41.838631], [-87.631001, 41.844069], [-87.630081, 41.846653], [-87.616851, 41.847976], [-87.612168, 41.84938], [-87.619244, 41.8661], [-87.614003, 41.89273], [-87.619441, 41.900921], [-87.623983, 41.902767], [-87.630534, 41.924159], [-87.63067, 41.926223], [-87.639998, 41.925595]], "type": "LineString"}, "properties": {"timestamp": "2024-03-11T22:06:03"}}, {"type": "Feature", "geometry": {"coordinates": [[-87.639998, 41.925595], [-87.648766, 41.925453], [-87.647305, 41.92443], [-87.646995, 41.924603], [-87.646995, 41.9247]], "type": "LineString"}, "properties": {"timestamp": "2024-03-11T22:32:35"}}, {"type": "Feature", "geometry": {"coordinates": [[-87.646995, 41.9247], [-87.647305, 41.92443], [-87.663682, 41.936111], [-87.663758, 41.938211]], "type": "LineString"}, "properties": {"timestamp": "2024-03-11T22:32:35"}}, {"type": "Feature", "geometry": {"coordinates": [[-87.663758, 41.938211], [-87.6632, 41.921626], [-87.659737, 41.921657]], "type": "LineString"}, "properties": {"timestamp": "2024-03-11T22:36:19"}}, {"type": "Feature", "geometry": {"coordinates": [[-87.659737, 41.921657], [-87.65834, 41.921676], [-87.658713, 41.932557], [-87.663682, 41.936111], [-87.663953, 41.945247], [-87.664502, 41.945239]], "type": "LineString"}, "properties": {"timestamp": "2024-03-11T22:36:19"}}, {"type": "Feature", "geometry": {"coordinates": [[-87.664502, 41.945239], [-87.666391, 41.945214], [-87.666475, 41.948859], [-87.667692, 41.94884], [-87.667647, 41.947197]], "type": "LineString"}, "properties": {"timestamp": "2024-03-11T23:04:55"}}, {"type": "Feature", "geometry": {"coordinates": [[-87.667647, 41.947197], [-87.667642, 41.947026], [-87.656521, 41.947205], [-87.647811, 41.936435], [-87.641858, 41.936539], [-87.64182, 41.935387]], "type": "LineString"}, "properties": {"timestamp": "2024-03-11T23:04:55"}}, {"type": "Feature", "geometry": {"coordinates": [[-87.64182, 41.935387], [-87.641858, 41.936539], [-87.639423, 41.936578], [-87.639642, 41.941519], [-87.64345, 41.948638], [-87.645566, 41.947931], [-87.64615, 41.948891], [-87.647031, 41.948585]], "type": "LineString"}, "properties": {"timestamp": "2024-03-11T23:11:29"}}, {"type": "Feature", "geometry": {"coordinates": [[-87.647031, 41.948585], [-87.647842, 41.948303], [-87.647275, 41.947355], [-87.64345, 41.948638], [-87.639574, 41.941203], [-87.638606, 41.939931], [-87.634194, 41.936955], [-87.632527, 41.93482], [-87.632048, 41.928427], [-87.627538, 41.915117], [-87.627206, 41.913042], [-87.628067, 41.912346], [-87.631428, 41.913459], [-87.633227, 41.912793], [-87.632696, 41.891597], [-87.634054, 41.891576], [-87.634037, 41.890774], [-87.633354, 41.890784]], "type": "LineString"}, "properties": {"timestamp": "2024-03-11T23:11:29"}}, {"type": "Feature", "geometry": {"coordinates": [[-87.633354, 41.890784], [-87.632683, 41.890793], [-87.632656, 41.889183], [-87.634021, 41.889159], [-87.634001, 41.888149], [-87.63433, 41.887992], [-87.636197, 41.887969], [-87.637194, 41.887981], [-87.637308, 41.888017], [-87.638308, 41.888006], [-87.638306, 41.887933], [-87.637518, 41.887943]], "type": "LineString"}, "properties": {"timestamp": "2024-03-11T23:20:38"}}, {"type": "Feature", "geometry": {"coordinates": [[-87.637518, 41.887943], [-87.63637, 41.887983], [-87.636789, 41.888455], [-87.636943, 41.888771], [-87.636999, 41.890746], [-87.617665, 41.891067], [-87.617676, 41.891456]], "type": "LineString"}, "properties": {"timestamp": "2024-03-11T23:20:38"}}, {"type": "Feature", "geometry": {"coordinates": [[-87.617676, 41.891456], [-87.617687, 41.891833], [-87.620235, 41.891803], [-87.620232, 41.890695], [-87.620755, 41.888052], [-87.620738, 41.885835], [-87.620654, 41.885834], [-87.620668, 41.886864]], "type": "LineString"}, "properties": {"timestamp": "2024-03-11T23:35:47"}}, {"type": "Feature", "geometry": {"coordinates": [[-87.620668, 41.886864], [-87.620667, 41.886919], [-87.620897, 41.881244], [-87.620619, 41.875815], [-87.621081, 41.875931], [-87.623299, 41.87589], [-87.623586, 41.876459], [-87.624302, 41.877002], [-87.629257, 41.876904], [-87.629268, 41.877337]], "type": "LineString"}, "properties": {"timestamp": "2024-03-11T23:35:47"}}, {"type": "Feature", "geometry": {"coordinates": [[-87.629268, 41.877337], [-87.629291, 41.878179], [-87.628769, 41.878188], [-87.62871, 41.875706], [-87.651339, 41.875719], [-87.657603, 41.876197], [-87.688313, 41.875763], [-87.692409, 41.875862], [-87.698604, 41.87596], [-87.698638, 41.877405], [-87.69832, 41.877408]], "type": "LineString"}, "properties": {"timestamp": "2024-03-11T23:54:35"}}, {"type": "Feature", "geometry": {"coordinates": [[-87.69832, 41.877408], [-87.696189, 41.877434], [-87.696127, 41.874902], [-87.695509, 41.874908], [-87.690201, 41.875125], [-87.659837, 41.87561], [-87.650308, 41.875329], [-87.647601, 41.875302], [-87.645452, 41.874563], [-87.644482, 41.875077], [-87.64458, 41.876036], [-87.64558, 41.877925], [-87.645654, 41.884644], [-87.646015, 41.886212], [-87.647638, 41.88874], [-87.650048, 41.890597], [-87.651108, 41.891699], [-87.650896, 41.892164], [-87.65026, 41.89242], [-87.63704, 41.892368], [-87.637419, 41.902837], [-87.636893, 41.902843]], "type": "LineString"}, "properties": {"timestamp": "2024-03-11T23:54:35"}}, {"type": "Feature", "geometry": {"coordinates": [[-87.636893, 41.902843], [-87.636893, 41.902843]], "type": "LineString"}, "properties": {"timestamp": "2024-03-12T00:08:38"}}, {"type": "Feature", "geometry": {"coordinates": [[-87.636893, 41.902843], [-87.637419, 41.902837], [-87.637466, 41.903798], [-87.639563, 41.903768], [-87.648257, 41.910013], [-87.649119, 41.935467], [-87.65295, 41.935378]], "type": "LineString"}, "properties": {"timestamp": "2024-03-12T00:08:38"}}, {"type": "Feature", "geometry": {"coordinates": [[-87.65295, 41.935378], [-87.653955, 41.935355], [-87.653863, 41.932636], [-87.649013, 41.932728], [-87.648495, 41.91731]], "type": "LineString"}, "properties": {"timestamp": "2024-03-12T00:27:42"}}, {"type": "Feature", "geometry": {"coordinates": [[-87.648495, 41.91731], [-87.648523, 41.918178], [-87.636131, 41.918472], [-87.632796, 41.913071], [-87.631046, 41.913236], [-87.628505, 41.912247], [-87.626932, 41.912316], [-87.62645, 41.912166], [-87.626204, 41.911491], [-87.624861, 41.904908], [-87.624179, 41.901978], [-87.624376, 41.895747], [-87.622402, 41.895768]], "type": "LineString"}, "properties": {"timestamp": "2024-03-12T00:27:42"}}, {"type": "Feature", "geometry": {"coordinates": [[-87.622402, 41.895768], [-87.620354, 41.895808], [-87.620283, 41.893412], [-87.637063, 41.893148], [-87.64596, 41.892522], [-87.65028, 41.892674], [-87.653268, 41.892622], [-87.658404, 41.896481], [-87.660896, 41.901399], [-87.66137, 41.906646], [-87.670146, 41.917654], [-87.709927, 41.940372], [-87.715306, 41.94215], [-87.719592, 41.947613], [-87.741635, 41.95982], [-87.746287, 41.963594], [-87.747426, 41.975724], [-87.74607, 41.976396], [-87.745776, 41.975364], [-87.713554, 41.975692]], "type": "LineString"}, "properties": {"timestamp": "2024-03-12T00:39:27"}}, {"type": "Feature", "geometry": {"coordinates": [[-87.713554, 41.975692], [-87.712908, 41.953809], [-87.678715, 41.954122], [-87.668729, 41.939809], [-87.663682, 41.936111], [-87.658837, 41.936197], [-87.658824, 41.935883]], "type": "LineString"}, "properties": {"timestamp": "2024-03-12T00:39:27"}}, {"type": "Feature", "geometry": {"coordinates": [[-87.658824, 41.935883], [-87.658974, 41.939838], [-87.639537, 41.940119], [-87.638088, 41.940568], [-87.639469, 41.942275], [-87.644437, 41.951086], [-87.644596, 41.954749], [-87.64588, 41.958653], [-87.64669, 41.964019], [-87.646428, 41.965774], [-87.648611, 41.965499], [-87.648701, 41.965847]], "type": "LineString"}, "properties": {"timestamp": "2024-03-13T13:02:01"}}]}