{"type": "FeatureCollection", "features": [{"type": "Feature", "geometry": {"coordinates": [[-87.690167, 41.833938], [-87.695427, 41.832287], [-87.698851, 41.831418], [-87.700566, 41.830863], [-87.704666, 41.829715], [-87.704642, 41.829034], [-87.699332, 41.830574], [-87.680385, 41.836711], [-87.66766, 41.83747], [-87.658964, 41.841885], [-87.642563, 41.846659], [-87.644555, 41.850742], [-87.645735, 41.885306], [-87.647638, 41.88874], [-87.651689, 41.891702], [-87.65868, 41.896836], [-87.66137, 41.906646], [-87.670146, 41.917654], [-87.709927, 41.940372], [-87.715306, 41.94215], [-87.719592, 41.947613], [-87.741635, 41.95982], [-87.746287, 41.963594], [-87.747426, 41.975724], [-87.74607, 41.976396], [-87.745776, 41.975364], [-87.747984, 41.975339], [-87.747854, 41.969853], [-87.758281, 41.969725], [-87.761242, 41.968432], [-87.761435, 41.968654], [-87.785931, 41.975661], [-87.795142, 41.97559], [-87.7952, 41.972843]], "type": "LineString"}, "properties": {}}, {"type": "Feature", "geometry": {"coordinates": [[-87.7952, 41.972843], [-87.795142, 41.97559], [-87.773327, 41.975671], [-87.765506, 41.971946], [-87.76013, 41.970136], [-87.73715, 41.957103], [-87.731304, 41.953617], [-87.676321, 41.954148], [-87.6764, 41.956747]], "type": "LineString"}, "properties": {}}, {"type": "Feature", "geometry": {"coordinates": [[-87.6764, 41.956747], [-87.676324, 41.954253], [-87.71933, 41.953825], [-87.729684, 41.960937], [-87.741062, 41.960809]], "type": "LineString"}, "properties": {}}, {"type": "Feature", "geometry": {"coordinates": [[-87.741062, 41.960809], [-87.729684, 41.960937], [-87.719156, 41.953712], [-87.686033, 41.954016], [-87.686052, 41.954591]], "type": "LineString"}, "properties": {}}, {"type": "Feature", "geometry": {"coordinates": [[-87.686052, 41.954591], [-87.686096, 41.955884], [-87.68488, 41.9559], [-87.684822, 41.954135], [-87.688469, 41.954086], [-87.687986, 41.932176], [-87.696547, 41.932116], [-87.669405, 41.916815], [-87.664752, 41.909975], [-87.661559, 41.906635], [-87.661131, 41.901587], [-87.659049, 41.896968], [-87.647794, 41.888636], [-87.646315, 41.886261], [-87.646015, 41.882928], [-87.646395, 41.880505], [-87.632331, 41.880685], [-87.632362, 41.881953]], "type": "LineString"}, "properties": {}}, {"type": "Feature", "geometry": {"coordinates": [[-87.632362, 41.881953], [-87.64573, 41.881801], [-87.646594, 41.887382], [-87.651689, 41.891702], [-87.65868, 41.896836], [-87.66137, 41.906646], [-87.670146, 41.917654], [-87.709927, 41.940372], [-87.715306, 41.94215], [-87.719592, 41.947613], [-87.741635, 41.95982], [-87.746287, 41.963594], [-87.747426, 41.975724], [-87.74607, 41.976396], [-87.745776, 41.975364], [-87.765782, 41.975122], [-87.766315, 41.975691], [-87.771273, 41.975715], [-87.784738, 41.982513], [-87.812691, 41.982443], [-87.826001, 41.984517], [-87.831845, 41.984836], [-87.836934, 41.984644], [-87.847951, 41.984101], [-87.869867, 41.98434], [-87.876278, 41.982187], [-87.879427, 41.989209], [-87.883479, 41.992283], [-87.88441, 41.994995], [-87.88578, 41.994797]], "type": "LineString"}, "properties": {}}, {"type": "Feature", "geometry": {"coordinates": [[-87.88578, 41.994797], [-87.885791, 41.993603], [-87.88461, 41.994874], [-87.883745, 41.992264], [-87.879243, 41.98845], [-87.879094, 41.980047], [-87.880655, 41.979344], [-87.871694, 41.98312], [-87.832611, 41.984418], [-87.812646, 41.982178], [-87.784997, 41.982303], [-87.76013, 41.970136], [-87.73715, 41.957103], [-87.731304, 41.953617], [-87.650527, 41.954553], [-87.64961, 41.95119], [-87.645309, 41.944139], [-87.643503, 41.944447]], "type": "LineString"}, "properties": {}}, {"type": "Feature", "geometry": {"coordinates": [[-87.643503, 41.944447], [-87.641287, 41.944825], [-87.644867, 41.951093], [-87.645235, 41.954634], [-87.644162, 41.954667], [-87.64588, 41.958653], [-87.648738, 41.973046], [-87.652251, 41.981039], [-87.65285, 41.985032], [-87.654178, 41.985586], [-87.662456, 41.985105], [-87.670217, 41.989895], [-87.67531, 41.992132], [-87.675425, 41.994982], [-87.683685, 42.014036], [-87.687532, 42.014079], [-87.687505, 42.017428]], "type": "LineString"}, "properties": {}}]}