{"type": "FeatureCollection", "features": [{"type": "Feature", "geometry": {"coordinates": [[-87.674682, 41.98969], [-87.674682, 41.98969]], "type": "LineString"}, "properties": {}}, {"type": "Feature", "geometry": {"coordinates": [[-87.674682, 41.98969], [-87.674411, 41.976102], [-87.66966, 41.976173], [-87.668473, 41.932963]], "type": "LineString"}, "properties": {}}, {"type": "Feature", "geometry": {"coordinates": [[-87.668473, 41.932963], [-87.668616, 41.921563], [-87.677255, 41.921395], [-87.671115, 41.918139], [-87.668499, 41.915851], [-87.664752, 41.909975], [-87.661559, 41.906635], [-87.661057, 41.901306], [-87.658834, 41.896667], [-87.6483, 41.889096], [-87.646108, 41.885119], [-87.646413, 41.883144], [-87.641266, 41.883178], [-87.639745, 41.883185], [-87.624233, 41.883257], [-87.624344, 41.884366], [-87.623414, 41.884372], [-87.617529, 41.884406], [-87.617418, 41.885524], [-87.616288, 41.885561], [-87.616289, 41.886523], [-87.618715, 41.88653]], "type": "LineString"}, "properties": {}}, {"type": "Feature", "geometry": {"coordinates": [[-87.618715, 41.88653], [-87.618715, 41.88653]], "type": "LineString"}, "properties": {}}, {"type": "Feature", "geometry": {"coordinates": [[-87.618715, 41.88653], [-87.619106, 41.886506], [-87.6191, 41.885527], [-87.617418, 41.885524], [-87.617389, 41.884538], [-87.624571, 41.884489], [-87.62435, 41.875724], [-87.651339, 41.875719], [-87.657603, 41.876197], [-87.688313, 41.875763], [-87.692409, 41.875862], [-87.701067, 41.875937], [-87.701479, 41.889426], [-87.701974, 41.891131], [-87.702431, 41.897899], [-87.702278, 41.902886], [-87.701605, 41.902888]], "type": "LineString"}, "properties": {}}, {"type": "Feature", "geometry": {"coordinates": [[-87.701605, 41.902888], [-87.666488, 41.903364], [-87.660843, 41.899711], [-87.658834, 41.896667], [-87.657114, 41.895018], [-87.655657, 41.89377], [-87.654831, 41.89226], [-87.653963, 41.891931], [-87.651034, 41.892554], [-87.63704, 41.892368], [-87.620263, 41.892588], [-87.620283, 41.893412], [-87.621935, 41.893376]], "type": "LineString"}, "properties": {}}]}