{"type": "FeatureCollection", "features": [{"type": "Feature", "geometry": {"coordinates": [[-87.700193, 42.037482], [-87.69924, 42.037503], [-87.699305, 42.033882], [-87.679383, 42.033944], [-87.678155, 42.027266], [-87.668578, 42.027161], [-87.666902, 42.025972], [-87.665412, 42.023099], [-87.66692, 42.022252], [-87.664892, 42.015441], [-87.662865, 42.011614], [-87.660929, 42.005557], [-87.660744, 42.00154]], "type": "LineString"}, "properties": {}}, {"type": "Feature", "geometry": {"coordinates": [[-87.660744, 42.00154], [-87.660696, 41.998531], [-87.66054, 41.998191], [-87.660424, 41.99456], [-87.670263, 41.994451], [-87.670133, 41.990797], [-87.674716, 41.990816], [-87.674682, 41.98969]], "type": "LineString"}, "properties": {}}, {"type": "Feature", "geometry": {"coordinates": [[-87.674682, 41.98969], [-87.674716, 41.990816], [-87.689674, 41.990567], [-87.690142, 42.02154], [-87.693016, 42.021482]], "type": "LineString"}, "properties": {}}, {"type": "Feature", "geometry": {"coordinates": [[-87.693016, 42.021482], [-87.690142, 42.02154], [-87.690179, 42.019532], [-87.676332, 42.01941], [-87.675457, 42.017327], [-87.675375, 42.016919]], "type": "LineString"}, "properties": {}}, {"type": "Feature", "geometry": {"coordinates": [[-87.675375, 42.016919], [-87.675204, 42.016061], [-87.683329, 42.012227], [-87.69024, 42.012287], [-87.688512, 41.955627], [-87.688245, 41.946744], [-87.705359, 41.94665], [-87.705281, 41.943085]], "type": "LineString"}, "properties": {}}, {"type": "Feature", "geometry": {"coordinates": [[-87.705281, 41.943085], [-87.705182, 41.939366], [-87.707429, 41.939321], [-87.709692, 41.939347], [-87.712487, 41.939288], [-87.712582, 41.942239], [-87.714433, 41.942252], [-87.715133, 41.942609], [-87.715459, 41.942862]], "type": "LineString"}, "properties": {}}, {"type": "Feature", "geometry": {"coordinates": [[-87.715459, 41.942862], [-87.712582, 41.942239], [-87.712526, 41.940478], [-87.709442, 41.939977], [-87.669746, 41.917124], [-87.664752, 41.909975], [-87.661559, 41.906635], [-87.661057, 41.901306], [-87.658834, 41.896667], [-87.647099, 41.887778], [-87.646219, 41.885929], [-87.645999, 41.881827], [-87.646134, 41.880956], [-87.64632, 41.87924], [-87.659482, 41.879012], [-87.659428, 41.877086], [-87.658795, 41.877097], [-87.65908, 41.876989]], "type": "LineString"}, "properties": {}}, {"type": "Feature", "geometry": {"coordinates": [[-87.65908, 41.876989], [-87.658795, 41.877097], [-87.659428, 41.877086], [-87.659482, 41.879012], [-87.666662, 41.878892], [-87.666835, 41.884777], [-87.667339, 41.899713], [-87.669849, 41.899669], [-87.669869, 41.900367]], "type": "LineString"}, "properties": {}}, {"type": "Feature", "geometry": {"coordinates": [[-87.669869, 41.900367], [-87.669849, 41.899669], [-87.660982, 41.899842], [-87.660843, 41.899711], [-87.658834, 41.896667], [-87.657114, 41.895018], [-87.655657, 41.89377], [-87.654831, 41.89226], [-87.653963, 41.891931], [-87.651034, 41.892554], [-87.631145, 41.892439], [-87.631109, 41.890814], [-87.61158, 41.891141], [-87.611597, 41.891968], [-87.612627, 41.891945]], "type": "LineString"}, "properties": {}}, {"type": "Feature", "geometry": {"coordinates": [[-87.612627, 41.891945], [-87.628071, 41.891667], [-87.628109, 41.893025]], "type": "LineString"}, "properties": {}}, {"type": "Feature", "geometry": {"coordinates": [[-87.628109, 41.893025], [-87.628071, 41.891667], [-87.639878, 41.891506], [-87.643004, 41.891239], [-87.644384, 41.891225], [-87.644184, 41.884425], [-87.646033, 41.884406]], "type": "LineString"}, "properties": {}}, {"type": "Feature", "geometry": {"coordinates": [[-87.646033, 41.884406], [-87.647438, 41.884415], [-87.647482, 41.885665], [-87.646258, 41.885682], [-87.645922, 41.884746], [-87.645999, 41.881827], [-87.646134, 41.880956], [-87.646145, 41.879569], [-87.646166, 41.878121], [-87.646815, 41.876334], [-87.647774, 41.87588], [-87.649135, 41.875728], [-87.657603, 41.876197], [-87.688313, 41.875763], [-87.692409, 41.875862], [-87.696151, 41.875983], [-87.696261, 41.880169], [-87.695733, 41.880173]], "type": "LineString"}, "properties": {}}, {"type": "Feature", "geometry": {"coordinates": [[-87.695733, 41.880173], [-87.696261, 41.880169], [-87.696127, 41.874902], [-87.695509, 41.874908], [-87.690201, 41.875125], [-87.650308, 41.875329], [-87.647601, 41.875302], [-87.645452, 41.874563], [-87.644482, 41.875077], [-87.64458, 41.876036], [-87.64558, 41.877925], [-87.645685, 41.885013], [-87.646457, 41.887151], [-87.64861, 41.889615], [-87.658396, 41.896733], [-87.66062, 41.90111], [-87.66087, 41.905872], [-87.662226, 41.907951], [-87.664445, 41.910674], [-87.648286, 41.910927], [-87.648495, 41.91731]], "type": "LineString"}, "properties": {}}, {"type": "Feature", "geometry": {"coordinates": [[-87.648495, 41.91731], [-87.649275, 41.939973], [-87.64439, 41.940035], [-87.644494, 41.942773], [-87.648486, 41.942723]], "type": "LineString"}, "properties": {}}, {"type": "Feature", "geometry": {"coordinates": [[-87.648486, 41.942723], [-87.649356, 41.942712], [-87.649119, 41.935467], [-87.65295, 41.935378]], "type": "LineString"}, "properties": {}}, {"type": "Feature", "geometry": {"coordinates": [[-87.65295, 41.935378], [-87.661231, 41.935239], [-87.661195, 41.934332], [-87.666043, 41.934262], [-87.66601, 41.933349], [-87.668485, 41.933309], [-87.668473, 41.932963]], "type": "LineString"}, "properties": {}}, {"type": "Feature", "geometry": {"coordinates": [[-87.668473, 41.932963], [-87.668452, 41.9324], [-87.63931, 41.932914], [-87.636987, 41.930951], [-87.633621, 41.925745], [-87.631853, 41.926001], [-87.630603, 41.923776], [-87.628851, 41.917816], [-87.626142, 41.912297], [-87.62586, 41.909073], [-87.624861, 41.904908], [-87.624179, 41.901978], [-87.624224, 41.899218], [-87.621322, 41.899255]], "type": "LineString"}, "properties": {}}, {"type": "Feature", "geometry": {"coordinates": [[-87.621322, 41.899255], [-87.620228, 41.899272], [-87.620216, 41.898442], [-87.624206, 41.898386], [-87.624388, 41.896443], [-87.624316, 41.893335], [-87.629681, 41.893255], [-87.629727, 41.894584]], "type": "LineString"}, "properties": {}}, {"type": "Feature", "geometry": {"coordinates": [[-87.629727, 41.894584], [-87.629839, 41.899126], [-87.62406, 41.899218], [-87.624042, 41.900824], [-87.623664, 41.902709], [-87.62589, 41.912141], [-87.628743, 41.918036], [-87.631851, 41.928415], [-87.632152, 41.934381], [-87.633661, 41.936704], [-87.63676, 41.939073], [-87.638088, 41.940568], [-87.639537, 41.940119], [-87.673369, 41.939644]], "type": "LineString"}, "properties": {}}, {"type": "Feature", "geometry": {"coordinates": [[-87.673369, 41.939644], [-87.673369, 41.939644]], "type": "LineString"}, "properties": {}}, {"type": "Feature", "geometry": {"coordinates": [[-87.673369, 41.939644], [-87.673369, 41.939644]], "type": "LineString"}, "properties": {}}, {"type": "Feature", "geometry": {"coordinates": [[-87.673369, 41.939644], [-87.663815, 41.939759], [-87.663758, 41.938211]], "type": "LineString"}, "properties": {}}, {"type": "Feature", "geometry": {"coordinates": [[-87.663758, 41.938211], [-87.663649, 41.93521], [-87.668549, 41.935144], [-87.668616, 41.921563], [-87.677255, 41.921395], [-87.668918, 41.916326], [-87.661559, 41.906635], [-87.658834, 41.896667], [-87.646614, 41.886973], [-87.644538, 41.861936], [-87.645911, 41.852672], [-87.632031, 41.852788], [-87.632001, 41.851747]], "type": "LineString"}, "properties": {}}, {"type": "Feature", "geometry": {"coordinates": [[-87.632001, 41.851747], [-87.632031, 41.852788], [-87.627091, 41.85282], [-87.626975, 41.846782], [-87.626258, 41.84692], [-87.616851, 41.847976], [-87.613392, 41.848153], [-87.612168, 41.84938], [-87.619244, 41.8661], [-87.617003, 41.869799], [-87.617167, 41.881825], [-87.613645, 41.884762], [-87.614041, 41.892878], [-87.619441, 41.900921], [-87.624048, 41.902893], [-87.631799, 41.928213], [-87.632273, 41.934701], [-87.638962, 41.941399], [-87.644572, 41.952992], [-87.644162, 41.954667], [-87.645235, 41.954634], [-87.644996, 41.953061], [-87.650165, 41.952741]], "type": "LineString"}, "properties": {}}]}