{"type": "FeatureCollection", "features": [{"type": "Feature", "geometry": {"coordinates": [[-87.684471, 41.920667], [-87.683659, 41.920683], [-87.683684, 41.921904], [-87.684684, 41.921892], [-87.684702, 41.922659], [-87.687572, 41.92262], [-87.687645, 41.924902], [-87.733273, 41.924417]], "type": "LineString"}, "properties": {}}, {"type": "Feature", "geometry": {"coordinates": [[-87.733273, 41.924417], [-87.736573, 41.924377], [-87.737024, 41.938973], [-87.743881, 41.938879], [-87.743909, 41.939556]], "type": "LineString"}, "properties": {}}, {"type": "Feature", "geometry": {"coordinates": [[-87.743909, 41.939556], [-87.744004, 41.942524], [-87.743881, 41.942526], [-87.743983, 41.946162], [-87.71959, 41.946484], [-87.718156, 41.944989], [-87.715518, 41.942115], [-87.710267, 41.940414], [-87.687291, 41.927358], [-87.683686, 41.924962], [-87.648766, 41.925453], [-87.646788, 41.924054]], "type": "LineString"}, "properties": {}}, {"type": "Feature", "geometry": {"coordinates": [[-87.646788, 41.924054], [-87.648766, 41.925453], [-87.647269, 41.925477], [-87.647263, 41.925402], [-87.646985, 41.925188]], "type": "LineString"}, "properties": {}}, {"type": "Feature", "geometry": {"coordinates": [[-87.646985, 41.925188], [-87.647269, 41.925477], [-87.648766, 41.925453], [-87.663682, 41.936111], [-87.663758, 41.938211]], "type": "LineString"}, "properties": {}}, {"type": "Feature", "geometry": {"coordinates": [[-87.663758, 41.938211], [-87.663815, 41.939759], [-87.673369, 41.939644]], "type": "LineString"}, "properties": {}}, {"type": "Feature", "geometry": {"coordinates": [[-87.673369, 41.939644], [-87.688141, 41.939467], [-87.687207, 41.910324], [-87.701875, 41.910165], [-87.70125, 41.907241], [-87.702278, 41.902886], [-87.733686, 41.902557], [-87.733699, 41.903012], [-87.733404, 41.903016]], "type": "LineString"}, "properties": {}}, {"type": "Feature", "geometry": {"coordinates": [[-87.733404, 41.903016], [-87.733404, 41.903016]], "type": "LineString"}, "properties": {}}, {"type": "Feature", "geometry": {"coordinates": [[-87.733404, 41.903016], [-87.731223, 41.903046], [-87.731211, 41.902599], [-87.717777, 41.902754], [-87.712727, 41.900725], [-87.711889, 41.900057], [-87.711243, 41.900143], [-87.702222, 41.896575], [-87.701974, 41.891131], [-87.701479, 41.889426], [-87.701237, 41.881942], [-87.696313, 41.881992], [-87.696261, 41.880169], [-87.695733, 41.880173]], "type": "LineString"}, "properties": {}}, {"type": "Feature", "geometry": {"coordinates": [[-87.695733, 41.880173], [-87.696261, 41.880169], [-87.696151, 41.875983], [-87.701496, 41.875935], [-87.703443, 41.87509], [-87.707254, 41.874433], [-87.716326, 41.874195], [-87.719239, 41.874474], [-87.725442, 41.874358], [-87.72475, 41.851087], [-87.73165, 41.848648]], "type": "LineString"}, "properties": {}}, {"type": "Feature", "geometry": {"coordinates": [[-87.73165, 41.848648], [-87.734395, 41.847679], [-87.735214, 41.872889], [-87.731862, 41.873657], [-87.708909, 41.873948], [-87.697594, 41.875189], [-87.650308, 41.875329], [-87.647601, 41.875302], [-87.645452, 41.874563], [-87.644482, 41.875077], [-87.64458, 41.876036], [-87.645275, 41.880374], [-87.645355, 41.881847], [-87.645393, 41.882198], [-87.64591, 41.885931], [-87.647404, 41.888483], [-87.657675, 41.89596], [-87.660194, 41.900116], [-87.660665, 41.90345], [-87.658338, 41.903492], [-87.660908, 41.908679]], "type": "LineString"}, "properties": {}}, {"type": "Feature", "geometry": {"coordinates": [[-87.660908, 41.908679], [-87.659943, 41.907139], [-87.659389, 41.904542], [-87.657866, 41.903014], [-87.6567, 41.901311], [-87.656554, 41.896984], [-87.660982, 41.899842], [-87.66251, 41.899796], [-87.662504, 41.899631]], "type": "LineString"}, "properties": {}}, {"type": "Feature", "geometry": {"coordinates": [[-87.662504, 41.899631], [-87.66251, 41.899796], [-87.660982, 41.899842], [-87.660843, 41.899711], [-87.658834, 41.896667], [-87.657114, 41.895018], [-87.655657, 41.89377], [-87.654831, 41.89226], [-87.653963, 41.891931], [-87.651034, 41.892554], [-87.648079, 41.892372], [-87.624121, 41.892541], [-87.624197, 41.895748], [-87.622402, 41.895768]], "type": "LineString"}, "properties": {}}, {"type": "Feature", "geometry": {"coordinates": [[-87.622402, 41.895768], [-87.620354, 41.895808], [-87.620329, 41.89501], [-87.623046, 41.894971]], "type": "LineString"}, "properties": {}}, {"type": "Feature", "geometry": {"coordinates": [[-87.623046, 41.894971], [-87.624357, 41.894946], [-87.624211, 41.889927], [-87.624581, 41.88832], [-87.625491, 41.888239], [-87.627041, 41.886971], [-87.631015, 41.886949], [-87.630715, 41.875701], [-87.651339, 41.875719], [-87.657603, 41.876197], [-87.688313, 41.875763], [-87.692409, 41.875862], [-87.698604, 41.87596], [-87.698638, 41.877405], [-87.69832, 41.877408]], "type": "LineString"}, "properties": {}}, {"type": "Feature", "geometry": {"coordinates": [[-87.69832, 41.877408], [-87.696189, 41.877434], [-87.696127, 41.874902], [-87.695509, 41.874908], [-87.690201, 41.875125], [-87.659837, 41.87561], [-87.650308, 41.875329], [-87.647601, 41.875302], [-87.645452, 41.874563], [-87.644482, 41.875077], [-87.64458, 41.876036], [-87.64558, 41.877925], [-87.645654, 41.884644], [-87.646015, 41.886212], [-87.647638, 41.88874], [-87.650048, 41.890597], [-87.651108, 41.891699], [-87.650896, 41.892164], [-87.65026, 41.89242], [-87.62966, 41.892457], [-87.62986, 41.899859], [-87.630601, 41.899807]], "type": "LineString"}, "properties": {}}, {"type": "Feature", "geometry": {"coordinates": [[-87.630601, 41.899807], [-87.631337, 41.899794], [-87.631382, 41.901459]], "type": "LineString"}, "properties": {}}, {"type": "Feature", "geometry": {"coordinates": [[-87.631382, 41.901459], [-87.631243, 41.896633], [-87.662395, 41.896146], [-87.662352, 41.894339], [-87.663988, 41.894312], [-87.664011, 41.895209], [-87.662558, 41.895231]], "type": "LineString"}, "properties": {}}, {"type": "Feature", "geometry": {"coordinates": [[-87.662558, 41.895231], [-87.662372, 41.895233], [-87.662524, 41.900824], [-87.667446, 41.903976], [-87.66782, 41.916129], [-87.663815, 41.917067], [-87.66003, 41.917114], [-87.660585, 41.917518], [-87.65947, 41.918398], [-87.65956, 41.921659], [-87.659737, 41.921657]], "type": "LineString"}, "properties": {}}, {"type": "Feature", "geometry": {"coordinates": [[-87.659737, 41.921657], [-87.65834, 41.921676], [-87.658378, 41.917139], [-87.663815, 41.917067], [-87.666413, 41.916455], [-87.66216, 41.910715], [-87.665662, 41.910672], [-87.665325, 41.910236], [-87.661559, 41.906635], [-87.661057, 41.901306], [-87.658563, 41.896333], [-87.647099, 41.887778], [-87.646219, 41.885929], [-87.645999, 41.881827], [-87.646134, 41.880956], [-87.646145, 41.879569], [-87.646166, 41.878121], [-87.646107, 41.877218], [-87.646733, 41.875649], [-87.646076, 41.875057], [-87.635788, 41.875572], [-87.634246, 41.875312], [-87.634438, 41.874721], [-87.635124, 41.874834], [-87.635957, 41.875828], [-87.636629, 41.876812], [-87.636803, 41.876812]], "type": "LineString"}, "properties": {}}]}