{"type": "FeatureCollection", "features": [{"type": "Feature", "geometry": {"coordinates": [[-87.758399, 41.968431], [-87.757622, 41.967875], [-87.747723, 41.968033], [-87.747918, 41.972896], [-87.747761, 41.972794], [-87.747223, 41.966563], [-87.745961, 41.963113], [-87.742125, 41.960129], [-87.719592, 41.947613], [-87.715306, 41.94215], [-87.710219, 41.940524], [-87.698173, 41.933659], [-87.687291, 41.927358], [-87.684125, 41.925223], [-87.687645, 41.924902], [-87.687413, 41.917587], [-87.705789, 41.917413]], "type": "LineString"}, "properties": {}}, {"type": "Feature", "geometry": {"coordinates": [[-87.705789, 41.917413], [-87.703944, 41.917431], [-87.703892, 41.915416]], "type": "LineString"}, "properties": {}}, {"type": "Feature", "geometry": {"coordinates": [[-87.703892, 41.915416], [-87.703857, 41.913751], [-87.70233, 41.913772], [-87.702283, 41.912], [-87.701932, 41.912147], [-87.701837, 41.909559], [-87.701353, 41.908237], [-87.701248, 41.907279], [-87.702278, 41.902886], [-87.701605, 41.902888]], "type": "LineString"}, "properties": {}}, {"type": "Feature", "geometry": {"coordinates": [[-87.701605, 41.902888], [-87.702278, 41.902886], [-87.702461, 41.899238], [-87.702222, 41.896575], [-87.687437, 41.890657], [-87.65893, 41.891061], [-87.658694, 41.891345]], "type": "LineString"}, "properties": {}}, {"type": "Feature", "geometry": {"coordinates": [[-87.658694, 41.891345], [-87.658299, 41.891822], [-87.657392, 41.891837], [-87.657374, 41.891076], [-87.659133, 41.891059], [-87.661195, 41.888289], [-87.663487, 41.883985], [-87.666846, 41.880792], [-87.666742, 41.876354], [-87.669892, 41.876309], [-87.672211, 41.875914], [-87.697949, 41.875633], [-87.708052, 41.874348], [-87.716326, 41.874195], [-87.720405, 41.874448], [-87.720159, 41.868047], [-87.722791, 41.868023], [-87.722764, 41.867116], [-87.722576, 41.867118]], "type": "LineString"}, "properties": {}}, {"type": "Feature", "geometry": {"coordinates": [[-87.722576, 41.867118], [-87.720128, 41.867146], [-87.720097, 41.866237], [-87.725178, 41.866176], [-87.726563, 41.91717], [-87.732665, 41.917096], [-87.732832, 41.922586], [-87.731192, 41.922606]], "type": "LineString"}, "properties": {}}]}