{"type": "FeatureCollection", "features": [{"type": "Feature", "geometry": {"coordinates": [[-87.797058, 41.923215], [-87.79707, 41.923585], [-87.806251, 41.924003], [-87.804598, 41.873618], [-87.769061, 41.87064], [-87.739969, 41.871594], [-87.732676, 41.873637], [-87.708909, 41.873948], [-87.697594, 41.875189], [-87.662068, 41.875578], [-87.656893, 41.875346], [-87.657142, 41.881621], [-87.65507, 41.881656]], "type": "LineString"}, "properties": {}}, {"type": "Feature", "geometry": {"coordinates": [[-87.65507, 41.881656], [-87.64573, 41.881801], [-87.645685, 41.885013], [-87.646327, 41.886906], [-87.647638, 41.88874], [-87.650048, 41.890597], [-87.651108, 41.891699], [-87.650896, 41.892164], [-87.65026, 41.89242], [-87.62966, 41.892457], [-87.62986, 41.899859], [-87.630601, 41.899807]], "type": "LineString"}, "properties": {}}, {"type": "Feature", "geometry": {"coordinates": [[-87.630601, 41.899807], [-87.631337, 41.899794], [-87.630743, 41.876886], [-87.632165, 41.87687]], "type": "LineString"}, "properties": {}}, {"type": "Feature", "geometry": {"coordinates": [[-87.632165, 41.87687], [-87.633707, 41.876853], [-87.633684, 41.87567], [-87.641651, 41.875644], [-87.646562, 41.876207], [-87.645662, 41.872433], [-87.645091, 41.850828], [-87.642257, 41.847292], [-87.634652, 41.845323], [-87.63091, 41.84209], [-87.631207, 41.779686], [-87.626113, 41.772231], [-87.624621, 41.72052], [-87.621065, 41.713653], [-87.600337, 41.713191], [-87.592948, 41.708673], [-87.592406, 41.703483], [-87.601798, 41.685512], [-87.601728, 41.676933], [-87.589096, 41.660202], [-87.59119, 41.659512], [-87.560717, 41.658851], [-87.555878, 41.656176], [-87.555649, 41.65737], [-87.553811, 41.65736], [-87.553812, 41.656889]], "type": "LineString"}, "properties": {}}, {"type": "Feature", "geometry": {"coordinates": [[-87.553812, 41.656889], [-87.553811, 41.65736], [-87.557102, 41.657281], [-87.585314, 41.660149], [-87.590822, 41.662478], [-87.601403, 41.675885], [-87.601563, 41.685726], [-87.594329, 41.69908], [-87.591535, 41.705863], [-87.595707, 41.711823], [-87.618809, 41.713575], [-87.62372, 41.717096], [-87.625651, 41.769497], [-87.630747, 41.779495], [-87.630667, 41.838631], [-87.63193, 41.844225], [-87.642036, 41.847354], [-87.644778, 41.850632], [-87.644517, 41.867845], [-87.644628, 41.873521], [-87.649223, 41.875863], [-87.662425, 41.876121], [-87.666742, 41.876354], [-87.666531, 41.869262], [-87.670488, 41.8692]], "type": "LineString"}, "properties": {}}, {"type": "Feature", "geometry": {"coordinates": [[-87.670488, 41.8692], [-87.666399, 41.869264], [-87.666563, 41.875179], [-87.666292, 41.875183], [-87.662662, 41.87557], [-87.6605, 41.875604], [-87.651569, 41.875318], [-87.641908, 41.875475], [-87.639814, 41.875364], [-87.639737, 41.874406], [-87.640993, 41.874394], [-87.640908, 41.872009], [-87.642146, 41.871994]], "type": "LineString"}, "properties": {}}, {"type": "Feature", "geometry": {"coordinates": [[-87.642146, 41.871994], [-87.642356, 41.871991], [-87.642602, 41.880541], [-87.639693, 41.880598], [-87.639706, 41.881889], [-87.640505, 41.881877]], "type": "LineString"}, "properties": {}}, {"type": "Feature", "geometry": {"coordinates": [[-87.640505, 41.881877], [-87.641227, 41.88187], [-87.641048, 41.876757], [-87.639817, 41.876769], [-87.639823, 41.875803], [-87.641365, 41.875647], [-87.651991, 41.875736], [-87.657603, 41.876197], [-87.688313, 41.875763], [-87.692409, 41.875862], [-87.696151, 41.875983], [-87.696261, 41.880169], [-87.695733, 41.880173]], "type": "LineString"}, "properties": {}}, {"type": "Feature", "geometry": {"coordinates": [[-87.695733, 41.880173], [-87.696261, 41.880169], [-87.696286, 41.881077], [-87.678236, 41.88126]], "type": "LineString"}, "properties": {}}, {"type": "Feature", "geometry": {"coordinates": [[-87.678236, 41.88126], [-87.666061, 41.881475], [-87.663241, 41.884284], [-87.661497, 41.887468], [-87.660807, 41.887479], [-87.660811, 41.887664], [-87.652203, 41.887755], [-87.652212, 41.888087]], "type": "LineString"}, "properties": {}}, {"type": "Feature", "geometry": {"coordinates": [[-87.652212, 41.888087], [-87.652288, 41.891135], [-87.643004, 41.891239], [-87.640016, 41.891501], [-87.637019, 41.891543], [-87.63704, 41.892368], [-87.624293, 41.892538], [-87.624246, 41.890945], [-87.621986, 41.890981], [-87.621861, 41.890848], [-87.62164, 41.890945], [-87.621785, 41.891098], [-87.621986, 41.890981], [-87.624074, 41.890948], [-87.624094, 41.891505]], "type": "LineString"}, "properties": {}}, {"type": "Feature", "geometry": {"coordinates": [[-87.624094, 41.891505], [-87.624094, 41.891505]], "type": "LineString"}, "properties": {}}, {"type": "Feature", "geometry": {"coordinates": [[-87.624094, 41.891505], [-87.62414, 41.893338], [-87.637063, 41.893148], [-87.64596, 41.892522], [-87.65028, 41.892674], [-87.653268, 41.892622], [-87.658404, 41.896481], [-87.660896, 41.901399], [-87.66137, 41.906646], [-87.670146, 41.917654], [-87.709927, 41.940372], [-87.715306, 41.94215], [-87.719592, 41.947613], [-87.741635, 41.95982], [-87.746287, 41.963594], [-87.747426, 41.975724], [-87.74607, 41.976396], [-87.745776, 41.975364], [-87.747984, 41.975339], [-87.746476, 41.928818], [-87.753872, 41.92871], [-87.75388, 41.928954]], "type": "LineString"}, "properties": {}}, {"type": "Feature", "geometry": {"coordinates": [[-87.75388, 41.928954], [-87.753962, 41.93144], [-87.746595, 41.931542], [-87.747303, 41.953418], [-87.668983, 41.954306], [-87.669751, 41.983483], [-87.666707, 41.983528]], "type": "LineString"}, "properties": {}}, {"type": "Feature", "geometry": {"coordinates": [[-87.666707, 41.983528], [-87.668766, 41.983497], [-87.669576, 41.986751], [-87.670543, 41.998086], [-87.67684, 41.99796], [-87.683076, 42.012318], [-87.687558, 42.012258], [-87.687554, 42.012506]], "type": "LineString"}, "properties": {}}, {"type": "Feature", "geometry": {"coordinates": [[-87.687554, 42.012506], [-87.687532, 42.014079], [-87.690224, 42.014108], [-87.690179, 42.019532], [-87.693315, 42.019466], [-87.693294, 42.018709], [-87.69342, 42.018577]], "type": "LineString"}, "properties": {}}, {"type": "Feature", "geometry": {"coordinates": [[-87.69342, 42.018577], [-87.693315, 42.019466], [-87.759649, 42.019116], [-87.763778, 41.997387], [-87.787876, 41.997348], [-87.787492, 41.996914], [-87.787729, 41.982911], [-87.788189, 41.982907], [-87.812691, 41.982443], [-87.826001, 41.984517], [-87.831845, 41.984836], [-87.836934, 41.984644], [-87.847951, 41.984101], [-87.870702, 41.984234], [-87.88909, 41.977158], [-87.89633, 41.98194], [-87.898668, 41.982141], [-87.901973, 41.98214], [-87.905437, 41.980223]], "type": "LineString"}, "properties": {}}, {"type": "Feature", "geometry": {"coordinates": [[-87.905437, 41.980223], [-87.905773, 41.977612], [-87.903208, 41.976386], [-87.900684, 41.977631], [-87.899295, 41.978448], [-87.89916, 41.979952], [-87.899058, 41.980575], [-87.898329, 41.981567], [-87.896297, 41.981395], [-87.891496, 41.977441], [-87.888978, 41.976922], [-87.887624, 41.977225], [-87.873549, 41.982843], [-87.87109, 41.983159], [-87.861058, 41.983359], [-87.859773, 41.982945], [-87.859669, 41.982442], [-87.86007, 41.982034], [-87.860907, 41.982002], [-87.861387, 41.982526], [-87.859825, 41.991074], [-87.861116, 41.991658]], "type": "LineString"}, "properties": {}}, {"type": "Feature", "geometry": {"coordinates": [[-87.861116, 41.991658], [-87.873269, 41.995318], [-87.87715, 41.998283], [-87.88368, 42.000893], [-87.897827, 42.007282], [-87.926872, 42.015111], [-87.931399, 42.016528], [-87.937712, 42.018011], [-87.939213, 42.018853], [-87.940253, 42.019667], [-87.940455, 42.022728], [-87.942092, 42.0227], [-87.942155, 42.023799], [-87.942588, 42.023795]], "type": "LineString"}, "properties": {}}, {"type": "Feature", "geometry": {"coordinates": [[-87.942588, 42.023795], [-87.942155, 42.023799], [-87.942148, 42.022937], [-87.9421, 42.022898], [-87.942092, 42.0227], [-87.948353, 42.022606]], "type": "LineString"}, "properties": {}}, {"type": "Feature", "geometry": {"coordinates": [[-87.948353, 42.022606], [-87.940455, 42.022728], [-87.940142, 42.017539], [-87.897565, 42.006916], [-87.87696, 41.997457], [-87.864082, 41.988327], [-87.850425, 41.983769], [-87.829807, 41.984449], [-87.812646, 41.982178], [-87.792871, 41.982345], [-87.788361, 41.982061], [-87.787747, 41.982061], [-87.787729, 41.982911], [-87.782263, 41.982899], [-87.769268, 41.975674], [-87.767734, 41.975683], [-87.766808, 41.974625], [-87.751811, 41.975287], [-87.747761, 41.972794], [-87.747223, 41.966563], [-87.745961, 41.963113], [-87.742125, 41.960129], [-87.719592, 41.947613], [-87.715306, 41.94215], [-87.698173, 41.933659], [-87.687291, 41.927358], [-87.683686, 41.924962], [-87.66815, 41.925151], [-87.668327, 41.932402], [-87.658713, 41.932557], [-87.658824, 41.935883]], "type": "LineString"}, "properties": {}}, {"type": "Feature", "geometry": {"coordinates": [[-87.658824, 41.935883], [-87.658915, 41.938025], [-87.663749, 41.937953], [-87.663758, 41.938211]], "type": "LineString"}, "properties": {}}, {"type": "Feature", "geometry": {"coordinates": [[-87.663758, 41.938211], [-87.663649, 41.93521], [-87.668549, 41.935144], [-87.668616, 41.921563], [-87.677255, 41.921395], [-87.668918, 41.916326], [-87.661559, 41.906635], [-87.658834, 41.896667], [-87.646614, 41.886973], [-87.64461, 41.864445], [-87.645245, 41.851247], [-87.642429, 41.847384], [-87.634652, 41.845323], [-87.631597, 41.842703], [-87.631069, 41.830548], [-87.631351, 41.823664], [-87.621597, 41.823783], [-87.621608, 41.824244]], "type": "LineString"}, "properties": {}}, {"type": "Feature", "geometry": {"coordinates": [[-87.621608, 41.824244], [-87.621754, 41.831064], [-87.629817, 41.830961], [-87.629831, 41.831311], [-87.630393, 41.837743], [-87.631347, 41.844144], [-87.642036, 41.847354], [-87.644829, 41.85074], [-87.644517, 41.867845], [-87.644628, 41.873521], [-87.645646, 41.875725], [-87.649223, 41.875863], [-87.697949, 41.875633], [-87.70915, 41.874284], [-87.732948, 41.873967], [-87.740374, 41.87187], [-87.766962, 41.871028], [-87.774317, 41.871119], [-87.775538, 41.909259], [-87.781715, 41.909186], [-87.781778, 41.911009], [-87.782134, 41.911003]], "type": "LineString"}, "properties": {}}]}