{"type": "FeatureCollection", "features": [{"type": "Feature", "geometry": {"coordinates": [[-87.733273, 41.924417], [-87.63436, 41.925687], [-87.63067, 41.926223], [-87.631851, 41.928415], [-87.632612, 41.935386], [-87.638833, 41.941219], [-87.644376, 41.950931], [-87.646094, 41.960253], [-87.645534, 41.962086], [-87.639779, 41.962798], [-87.638571, 41.963606]], "type": "LineString"}, "properties": {}}, {"type": "Feature", "geometry": {"coordinates": [[-87.638571, 41.963606], [-87.639836, 41.962786], [-87.646878, 41.961908], [-87.644905, 41.955203], [-87.644611, 41.950978], [-87.639566, 41.942042], [-87.638796, 41.940268], [-87.639537, 41.940119], [-87.63931, 41.932914], [-87.655177, 41.932615], [-87.655116, 41.93032]], "type": "LineString"}, "properties": {}}, {"type": "Feature", "geometry": {"coordinates": [[-87.655116, 41.93032], [-87.655177, 41.932615], [-87.649013, 41.932728], [-87.649434, 41.945447], [-87.647954, 41.945444], [-87.647654, 41.944563]], "type": "LineString"}, "properties": {}}, {"type": "Feature", "geometry": {"coordinates": [[-87.647654, 41.944563], [-87.647348, 41.943663], [-87.653588, 41.94357], [-87.656521, 41.947205], [-87.66644, 41.947045], [-87.666475, 41.948859], [-87.667351, 41.948845]], "type": "LineString"}, "properties": {}}, {"type": "Feature", "geometry": {"coordinates": [[-87.667351, 41.948845], [-87.66897, 41.94882], [-87.668122, 41.924216], [-87.668616, 41.921563], [-87.677255, 41.921395], [-87.671115, 41.918139], [-87.668247, 41.915543], [-87.664752, 41.909975], [-87.661559, 41.906635], [-87.661131, 41.901587], [-87.659049, 41.896968], [-87.647531, 41.888343], [-87.646219, 41.885929], [-87.645999, 41.881827], [-87.646134, 41.880956], [-87.646145, 41.879569], [-87.646166, 41.878121], [-87.646815, 41.876334], [-87.649135, 41.875728], [-87.657603, 41.876197], [-87.688313, 41.875763], [-87.692409, 41.875862], [-87.696151, 41.875983], [-87.696189, 41.877434], [-87.693785, 41.877461], [-87.693796, 41.878371], [-87.696046, 41.878346]], "type": "LineString"}, "properties": {}}, {"type": "Feature", "geometry": {"coordinates": [[-87.696046, 41.878346], [-87.696214, 41.878344], [-87.696189, 41.877434], [-87.69832, 41.877408]], "type": "LineString"}, "properties": {}}, {"type": "Feature", "geometry": {"coordinates": [[-87.69832, 41.877408], [-87.696189, 41.877434], [-87.696286, 41.881077], [-87.686432, 41.881166], [-87.687018, 41.903025], [-87.684574, 41.90306], [-87.684636, 41.90489], [-87.684023, 41.904903]], "type": "LineString"}, "properties": {}}, {"type": "Feature", "geometry": {"coordinates": [[-87.684023, 41.904903], [-87.684636, 41.90489], [-87.684574, 41.90306], [-87.687018, 41.903025], [-87.686835, 41.89575], [-87.701213, 41.895606]], "type": "LineString"}, "properties": {}}, {"type": "Feature", "geometry": {"coordinates": [[-87.701213, 41.895606], [-87.702191, 41.895594], [-87.701067, 41.875937], [-87.701496, 41.875935], [-87.708542, 41.874316], [-87.733365, 41.873929], [-87.740938, 41.87185], [-87.771005, 41.871077], [-87.810299, 41.874235], [-87.832523, 41.871501], [-87.887193, 41.869778], [-87.903102, 41.873868], [-87.9125, 41.871836], [-87.916191, 41.870454], [-87.917496, 41.868063], [-87.919005, 41.864298], [-87.923112, 41.862205], [-87.955691, 41.861139], [-87.959249, 41.863209], [-87.960919, 41.867701], [-87.961825, 41.889385], [-87.961551, 41.890223], [-88.00339, 41.890661], [-88.019726, 41.885897]], "type": "LineString"}, "properties": {}}, {"type": "Feature", "geometry": {"coordinates": [[-88.019726, 41.885897], [-88.018373, 41.886324], [-88.017396, 41.860083], [-87.923499, 41.861767], [-87.911351, 41.872171], [-87.901684, 41.873316], [-87.888177, 41.869444], [-87.882376, 41.869576], [-87.810791, 41.874042], [-87.769061, 41.87064], [-87.69832, 41.875168], [-87.650308, 41.875329], [-87.64458, 41.876036], [-87.645275, 41.880374], [-87.645355, 41.881847], [-87.645393, 41.882198], [-87.645396, 41.883308], [-87.645365, 41.885689], [-87.647482, 41.885665], [-87.648495, 41.91731]], "type": "LineString"}, "properties": {}}]}