{"type": "FeatureCollection", "features": [{"type": "Feature", "geometry": {"coordinates": [[-87.705241, 41.893071], [-87.705322, 41.895568], [-87.702191, 41.895594], [-87.701026, 41.874345], [-87.695509, 41.874908], [-87.690201, 41.875125], [-87.650308, 41.875329], [-87.648052, 41.875215], [-87.646274, 41.874432], [-87.645285, 41.87175], [-87.644363, 41.857367], [-87.645793, 41.852447], [-87.644333, 41.849097], [-87.643039, 41.847022], [-87.641933, 41.846546], [-87.638623, 41.847063], [-87.634629, 41.84669], [-87.632091, 41.847362], [-87.628234, 41.846918], [-87.623841, 41.847827], [-87.616851, 41.847976], [-87.612514, 41.847311], [-87.609757, 41.841157], [-87.609375, 41.839163], [-87.615619, 41.854301], [-87.616027, 41.855615], [-87.616271, 41.855561], [-87.615604, 41.854397], [-87.615902, 41.854329]], "type": "LineString"}, "properties": {}}, {"type": "Feature", "geometry": {"coordinates": [[-87.615902, 41.854329], [-87.615604, 41.854397], [-87.615835, 41.854564], [-87.616271, 41.855561], [-87.616027, 41.855615], [-87.615569, 41.854429], [-87.615619, 41.854301], [-87.615992, 41.85521], [-87.616959, 41.854986], [-87.616876, 41.85573], [-87.61658, 41.856064], [-87.616543, 41.856402], [-87.617042, 41.857222], [-87.617503, 41.857757], [-87.61714, 41.857849], [-87.616375, 41.856778], [-87.615823, 41.855617], [-87.615656, 41.855456], [-87.614728, 41.853242], [-87.614744, 41.852979], [-87.613521, 41.849959], [-87.613663, 41.849226], [-87.614264, 41.84861], [-87.615074, 41.848286], [-87.61607, 41.848189], [-87.623007, 41.848129], [-87.624498, 41.848119], [-87.626571, 41.847768], [-87.626731, 41.847788], [-87.62685, 41.847915], [-87.626995, 41.848708], [-87.62704, 41.851072], [-87.622994, 41.851133], [-87.623029, 41.852472], [-87.622712, 41.852475]], "type": "LineString"}, "properties": {}}, {"type": "Feature", "geometry": {"coordinates": [[-87.622712, 41.852475], [-87.623029, 41.852472], [-87.622994, 41.851133], [-87.623768, 41.851121], [-87.623442, 41.838347], [-87.626758, 41.838295], [-87.626661, 41.833703]], "type": "LineString"}, "properties": {}}, {"type": "Feature", "geometry": {"coordinates": [[-87.626661, 41.833703], [-87.62663, 41.831006], [-87.629817, 41.830961], [-87.629831, 41.831311], [-87.630393, 41.837743], [-87.630317, 41.842376], [-87.631347, 41.844144], [-87.633465, 41.84523], [-87.642036, 41.847354], [-87.644933, 41.850987], [-87.644156, 41.857362], [-87.645685, 41.885013], [-87.647091, 41.888098], [-87.650048, 41.890597], [-87.651108, 41.891699], [-87.65026, 41.89242], [-87.628093, 41.892476], [-87.628109, 41.893025]], "type": "LineString"}, "properties": {}}, {"type": "Feature", "geometry": {"coordinates": [[-87.628109, 41.893025], [-87.628138, 41.894078], [-87.624162, 41.894143], [-87.624207, 41.896353], [-87.624029, 41.897744], [-87.62406, 41.899218], [-87.623008, 41.89923]], "type": "LineString"}, "properties": {}}, {"type": "Feature", "geometry": {"coordinates": [[-87.623008, 41.89923], [-87.621885, 41.899246], [-87.621902, 41.900045], [-87.622108, 41.900042]], "type": "LineString"}, "properties": {}}, {"type": "Feature", "geometry": {"coordinates": [[-87.622108, 41.900042], [-87.631337, 41.899794], [-87.631127, 41.891621], [-87.639878, 41.891506], [-87.643004, 41.891239], [-87.653449, 41.89112], [-87.653444, 41.890128]], "type": "LineString"}, "properties": {}}, {"type": "Feature", "geometry": {"coordinates": [[-87.653444, 41.890128], [-87.653449, 41.89112], [-87.655792, 41.891092], [-87.656525, 41.893906], [-87.655717, 41.894874], [-87.657675, 41.89596], [-87.65932, 41.898217], [-87.660805, 41.901753], [-87.661253, 41.906799], [-87.669906, 41.91766], [-87.709664, 41.940439], [-87.714861, 41.942208], [-87.719618, 41.947985], [-87.738838, 41.958569], [-87.741371, 41.960451], [-87.74187, 41.960845], [-87.794161, 41.960081], [-87.816945, 41.949144], [-87.816641, 41.941072]], "type": "LineString"}, "properties": {}}, {"type": "Feature", "geometry": {"coordinates": [[-87.816641, 41.941072], [-87.816524, 41.93794], [-87.673369, 41.939644]], "type": "LineString"}, "properties": {}}, {"type": "Feature", "geometry": {"coordinates": [[-87.673369, 41.939644], [-87.673369, 41.939644]], "type": "LineString"}, "properties": {}}, {"type": "Feature", "geometry": {"coordinates": [[-87.673369, 41.939644], [-87.678349, 41.939586], [-87.677765, 41.92139], [-87.677255, 41.921395], [-87.669405, 41.916815], [-87.664752, 41.909975], [-87.661748, 41.90696], [-87.661131, 41.901587], [-87.659383, 41.897534], [-87.657508, 41.895016], [-87.657416, 41.893069], [-87.662506, 41.88598], [-87.662599, 41.885414], [-87.662414, 41.885417], [-87.6624, 41.884812]], "type": "LineString"}, "properties": {}}, {"type": "Feature", "geometry": {"coordinates": [[-87.6624, 41.884812], [-87.662414, 41.885417], [-87.688567, 41.884544], [-87.688508, 41.88207], [-87.688351, 41.882072]], "type": "LineString"}, "properties": {}}, {"type": "Feature", "geometry": {"coordinates": [[-87.688351, 41.882072], [-87.688351, 41.882072]], "type": "LineString"}, "properties": {}}, {"type": "Feature", "geometry": {"coordinates": [[-87.688351, 41.882072], [-87.666341, 41.882396], [-87.664612, 41.882852], [-87.663727, 41.882868], [-87.663706, 41.882094]], "type": "LineString"}, "properties": {}}, {"type": "Feature", "geometry": {"coordinates": [[-87.663706, 41.882094], [-87.663727, 41.882868], [-87.641266, 41.883178], [-87.639745, 41.883185], [-87.631699, 41.883246], [-87.630932, 41.883184], [-87.630875, 41.881984], [-87.632362, 41.881953]], "type": "LineString"}, "properties": {}}, {"type": "Feature", "geometry": {"coordinates": [[-87.632362, 41.881953], [-87.64573, 41.881801], [-87.646594, 41.887382], [-87.651689, 41.891702], [-87.65868, 41.896836], [-87.66137, 41.906646], [-87.670146, 41.917654], [-87.709927, 41.940372], [-87.715306, 41.94215], [-87.719592, 41.947613], [-87.741635, 41.95982], [-87.746287, 41.963594], [-87.746614, 41.980044], [-87.751348, 41.987222], [-87.750296, 41.989892], [-87.728634, 41.990146], [-87.728412, 41.98284], [-87.71914, 41.982941]], "type": "LineString"}, "properties": {}}, {"type": "Feature", "geometry": {"coordinates": [[-87.71914, 41.982941], [-87.728412, 41.98284], [-87.728634, 41.990146], [-87.750116, 41.990064], [-87.766713, 41.99731], [-87.787876, 41.997348], [-87.787492, 41.996914], [-87.787729, 41.982911], [-87.788189, 41.982907], [-87.812691, 41.982443], [-87.826001, 41.984517], [-87.831845, 41.984836], [-87.836934, 41.984644], [-87.847951, 41.984101], [-87.853594, 41.984848], [-87.858508, 41.98384], [-87.861598, 41.983848], [-87.862973, 41.984158], [-87.863192, 41.984778], [-87.861137, 41.985053], [-87.861538, 41.983066], [-87.862183, 41.982209], [-87.863213, 41.982434], [-87.862902, 41.983219], [-87.861058, 41.983359], [-87.859773, 41.982945], [-87.86007, 41.982034], [-87.861327, 41.982322], [-87.861086, 41.984279]], "type": "LineString"}, "properties": {}}, {"type": "Feature", "geometry": {"coordinates": [[-87.861086, 41.984279], [-87.861086, 41.984279]], "type": "LineString"}, "properties": {}}, {"type": "Feature", "geometry": {"coordinates": [[-87.861086, 41.984279], [-87.860893, 41.985132], [-87.861115, 41.98516], [-87.862024, 41.980793], [-87.861987, 41.980593], [-87.866283, 41.980482], [-87.866411, 41.980269], [-87.866273, 41.977912], [-87.866552, 41.976958]], "type": "LineString"}, "properties": {}}, {"type": "Feature", "geometry": {"coordinates": [[-87.866552, 41.976958], [-87.86662, 41.976682], [-87.862766, 41.976882], [-87.861987, 41.980593], [-87.866803, 41.980467]], "type": "LineString"}, "properties": {}}, {"type": "Feature", "geometry": {"coordinates": [[-87.866803, 41.980467], [-87.861987, 41.980593], [-87.861863, 41.980765], [-87.856787, 41.983436], [-87.832611, 41.984418], [-87.812646, 41.982178], [-87.792871, 41.982345], [-87.788361, 41.982061], [-87.787747, 41.982061], [-87.787729, 41.982911], [-87.782263, 41.982899], [-87.769268, 41.975674], [-87.767734, 41.975683], [-87.766808, 41.974625], [-87.751811, 41.975287], [-87.747761, 41.972794], [-87.747223, 41.966563], [-87.745232, 41.962358], [-87.719592, 41.947613], [-87.715306, 41.94215], [-87.709927, 41.940372], [-87.670146, 41.917654], [-87.66137, 41.906646], [-87.659246, 41.897685], [-87.647531, 41.888343], [-87.646015, 41.882928], [-87.646395, 41.880505], [-87.632331, 41.880685], [-87.632362, 41.881953]], "type": "LineString"}, "properties": {}}, {"type": "Feature", "geometry": {"coordinates": [[-87.632362, 41.881953], [-87.633848, 41.881941], [-87.633684, 41.87567], [-87.657603, 41.876197], [-87.697235, 41.875658], [-87.708052, 41.874348], [-87.716326, 41.874195], [-87.719801, 41.874461], [-87.720917, 41.885208], [-87.725297, 41.885455], [-87.725796, 41.885541], [-87.726341, 41.90987], [-87.727547, 41.909857], [-87.727565, 41.910437]], "type": "LineString"}, "properties": {}}]}