{"type": "FeatureCollection", "features": [{"type": "Feature", "geometry": {"coordinates": [[-87.727565, 41.910437], [-87.727716, 41.91533], [-87.726508, 41.915345], [-87.72708, 41.92265], [-87.726455, 41.92266], [-87.727395, 41.946377], [-87.717815, 41.94651], [-87.719292, 41.947883], [-87.742619, 41.960998], [-87.746732, 41.965012], [-87.747426, 41.975724], [-87.746614, 41.980044], [-87.751348, 41.987222], [-87.75017, 41.989907], [-87.690875, 41.990502], [-87.690928, 41.992134]], "type": "LineString"}, "properties": {}}, {"type": "Feature", "geometry": {"coordinates": [[-87.690928, 41.992134], [-87.690993, 41.994089], [-87.689782, 41.994104], [-87.690071, 42.005024], [-87.709343, 42.004672], [-87.709304, 42.00568]], "type": "LineString"}, "properties": {}}, {"type": "Feature", "geometry": {"coordinates": [[-87.709304, 42.00568], [-87.709065, 42.011874], [-87.69024, 42.012287], [-87.6836, 42.012217], [-87.682444, 42.012621], [-87.682294, 42.012511], [-87.676853, 42.012606]], "type": "LineString"}, "properties": {}}, {"type": "Feature", "geometry": {"coordinates": [[-87.676853, 42.012606], [-87.682294, 42.012511], [-87.682444, 42.012621], [-87.683329, 42.012227], [-87.69024, 42.012287], [-87.690071, 42.005024], [-87.709343, 42.004672], [-87.709351, 42.001531]], "type": "LineString"}, "properties": {}}, {"type": "Feature", "geometry": {"coordinates": [[-87.709351, 42.001531], [-87.709354, 41.997394], [-87.748324, 41.997339], [-87.748329, 41.989958], [-87.751817, 41.990525], [-87.751942, 41.991757], [-87.751225, 41.986057], [-87.746835, 41.980228], [-87.747223, 41.966563], [-87.745232, 41.962358], [-87.719592, 41.947613], [-87.715306, 41.94215], [-87.709927, 41.940372], [-87.670146, 41.917654], [-87.66137, 41.906646], [-87.659246, 41.897685], [-87.646315, 41.886261], [-87.644363, 41.857367], [-87.645793, 41.852447], [-87.644333, 41.849097], [-87.641933, 41.846546], [-87.616851, 41.847976], [-87.612514, 41.847311], [-87.609757, 41.841157], [-87.609375, 41.839163], [-87.615619, 41.854301], [-87.616027, 41.855615], [-87.616271, 41.855561], [-87.615604, 41.854397], [-87.615902, 41.854329]], "type": "LineString"}, "properties": {}}, {"type": "Feature", "geometry": {"coordinates": [[-87.615902, 41.854329], [-87.615604, 41.854397], [-87.616271, 41.855561], [-87.616027, 41.855615], [-87.615619, 41.854301], [-87.615992, 41.85521], [-87.616959, 41.854986], [-87.616876, 41.85573], [-87.616543, 41.856402], [-87.617503, 41.857757], [-87.61714, 41.857849], [-87.615656, 41.855456], [-87.613763, 41.851178], [-87.609757, 41.841157], [-87.609375, 41.839163], [-87.609219, 41.838567], [-87.617481, 41.838418], [-87.617446, 41.836593], [-87.618858, 41.836575]], "type": "LineString"}, "properties": {}}, {"type": "Feature", "geometry": {"coordinates": [[-87.618858, 41.836575], [-87.621875, 41.836506], [-87.621916, 41.838364], [-87.622983, 41.838634], [-87.623234, 41.839068], [-87.624009, 41.86095]], "type": "LineString"}, "properties": {}}, {"type": "Feature", "geometry": {"coordinates": [[-87.624009, 41.86095], [-87.624104, 41.871882], [-87.624764, 41.87187]], "type": "LineString"}, "properties": {}}, {"type": "Feature", "geometry": {"coordinates": [[-87.624764, 41.87187], [-87.624104, 41.871882], [-87.624175, 41.876966], [-87.624525, 41.877014], [-87.636803, 41.876812]], "type": "LineString"}, "properties": {}}, {"type": "Feature", "geometry": {"coordinates": [[-87.636803, 41.876812], [-87.642493, 41.876736], [-87.642815, 41.887871]], "type": "LineString"}, "properties": {}}, {"type": "Feature", "geometry": {"coordinates": [[-87.642815, 41.887871], [-87.642802, 41.886807], [-87.644278, 41.886799], [-87.644337, 41.889054], [-87.654976, 41.895983], [-87.655808, 41.89501], [-87.657675, 41.89596], [-87.659011, 41.897622], [-87.660805, 41.901753], [-87.661061, 41.906443], [-87.664439, 41.910145], [-87.668818, 41.916712], [-87.690595, 41.929581], [-87.694091, 41.931942], [-87.697602, 41.932108], [-87.698335, 41.956867]], "type": "LineString"}, "properties": {}}, {"type": "Feature", "geometry": {"coordinates": [[-87.698335, 41.956867], [-87.698254, 41.953982], [-87.727612, 41.95365], [-87.726763, 41.924493], [-87.734115, 41.924406], [-87.734008, 41.920736], [-87.736253, 41.920709]], "type": "LineString"}, "properties": {}}, {"type": "Feature", "geometry": {"coordinates": [[-87.736253, 41.920709], [-87.736452, 41.920706], [-87.737024, 41.938973], [-87.739491, 41.938939], [-87.739921, 41.946215]], "type": "LineString"}, "properties": {}}, {"type": "Feature", "geometry": {"coordinates": [[-87.739921, 41.946215], [-87.71959, 41.946484], [-87.718156, 41.944989], [-87.715518, 41.942115], [-87.710267, 41.940414], [-87.693566, 41.930594], [-87.687291, 41.927358], [-87.683686, 41.924962], [-87.66815, 41.925151], [-87.668361, 41.933311], [-87.668473, 41.932963]], "type": "LineString"}, "properties": {}}, {"type": "Feature", "geometry": {"coordinates": [[-87.668473, 41.932963], [-87.668452, 41.9324], [-87.678134, 41.932278], [-87.677893, 41.925026], [-87.681912, 41.924981], [-87.685177, 41.926707], [-87.709664, 41.940439], [-87.715161, 41.942387], [-87.719618, 41.947985], [-87.742619, 41.960998], [-87.752403, 41.966033], [-87.75503, 41.967937], [-87.77728, 41.967665], [-87.778289, 41.96853], [-87.807176, 41.968273], [-87.807182, 41.967283], [-87.825808, 41.966803]], "type": "LineString"}, "properties": {}}, {"type": "Feature", "geometry": {"coordinates": [[-87.825808, 41.966803], [-87.807182, 41.967283], [-87.807363, 41.954082], [-87.807233, 41.952116]], "type": "LineString"}, "properties": {}}, {"type": "Feature", "geometry": {"coordinates": [[-87.807233, 41.952116], [-87.807297, 41.953879], [-87.797713, 41.958438], [-87.797737, 41.968342], [-87.778289, 41.96853], [-87.77728, 41.967665], [-87.747723, 41.968033], [-87.747918, 41.972896], [-87.747761, 41.972794], [-87.747223, 41.966563], [-87.745232, 41.962358], [-87.719592, 41.947613], [-87.715306, 41.94215], [-87.709927, 41.940372], [-87.670146, 41.917654], [-87.66137, 41.906646], [-87.659246, 41.897685], [-87.647531, 41.888343], [-87.646015, 41.882928], [-87.646395, 41.880505], [-87.632331, 41.880685], [-87.632362, 41.881953]], "type": "LineString"}, "properties": {}}, {"type": "Feature", "geometry": {"coordinates": [[-87.632362, 41.881953], [-87.64573, 41.881801], [-87.646594, 41.887382], [-87.651689, 41.891702], [-87.65868, 41.896836], [-87.66137, 41.906646], [-87.670146, 41.917654], [-87.709927, 41.940372], [-87.715306, 41.94215], [-87.719592, 41.947613], [-87.741635, 41.95982], [-87.746287, 41.963594], [-87.747426, 41.975724], [-87.74607, 41.976396], [-87.745776, 41.975364], [-87.765782, 41.975122], [-87.766315, 41.975691], [-87.771273, 41.975715], [-87.784738, 41.982513], [-87.812691, 41.982443], [-87.826001, 41.984517], [-87.831845, 41.984836], [-87.836934, 41.984644], [-87.847951, 41.984101], [-87.853594, 41.984848], [-87.861598, 41.983848], [-87.863192, 41.984778], [-87.861137, 41.985053], [-87.861538, 41.983066], [-87.863213, 41.982434], [-87.861058, 41.983359], [-87.86007, 41.982034], [-87.861327, 41.982322], [-87.861086, 41.984279]], "type": "LineString"}, "properties": {}}, {"type": "Feature", "geometry": {"coordinates": [[-87.861086, 41.984279], [-87.860893, 41.985132], [-87.870366, 41.984286], [-87.872126, 41.982737], [-87.869881, 41.979205], [-87.869637, 41.972989], [-87.88665, 41.943926], [-87.891696, 41.941206], [-87.913048, 41.937511], [-87.918812, 41.933757], [-87.920044, 41.93], [-87.920123, 41.906106], [-87.921497, 41.904847], [-87.942795, 41.915886], [-87.953838, 41.925577], [-87.97024, 41.928264], [-87.975745, 41.930287], [-87.988044, 41.942161], [-88.017056, 41.955051], [-88.023633, 41.958484], [-88.028426, 41.957109], [-88.035388, 41.951174], [-88.037535, 41.947597], [-88.038117, 41.90897], [-88.038982, 41.904811], [-88.103087, 41.902316], [-88.150515, 41.907877], [-88.151092, 41.888137], [-88.15649, 41.888153], [-88.162559, 41.886204], [-88.204904, 41.884636]], "type": "LineString"}, "properties": {}}, {"type": "Feature", "geometry": {"coordinates": [[-88.204904, 41.884636], [-88.151092, 41.888137], [-88.150531, 41.907621], [-88.102946, 41.902084], [-88.037137, 41.904083], [-88.037235, 41.947209], [-88.028944, 41.955366], [-88.022764, 41.957147], [-87.989299, 41.942528], [-87.975648, 41.929996], [-87.95323, 41.925072], [-87.94309, 41.915873], [-87.929479, 41.909217], [-87.925073, 41.906203], [-87.746127, 41.909582], [-87.746096, 41.916928], [-87.732665, 41.917096], [-87.732776, 41.920752], [-87.736253, 41.920709]], "type": "LineString"}, "properties": {}}]}