{"type": "FeatureCollection", "features": [{"type": "Feature", "geometry": {"coordinates": [[-87.647955, 41.929095], [-87.648892, 41.929091], [-87.648766, 41.925453], [-87.681912, 41.924981], [-87.685177, 41.926707], [-87.709664, 41.940439], [-87.715161, 41.942387], [-87.716453, 41.943551], [-87.71887, 41.947406], [-87.723791, 41.950079], [-87.727575, 41.952511], [-87.727612, 41.95365], [-87.719156, 41.953712], [-87.718284, 41.953111]], "type": "LineString"}, "properties": {}}, {"type": "Feature", "geometry": {"coordinates": [[-87.718284, 41.953111], [-87.712782, 41.949329], [-87.712526, 41.940478], [-87.711309, 41.94053], [-87.709442, 41.939977], [-87.693566, 41.930594], [-87.687291, 41.927358], [-87.683686, 41.924962], [-87.648766, 41.925453], [-87.648892, 41.929091], [-87.647955, 41.929095]], "type": "LineString"}, "properties": {}}, {"type": "Feature", "geometry": {"coordinates": [[-87.647955, 41.929095], [-87.648892, 41.929091], [-87.648766, 41.925453], [-87.638808, 41.918322], [-87.638528, 41.909422]], "type": "LineString"}, "properties": {}}, {"type": "Feature", "geometry": {"coordinates": [[-87.638528, 41.909422], [-87.638528, 41.909422]], "type": "LineString"}, "properties": {}}, {"type": "Feature", "geometry": {"coordinates": [[-87.638528, 41.909422], [-87.638347, 41.903783], [-87.633004, 41.903886], [-87.632362, 41.881953]], "type": "LineString"}, "properties": {}}, {"type": "Feature", "geometry": {"coordinates": [[-87.632362, 41.881953], [-87.64573, 41.881801], [-87.646594, 41.887382], [-87.651689, 41.891702], [-87.65868, 41.896836], [-87.66137, 41.906646], [-87.670146, 41.917654], [-87.709927, 41.940372], [-87.715306, 41.94215], [-87.719592, 41.947613], [-87.741635, 41.95982], [-87.746287, 41.963594], [-87.746614, 41.980044], [-87.751348, 41.987222], [-87.748745, 42.001173], [-87.749057, 42.009149], [-87.752849, 42.014015], [-87.766135, 42.021915], [-87.768599, 42.026582], [-87.768152, 42.034093], [-87.76276, 42.041316], [-87.761068, 42.041838], [-87.762498, 42.040938], [-87.822577, 42.040463], [-87.873965, 42.03904], [-87.883517, 42.039711], [-87.883875, 42.040946], [-87.882533, 42.040795]], "type": "LineString"}, "properties": {}}, {"type": "Feature", "geometry": {"coordinates": [[-87.882533, 42.040795], [-87.883875, 42.040946], [-87.883517, 42.039711], [-87.872116, 42.038987], [-87.870074, 42.037952], [-87.867953, 42.036074], [-87.865686, 42.029468], [-87.865796, 42.020471], [-87.868424, 42.014189], [-87.868664, 42.008609], [-87.865854, 41.99591], [-87.86688, 41.993377], [-87.867729, 41.991341], [-87.866273, 41.98798], [-87.858979, 41.985708], [-87.850425, 41.983769], [-87.829807, 41.984449], [-87.812646, 41.982178], [-87.784218, 41.98215], [-87.74647, 41.962831], [-87.721846, 41.94853], [-87.718984, 41.946493], [-87.71959, 41.946484], [-87.718156, 41.944989], [-87.717101, 41.92898]], "type": "LineString"}, "properties": {}}, {"type": "Feature", "geometry": {"coordinates": [[-87.717101, 41.92898], [-87.717188, 41.931929], [-87.751741, 41.93147]], "type": "LineString"}, "properties": {}}, {"type": "Feature", "geometry": {"coordinates": [[-87.751741, 41.93147], [-87.696547, 41.932116], [-87.673831, 41.919706], [-87.671882, 41.918264], [-87.671723, 41.918151], [-87.667505, 41.91793], [-87.666413, 41.916455], [-87.663815, 41.917067], [-87.658378, 41.917139], [-87.658214, 41.918041], [-87.638808, 41.918322], [-87.638503, 41.918106]], "type": "LineString"}, "properties": {}}, {"type": "Feature", "geometry": {"coordinates": [[-87.638503, 41.918106], [-87.638808, 41.918322], [-87.638583, 41.911164], [-87.664445, 41.910674], [-87.669227, 41.917096], [-87.671196, 41.918549], [-87.678438, 41.922676], [-87.681513, 41.924733], [-87.681912, 41.924981], [-87.690086, 41.924878], [-87.690094, 41.925214]], "type": "LineString"}, "properties": {}}, {"type": "Feature", "geometry": {"coordinates": [[-87.690094, 41.925214], [-87.690149, 41.926696], [-87.688923, 41.926707], [-87.688869, 41.924888], [-87.698638, 41.924808], [-87.698689, 41.926622], [-87.697726, 41.926631]], "type": "LineString"}, "properties": {}}, {"type": "Feature", "geometry": {"coordinates": [[-87.697726, 41.926631], [-87.697472, 41.926633], [-87.698335, 41.956867]], "type": "LineString"}, "properties": {}}, {"type": "Feature", "geometry": {"coordinates": [[-87.698335, 41.956867], [-87.697902, 41.941887], [-87.700544, 41.941872], [-87.701556, 41.941084], [-87.702765, 41.941075], [-87.702516, 41.932074], [-87.707434, 41.932039], [-87.707505, 41.930261], [-87.707814, 41.929332], [-87.707541, 41.929168], [-87.706735, 41.901143]], "type": "LineString"}, "properties": {}}, {"type": "Feature", "geometry": {"coordinates": [[-87.706735, 41.901143], [-87.70699, 41.927966], [-87.702415, 41.928423], [-87.702467, 41.94223], [-87.705317, 41.944219], [-87.705281, 41.943085]], "type": "LineString"}, "properties": {}}, {"type": "Feature", "geometry": {"coordinates": [[-87.705281, 41.943085], [-87.705182, 41.939366], [-87.712487, 41.939288], [-87.712571, 41.941642], [-87.714459, 41.942133], [-87.715981, 41.943044], [-87.718472, 41.946973], [-87.719618, 41.947985], [-87.722225, 41.949188], [-87.740356, 41.95942], [-87.742619, 41.960998], [-87.744732, 41.962462], [-87.749421, 41.964156], [-87.752403, 41.966033], [-87.75503, 41.967937], [-87.757623, 41.967938], [-87.758399, 41.968431]], "type": "LineString"}, "properties": {}}, {"type": "Feature", "geometry": {"coordinates": [[-87.758399, 41.968431], [-87.757623, 41.967938], [-87.760755, 41.967869], [-87.761466, 41.967596], [-87.765021, 41.967822], [-87.77728, 41.967665], [-87.778289, 41.96853], [-87.797737, 41.968342], [-87.797713, 41.958438], [-87.816945, 41.949144], [-87.816641, 41.941072]], "type": "LineString"}, "properties": {}}, {"type": "Feature", "geometry": {"coordinates": [[-87.816641, 41.941072], [-87.816587, 41.939617], [-87.817797, 41.939594], [-87.818384, 41.948419], [-87.794287, 41.960061], [-87.767242, 41.960484], [-87.7673, 41.96235], [-87.756072, 41.962474], [-87.757803, 41.964478]], "type": "LineString"}, "properties": {}}, {"type": "Feature", "geometry": {"coordinates": [[-87.757803, 41.964478], [-87.766589, 41.974381], [-87.787673, 41.985941], [-87.78758, 41.991611], [-87.789336, 41.992602]], "type": "LineString"}, "properties": {}}, {"type": "Feature", "geometry": {"coordinates": [[-87.789336, 41.992602], [-87.789623, 41.992763], [-87.788723, 41.993736], [-87.787545, 41.993705], [-87.787492, 41.996914], [-87.801362, 42.011961], [-87.815168, 42.01151], [-87.815146, 42.014127]], "type": "LineString"}, "properties": {}}, {"type": "Feature", "geometry": {"coordinates": [[-87.815146, 42.014127], [-87.815153, 42.013312], [-87.813931, 42.013344], [-87.813939, 42.012441]], "type": "LineString"}, "properties": {}}, {"type": "Feature", "geometry": {"coordinates": [[-87.813939, 42.012441], [-87.813947, 42.01154], [-87.802541, 42.011742], [-87.798054, 42.012556], [-87.788728, 42.012002], [-87.782222, 42.004639], [-87.766713, 41.99731], [-87.718622, 41.997237], [-87.707391, 41.99039], [-87.67223, 41.990752], [-87.662456, 41.985105], [-87.654178, 41.985586], [-87.653157, 41.984999], [-87.652706, 41.981232], [-87.648822, 41.972134], [-87.644905, 41.955203], [-87.64469, 41.951193], [-87.639566, 41.942042], [-87.638796, 41.940268], [-87.639537, 41.940119], [-87.639435, 41.936919]], "type": "LineString"}, "properties": {}}, {"type": "Feature", "geometry": {"coordinates": [[-87.639435, 41.936919], [-87.639435, 41.936919]], "type": "LineString"}, "properties": {}}, {"type": "Feature", "geometry": {"coordinates": [[-87.639435, 41.936919], [-87.63931, 41.932914], [-87.678134, 41.932278], [-87.677893, 41.925026], [-87.734115, 41.924406], [-87.734008, 41.920736], [-87.736253, 41.920709]], "type": "LineString"}, "properties": {}}, {"type": "Feature", "geometry": {"coordinates": [[-87.736253, 41.920709], [-87.736452, 41.920706], [-87.736127, 41.910399], [-87.736317, 41.909258], [-87.736145, 41.902516], [-87.757004, 41.90224], [-87.757001, 41.902105]], "type": "LineString"}, "properties": {}}, {"type": "Feature", "geometry": {"coordinates": [[-87.757001, 41.902105], [-87.756961, 41.900406], [-87.758199, 41.900393], [-87.758251, 41.902229], [-87.765658, 41.902145], [-87.765733, 41.909384], [-87.805768, 41.908935], [-87.806613, 41.934519], [-87.820654, 41.93424], [-87.82067, 41.934634]], "type": "LineString"}, "properties": {}}, {"type": "Feature", "geometry": {"coordinates": [[-87.82067, 41.934634], [-87.82067, 41.934634]], "type": "LineString"}, "properties": {}}, {"type": "Feature", "geometry": {"coordinates": [[-87.82067, 41.934634], [-87.820654, 41.93424], [-87.821275, 41.934229], [-87.821404, 41.937842], [-87.654106, 41.939918], [-87.654016, 41.937175], [-87.653552, 41.937186], [-87.65355, 41.937074]], "type": "LineString"}, "properties": {}}, {"type": "Feature", "geometry": {"coordinates": [[-87.65355, 41.937074], [-87.653552, 41.937186], [-87.654016, 41.937175], [-87.654106, 41.939918], [-87.723912, 41.939142], [-87.735605, 41.946271], [-87.739921, 41.946215]], "type": "LineString"}, "properties": {}}, {"type": "Feature", "geometry": {"coordinates": [[-87.739921, 41.946215], [-87.747072, 41.946122], [-87.746595, 41.931542], [-87.74413, 41.931576], [-87.744098, 41.930554], [-87.746147, 41.930525]], "type": "LineString"}, "properties": {}}, {"type": "Feature", "geometry": {"coordinates": [[-87.746147, 41.930525], [-87.746543, 41.93052], [-87.746971, 41.942483], [-87.739597, 41.942585], [-87.739603, 41.942782]], "type": "LineString"}, "properties": {}}, {"type": "Feature", "geometry": {"coordinates": [[-87.739603, 41.942782], [-87.739705, 41.946218], [-87.71959, 41.946484], [-87.718156, 41.944989], [-87.715518, 41.942115], [-87.709442, 41.939977], [-87.673831, 41.919706], [-87.671882, 41.918264], [-87.671887, 41.917859], [-87.677621, 41.91776], [-87.677276, 41.903184], [-87.679708, 41.903145], [-87.679724, 41.903748]], "type": "LineString"}, "properties": {}}, {"type": "Feature", "geometry": {"coordinates": [[-87.679724, 41.903748], [-87.679734, 41.904077], [-87.677302, 41.904122], [-87.677591, 41.916239]], "type": "LineString"}, "properties": {}}, {"type": "Feature", "geometry": {"coordinates": [[-87.677591, 41.916239], [-87.677621, 41.91776], [-87.671089, 41.917871], [-87.670404, 41.917216], [-87.66811, 41.915355], [-87.664752, 41.909975], [-87.661559, 41.906635], [-87.661057, 41.901306], [-87.658834, 41.896667], [-87.648602, 41.889352], [-87.646473, 41.886676], [-87.644538, 41.861936], [-87.644794, 41.857575], [-87.646633, 41.857542], [-87.646649, 41.858102], [-87.66163, 41.857876]], "type": "LineString"}, "properties": {}}, {"type": "Feature", "geometry": {"coordinates": [[-87.66163, 41.857876], [-87.66163, 41.857876]], "type": "LineString"}, "properties": {}}, {"type": "Feature", "geometry": {"coordinates": [[-87.66163, 41.857876], [-87.661146, 41.857883], [-87.653364, 41.867014], [-87.644093, 41.86715], [-87.644123, 41.867888], [-87.644628, 41.873521], [-87.642586, 41.875458], [-87.620619, 41.875815], [-87.620697, 41.878331], [-87.617182, 41.878364], [-87.616996, 41.882205], [-87.613645, 41.884762], [-87.614041, 41.892878], [-87.619441, 41.900921], [-87.624048, 41.902893], [-87.631851, 41.928415], [-87.632152, 41.934381], [-87.638833, 41.941219], [-87.644376, 41.950931], [-87.64669, 41.964019], [-87.646428, 41.965774], [-87.648611, 41.965499], [-87.648701, 41.965847]], "type": "LineString"}, "properties": {}}, {"type": "Feature", "geometry": {"coordinates": [[-87.648701, 41.965847], [-87.648611, 41.965499], [-87.647973, 41.965571], [-87.646988, 41.964213], [-87.646142, 41.95881], [-87.644905, 41.955203], [-87.64469, 41.951193], [-87.639566, 41.942042], [-87.638796, 41.940268], [-87.666233, 41.939729], [-87.666175, 41.937916], [-87.668655, 41.93788], [-87.668473, 41.932963]], "type": "LineString"}, "properties": {}}]}