{"type": "FeatureCollection", "features": [{"type": "Feature", "geometry": {"coordinates": [[-87.669769, 41.987519], [-87.668766, 41.983497], [-87.679477, 41.983198], [-87.679565, 41.982043], [-87.688432, 41.977735], [-87.68922, 41.977715], [-87.688686, 41.961319], [-87.703359, 41.961222], [-87.703301, 41.959397], [-87.702918, 41.959389]], "type": "LineString"}, "properties": {}}, {"type": "Feature", "geometry": {"coordinates": [[-87.702918, 41.959389], [-87.702085, 41.959394], [-87.702141, 41.961228], [-87.722936, 41.961015], [-87.722961, 41.961924], [-87.721408, 41.961944]], "type": "LineString"}, "properties": {}}, {"type": "Feature", "geometry": {"coordinates": [[-87.721408, 41.961944], [-87.720511, 41.961956], [-87.720484, 41.961045], [-87.721694, 41.96103], [-87.721539, 41.955338], [-87.719156, 41.953712], [-87.645235, 41.954634], [-87.644611, 41.950978], [-87.639315, 41.941594], [-87.632527, 41.93482], [-87.631858, 41.927741], [-87.631853, 41.926001], [-87.640463, 41.92558], [-87.641881, 41.927956]], "type": "LineString"}, "properties": {}}, {"type": "Feature", "geometry": {"coordinates": [[-87.641881, 41.927956], [-87.641881, 41.927956]], "type": "LineString"}, "properties": {}}, {"type": "Feature", "geometry": {"coordinates": [[-87.641881, 41.927956], [-87.640463, 41.92558], [-87.631853, 41.926001], [-87.626142, 41.912297], [-87.62421, 41.902733], [-87.62264, 41.901491], [-87.619617, 41.900898], [-87.614264, 41.892868], [-87.614127, 41.884928], [-87.617321, 41.882167], [-87.617442, 41.878363], [-87.620697, 41.878331], [-87.620625, 41.876287], [-87.626887, 41.875674], [-87.657603, 41.876197], [-87.688313, 41.875763], [-87.692409, 41.875862], [-87.696151, 41.875983], [-87.695753, 41.861327], [-87.701706, 41.859265], [-87.701353, 41.858659]], "type": "LineString"}, "properties": {}}, {"type": "Feature", "geometry": {"coordinates": [[-87.701353, 41.858659], [-87.701661, 41.859189], [-87.695753, 41.861327], [-87.69617, 41.876701], [-87.693741, 41.876734], [-87.693713, 41.876006], [-87.695752, 41.875985]], "type": "LineString"}, "properties": {}}, {"type": "Feature", "geometry": {"coordinates": [[-87.695752, 41.875985], [-87.696151, 41.875983], [-87.696127, 41.874902], [-87.695509, 41.874908], [-87.690201, 41.875125], [-87.659837, 41.87561], [-87.651569, 41.875318], [-87.629223, 41.875546], [-87.629291, 41.878179], [-87.624208, 41.878293], [-87.624484, 41.887965], [-87.624094, 41.891505]], "type": "LineString"}, "properties": {}}, {"type": "Feature", "geometry": {"coordinates": [[-87.624094, 41.891505], [-87.624208, 41.896271], [-87.624029, 41.897744], [-87.62406, 41.899218], [-87.623008, 41.89923]], "type": "LineString"}, "properties": {}}, {"type": "Feature", "geometry": {"coordinates": [[-87.623008, 41.89923], [-87.620228, 41.899272], [-87.620193, 41.897643], [-87.621852, 41.897618], [-87.621834, 41.896766], [-87.616893, 41.896844], [-87.614264, 41.892868], [-87.614081, 41.885247], [-87.614645, 41.884041], [-87.616685, 41.882873], [-87.617321, 41.882167], [-87.617442, 41.878363], [-87.620697, 41.878331], [-87.62062, 41.875872]], "type": "LineString"}, "properties": {}}, {"type": "Feature", "geometry": {"coordinates": [[-87.62062, 41.875872], [-87.620619, 41.875815], [-87.64257, 41.875632], [-87.644772, 41.875942], [-87.645648, 41.877134], [-87.645685, 41.885013], [-87.646594, 41.887382], [-87.64861, 41.889615], [-87.658396, 41.896733], [-87.660726, 41.901461], [-87.661061, 41.906443], [-87.664439, 41.910145], [-87.668478, 41.916334], [-87.671196, 41.918549], [-87.690595, 41.929581], [-87.694122, 41.932133], [-87.687832, 41.932179], [-87.688345, 41.949742]], "type": "LineString"}, "properties": {}}, {"type": "Feature", "geometry": {"coordinates": [[-87.688345, 41.949742], [-87.688245, 41.946744], [-87.717815, 41.94651], [-87.719292, 41.947883], [-87.722225, 41.949188], [-87.738838, 41.958569], [-87.741371, 41.960451], [-87.741062, 41.960809]], "type": "LineString"}, "properties": {}}, {"type": "Feature", "geometry": {"coordinates": [[-87.741062, 41.960809], [-87.741062, 41.960809]], "type": "LineString"}, "properties": {}}, {"type": "Feature", "geometry": {"coordinates": [[-87.741062, 41.960809], [-87.714367, 41.961119], [-87.714413, 41.962942], [-87.713522, 41.962954]], "type": "LineString"}, "properties": {}}, {"type": "Feature", "geometry": {"coordinates": [[-87.713522, 41.962954], [-87.713199, 41.962957], [-87.712526, 41.940478], [-87.709442, 41.939977], [-87.671496, 41.918378], [-87.668918, 41.916326], [-87.666712, 41.913088], [-87.665662, 41.910672], [-87.66776, 41.910633], [-87.667495, 41.901054], [-87.669888, 41.901009], [-87.669869, 41.900367]], "type": "LineString"}, "properties": {}}, {"type": "Feature", "geometry": {"coordinates": [[-87.669869, 41.900367], [-87.669955, 41.90331], [-87.667439, 41.903351], [-87.667641, 41.910635], [-87.664445, 41.910674], [-87.668091, 41.915886], [-87.670574, 41.91815], [-87.704001, 41.937344], [-87.706803, 41.939132], [-87.709692, 41.939347], [-87.746879, 41.93884], [-87.746595, 41.931542], [-87.751741, 41.93147]], "type": "LineString"}, "properties": {}}, {"type": "Feature", "geometry": {"coordinates": [[-87.751741, 41.93147], [-87.726988, 41.931796], [-87.726876, 41.928137], [-87.710862, 41.928329], [-87.710817, 41.926502], [-87.709358, 41.926518], [-87.709305, 41.925019]], "type": "LineString"}, "properties": {}}, {"type": "Feature", "geometry": {"coordinates": [[-87.709305, 41.925019], [-87.709292, 41.9247], [-87.683686, 41.924962], [-87.683325, 41.924765], [-87.675234, 41.920564], [-87.669025, 41.916444], [-87.664752, 41.909975], [-87.661559, 41.906635], [-87.661057, 41.901306], [-87.658834, 41.896667], [-87.6483, 41.889096], [-87.646108, 41.885119], [-87.646413, 41.883144], [-87.641266, 41.883178], [-87.639745, 41.883185], [-87.631699, 41.883246], [-87.630932, 41.883184], [-87.63088, 41.882086]], "type": "LineString"}, "properties": {}}, {"type": "Feature", "geometry": {"coordinates": [[-87.63088, 41.882086], [-87.630875, 41.881984], [-87.634523, 41.881936], [-87.635345, 41.881988], [-87.63544, 41.886906], [-87.636958, 41.888875], [-87.637419, 41.902837], [-87.636893, 41.902843]], "type": "LineString"}, "properties": {}}, {"type": "Feature", "geometry": {"coordinates": [[-87.636893, 41.902843], [-87.637419, 41.902837], [-87.637178, 41.896556], [-87.63421, 41.896586], [-87.633894, 41.883642], [-87.632977, 41.883647]], "type": "LineString"}, "properties": {}}, {"type": "Feature", "geometry": {"coordinates": [[-87.632977, 41.883647], [-87.633894, 41.883642], [-87.633882, 41.883242], [-87.631699, 41.883246], [-87.630932, 41.883184], [-87.630281, 41.860127], [-87.628788, 41.860146], [-87.628754, 41.858982], [-87.630263, 41.858965], [-87.630401, 41.867992]], "type": "LineString"}, "properties": {}}, {"type": "Feature", "geometry": {"coordinates": [[-87.630401, 41.867992], [-87.630686, 41.874518], [-87.633036, 41.874483], [-87.633082, 41.875667], [-87.657603, 41.876197], [-87.697235, 41.875658], [-87.708052, 41.874348], [-87.716326, 41.874195], [-87.719801, 41.874461], [-87.720917, 41.885208], [-87.725794, 41.885478], [-87.738106, 41.886239], [-87.73837, 41.893455], [-87.740786, 41.895105], [-87.751931, 41.894964], [-87.752005, 41.898397]], "type": "LineString"}, "properties": {}}, {"type": "Feature", "geometry": {"coordinates": [[-87.752005, 41.898397], [-87.75201, 41.898631], [-87.7459, 41.898691], [-87.745973, 41.902357], [-87.717777, 41.902754], [-87.712727, 41.900725], [-87.711889, 41.900057], [-87.711243, 41.900143], [-87.708783, 41.899176], [-87.674089, 41.899597], [-87.67412, 41.90052]], "type": "LineString"}, "properties": {}}, {"type": "Feature", "geometry": {"coordinates": [[-87.67412, 41.90052], [-87.674089, 41.899597], [-87.660982, 41.899842], [-87.660843, 41.899711], [-87.658834, 41.896667], [-87.657114, 41.895018], [-87.655657, 41.89377], [-87.654831, 41.89226], [-87.653963, 41.891931], [-87.651034, 41.892554], [-87.648079, 41.892372], [-87.632511, 41.892423], [-87.632751, 41.900548], [-87.632901, 41.900546], [-87.632884, 41.899913]], "type": "LineString"}, "properties": {}}, {"type": "Feature", "geometry": {"coordinates": [[-87.632884, 41.899913], [-87.632866, 41.899245], [-87.632712, 41.899247], [-87.632783, 41.901829], [-87.631826, 41.90184]], "type": "LineString"}, "properties": {}}, {"type": "Feature", "geometry": {"coordinates": [[-87.631826, 41.90184], [-87.631392, 41.901845], [-87.631063, 41.889218], [-87.628704, 41.889251]], "type": "LineString"}, "properties": {}}, {"type": "Feature", "geometry": {"coordinates": [[-87.628704, 41.889251], [-87.629579, 41.889242], [-87.629681, 41.893255], [-87.632534, 41.893212], [-87.632605, 41.895614], [-87.630373, 41.895653]], "type": "LineString"}, "properties": {}}, {"type": "Feature", "geometry": {"coordinates": [[-87.630373, 41.895653], [-87.629762, 41.895665], [-87.62978, 41.896655], [-87.65541, 41.896254], [-87.660982, 41.899842], [-87.67107, 41.899648], [-87.671103, 41.900741]], "type": "LineString"}, "properties": {}}, {"type": "Feature", "geometry": {"coordinates": [[-87.671103, 41.900741], [-87.671111, 41.900987], [-87.672323, 41.900965], [-87.672284, 41.899627], [-87.667457, 41.899711], [-87.667326, 41.895159], [-87.662558, 41.895231]], "type": "LineString"}, "properties": {}}, {"type": "Feature", "geometry": {"coordinates": [[-87.662558, 41.895231], [-87.662372, 41.895233], [-87.662352, 41.894339], [-87.667298, 41.894265], [-87.667248, 41.892436], [-87.674614, 41.892319]], "type": "LineString"}, "properties": {}}, {"type": "Feature", "geometry": {"coordinates": [[-87.674614, 41.892319], [-87.676949, 41.89228], [-87.676739, 41.88498], [-87.68163, 41.884802], [-87.681603, 41.883978], [-87.682085, 41.88397]], "type": "LineString"}, "properties": {}}, {"type": "Feature", "geometry": {"coordinates": [[-87.682085, 41.88397], [-87.684042, 41.88394], [-87.684016, 41.883041], [-87.686477, 41.883003], [-87.686385, 41.876082], [-87.687412, 41.876072], [-87.692409, 41.875862], [-87.699324, 41.875537], [-87.708052, 41.874348], [-87.716326, 41.874195], [-87.719239, 41.874474], [-87.725442, 41.874358], [-87.724813, 41.853512], [-87.729676, 41.853435], [-87.729656, 41.852783]], "type": "LineString"}, "properties": {}}, {"type": "Feature", "geometry": {"coordinates": [[-87.729656, 41.852783], [-87.729837, 41.858802], [-87.73475, 41.858734], [-87.735214, 41.872889], [-87.731862, 41.873657], [-87.708909, 41.873948], [-87.704448, 41.874481], [-87.700677, 41.874347], [-87.69896, 41.874859], [-87.696127, 41.874902], [-87.696261, 41.880169], [-87.695733, 41.880173]], "type": "LineString"}, "properties": {}}, {"type": "Feature", "geometry": {"coordinates": [[-87.695733, 41.880173], [-87.696261, 41.880169], [-87.696286, 41.881077], [-87.701206, 41.88103], [-87.701479, 41.889426], [-87.701974, 41.891131], [-87.702461, 41.899238], [-87.701727, 41.899247], [-87.701786, 41.90106], [-87.701311, 41.901064]], "type": "LineString"}, "properties": {}}, {"type": "Feature", "geometry": {"coordinates": [[-87.701311, 41.901064], [-87.700519, 41.901072], [-87.700566, 41.902897], [-87.702278, 41.902886], [-87.70125, 41.907241], [-87.701875, 41.910165], [-87.63858, 41.911039], [-87.638808, 41.918322], [-87.638503, 41.918106]], "type": "LineString"}, "properties": {}}]}