{"type": "FeatureCollection", "features": [{"type": "Feature", "geometry": {"coordinates": [[-87.68191, 42.043758], [-87.681797, 42.042665], [-87.680562, 42.042648], [-87.68054, 42.039944], [-87.678285, 42.028177]], "type": "LineString"}, "properties": {}}, {"type": "Feature", "geometry": {"coordinates": [[-87.678285, 42.028177], [-87.680565, 42.040143], [-87.680521, 42.044073], [-87.679657, 42.046194], [-87.682652, 42.047008], [-87.683456, 42.047037], [-87.685699, 42.047071]], "type": "LineString"}, "properties": {}}, {"type": "Feature", "geometry": {"coordinates": [[-87.685699, 42.047071], [-87.68872, 42.047097], [-87.688374, 42.041263], [-87.687595, 42.037646], [-87.680914, 42.037573], [-87.680612, 42.036146]], "type": "LineString"}, "properties": {}}, {"type": "Feature", "geometry": {"coordinates": [[-87.680612, 42.036146], [-87.680075, 42.03395], [-87.679383, 42.033944], [-87.673112, 42.005339], [-87.67037, 41.996873], [-87.669796, 41.987608], [-87.669769, 41.987519]], "type": "LineString"}, "properties": {}}, {"type": "Feature", "geometry": {"coordinates": [[-87.669769, 41.987519], [-87.669181, 41.985433], [-87.663383, 41.985527], [-87.663294, 41.985603], [-87.662456, 41.985105], [-87.661136, 41.985452], [-87.658072, 41.985487], [-87.658038, 41.984272]], "type": "LineString"}, "properties": {}}, {"type": "Feature", "geometry": {"coordinates": [[-87.658038, 41.984272], [-87.658021, 41.983669], [-87.654482, 41.983848], [-87.653702, 41.983688], [-87.653016, 41.98172], [-87.649277, 41.973607], [-87.648547, 41.97096], [-87.648824, 41.969276], [-87.649644, 41.969172], [-87.650432, 41.971665], [-87.654022, 41.971632], [-87.65406, 41.972395], [-87.652985, 41.972454]], "type": "LineString"}, "properties": {}}, {"type": "Feature", "geometry": {"coordinates": [[-87.652985, 41.972454], [-87.650724, 41.972498], [-87.649644, 41.969172], [-87.648824, 41.969276], [-87.647824, 41.967845], [-87.646482, 41.962051], [-87.646142, 41.95881], [-87.644905, 41.955203], [-87.64469, 41.951193], [-87.639566, 41.942042], [-87.638796, 41.940268], [-87.666233, 41.939729], [-87.666175, 41.937916], [-87.668655, 41.93788], [-87.668473, 41.932963]], "type": "LineString"}, "properties": {}}, {"type": "Feature", "geometry": {"coordinates": [[-87.668473, 41.932963], [-87.668452, 41.9324], [-87.668327, 41.932402], [-87.668463, 41.936057], [-87.663682, 41.936111], [-87.663209, 41.935776]], "type": "LineString"}, "properties": {}}, {"type": "Feature", "geometry": {"coordinates": [[-87.663209, 41.935776], [-87.663682, 41.936111], [-87.639423, 41.936578], [-87.639435, 41.936919]], "type": "LineString"}, "properties": {}}, {"type": "Feature", "geometry": {"coordinates": [[-87.639435, 41.936919], [-87.63931, 41.932914], [-87.658713, 41.932557], [-87.666175, 41.937916], [-87.669017, 41.937875]], "type": "LineString"}, "properties": {}}, {"type": "Feature", "geometry": {"coordinates": [[-87.669017, 41.937875], [-87.671019, 41.937845], [-87.671146, 41.941487], [-87.668652, 41.941519], [-87.669473, 41.973437], [-87.664676, 41.973425], [-87.664708, 41.974559], [-87.663301, 41.974579]], "type": "LineString"}, "properties": {}}, {"type": "Feature", "geometry": {"coordinates": [[-87.663301, 41.974579], [-87.664708, 41.974559], [-87.664755, 41.976246], [-87.674927, 41.976095], [-87.67488, 41.974623]], "type": "LineString"}, "properties": {}}, {"type": "Feature", "geometry": {"coordinates": [[-87.67488, 41.974623], [-87.674845, 41.97335], [-87.679312, 41.973249], [-87.678771, 41.954216], [-87.744598, 41.953455], [-87.744615, 41.951751], [-87.742654, 41.950556], [-87.742642, 41.948]], "type": "LineString"}, "properties": {}}, {"type": "Feature", "geometry": {"coordinates": [[-87.742642, 41.948], [-87.744581, 41.947977], [-87.744515, 41.946155], [-87.766768, 41.945882], [-87.76656, 41.940397], [-87.773207, 41.940315]], "type": "LineString"}, "properties": {}}, {"type": "Feature", "geometry": {"coordinates": [[-87.773207, 41.940315], [-87.773868, 41.940307], [-87.773966, 41.943056], [-87.766666, 41.943137], [-87.767005, 41.953168], [-87.719156, 41.953712], [-87.718284, 41.953111]], "type": "LineString"}, "properties": {}}, {"type": "Feature", "geometry": {"coordinates": [[-87.718284, 41.953111], [-87.712782, 41.949329], [-87.712526, 41.940478], [-87.709442, 41.939977], [-87.668499, 41.915851], [-87.661559, 41.906635], [-87.658834, 41.896667], [-87.646473, 41.886676], [-87.644363, 41.857367], [-87.645793, 41.852447], [-87.644333, 41.849097], [-87.644894, 41.846776], [-87.652708, 41.844955], [-87.667166, 41.837862], [-87.679805, 41.837095], [-87.690167, 41.833938]], "type": "LineString"}, "properties": {}}, {"type": "Feature", "geometry": {"coordinates": [[-87.690167, 41.833938], [-87.695427, 41.832287], [-87.698851, 41.831418], [-87.700566, 41.830863], [-87.704666, 41.829715], [-87.704642, 41.829034], [-87.699332, 41.830574], [-87.680385, 41.836711], [-87.66766, 41.83747], [-87.651867, 41.844887], [-87.642887, 41.846989], [-87.616851, 41.847976], [-87.613392, 41.848153], [-87.612168, 41.84938], [-87.619244, 41.8661], [-87.617003, 41.869799], [-87.617167, 41.881825], [-87.613645, 41.884762], [-87.613978, 41.892577], [-87.619441, 41.900921], [-87.623907, 41.902638], [-87.625717, 41.909833], [-87.626017, 41.913347], [-87.627835, 41.912344], [-87.632438, 41.913334], [-87.633223, 41.911171], [-87.648286, 41.910927], [-87.648495, 41.91731]], "type": "LineString"}, "properties": {}}, {"type": "Feature", "geometry": {"coordinates": [[-87.648495, 41.91731], [-87.649275, 41.939973], [-87.64439, 41.940035], [-87.644433, 41.94114], [-87.644851, 41.941134]], "type": "LineString"}, "properties": {}}, {"type": "Feature", "geometry": {"coordinates": [[-87.644851, 41.941134], [-87.649309, 41.941079], [-87.649275, 41.939973], [-87.761578, 41.93864], [-87.76134, 41.931863]], "type": "LineString"}, "properties": {}}, {"type": "Feature", "geometry": {"coordinates": [[-87.76134, 41.931863], [-87.760848, 41.917826], [-87.75594, 41.916918], [-87.753381, 41.916843], [-87.748825, 41.915033], [-87.748226, 41.914442], [-87.746715, 41.914209], [-87.717777, 41.902754], [-87.679708, 41.903145], [-87.679724, 41.903748]], "type": "LineString"}, "properties": {}}, {"type": "Feature", "geometry": {"coordinates": [[-87.679724, 41.903748], [-87.679734, 41.904077], [-87.677302, 41.904122], [-87.677893, 41.925026], [-87.681912, 41.924981], [-87.685177, 41.926707], [-87.709664, 41.940439], [-87.714861, 41.942208], [-87.719618, 41.947985], [-87.738838, 41.958569], [-87.741371, 41.960451], [-87.747538, 41.960724], [-87.747303, 41.953418], [-87.786554, 41.95292], [-87.786299, 41.945676], [-87.791262, 41.945578], [-87.7913, 41.946512]], "type": "LineString"}, "properties": {}}, {"type": "Feature", "geometry": {"coordinates": [[-87.7913, 41.946512], [-87.791262, 41.945578], [-87.786299, 41.945676], [-87.786554, 41.95292], [-87.731304, 41.953617], [-87.719717, 41.947499], [-87.715518, 41.942115], [-87.709442, 41.939977], [-87.670155, 41.917456], [-87.661559, 41.906635], [-87.661131, 41.901587], [-87.659383, 41.897534], [-87.657508, 41.895016], [-87.657432, 41.893502], [-87.658764, 41.893479]], "type": "LineString"}, "properties": {}}, {"type": "Feature", "geometry": {"coordinates": [[-87.658764, 41.893479], [-87.657432, 41.893502], [-87.65741, 41.892863], [-87.654527, 41.896273], [-87.647675, 41.896405], [-87.648184, 41.907471], [-87.645993, 41.907517], [-87.645521, 41.908031], [-87.646352, 41.908629]], "type": "LineString"}, "properties": {}}, {"type": "Feature", "geometry": {"coordinates": [[-87.646352, 41.908629], [-87.639563, 41.903768], [-87.634474, 41.903857], [-87.634269, 41.898205], [-87.634817, 41.898197]], "type": "LineString"}, "properties": {}}, {"type": "Feature", "geometry": {"coordinates": [[-87.634817, 41.898197], [-87.634269, 41.898205], [-87.634474, 41.903857], [-87.639563, 41.903768], [-87.648257, 41.910013], [-87.649013, 41.932728], [-87.65143, 41.932682], [-87.651425, 41.932534]], "type": "LineString"}, "properties": {}}, {"type": "Feature", "geometry": {"coordinates": [[-87.651425, 41.932534], [-87.651425, 41.932534]], "type": "LineString"}, "properties": {}}, {"type": "Feature", "geometry": {"coordinates": [[-87.651425, 41.932534], [-87.65143, 41.932682], [-87.63931, 41.932914], [-87.636987, 41.930951], [-87.633621, 41.925745], [-87.631853, 41.926001], [-87.630603, 41.923776], [-87.628851, 41.917816], [-87.626142, 41.912297], [-87.62586, 41.909073], [-87.624861, 41.904908], [-87.624179, 41.901978], [-87.624316, 41.893335], [-87.629681, 41.893255], [-87.629727, 41.894584]], "type": "LineString"}, "properties": {}}, {"type": "Feature", "geometry": {"coordinates": [[-87.629727, 41.894584], [-87.629812, 41.897997], [-87.631703, 41.89797]], "type": "LineString"}, "properties": {}}, {"type": "Feature", "geometry": {"coordinates": [[-87.631703, 41.89797], [-87.63283, 41.897954], [-87.632696, 41.891597], [-87.644384, 41.891225], [-87.644242, 41.885699], [-87.645903, 41.885686], [-87.645999, 41.881827], [-87.646134, 41.880956], [-87.646145, 41.879569], [-87.646166, 41.878121], [-87.646107, 41.877218], [-87.646836, 41.876066]], "type": "LineString"}, "properties": {}}, {"type": "Feature", "geometry": {"coordinates": [[-87.646836, 41.876066], [-87.646947, 41.875465], [-87.645662, 41.872433], [-87.645367, 41.869682], [-87.644443, 41.869691], [-87.644854, 41.873493], [-87.644691, 41.874454], [-87.644224, 41.875161], [-87.644167, 41.87559], [-87.645364, 41.877863], [-87.645275, 41.880374], [-87.645355, 41.881847], [-87.645213, 41.883151], [-87.641266, 41.883178], [-87.639745, 41.883185], [-87.635376, 41.883239], [-87.63544, 41.886906], [-87.63637, 41.887983], [-87.63527, 41.888]], "type": "LineString"}, "properties": {}}, {"type": "Feature", "geometry": {"coordinates": [[-87.63527, 41.888], [-87.63637, 41.887983], [-87.636789, 41.888455], [-87.636943, 41.888771], [-87.63704, 41.892368], [-87.628093, 41.892476], [-87.628109, 41.893025]], "type": "LineString"}, "properties": {}}, {"type": "Feature", "geometry": {"coordinates": [[-87.628109, 41.893025], [-87.628116, 41.893279], [-87.629681, 41.893255], [-87.62978, 41.896655], [-87.631243, 41.896633], [-87.631219, 41.895637], [-87.630373, 41.895653]], "type": "LineString"}, "properties": {}}, {"type": "Feature", "geometry": {"coordinates": [[-87.630373, 41.895653], [-87.624197, 41.895748], [-87.624042, 41.900824], [-87.623664, 41.902709], [-87.62589, 41.912141], [-87.628743, 41.918036], [-87.631851, 41.928415], [-87.632273, 41.934701], [-87.638962, 41.941399], [-87.644376, 41.950931], [-87.644572, 41.952992], [-87.644162, 41.954667], [-87.662225, 41.95438], [-87.665071, 41.959336], [-87.664488, 41.959319], [-87.664187, 41.960581]], "type": "LineString"}, "properties": {}}, {"type": "Feature", "geometry": {"coordinates": [[-87.664187, 41.960581], [-87.664488, 41.959319], [-87.665071, 41.959336], [-87.662225, 41.95438], [-87.645235, 41.954634], [-87.639315, 41.941594], [-87.632453, 41.934639], [-87.632048, 41.928427], [-87.62421, 41.902733], [-87.619617, 41.900898], [-87.614304, 41.892985], [-87.614127, 41.884928], [-87.617321, 41.882167], [-87.617442, 41.878363], [-87.620697, 41.878331], [-87.620625, 41.876287], [-87.662425, 41.876121], [-87.66659, 41.876357], [-87.666628, 41.877633], [-87.659447, 41.877751], [-87.659428, 41.877086], [-87.658795, 41.877097], [-87.65908, 41.876989]], "type": "LineString"}, "properties": {}}, {"type": "Feature", "geometry": {"coordinates": [[-87.65908, 41.876989], [-87.658795, 41.877097], [-87.659428, 41.877086], [-87.659411, 41.876477], [-87.666742, 41.876354], [-87.666699, 41.875178], [-87.666292, 41.875183], [-87.650308, 41.875329], [-87.648052, 41.875215], [-87.644983, 41.869485], [-87.644998, 41.850609], [-87.642186, 41.847255], [-87.634652, 41.845323], [-87.63091, 41.84209], [-87.631207, 41.779686], [-87.626113, 41.772231], [-87.624621, 41.72052], [-87.621065, 41.713653], [-87.600337, 41.713191], [-87.592948, 41.708673], [-87.592406, 41.703483], [-87.601798, 41.685512], [-87.601728, 41.676933], [-87.589096, 41.660202], [-87.59119, 41.659512], [-87.560717, 41.658851], [-87.555878, 41.656176], [-87.555649, 41.65737], [-87.553811, 41.65736], [-87.553812, 41.656889]], "type": "LineString"}, "properties": {}}, {"type": "Feature", "geometry": {"coordinates": [[-87.553812, 41.656889], [-87.553811, 41.65736], [-87.557102, 41.657281], [-87.585314, 41.660149], [-87.590822, 41.662478], [-87.601403, 41.675885], [-87.601563, 41.685726], [-87.594329, 41.69908], [-87.591535, 41.705863], [-87.595707, 41.711823], [-87.618809, 41.713575], [-87.62372, 41.717096], [-87.625651, 41.769497], [-87.630747, 41.779495], [-87.630667, 41.838631], [-87.631001, 41.844069], [-87.631057, 41.852781], [-87.630056, 41.852791], [-87.630146, 41.855117], [-87.627201, 41.85654], [-87.627449, 41.870533], [-87.628609, 41.870542], [-87.62857, 41.869756]], "type": "LineString"}, "properties": {}}, {"type": "Feature", "geometry": {"coordinates": [[-87.62857, 41.869756], [-87.628609, 41.870542], [-87.627588, 41.870514], [-87.627505, 41.867466], [-87.640724, 41.867302], [-87.64081, 41.869741], [-87.644443, 41.869691], [-87.644854, 41.873493], [-87.644691, 41.874454], [-87.644224, 41.875161], [-87.644167, 41.87559], [-87.645364, 41.877863], [-87.645275, 41.880374], [-87.645355, 41.881847], [-87.645393, 41.882198], [-87.645396, 41.883308], [-87.645365, 41.885689], [-87.643867, 41.885702]], "type": "LineString"}, "properties": {}}, {"type": "Feature", "geometry": {"coordinates": [[-87.643867, 41.885702], [-87.644242, 41.885699], [-87.644184, 41.884425], [-87.646033, 41.884406]], "type": "LineString"}, "properties": {}}, {"type": "Feature", "geometry": {"coordinates": [[-87.646033, 41.884406], [-87.647438, 41.884415], [-87.64736, 41.881782], [-87.64573, 41.881801], [-87.645735, 41.885306], [-87.647091, 41.888098], [-87.658063, 41.896345], [-87.66062, 41.90111], [-87.661536, 41.907216], [-87.664439, 41.910145], [-87.668818, 41.916712], [-87.675191, 41.920831], [-87.677815, 41.922669], [-87.678349, 41.939586], [-87.673369, 41.939644]], "type": "LineString"}, "properties": {}}, {"type": "Feature", "geometry": {"coordinates": [[-87.673369, 41.939644], [-87.668609, 41.939697], [-87.658713, 41.932557], [-87.653863, 41.932636], [-87.653827, 41.931569]], "type": "LineString"}, "properties": {}}, {"type": "Feature", "geometry": {"coordinates": [[-87.653827, 41.931569], [-87.653741, 41.929016], [-87.648766, 41.925453], [-87.648523, 41.918178], [-87.647123, 41.918199]], "type": "LineString"}, "properties": {}}, {"type": "Feature", "geometry": {"coordinates": [[-87.647123, 41.918199], [-87.654385, 41.918092], [-87.654355, 41.916692], [-87.654774, 41.916375], [-87.654613, 41.916262]], "type": "LineString"}, "properties": {}}, {"type": "Feature", "geometry": {"coordinates": [[-87.654613, 41.916262], [-87.653926, 41.91578], [-87.654316, 41.91545], [-87.65518, 41.916068], [-87.655917, 41.91551], [-87.663168, 41.920731], [-87.663383, 41.927039], [-87.664639, 41.927018], [-87.664634, 41.926889]], "type": "LineString"}, "properties": {}}, {"type": "Feature", "geometry": {"coordinates": [[-87.664634, 41.926889], [-87.664567, 41.925197], [-87.663327, 41.925216], [-87.663682, 41.936111], [-87.666175, 41.937916], [-87.666378, 41.944708]], "type": "LineString"}, "properties": {}}, {"type": "Feature", "geometry": {"coordinates": [[-87.666378, 41.944708], [-87.66644, 41.947045], [-87.663999, 41.947083], [-87.664217, 41.954357], [-87.644162, 41.954667], [-87.652765, 41.984866], [-87.655253, 41.985556], [-87.655634, 41.997803], [-87.659646, 41.998196], [-87.666816, 42.021956], [-87.665312, 42.023203], [-87.667277, 42.026585], [-87.670647, 42.027188], [-87.670554, 42.033741], [-87.672687, 42.033885], [-87.672586, 42.033409]], "type": "LineString"}, "properties": {}}, {"type": "Feature", "geometry": {"coordinates": [[-87.672586, 42.033409], [-87.67207, 42.027203], [-87.678155, 42.027266], [-87.675204, 42.016061], [-87.683076, 42.012318], [-87.675425, 41.994982], [-87.675256, 41.990703], [-87.674711, 41.990712], [-87.674532, 41.980675], [-87.673501, 41.98069]], "type": "LineString"}, "properties": {}}]}