{"type": "FeatureCollection", "features": [{"type": "Feature", "geometry": {"coordinates": [[-87.646384, 41.941839], [-87.644463, 41.941865], [-87.64439, 41.940035], [-87.639412, 41.940126], [-87.638088, 41.940568], [-87.639469, 41.942275], [-87.644437, 41.951086], [-87.644596, 41.954749], [-87.64588, 41.958653], [-87.64669, 41.964019], [-87.646428, 41.965774], [-87.648611, 41.965499], [-87.648701, 41.965847]], "type": "LineString"}, "properties": {}}, {"type": "Feature", "geometry": {"coordinates": [[-87.648701, 41.965847], [-87.648701, 41.965847]], "type": "LineString"}, "properties": {}}, {"type": "Feature", "geometry": {"coordinates": [[-87.648701, 41.965847], [-87.648611, 41.965499], [-87.647973, 41.965571], [-87.646988, 41.964213], [-87.645733, 41.957427], [-87.645546, 41.955777], [-87.645235, 41.954634], [-87.688469, 41.954086], [-87.687986, 41.932176], [-87.700074, 41.932091], [-87.700121, 41.933908], [-87.700481, 41.933907]], "type": "LineString"}, "properties": {}}, {"type": "Feature", "geometry": {"coordinates": [[-87.700481, 41.933907], [-87.702566, 41.933895], [-87.702718, 41.939378], [-87.712487, 41.939288], [-87.712582, 41.942239], [-87.714433, 41.942252], [-87.715459, 41.942862]], "type": "LineString"}, "properties": {}}, {"type": "Feature", "geometry": {"coordinates": [[-87.715459, 41.942862], [-87.712582, 41.942239], [-87.712526, 41.940478], [-87.709442, 41.939977], [-87.669746, 41.917124], [-87.664752, 41.909975], [-87.661559, 41.906635], [-87.661057, 41.901306], [-87.658834, 41.896667], [-87.647099, 41.887778], [-87.646219, 41.885929], [-87.645999, 41.881827], [-87.646134, 41.880956], [-87.646145, 41.879569], [-87.646166, 41.878121], [-87.646815, 41.876334], [-87.649135, 41.875728], [-87.657603, 41.876197], [-87.697949, 41.875633], [-87.70915, 41.874284], [-87.732948, 41.873967], [-87.739541, 41.871955], [-87.749896, 41.871736], [-87.754752, 41.871957], [-87.754713, 41.871048], [-87.75319, 41.871067], [-87.753168, 41.870156], [-87.75023, 41.870191]], "type": "LineString"}, "properties": {}}, {"type": "Feature", "geometry": {"coordinates": [[-87.75023, 41.870191], [-87.753168, 41.870156], [-87.75319, 41.871067], [-87.751008, 41.871368], [-87.739969, 41.871594], [-87.73789, 41.872001], [-87.733692, 41.873537], [-87.724981, 41.873744], [-87.72037, 41.873515], [-87.71995, 41.862885], [-87.71919, 41.86239], [-87.715312, 41.862419], [-87.714953, 41.849851], [-87.716176, 41.849837], [-87.71618, 41.849994]], "type": "LineString"}, "properties": {}}, {"type": "Feature", "geometry": {"coordinates": [[-87.71618, 41.849994], [-87.716226, 41.851656], [-87.715006, 41.851669], [-87.715087, 41.85443], [-87.686158, 41.864713], [-87.680846, 41.869064], [-87.670488, 41.8692]], "type": "LineString"}, "properties": {}}, {"type": "Feature", "geometry": {"coordinates": [[-87.670488, 41.8692], [-87.666531, 41.869262], [-87.666485, 41.866796], [-87.661559, 41.866884], [-87.661417, 41.861535], [-87.656824, 41.861596]], "type": "LineString"}, "properties": {}}, {"type": "Feature", "geometry": {"coordinates": [[-87.656824, 41.861596], [-87.656538, 41.861599], [-87.656555, 41.863264], [-87.653364, 41.867014], [-87.646914, 41.86712], [-87.646884, 41.869551], [-87.644443, 41.869691], [-87.645711, 41.877665], [-87.645735, 41.885306], [-87.647404, 41.888483], [-87.650048, 41.890597], [-87.651108, 41.891699], [-87.650896, 41.892164], [-87.65026, 41.89242], [-87.632511, 41.892423], [-87.632605, 41.895614], [-87.630373, 41.895653]], "type": "LineString"}, "properties": {}}, {"type": "Feature", "geometry": {"coordinates": [[-87.630373, 41.895653], [-87.629762, 41.895665], [-87.62978, 41.896655], [-87.654734, 41.896269], [-87.660056, 41.889969], [-87.662788, 41.885409], [-87.701291, 41.884089], [-87.701464, 41.888916], [-87.700036, 41.888934], [-87.698543, 41.889373]], "type": "LineString"}, "properties": {}}, {"type": "Feature", "geometry": {"coordinates": [[-87.698543, 41.889373], [-87.700036, 41.888934], [-87.701464, 41.888916], [-87.701974, 41.891131], [-87.702191, 41.895594], [-87.667222, 41.896071], [-87.66782, 41.916129], [-87.663815, 41.917067], [-87.658201, 41.917264], [-87.658464, 41.925291], [-87.648766, 41.925453], [-87.648892, 41.929091], [-87.647955, 41.929095]], "type": "LineString"}, "properties": {}}, {"type": "Feature", "geometry": {"coordinates": [[-87.647955, 41.929095], [-87.648892, 41.929091], [-87.647627, 41.891194], [-87.652288, 41.891135], [-87.652212, 41.888087]], "type": "LineString"}, "properties": {}}, {"type": "Feature", "geometry": {"coordinates": [[-87.652212, 41.888087], [-87.652288, 41.891135], [-87.686683, 41.890646], [-87.687207, 41.910324], [-87.699087, 41.910199], [-87.699156, 41.912352], [-87.698734, 41.912356]], "type": "LineString"}, "properties": {}}, {"type": "Feature", "geometry": {"coordinates": [[-87.698734, 41.912356], [-87.701932, 41.912147], [-87.702467, 41.94223], [-87.718284, 41.953111]], "type": "LineString"}, "properties": {}}, {"type": "Feature", "geometry": {"coordinates": [[-87.718284, 41.953111], [-87.71933, 41.953825], [-87.727612, 41.95365], [-87.727395, 41.946377], [-87.735605, 41.946271], [-87.734699, 41.9457], [-87.734593, 41.939903], [-87.732233, 41.939937]], "type": "LineString"}, "properties": {}}, {"type": "Feature", "geometry": {"coordinates": [[-87.732233, 41.939937], [-87.729664, 41.939974], [-87.729641, 41.939065], [-87.688003, 41.939468], [-87.683107, 41.935872], [-87.674697, 41.935976]], "type": "LineString"}, "properties": {}}]}