{"type": "FeatureCollection", "features": [{"type": "Feature", "geometry": {"coordinates": [[-87.67857, 41.907124], [-87.677385, 41.907145], [-87.677494, 41.910469], [-87.665662, 41.910672], [-87.665325, 41.910236], [-87.661559, 41.906635], [-87.66114, 41.905221], [-87.661288, 41.902553], [-87.660921, 41.900902], [-87.659049, 41.896968], [-87.657114, 41.895018], [-87.655657, 41.89377], [-87.654831, 41.89226], [-87.653963, 41.891931], [-87.651034, 41.892554], [-87.624121, 41.892541], [-87.624066, 41.897586], [-87.621852, 41.897618], [-87.62188, 41.899027]], "type": "LineString"}, "properties": {}}, {"type": "Feature", "geometry": {"coordinates": [[-87.62188, 41.899027], [-87.62188, 41.899027]], "type": "LineString"}, "properties": {}}, {"type": "Feature", "geometry": {"coordinates": [[-87.62188, 41.899027], [-87.621902, 41.900045], [-87.631337, 41.899794], [-87.631063, 41.889218], [-87.634021, 41.889159], [-87.634001, 41.888149]], "type": "LineString"}, "properties": {}}, {"type": "Feature", "geometry": {"coordinates": [[-87.634001, 41.888149], [-87.63433, 41.887992], [-87.63637, 41.887983], [-87.636943, 41.888771], [-87.637019, 41.891543], [-87.640016, 41.891501], [-87.643004, 41.891239], [-87.647627, 41.891194], [-87.647683, 41.896808], [-87.648124, 41.905038], [-87.649202, 41.905042], [-87.649323, 41.905133]], "type": "LineString"}, "properties": {}}, {"type": "Feature", "geometry": {"coordinates": [[-87.649323, 41.905133], [-87.649202, 41.905042], [-87.648124, 41.905038], [-87.64782, 41.896403], [-87.668514, 41.89605], [-87.66852, 41.896312]], "type": "LineString"}, "properties": {}}, {"type": "Feature", "geometry": {"coordinates": [[-87.66852, 41.896312], [-87.668514, 41.89605], [-87.672179, 41.895991], [-87.672284, 41.899627], [-87.674089, 41.899597], [-87.67412, 41.90052]], "type": "LineString"}, "properties": {}}, {"type": "Feature", "geometry": {"coordinates": [[-87.67412, 41.90052], [-87.674089, 41.899597], [-87.660982, 41.899842], [-87.660843, 41.899711], [-87.658834, 41.896667], [-87.657114, 41.895018], [-87.655657, 41.89377], [-87.654831, 41.89226], [-87.653963, 41.891931], [-87.651034, 41.892554], [-87.624121, 41.892541], [-87.624066, 41.897586], [-87.621852, 41.897618], [-87.62188, 41.899027]], "type": "LineString"}, "properties": {}}, {"type": "Feature", "geometry": {"coordinates": [[-87.62188, 41.899027], [-87.621885, 41.899246], [-87.618734, 41.899294], [-87.617065, 41.89684], [-87.620387, 41.896781], [-87.620313, 41.894445]], "type": "LineString"}, "properties": {}}, {"type": "Feature", "geometry": {"coordinates": [[-87.620313, 41.894445], [-87.620283, 41.893412], [-87.637063, 41.893148], [-87.64596, 41.892522], [-87.65028, 41.892674], [-87.653268, 41.892622], [-87.658404, 41.896481], [-87.660896, 41.901399], [-87.66137, 41.906646], [-87.670146, 41.917654], [-87.709927, 41.940372], [-87.715306, 41.94215], [-87.719592, 41.947613], [-87.741635, 41.95982], [-87.746287, 41.963594], [-87.747426, 41.975724], [-87.74607, 41.976396], [-87.745776, 41.975364], [-87.747984, 41.975339], [-87.747723, 41.968033], [-87.757623, 41.967938], [-87.758399, 41.968431]], "type": "LineString"}, "properties": {}}, {"type": "Feature", "geometry": {"coordinates": [[-87.758399, 41.968431], [-87.757622, 41.967875], [-87.747723, 41.968033], [-87.747918, 41.972896], [-87.747761, 41.972794], [-87.747223, 41.966563], [-87.745961, 41.963113], [-87.742125, 41.960129], [-87.719592, 41.947613], [-87.715306, 41.94215], [-87.710219, 41.940524], [-87.698173, 41.933659], [-87.687291, 41.927358], [-87.684125, 41.925223], [-87.687645, 41.924902], [-87.687207, 41.910324], [-87.701875, 41.910165], [-87.70125, 41.907241], [-87.702278, 41.902886], [-87.701605, 41.902888]], "type": "LineString"}, "properties": {}}, {"type": "Feature", "geometry": {"coordinates": [[-87.701605, 41.902888], [-87.701605, 41.902888]], "type": "LineString"}, "properties": {}}, {"type": "Feature", "geometry": {"coordinates": [[-87.701605, 41.902888], [-87.667439, 41.903351], [-87.667586, 41.90882], [-87.666429, 41.908834], [-87.666435, 41.909028]], "type": "LineString"}, "properties": {}}, {"type": "Feature", "geometry": {"coordinates": [[-87.666435, 41.909028], [-87.666509, 41.910658], [-87.665662, 41.910672], [-87.665325, 41.910236], [-87.662271, 41.907574], [-87.661439, 41.906386], [-87.661057, 41.901306], [-87.658834, 41.896667], [-87.657114, 41.895018], [-87.6483, 41.889096], [-87.646614, 41.886973], [-87.646108, 41.885119], [-87.646413, 41.883144], [-87.641266, 41.883178], [-87.639745, 41.883185], [-87.624233, 41.883257], [-87.624344, 41.884366], [-87.623414, 41.884372], [-87.617529, 41.884406], [-87.617418, 41.885524], [-87.616288, 41.885561], [-87.616289, 41.886523], [-87.618715, 41.88653]], "type": "LineString"}, "properties": {}}, {"type": "Feature", "geometry": {"coordinates": [[-87.618715, 41.88653], [-87.619106, 41.886506], [-87.6191, 41.885527], [-87.617418, 41.885524], [-87.617389, 41.884538], [-87.627902, 41.884489], [-87.627799, 41.882046], [-87.64573, 41.881801], [-87.646837, 41.887752], [-87.658396, 41.896733], [-87.661253, 41.906799], [-87.669547, 41.91737], [-87.704001, 41.937344], [-87.714861, 41.942208], [-87.719618, 41.947985], [-87.738838, 41.958569], [-87.741371, 41.960451], [-87.794161, 41.960081], [-87.816945, 41.949144], [-87.816641, 41.941072]], "type": "LineString"}, "properties": {}}, {"type": "Feature", "geometry": {"coordinates": [[-87.816641, 41.941072], [-87.816524, 41.93794], [-87.806735, 41.938002], [-87.804598, 41.873618], [-87.769061, 41.87064], [-87.739969, 41.871594], [-87.732676, 41.873637], [-87.708909, 41.873948], [-87.697594, 41.875189], [-87.662068, 41.875578], [-87.656893, 41.875346], [-87.657028, 41.877789], [-87.650731, 41.87789], [-87.650741, 41.878179]], "type": "LineString"}, "properties": {}}, {"type": "Feature", "geometry": {"coordinates": [[-87.650741, 41.878179], [-87.650686, 41.876619], [-87.661848, 41.876439], [-87.661786, 41.874248], [-87.671566, 41.874114], [-87.671553, 41.87368], [-87.672917, 41.873656]], "type": "LineString"}, "properties": {}}, {"type": "Feature", "geometry": {"coordinates": [[-87.672917, 41.873656], [-87.673802, 41.873605], [-87.673871, 41.874083], [-87.676369, 41.874048], [-87.676512, 41.876215], [-87.695752, 41.875985]], "type": "LineString"}, "properties": {}}, {"type": "Feature", "geometry": {"coordinates": [[-87.695752, 41.875985], [-87.698604, 41.87596], [-87.698638, 41.877405], [-87.69832, 41.877408]], "type": "LineString"}, "properties": {}}, {"type": "Feature", "geometry": {"coordinates": [[-87.69832, 41.877408], [-87.696189, 41.877434], [-87.696127, 41.874902], [-87.695509, 41.874908], [-87.690201, 41.875125], [-87.659837, 41.87561], [-87.651569, 41.875318], [-87.629223, 41.875546], [-87.629291, 41.878179], [-87.624208, 41.878293], [-87.624344, 41.884366], [-87.623414, 41.884372], [-87.617529, 41.884406], [-87.617418, 41.885524], [-87.616288, 41.885561], [-87.616289, 41.886523], [-87.619106, 41.886506], [-87.619147, 41.88644]], "type": "LineString"}, "properties": {}}, {"type": "Feature", "geometry": {"coordinates": [[-87.619147, 41.88644], [-87.6191, 41.885527], [-87.617418, 41.885524], [-87.617389, 41.884538], [-87.627902, 41.884489], [-87.627799, 41.882046], [-87.64573, 41.881801], [-87.646594, 41.887382], [-87.651689, 41.891702], [-87.65868, 41.896836], [-87.66137, 41.906646], [-87.670146, 41.917654], [-87.709927, 41.940372], [-87.715306, 41.94215], [-87.719592, 41.947613], [-87.741635, 41.95982], [-87.746287, 41.963594], [-87.747426, 41.975724], [-87.74607, 41.976396], [-87.745776, 41.975364], [-87.713554, 41.975692]], "type": "LineString"}, "properties": {}}, {"type": "Feature", "geometry": {"coordinates": [[-87.713554, 41.975692], [-87.747984, 41.975339], [-87.747918, 41.972896], [-87.747761, 41.972794], [-87.747223, 41.966563], [-87.745961, 41.963113], [-87.742125, 41.960129], [-87.719592, 41.947613], [-87.715306, 41.94215], [-87.710219, 41.940524], [-87.698173, 41.933659], [-87.687291, 41.927358], [-87.683686, 41.924962], [-87.653601, 41.925374], [-87.653827, 41.931569]], "type": "LineString"}, "properties": {}}, {"type": "Feature", "geometry": {"coordinates": [[-87.653827, 41.931569], [-87.653863, 41.932636], [-87.658713, 41.932557], [-87.668729, 41.939809], [-87.678771, 41.954216], [-87.686036, 41.954119], [-87.686052, 41.954591]], "type": "LineString"}, "properties": {}}, {"type": "Feature", "geometry": {"coordinates": [[-87.686052, 41.954591], [-87.686096, 41.955884], [-87.68488, 41.9559], [-87.684818, 41.954032], [-87.668983, 41.954306], [-87.669751, 41.983483], [-87.664956, 41.983555], [-87.665016, 41.985508], [-87.664001, 41.985518]], "type": "LineString"}, "properties": {}}, {"type": "Feature", "geometry": {"coordinates": [[-87.664001, 41.985518], [-87.663294, 41.985603], [-87.660074, 41.983631], [-87.659673, 41.968906], [-87.656894, 41.964503]], "type": "LineString"}, "properties": {}}]}