{"type": "FeatureCollection", "features": [{"type": "Feature", "geometry": {"coordinates": [[-87.694779, 42.015808], [-87.699666, 42.015702], [-87.69973, 42.012074], [-87.75189, 42.011856], [-87.752727, 42.0122], [-87.752369, 42.012826], [-87.750037, 42.010726], [-87.748838, 42.007194], [-87.748976, 42.001046], [-87.750842, 41.995176], [-87.751521, 41.987219], [-87.750815, 41.98526], [-87.746835, 41.980228], [-87.7476, 41.975817], [-87.747228, 41.967806], [-87.747295, 41.964382], [-87.747627, 41.96438], [-87.747013, 41.962872], [-87.747538, 41.960724], [-87.75449, 41.960636], [-87.757803, 41.964478]], "type": "LineString"}, "properties": {}}, {"type": "Feature", "geometry": {"coordinates": [[-87.757803, 41.964478], [-87.757803, 41.964478]], "type": "LineString"}, "properties": {}}, {"type": "Feature", "geometry": {"coordinates": [[-87.757803, 41.964478], [-87.756072, 41.962474], [-87.75745, 41.962461], [-87.756925, 41.94599], [-87.771621, 41.945829], [-87.771486, 41.942171], [-87.769562, 41.942196]], "type": "LineString"}, "properties": {}}, {"type": "Feature", "geometry": {"coordinates": [[-87.769562, 41.942196], [-87.769052, 41.942202], [-87.769117, 41.944037], [-87.776228, 41.943955]], "type": "LineString"}, "properties": {}}, {"type": "Feature", "geometry": {"coordinates": [[-87.776228, 41.943955], [-87.776427, 41.943953], [-87.776499, 41.945774], [-87.766768, 41.945882], [-87.767005, 41.953168], [-87.686033, 41.954016], [-87.686052, 41.954591]], "type": "LineString"}, "properties": {}}, {"type": "Feature", "geometry": {"coordinates": [[-87.686052, 41.954591], [-87.686096, 41.955884], [-87.68488, 41.9559], [-87.684822, 41.954135], [-87.694163, 41.954002], [-87.701923, 41.954012], [-87.701976, 41.955772], [-87.700495, 41.95578]], "type": "LineString"}, "properties": {}}, {"type": "Feature", "geometry": {"coordinates": [[-87.700495, 41.95578], [-87.69831, 41.955792], [-87.698037, 41.946686], [-87.723631, 41.946429], [-87.723636, 41.946606]], "type": "LineString"}, "properties": {}}, {"type": "Feature", "geometry": {"coordinates": [[-87.723636, 41.946606], [-87.723695, 41.948712], [-87.720091, 41.946669], [-87.720056, 41.946478], [-87.71959, 41.946484], [-87.718735, 41.945881], [-87.718156, 41.944989], [-87.718165, 41.94468], [-87.71756, 41.943897], [-87.71735, 41.937393], [-87.713667, 41.937454], [-87.713681, 41.938138]], "type": "LineString"}, "properties": {}}, {"type": "Feature", "geometry": {"coordinates": [[-87.713681, 41.938138], [-87.713703, 41.939271], [-87.712487, 41.939288], [-87.712571, 41.941642], [-87.715981, 41.943044], [-87.719618, 41.947985], [-87.742619, 41.960998], [-87.746732, 41.965012], [-87.747426, 41.975724], [-87.746614, 41.980044], [-87.751348, 41.987222], [-87.75017, 41.989907], [-87.67223, 41.990752], [-87.670085, 41.989706], [-87.669796, 41.987608], [-87.669769, 41.987519]], "type": "LineString"}, "properties": {}}, {"type": "Feature", "geometry": {"coordinates": [[-87.669769, 41.987519], [-87.669181, 41.985433], [-87.668766, 41.983497], [-87.661354, 41.983611], [-87.661271, 41.980907]], "type": "LineString"}, "properties": {}}, {"type": "Feature", "geometry": {"coordinates": [[-87.661271, 41.980907], [-87.661247, 41.979959], [-87.659972, 41.979979], [-87.659665, 41.968862], [-87.656894, 41.964503]], "type": "LineString"}, "properties": {}}, {"type": "Feature", "geometry": {"coordinates": [[-87.656894, 41.964503], [-87.657469, 41.965401], [-87.648611, 41.965499], [-87.646428, 41.965774], [-87.647437, 41.967291], [-87.649207, 41.974381], [-87.652386, 41.98144], [-87.652765, 41.984866], [-87.653488, 41.985504], [-87.655253, 41.985556], [-87.655324, 41.987812]], "type": "LineString"}, "properties": {}}, {"type": "Feature", "geometry": {"coordinates": [[-87.655324, 41.987812], [-87.65567, 41.997897], [-87.656191, 41.998216], [-87.659646, 41.998196], [-87.660644, 41.998874], [-87.660904, 42.005442], [-87.661292, 42.006762], [-87.662865, 42.011614], [-87.664892, 42.015441], [-87.665399, 42.01716], [-87.667605, 42.01712]], "type": "LineString"}, "properties": {}}, {"type": "Feature", "geometry": {"coordinates": [[-87.667605, 42.01712], [-87.670321, 42.017079], [-87.670356, 42.016659], [-87.670302, 42.016001], [-87.668932, 42.016027]], "type": "LineString"}, "properties": {}}, {"type": "Feature", "geometry": {"coordinates": [[-87.668932, 42.016027], [-87.669077, 42.016024], [-87.668107, 42.015225], [-87.668144, 42.015005], [-87.670267, 42.014929], [-87.670195, 42.012718], [-87.682294, 42.012511], [-87.682444, 42.012621], [-87.711447, 42.011826], [-87.711691, 41.997354], [-87.766713, 41.99731], [-87.779748, 42.003394]], "type": "LineString"}, "properties": {}}, {"type": "Feature", "geometry": {"coordinates": [[-87.779748, 42.003394], [-87.753476, 41.991079], [-87.746835, 41.980228], [-87.747223, 41.966563], [-87.745232, 41.962358], [-87.719592, 41.947613], [-87.715306, 41.94215], [-87.709927, 41.940372], [-87.670146, 41.917654], [-87.66137, 41.906646], [-87.659246, 41.897685], [-87.647531, 41.888343], [-87.645999, 41.881827], [-87.646134, 41.880956], [-87.646145, 41.879569], [-87.646166, 41.878121], [-87.646815, 41.876334], [-87.649135, 41.875728], [-87.688313, 41.875763], [-87.692409, 41.875862], [-87.705721, 41.875893], [-87.705737, 41.876665]], "type": "LineString"}, "properties": {}}]}