{"type": "FeatureCollection", "features": [{"type": "Feature", "geometry": {"coordinates": [[-87.669769, 41.987519], [-87.669343, 41.985953], [-87.669943, 41.985943], [-87.66911, 41.954302], [-87.698254, 41.953982], [-87.698037, 41.946686], [-87.712704, 41.946565], [-87.712442, 41.937474], [-87.712967, 41.937466], [-87.714412, 41.936135]], "type": "LineString"}, "properties": {}}, {"type": "Feature", "geometry": {"coordinates": [[-87.714412, 41.936135], [-87.716242, 41.934451], [-87.717283, 41.935091], [-87.717392, 41.939221], [-87.721074, 41.939176], [-87.721149, 41.941947]], "type": "LineString"}, "properties": {}}, {"type": "Feature", "geometry": {"coordinates": [[-87.721149, 41.941947], [-87.721237, 41.944646], [-87.722453, 41.94463], [-87.722503, 41.946444], [-87.766768, 41.945882], [-87.766693, 41.943849]], "type": "LineString"}, "properties": {}}, {"type": "Feature", "geometry": {"coordinates": [[-87.766693, 41.943849], [-87.765779, 41.918746], [-87.753381, 41.916843], [-87.711889, 41.900057], [-87.702222, 41.896575], [-87.702191, 41.895594], [-87.701213, 41.895606]], "type": "LineString"}, "properties": {}}, {"type": "Feature", "geometry": {"coordinates": [[-87.701213, 41.895606], [-87.699899, 41.895625], [-87.687286, 41.890639], [-87.648776, 41.891179], [-87.648695, 41.887378], [-87.649864, 41.887364], [-87.649838, 41.886778], [-87.649954, 41.886776]], "type": "LineString"}, "properties": {}}, {"type": "Feature", "geometry": {"coordinates": [[-87.649954, 41.886776], [-87.651006, 41.88676], [-87.65103, 41.887346], [-87.647536, 41.887389], [-87.647513, 41.886796], [-87.642802, 41.886807], [-87.642815, 41.887871]], "type": "LineString"}, "properties": {}}, {"type": "Feature", "geometry": {"coordinates": [[-87.642815, 41.887871], [-87.642802, 41.886807], [-87.644278, 41.886799], [-87.644184, 41.884425], [-87.646033, 41.884406]], "type": "LineString"}, "properties": {}}, {"type": "Feature", "geometry": {"coordinates": [[-87.646033, 41.884406], [-87.647438, 41.884415], [-87.647482, 41.885665], [-87.646258, 41.885682], [-87.645922, 41.884746], [-87.645999, 41.881827], [-87.646134, 41.880956], [-87.646145, 41.879569], [-87.646166, 41.878121], [-87.646815, 41.876334], [-87.647774, 41.87588], [-87.649135, 41.875728], [-87.657603, 41.876197], [-87.688313, 41.875763], [-87.692409, 41.875862], [-87.696151, 41.875983], [-87.696261, 41.880169], [-87.695733, 41.880173]], "type": "LineString"}, "properties": {}}, {"type": "Feature", "geometry": {"coordinates": [[-87.695733, 41.880173], [-87.696261, 41.880169], [-87.696127, 41.874902], [-87.695509, 41.874908], [-87.690201, 41.875125], [-87.659837, 41.87561], [-87.650308, 41.875329], [-87.647601, 41.875302], [-87.645452, 41.874563], [-87.644482, 41.875077], [-87.64458, 41.876036], [-87.64558, 41.877925], [-87.645654, 41.884644], [-87.646015, 41.886212], [-87.647638, 41.88874], [-87.650048, 41.890597], [-87.651108, 41.891699], [-87.650896, 41.892164], [-87.65026, 41.89242], [-87.628093, 41.892476], [-87.628071, 41.891667], [-87.628847, 41.891657]], "type": "LineString"}, "properties": {}}, {"type": "Feature", "geometry": {"coordinates": [[-87.628847, 41.891657], [-87.631127, 41.891621], [-87.630875, 41.881984], [-87.640505, 41.881877]], "type": "LineString"}, "properties": {}}, {"type": "Feature", "geometry": {"coordinates": [[-87.640505, 41.881877], [-87.641227, 41.88187], [-87.641048, 41.876757], [-87.639817, 41.876769], [-87.639823, 41.875803], [-87.641365, 41.875647], [-87.651991, 41.875736], [-87.657603, 41.876197], [-87.688313, 41.875763], [-87.692409, 41.875862], [-87.701067, 41.875937], [-87.701479, 41.889426], [-87.701974, 41.891131], [-87.702461, 41.899238], [-87.701727, 41.899247], [-87.701735, 41.899439]], "type": "LineString"}, "properties": {}}, {"type": "Feature", "geometry": {"coordinates": [[-87.701735, 41.899439], [-87.701727, 41.899247], [-87.660982, 41.899842], [-87.660843, 41.899711], [-87.658834, 41.896667], [-87.657114, 41.895018], [-87.655657, 41.89377], [-87.654831, 41.89226], [-87.653963, 41.891931], [-87.651034, 41.892554], [-87.63704, 41.892368], [-87.636943, 41.888771], [-87.63637, 41.887983], [-87.63527, 41.888]], "type": "LineString"}, "properties": {}}, {"type": "Feature", "geometry": {"coordinates": [[-87.63527, 41.888], [-87.63637, 41.887983], [-87.636789, 41.888455], [-87.636943, 41.888771], [-87.636984, 41.889941], [-87.631091, 41.890022], [-87.630934, 41.883247], [-87.624884, 41.883254]], "type": "LineString"}, "properties": {}}, {"type": "Feature", "geometry": {"coordinates": [[-87.624884, 41.883254], [-87.624532, 41.883256], [-87.624508, 41.882115], [-87.64573, 41.881801], [-87.645735, 41.885306], [-87.647404, 41.888483], [-87.658783, 41.897251], [-87.660805, 41.901753], [-87.661061, 41.906443], [-87.664439, 41.910145], [-87.668818, 41.916712], [-87.690595, 41.929581], [-87.694122, 41.932133], [-87.687832, 41.932179], [-87.688345, 41.949742]], "type": "LineString"}, "properties": {}}, {"type": "Feature", "geometry": {"coordinates": [[-87.688345, 41.949742], [-87.687413, 41.917587], [-87.705789, 41.917413]], "type": "LineString"}, "properties": {}}, {"type": "Feature", "geometry": {"coordinates": [[-87.705789, 41.917413], [-87.702101, 41.91745], [-87.701859, 41.909737], [-87.701241, 41.907558], [-87.702311, 41.902777], [-87.702431, 41.897899], [-87.70136, 41.886481], [-87.692734, 41.88657], [-87.692681, 41.884708]], "type": "LineString"}, "properties": {}}, {"type": "Feature", "geometry": {"coordinates": [[-87.692681, 41.884708], [-87.692681, 41.884384], [-87.701291, 41.884089], [-87.701479, 41.889426], [-87.701974, 41.891131], [-87.702191, 41.895594], [-87.701213, 41.895606]], "type": "LineString"}, "properties": {}}, {"type": "Feature", "geometry": {"coordinates": [[-87.701213, 41.895606], [-87.775128, 41.894715], [-87.775037, 41.891864], [-87.776438, 41.891796]], "type": "LineString"}, "properties": {}}, {"type": "Feature", "geometry": {"coordinates": [[-87.776438, 41.891796], [-87.775037, 41.891864], [-87.774314, 41.871045], [-87.768508, 41.870653], [-87.739969, 41.871594], [-87.733001, 41.87362], [-87.708909, 41.873948], [-87.69832, 41.875168], [-87.650308, 41.875329], [-87.648052, 41.875215], [-87.646014, 41.874037], [-87.644983, 41.869485], [-87.644357, 41.857055], [-87.645374, 41.852823], [-87.644998, 41.850609], [-87.642186, 41.847255], [-87.634652, 41.845323], [-87.632305, 41.843952], [-87.631511, 41.841797], [-87.63168, 41.838241], [-87.623442, 41.838347], [-87.623338, 41.834707], [-87.620091, 41.834738]], "type": "LineString"}, "properties": {}}, {"type": "Feature", "geometry": {"coordinates": [[-87.620091, 41.834738], [-87.623338, 41.834707], [-87.623244, 41.831047], [-87.631513, 41.830937], [-87.631416, 41.827182], [-87.630703, 41.812695], [-87.63223, 41.807383], [-87.631532, 41.783322], [-87.631838, 41.7799], [-87.625367, 41.78006], [-87.6254, 41.779128]], "type": "LineString"}, "properties": {}}, {"type": "Feature", "geometry": {"coordinates": [[-87.6254, 41.779128], [-87.625218, 41.772818], [-87.62998, 41.772715], [-87.630149, 41.780433], [-87.63142, 41.807989], [-87.629665, 41.812785], [-87.630393, 41.837743], [-87.631347, 41.844144], [-87.642036, 41.847354], [-87.644829, 41.85074], [-87.644517, 41.867845], [-87.644628, 41.873521], [-87.645646, 41.875725], [-87.649223, 41.875863], [-87.697949, 41.875633], [-87.70915, 41.874284], [-87.732948, 41.873967], [-87.740374, 41.87187], [-87.759179, 41.871626], [-87.76449, 41.871836], [-87.765847, 41.907563], [-87.76705, 41.907548], [-87.767091, 41.908707]], "type": "LineString"}, "properties": {}}, {"type": "Feature", "geometry": {"coordinates": [[-87.767091, 41.908707], [-87.767114, 41.909365], [-87.765733, 41.909384], [-87.765997, 41.923987], [-87.746319, 41.92425], [-87.747627, 41.96438], [-87.745977, 41.964394], [-87.746614, 41.980044], [-87.751348, 41.987222], [-87.748589, 42.006167], [-87.748003, 42.010101], [-87.747943, 42.011715], [-87.6836, 42.012217], [-87.683023, 42.012168], [-87.679672, 42.004103], [-87.680339, 42.004091], [-87.68034, 42.004141]], "type": "LineString"}, "properties": {}}, {"type": "Feature", "geometry": {"coordinates": [[-87.68034, 42.004141], [-87.680339, 42.004091], [-87.679672, 42.004103], [-87.680175, 42.005209], [-87.709343, 42.004672], [-87.709354, 41.997394], [-87.766713, 41.99731], [-87.779748, 42.003394]], "type": "LineString"}, "properties": {}}, {"type": "Feature", "geometry": {"coordinates": [[-87.779748, 42.003394], [-87.766713, 41.99731], [-87.711691, 41.997354], [-87.711292, 42.019113], [-87.694891, 42.019432], [-87.694913, 42.017844]], "type": "LineString"}, "properties": {}}, {"type": "Feature", "geometry": {"coordinates": [[-87.694913, 42.017844], [-87.694916, 42.017624], [-87.690193, 42.017725], [-87.690179, 42.019532], [-87.684645, 42.019488], [-87.684812, 42.020734]], "type": "LineString"}, "properties": {}}, {"type": "Feature", "geometry": {"coordinates": [[-87.684812, 42.020734], [-87.683661, 42.013963], [-87.681855, 42.008899], [-87.67684, 41.99796], [-87.655995, 41.99817], [-87.655621, 41.997711], [-87.655324, 41.987812]], "type": "LineString"}, "properties": {}}, {"type": "Feature", "geometry": {"coordinates": [[-87.655324, 41.987812], [-87.655253, 41.985556], [-87.653157, 41.984999], [-87.652706, 41.981232], [-87.649079, 41.973006], [-87.644905, 41.955203], [-87.644611, 41.950978], [-87.638957, 41.941067], [-87.632527, 41.93482], [-87.632048, 41.928427], [-87.627538, 41.915117], [-87.627206, 41.913042], [-87.628067, 41.912346], [-87.632438, 41.913334], [-87.633196, 41.912907], [-87.633223, 41.911171], [-87.66216, 41.910715], [-87.660908, 41.908679]], "type": "LineString"}, "properties": {}}, {"type": "Feature", "geometry": {"coordinates": [[-87.660908, 41.908679], [-87.660908, 41.908679]], "type": "LineString"}, "properties": {}}, {"type": "Feature", "geometry": {"coordinates": [[-87.660908, 41.908679], [-87.66216, 41.910715], [-87.664445, 41.910674], [-87.668091, 41.915886], [-87.670574, 41.91815], [-87.709664, 41.940439], [-87.714861, 41.942208], [-87.719618, 41.947985], [-87.742619, 41.960998], [-87.745149, 41.962671], [-87.749707, 41.964295], [-87.759996, 41.97041], [-87.766074, 41.972489], [-87.78198, 41.981476], [-87.787689, 41.984979], [-87.787821, 41.978418]], "type": "LineString"}, "properties": {}}, {"type": "Feature", "geometry": {"coordinates": [[-87.787821, 41.978418], [-87.787747, 41.982061], [-87.78646, 41.982068], [-87.782771, 41.981608], [-87.766154, 41.972237], [-87.760441, 41.970295], [-87.749887, 41.964121], [-87.74647, 41.962831], [-87.73715, 41.957103], [-87.731304, 41.953617], [-87.688469, 41.953985], [-87.688345, 41.949742]], "type": "LineString"}, "properties": {}}, {"type": "Feature", "geometry": {"coordinates": [[-87.688345, 41.949742], [-87.688146, 41.939587], [-87.678134, 41.932278], [-87.672465, 41.927377], [-87.669348, 41.925139], [-87.648766, 41.925453], [-87.638503, 41.918106]], "type": "LineString"}, "properties": {}}, {"type": "Feature", "geometry": {"coordinates": [[-87.638503, 41.918106], [-87.643784, 41.921883], [-87.659737, 41.921657]], "type": "LineString"}, "properties": {}}, {"type": "Feature", "geometry": {"coordinates": [[-87.659737, 41.921657], [-87.65834, 41.921676], [-87.658464, 41.925291], [-87.646336, 41.925491], [-87.64637, 41.926694], [-87.642153, 41.926767], [-87.641326, 41.927017], [-87.641881, 41.927956]], "type": "LineString"}, "properties": {}}, {"type": "Feature", "geometry": {"coordinates": [[-87.641881, 41.927956], [-87.640463, 41.92558], [-87.634084, 41.925697], [-87.631853, 41.926001], [-87.630603, 41.923776], [-87.629189, 41.918735], [-87.627538, 41.915117], [-87.627088, 41.912613], [-87.626281, 41.911131], [-87.625778, 41.907839], [-87.627762, 41.907822], [-87.627665, 41.907408]], "type": "LineString"}, "properties": {}}, {"type": "Feature", "geometry": {"coordinates": [[-87.627665, 41.907408], [-87.627544, 41.906783], [-87.625531, 41.906798], [-87.627004, 41.91244], [-87.626017, 41.913347], [-87.628743, 41.918036], [-87.631735, 41.927967], [-87.632402, 41.934989], [-87.638962, 41.941399], [-87.644376, 41.950931], [-87.644572, 41.952992], [-87.644162, 41.954667], [-87.66911, 41.954302], [-87.669013, 41.950641], [-87.669671, 41.950633]], "type": "LineString"}, "properties": {}}, {"type": "Feature", "geometry": {"coordinates": [[-87.669671, 41.950633], [-87.676244, 41.95054], [-87.678771, 41.954216], [-87.708017, 41.953983], [-87.708251, 41.961195], [-87.714367, 41.961119], [-87.714413, 41.962942], [-87.713522, 41.962954]], "type": "LineString"}, "properties": {}}, {"type": "Feature", "geometry": {"coordinates": [[-87.713522, 41.962954], [-87.713199, 41.962957], [-87.713554, 41.975692], [-87.689151, 41.975899], [-87.68922, 41.977715], [-87.688432, 41.977735], [-87.685014, 41.97925], [-87.679565, 41.982043], [-87.679477, 41.983198], [-87.674607, 41.983365], [-87.674641, 41.98833], [-87.669926, 41.988432], [-87.669796, 41.987608], [-87.669769, 41.987519]], "type": "LineString"}, "properties": {}}, {"type": "Feature", "geometry": {"coordinates": [[-87.669769, 41.987519], [-87.669343, 41.985953], [-87.669943, 41.985943], [-87.66911, 41.954302], [-87.688469, 41.954086], [-87.688345, 41.949742]], "type": "LineString"}, "properties": {}}]}