{"type": "FeatureCollection", "features": [{"type": "Feature", "geometry": {"coordinates": [[-87.679061, 42.016798], [-87.679035, 42.019436], [-87.676332, 42.01941], [-87.678089, 42.026691], [-87.68054, 42.039944], [-87.680541, 42.043378]], "type": "LineString"}, "properties": {}}, {"type": "Feature", "geometry": {"coordinates": [[-87.680541, 42.043378], [-87.680565, 42.040143], [-87.680405, 42.039269], [-87.678825, 42.039252], [-87.678821, 42.038819]], "type": "LineString"}, "properties": {}}, {"type": "Feature", "geometry": {"coordinates": [[-87.678821, 42.038819], [-87.678825, 42.039252], [-87.680405, 42.039269], [-87.680569, 42.041201], [-87.688374, 42.041263], [-87.688792, 42.048527], [-87.687935, 42.051264], [-87.698762, 42.064341], [-87.704473, 42.064385]], "type": "LineString"}, "properties": {}}, {"type": "Feature", "geometry": {"coordinates": [[-87.704473, 42.064385], [-87.703442, 42.064377], [-87.703498, 42.056838], [-87.701982, 42.05686], [-87.700381, 42.055608], [-87.698857, 42.055626], [-87.699196, 42.038951]], "type": "LineString"}, "properties": {}}, {"type": "Feature", "geometry": {"coordinates": [[-87.699196, 42.038951], [-87.699142, 42.04112], [-87.727855, 42.040757], [-87.75648, 42.040894], [-87.767061, 42.02643], [-87.77066, 42.026426], [-87.770507, 42.02676], [-87.769481, 42.0268], [-87.76943, 42.027336], [-87.76963, 42.027336]], "type": "LineString"}, "properties": {}}, {"type": "Feature", "geometry": {"coordinates": [[-87.76963, 42.027336], [-87.76943, 42.027336], [-87.769481, 42.0268], [-87.77066, 42.026426], [-87.767061, 42.02643], [-87.766996, 42.023435], [-87.765704, 42.021881], [-87.761657, 42.019212], [-87.759649, 42.019116], [-87.761694, 42.01182], [-87.752799, 42.011779], [-87.749645, 42.009738], [-87.748838, 42.007194], [-87.748976, 42.001046], [-87.750842, 41.995176], [-87.751521, 41.987219], [-87.750815, 41.98526], [-87.746835, 41.980228], [-87.7476, 41.975817], [-87.747228, 41.967806], [-87.747295, 41.964382], [-87.747627, 41.96438], [-87.747013, 41.962872], [-87.747605, 41.962173], [-87.747132, 41.947676]], "type": "LineString"}, "properties": {}}, {"type": "Feature", "geometry": {"coordinates": [[-87.747132, 41.947676], [-87.747303, 41.953418], [-87.644162, 41.954667], [-87.645792, 41.958305], [-87.647541, 41.967723], [-87.647273, 41.969474], [-87.649644, 41.969172], [-87.649907, 41.970105], [-87.654418, 41.970035]], "type": "LineString"}, "properties": {}}, {"type": "Feature", "geometry": {"coordinates": [[-87.654418, 41.970035], [-87.654855, 41.970029], [-87.654833, 41.969091], [-87.656225, 41.96907], [-87.656365, 41.974712]], "type": "LineString"}, "properties": {}}, {"type": "Feature", "geometry": {"coordinates": [[-87.656365, 41.974712], [-87.656408, 41.976381], [-87.659864, 41.976324], [-87.660074, 41.983631], [-87.665884, 41.987189], [-87.669585, 41.987146], [-87.669707, 41.988054], [-87.66987, 41.988049], [-87.669796, 41.987608], [-87.669769, 41.987519]], "type": "LineString"}, "properties": {}}, {"type": "Feature", "geometry": {"coordinates": [[-87.669769, 41.987519], [-87.669343, 41.985953], [-87.669821, 41.985945], [-87.669792, 41.986207], [-87.669866, 41.986767], [-87.674649, 41.986688], [-87.674607, 41.983365], [-87.679301, 41.983257], [-87.679477, 41.983198], [-87.679565, 41.982043], [-87.684398, 41.979533], [-87.684347, 41.977792], [-87.684838, 41.977786]], "type": "LineString"}, "properties": {}}, {"type": "Feature", "geometry": {"coordinates": [[-87.684838, 41.977786], [-87.685587, 41.977775], [-87.685625, 41.978985], [-87.679565, 41.982043], [-87.679477, 41.983198], [-87.661354, 41.983611], [-87.661271, 41.980907]], "type": "LineString"}, "properties": {}}, {"type": "Feature", "geometry": {"coordinates": [[-87.661271, 41.980907], [-87.661247, 41.979959], [-87.659972, 41.979979], [-87.659665, 41.968862], [-87.656894, 41.964503]], "type": "LineString"}, "properties": {}}, {"type": "Feature", "geometry": {"coordinates": [[-87.656894, 41.964503], [-87.654742, 41.961156], [-87.654441, 41.95112], [-87.661697, 41.951016], [-87.661567, 41.946185], [-87.660184, 41.946207]], "type": "LineString"}, "properties": {}}, {"type": "Feature", "geometry": {"coordinates": [[-87.660184, 41.946207], [-87.659147, 41.946223], [-87.658201, 41.917264], [-87.663815, 41.917067], [-87.66782, 41.916129], [-87.667808, 41.912452], [-87.668966, 41.912442], [-87.668983, 41.913123]], "type": "LineString"}, "properties": {}}, {"type": "Feature", "geometry": {"coordinates": [[-87.668983, 41.913123], [-87.668915, 41.910614], [-87.701875, 41.910165], [-87.70125, 41.907241], [-87.702158, 41.903831], [-87.702461, 41.899238], [-87.701974, 41.891131], [-87.701464, 41.888916], [-87.700036, 41.888934], [-87.698543, 41.889373]], "type": "LineString"}, "properties": {}}, {"type": "Feature", "geometry": {"coordinates": [[-87.698543, 41.889373], [-87.699076, 41.889326], [-87.700036, 41.888934], [-87.701464, 41.888916], [-87.701519, 41.889772], [-87.701974, 41.891131], [-87.702191, 41.895594], [-87.681943, 41.895837], [-87.681892, 41.894023], [-87.684163, 41.893977]], "type": "LineString"}, "properties": {}}, {"type": "Feature", "geometry": {"coordinates": [[-87.684163, 41.893977], [-87.686781, 41.89393], [-87.686341, 41.877547], [-87.693785, 41.877461], [-87.693796, 41.878371], [-87.696046, 41.878346]], "type": "LineString"}, "properties": {}}, {"type": "Feature", "geometry": {"coordinates": [[-87.696046, 41.878346], [-87.696214, 41.878344], [-87.696286, 41.881077], [-87.678236, 41.88126]], "type": "LineString"}, "properties": {}}, {"type": "Feature", "geometry": {"coordinates": [[-87.678236, 41.88126], [-87.676638, 41.881323], [-87.676555, 41.875016], [-87.676128, 41.875021], [-87.673504, 41.875431], [-87.6605, 41.875604], [-87.651569, 41.875318], [-87.627629, 41.875571], [-87.627593, 41.874392], [-87.626634, 41.874402], [-87.626671, 41.874067]], "type": "LineString"}, "properties": {}}, {"type": "Feature", "geometry": {"coordinates": [[-87.626671, 41.874067], [-87.626634, 41.874402], [-87.627593, 41.874392], [-87.6276, 41.874559], [-87.629195, 41.874543], [-87.62966, 41.892457], [-87.628093, 41.892476], [-87.628109, 41.893025]], "type": "LineString"}, "properties": {}}, {"type": "Feature", "geometry": {"coordinates": [[-87.628109, 41.893025], [-87.628048, 41.890871], [-87.624208, 41.89093], [-87.624567, 41.888229], [-87.615811, 41.887462], [-87.614014, 41.887175], [-87.61394, 41.885118], [-87.617453, 41.881821], [-87.617261, 41.869765], [-87.619589, 41.866068], [-87.614728, 41.853242], [-87.613506, 41.849799], [-87.614444, 41.848506], [-87.623443, 41.848101], [-87.626818, 41.84732], [-87.630758, 41.848155], [-87.631727, 41.847855], [-87.631351, 41.843118], [-87.631163, 41.834246], [-87.631513, 41.830937], [-87.626457, 41.831008], [-87.626475, 41.83283], [-87.625023, 41.832863]], "type": "LineString"}, "properties": {}}, {"type": "Feature", "geometry": {"coordinates": [[-87.625023, 41.832863], [-87.626475, 41.83283], [-87.626821, 41.846791], [-87.626258, 41.84692], [-87.616851, 41.847976], [-87.613392, 41.848153], [-87.612168, 41.84938], [-87.619244, 41.8661], [-87.617003, 41.869799], [-87.617167, 41.881825], [-87.613645, 41.884762], [-87.614003, 41.89273], [-87.619441, 41.900921], [-87.624048, 41.902893], [-87.631851, 41.928415], [-87.632152, 41.934381], [-87.63676, 41.939073], [-87.638088, 41.940568], [-87.649275, 41.939973], [-87.649331, 41.941802], [-87.646384, 41.941839]], "type": "LineString"}, "properties": {}}]}