{"type": "FeatureCollection", "features": [{"type": "Feature", "geometry": {"coordinates": [[-87.674697, 41.935976], [-87.636854, 41.93662], [-87.636832, 41.936481]], "type": "LineString"}, "properties": {}}, {"type": "Feature", "geometry": {"coordinates": [[-87.636832, 41.936481], [-87.636777, 41.93612], [-87.636752, 41.934991], [-87.636648, 41.934349], [-87.636082, 41.933168], [-87.636256, 41.932844], [-87.637202, 41.932926], [-87.637855, 41.93294], [-87.642737, 41.932848], [-87.64278, 41.934284], [-87.642085, 41.934296]], "type": "LineString"}, "properties": {}}, {"type": "Feature", "geometry": {"coordinates": [[-87.642085, 41.934296], [-87.641392, 41.934308], [-87.641357, 41.932875], [-87.658713, 41.932557], [-87.663682, 41.936111], [-87.663716, 41.937029], [-87.66315, 41.937041]], "type": "LineString"}, "properties": {}}, {"type": "Feature", "geometry": {"coordinates": [[-87.66315, 41.937041], [-87.661261, 41.93707], [-87.661195, 41.934332], [-87.658713, 41.932557], [-87.65822, 41.932567]], "type": "LineString"}, "properties": {}}, {"type": "Feature", "geometry": {"coordinates": [[-87.65822, 41.932567], [-87.658713, 41.932557], [-87.658201, 41.917264], [-87.666413, 41.916455], [-87.66216, 41.910715], [-87.665662, 41.910672], [-87.665325, 41.910236], [-87.658834, 41.896667], [-87.646315, 41.886261], [-87.644998, 41.850609], [-87.642186, 41.847255], [-87.634652, 41.845323], [-87.63091, 41.84209], [-87.631207, 41.779686], [-87.626113, 41.772231], [-87.624621, 41.72052], [-87.621065, 41.713653], [-87.600337, 41.713191], [-87.592948, 41.708673], [-87.592406, 41.703483], [-87.601798, 41.685512], [-87.601728, 41.676933], [-87.589096, 41.660202], [-87.59119, 41.659512], [-87.560717, 41.658851], [-87.555878, 41.656176], [-87.555649, 41.65737], [-87.553811, 41.65736], [-87.553812, 41.656889]], "type": "LineString"}, "properties": {}}, {"type": "Feature", "geometry": {"coordinates": [[-87.553812, 41.656889], [-87.553812, 41.656889]], "type": "LineString"}, "properties": {}}, {"type": "Feature", "geometry": {"coordinates": [[-87.553812, 41.656889], [-87.553811, 41.65736], [-87.557102, 41.657281], [-87.585314, 41.660149], [-87.590822, 41.662478], [-87.601403, 41.675885], [-87.601563, 41.685726], [-87.594329, 41.69908], [-87.591535, 41.705863], [-87.595707, 41.711823], [-87.618809, 41.713575], [-87.62372, 41.717096], [-87.625651, 41.769497], [-87.630747, 41.779495], [-87.630667, 41.838631], [-87.631001, 41.844069], [-87.630081, 41.846653], [-87.616851, 41.847976], [-87.612514, 41.847311], [-87.609757, 41.841157], [-87.609375, 41.839163], [-87.615619, 41.854301], [-87.616027, 41.855615], [-87.616271, 41.855561], [-87.615604, 41.854397], [-87.615902, 41.854329]], "type": "LineString"}, "properties": {}}, {"type": "Feature", "geometry": {"coordinates": [[-87.615902, 41.854329], [-87.615902, 41.854329]], "type": "LineString"}, "properties": {}}, {"type": "Feature", "geometry": {"coordinates": [[-87.615902, 41.854329], [-87.615604, 41.854397], [-87.616271, 41.855561], [-87.616027, 41.855615], [-87.615619, 41.854301], [-87.615992, 41.85521], [-87.616959, 41.854986], [-87.616876, 41.85573], [-87.616543, 41.856402], [-87.617503, 41.857757], [-87.61714, 41.857849], [-87.615656, 41.855456], [-87.613763, 41.851178], [-87.608419, 41.838015], [-87.607384, 41.832923], [-87.6048, 41.82949], [-87.602929, 41.827907]], "type": "LineString"}, "properties": {}}, {"type": "Feature", "geometry": {"coordinates": [[-87.602929, 41.827907], [-87.60211, 41.827252], [-87.600903, 41.82517], [-87.599849, 41.825435], [-87.600748, 41.826609], [-87.605174, 41.830371], [-87.607125, 41.833032], [-87.60772, 41.835059], [-87.607604, 41.837877], [-87.608597, 41.840553], [-87.60843, 41.840629], [-87.609579, 41.842585], [-87.610738, 41.845843]], "type": "LineString"}, "properties": {}}, {"type": "Feature", "geometry": {"coordinates": [[-87.610738, 41.845843], [-87.608422, 41.840286], [-87.609923, 41.842314], [-87.613467, 41.852437], [-87.618709, 41.863523], [-87.62045, 41.867696], [-87.620609, 41.884517], [-87.624371, 41.884484], [-87.624431, 41.88577], [-87.626286, 41.88576], [-87.627125, 41.888453], [-87.626665, 41.889909]], "type": "LineString"}, "properties": {}}, {"type": "Feature", "geometry": {"coordinates": [[-87.626665, 41.889909], [-87.626742, 41.892498], [-87.621881, 41.892574]], "type": "LineString"}, "properties": {}}, {"type": "Feature", "geometry": {"coordinates": [[-87.621881, 41.892574], [-87.620263, 41.892588], [-87.620761, 41.887957], [-87.625188, 41.888311], [-87.62718, 41.886918], [-87.635761, 41.886721], [-87.636719, 41.886077], [-87.636963, 41.885505], [-87.636895, 41.878024], [-87.636543, 41.876121], [-87.635908, 41.875927], [-87.634264, 41.876336], [-87.634064, 41.87588], [-87.641651, 41.875644], [-87.643837, 41.875809], [-87.645614, 41.876437], [-87.646562, 41.876207], [-87.646845, 41.87554], [-87.645662, 41.872433], [-87.645367, 41.869682], [-87.645084, 41.865913], [-87.645789, 41.865904]], "type": "LineString"}, "properties": {}}, {"type": "Feature", "geometry": {"coordinates": [[-87.645789, 41.865904], [-87.64688, 41.865891], [-87.646914, 41.86712], [-87.644093, 41.86715], [-87.644123, 41.867888], [-87.644628, 41.873521], [-87.644827, 41.874907], [-87.645646, 41.875725], [-87.646533, 41.875961], [-87.649223, 41.875863], [-87.652598, 41.875763], [-87.657603, 41.876197], [-87.688313, 41.875763], [-87.692409, 41.875862], [-87.698604, 41.87596], [-87.698638, 41.877405], [-87.69832, 41.877408]], "type": "LineString"}, "properties": {}}, {"type": "Feature", "geometry": {"coordinates": [[-87.69832, 41.877408], [-87.696189, 41.877434], [-87.696286, 41.881077], [-87.686432, 41.881166], [-87.687018, 41.903025], [-87.679708, 41.903145], [-87.679724, 41.903748]], "type": "LineString"}, "properties": {}}, {"type": "Feature", "geometry": {"coordinates": [[-87.679724, 41.903748], [-87.679734, 41.904077], [-87.677302, 41.904122], [-87.677893, 41.925026], [-87.648766, 41.925453], [-87.648892, 41.929091], [-87.647955, 41.929095]], "type": "LineString"}, "properties": {}}]}