{"type": "FeatureCollection", "features": [{"type": "Feature", "geometry": {"coordinates": [[-87.685429, 42.068473], [-87.68542, 42.068746], [-87.697998, 42.068882], [-87.698067, 42.064331], [-87.728131, 42.064611], [-87.730613, 42.062484], [-87.756298, 42.062565], [-87.756812, 42.063707], [-87.755346, 42.063244], [-87.755495, 42.061288], [-87.761767, 42.05296], [-87.76256, 42.042449], [-87.768058, 42.034858], [-87.768925, 42.027501], [-87.766419, 42.021928], [-87.752686, 42.013632], [-87.749252, 42.009007], [-87.748976, 42.001046], [-87.751521, 41.987219], [-87.746835, 41.980228], [-87.747228, 41.967806], [-87.747295, 41.964382], [-87.747627, 41.96438], [-87.746096, 41.916928], [-87.753381, 41.916843], [-87.752822, 41.916619], [-87.75284, 41.91491], [-87.754209, 41.914836]], "type": "LineString"}, "properties": {"timestamp": "2023-10-11T16:18:17", "type": "ride"}}, {"type": "Feature", "geometry": {"coordinates": [[-87.754209, 41.914836], [-87.75284, 41.91491], [-87.752822, 41.916619], [-87.746005, 41.913935], [-87.743265, 41.807625], [-87.703985, 41.808139], [-87.703846, 41.803404], [-87.705243, 41.803365], [-87.704121, 41.803552], [-87.705762, 41.803682]], "type": "LineString"}, "properties": {"timestamp": "2023-10-11T17:00:18", "type": "transition"}}, {"type": "Feature", "geometry": {"coordinates": [[-87.705762, 41.803682], [-87.704121, 41.803552], [-87.705243, 41.803365], [-87.703846, 41.803404], [-87.704501, 41.828464], [-87.699332, 41.830574], [-87.680385, 41.836711], [-87.66766, 41.83747], [-87.658964, 41.841885], [-87.642563, 41.846659], [-87.644555, 41.850742], [-87.644829, 41.873194], [-87.646837, 41.887752], [-87.658396, 41.896733], [-87.661061, 41.906443], [-87.669227, 41.917096], [-87.704001, 41.937344], [-87.707163, 41.939332], [-87.707595, 41.939599], [-87.707967, 41.95211], [-87.704297, 41.952129], [-87.70425, 41.950433]], "type": "LineString"}, "properties": {"timestamp": "2023-10-11T17:00:18", "type": "ride"}}, {"type": "Feature", "geometry": {"coordinates": [[-87.70425, 41.950433], [-87.704247, 41.950308], [-87.705477, 41.950301], [-87.705589, 41.953997], [-87.708017, 41.953983], [-87.708877, 41.983076], [-87.701587, 41.983108], [-87.701567, 41.98246]], "type": "LineString"}, "properties": {"timestamp": "2023-10-11T17:11:07", "type": "transition"}}, {"type": "Feature", "geometry": {"coordinates": [[-87.701567, 41.98246], [-87.701587, 41.983108], [-87.708877, 41.983076], [-87.708631, 41.973924], [-87.710638, 41.973903], [-87.711032, 41.973699], [-87.711024, 41.972061], [-87.712892, 41.972035], [-87.71348, 41.971882], [-87.713255, 41.96472], [-87.715705, 41.964736], [-87.715647, 41.962927], [-87.713522, 41.962954]], "type": "LineString"}, "properties": {"timestamp": "2023-10-11T17:11:07", "type": "ride"}}, {"type": "Feature", "geometry": {"coordinates": [[-87.713522, 41.962954], [-87.713199, 41.962957], [-87.712908, 41.953809], [-87.673792, 41.954183], [-87.673756, 41.952396], [-87.673469, 41.952401]], "type": "LineString"}, "properties": {"timestamp": "2023-10-11T17:25:45", "type": "transition"}}, {"type": "Feature", "geometry": {"coordinates": [[-87.673469, 41.952401], [-87.673756, 41.952396], [-87.67359, 41.946929], [-87.67855, 41.946869], [-87.678134, 41.932278], [-87.680713, 41.932257], [-87.680658, 41.932073]], "type": "LineString"}, "properties": {"timestamp": "2023-10-11T17:25:45", "type": "ride"}}, {"type": "Feature", "geometry": {"coordinates": [[-87.680658, 41.932073], [-87.680713, 41.932257], [-87.63931, 41.932914], [-87.639537, 41.940119], [-87.638088, 41.940568], [-87.639469, 41.942275], [-87.644376, 41.950931], [-87.644596, 41.954749], [-87.646094, 41.960253], [-87.645534, 41.962086], [-87.639779, 41.962798], [-87.638571, 41.963606]], "type": "LineString"}, "properties": {"timestamp": "2023-10-11T17:38:59", "type": "transition"}}, {"type": "Feature", "geometry": {"coordinates": [[-87.638571, 41.963606], [-87.646878, 41.961908], [-87.644507, 41.950757], [-87.638957, 41.941067], [-87.632453, 41.934639], [-87.632048, 41.928427], [-87.62421, 41.902733], [-87.619617, 41.900898], [-87.614264, 41.892868], [-87.614127, 41.884928], [-87.617453, 41.881821], [-87.617261, 41.869765], [-87.619588, 41.866208], [-87.614728, 41.853242], [-87.613506, 41.849799], [-87.614886, 41.848332], [-87.642108, 41.847245], [-87.651253, 41.845421], [-87.66744, 41.837772], [-87.680443, 41.836967], [-87.718339, 41.82508], [-87.722555, 41.823909], [-87.724004, 41.823672], [-87.724208, 41.830338], [-87.72955, 41.830751], [-87.729553, 41.830238]], "type": "LineString"}, "properties": {"timestamp": "2023-10-11T17:38:59", "type": "ride"}}, {"type": "Feature", "geometry": {"coordinates": [[-87.729553, 41.830238], [-87.72955, 41.830751], [-87.724676, 41.830249], [-87.724107, 41.823534], [-87.723984, 41.823155], [-87.680385, 41.836711], [-87.66766, 41.83747], [-87.658964, 41.841885], [-87.642563, 41.846659], [-87.644555, 41.850742], [-87.64591, 41.885931], [-87.648317, 41.889375], [-87.6586, 41.897003], [-87.661061, 41.906443], [-87.667973, 41.915739], [-87.702371, 41.936443], [-87.715161, 41.942387], [-87.71887, 41.947406], [-87.723791, 41.950079], [-87.727575, 41.952511], [-87.727779, 41.959243]], "type": "LineString"}, "properties": {"timestamp": "2023-10-11T18:06:38", "type": "transition"}}, {"type": "Feature", "geometry": {"coordinates": [[-87.727779, 41.959243], [-87.727783, 41.959621], [-87.729684, 41.960937], [-87.75449, 41.960636], [-87.757803, 41.964478]], "type": "LineString"}, "properties": {"timestamp": "2023-10-11T18:06:38", "type": "ride"}}, {"type": "Feature", "geometry": {"coordinates": [[-87.757803, 41.964478], [-87.75449, 41.960636], [-87.743696, 41.96072], [-87.741062, 41.960809]], "type": "LineString"}, "properties": {"timestamp": "2023-10-11T18:38:31", "type": "transition"}}, {"type": "Feature", "geometry": {"coordinates": [[-87.741062, 41.960809], [-87.725375, 41.960986], [-87.725491, 41.964624], [-87.713874, 41.964757]], "type": "LineString"}, "properties": {"timestamp": "2023-10-11T18:38:31", "type": "ride"}}, {"type": "Feature", "geometry": {"coordinates": [[-87.713874, 41.964757], [-87.713255, 41.96472], [-87.713138, 41.961136], [-87.649918, 41.961843], [-87.649905, 41.961373]], "type": "LineString"}, "properties": {"timestamp": "2023-10-11T19:02:57", "type": "transition"}}, {"type": "Feature", "geometry": {"coordinates": [[-87.649905, 41.961373], [-87.649918, 41.961843], [-87.655148, 41.961772], [-87.656894, 41.964503]], "type": "LineString"}, "properties": {"timestamp": "2023-10-11T19:02:57", "type": "ride"}}, {"type": "Feature", "geometry": {"coordinates": [[-87.656894, 41.964503], [-87.650527, 41.954553], [-87.645235, 41.954634], [-87.645016, 41.95271]], "type": "LineString"}, "properties": {"timestamp": "2023-10-11T19:19:01", "type": "transition"}}, {"type": "Feature", "geometry": {"coordinates": [[-87.645016, 41.95271], [-87.645235, 41.954634], [-87.644611, 41.950978], [-87.639315, 41.941594], [-87.632527, 41.93482], [-87.632048, 41.928427], [-87.629189, 41.918735], [-87.62605, 41.911998], [-87.624861, 41.904908], [-87.624179, 41.901978], [-87.624246, 41.890945], [-87.621986, 41.890981], [-87.624074, 41.890948], [-87.624094, 41.891505]], "type": "LineString"}, "properties": {"timestamp": "2023-10-11T19:19:01", "type": "ride"}}, {"type": "Feature", "geometry": {"coordinates": [[-87.624094, 41.891505], [-87.624094, 41.891505]], "type": "LineString"}, "properties": {"timestamp": "2023-10-11T19:37:15", "type": "transition"}}, {"type": "Feature", "geometry": {"coordinates": [[-87.624094, 41.891505], [-87.624042, 41.900824], [-87.623664, 41.902709], [-87.62589, 41.912141], [-87.628743, 41.918036], [-87.631851, 41.928415], [-87.632273, 41.934701], [-87.638962, 41.941399], [-87.644376, 41.950931], [-87.644572, 41.952992], [-87.644162, 41.954667], [-87.650527, 41.954553], [-87.651109, 41.955464], [-87.652078, 41.955455]], "type": "LineString"}, "properties": {"timestamp": "2023-10-11T19:37:15", "type": "ride"}}, {"type": "Feature", "geometry": {"coordinates": [[-87.652078, 41.955455], [-87.654573, 41.955432], [-87.654549, 41.954492], [-87.688469, 41.954086], [-87.687548, 41.921862], [-87.686959, 41.921868]], "type": "LineString"}, "properties": {"timestamp": "2023-10-12T09:42:10", "type": "transition"}}]}