{"type": "FeatureCollection", "features": [{"type": "Feature", "geometry": {"coordinates": [[-87.664499, 41.921692], [-87.669348, 41.925139], [-87.681912, 41.924981], [-87.685177, 41.926707], [-87.704001, 41.937344], [-87.706803, 41.939132], [-87.707849, 41.939349], [-87.723912, 41.939142], [-87.735605, 41.946271], [-87.739921, 41.946215]], "type": "LineString"}, "properties": {"timestamp": "2023-07-29T22:37:40", "type": "ride"}}, {"type": "Feature", "geometry": {"coordinates": [[-87.739921, 41.946215], [-87.739311, 41.946223], [-87.740947, 41.949504], [-87.749242, 41.954581], [-87.757803, 41.964478]], "type": "LineString"}, "properties": {"timestamp": "2023-07-29T22:52:04", "type": "transition"}}, {"type": "Feature", "geometry": {"coordinates": [[-87.757803, 41.964478], [-87.758052, 41.964761], [-87.757599, 41.964985], [-87.757708, 41.967874], [-87.747723, 41.968033], [-87.747918, 41.972896], [-87.747761, 41.972794], [-87.747223, 41.966563], [-87.745961, 41.963113], [-87.742125, 41.960129], [-87.719592, 41.947613], [-87.715306, 41.94215], [-87.710219, 41.940524], [-87.698173, 41.933659], [-87.687291, 41.927358], [-87.684125, 41.925223], [-87.687645, 41.924902], [-87.687207, 41.910324], [-87.701875, 41.910165], [-87.70125, 41.907241], [-87.702278, 41.902886], [-87.701605, 41.902888]], "type": "LineString"}, "properties": {"timestamp": "2023-07-29T22:52:04", "type": "ride"}}, {"type": "Feature", "geometry": {"coordinates": [[-87.701605, 41.902888], [-87.687018, 41.903025], [-87.686972, 41.901212], [-87.67415, 41.901415], [-87.67412, 41.90052]], "type": "LineString"}, "properties": {"timestamp": "2023-07-29T23:08:44", "type": "transition"}}, {"type": "Feature", "geometry": {"coordinates": [[-87.67412, 41.90052], [-87.67415, 41.901415], [-87.673548, 41.901426], [-87.673606, 41.903247], [-87.667439, 41.903351], [-87.667641, 41.910635], [-87.664445, 41.910674], [-87.668091, 41.915886], [-87.670574, 41.91815], [-87.709664, 41.940439], [-87.714861, 41.942208], [-87.719618, 41.947985], [-87.742619, 41.960998], [-87.74678, 41.965157], [-87.747426, 41.975724], [-87.746886, 41.976477], [-87.74607, 41.976396], [-87.745776, 41.975364], [-87.708696, 41.975749], [-87.708631, 41.973924], [-87.706438, 41.973943]], "type": "LineString"}, "properties": {"timestamp": "2023-07-29T23:08:44", "type": "ride"}}, {"type": "Feature", "geometry": {"coordinates": [[-87.706438, 41.973943], [-87.706198, 41.973946], [-87.706131, 41.97211], [-87.708573, 41.972097], [-87.708696, 41.975749], [-87.689151, 41.975899], [-87.689669, 41.99044], [-87.679823, 41.990622], [-87.67986, 41.991887], [-87.679325, 41.991896]], "type": "LineString"}, "properties": {"timestamp": "2023-07-30T00:12:42", "type": "transition"}}, {"type": "Feature", "geometry": {"coordinates": [[-87.679325, 41.991896], [-87.675304, 41.991961], [-87.67531, 41.992132], [-87.662456, 41.985105], [-87.653157, 41.984999], [-87.648822, 41.972134], [-87.64469, 41.951193], [-87.638957, 41.941067], [-87.632527, 41.93482], [-87.632048, 41.928427], [-87.624861, 41.904908], [-87.624179, 41.901978], [-87.624316, 41.893335], [-87.628116, 41.893279], [-87.628109, 41.893025]], "type": "LineString"}, "properties": {"timestamp": "2023-07-30T00:12:42", "type": "ride"}}, {"type": "Feature", "geometry": {"coordinates": [[-87.628109, 41.893025], [-87.628109, 41.893025]], "type": "LineString"}, "properties": {"timestamp": "2023-07-30T00:32:05", "type": "transition"}}, {"type": "Feature", "geometry": {"coordinates": [[-87.628109, 41.893025], [-87.628048, 41.890871], [-87.624208, 41.89093], [-87.624567, 41.888229], [-87.615811, 41.887462], [-87.614014, 41.887175], [-87.61394, 41.885118], [-87.617453, 41.881821], [-87.617261, 41.869765], [-87.619589, 41.866068], [-87.614728, 41.853242], [-87.613506, 41.849799], [-87.614444, 41.848506], [-87.623443, 41.848101], [-87.626818, 41.84732], [-87.630758, 41.848155], [-87.631727, 41.847855], [-87.631351, 41.843118], [-87.631163, 41.834246], [-87.631513, 41.830937], [-87.626457, 41.831008], [-87.626475, 41.83283], [-87.625023, 41.832863]], "type": "LineString"}, "properties": {"timestamp": "2023-07-30T00:32:05", "type": "ride"}}, {"type": "Feature", "geometry": {"coordinates": [[-87.625023, 41.832863], [-87.625023, 41.832863]], "type": "LineString"}, "properties": {"timestamp": "2023-07-30T00:57:28", "type": "transition"}}, {"type": "Feature", "geometry": {"coordinates": [[-87.625023, 41.832863], [-87.626475, 41.83283], [-87.626578, 41.838297], [-87.630021, 41.838265], [-87.6301, 41.841613], [-87.631814, 41.844491], [-87.637745, 41.846207], [-87.642471, 41.847782], [-87.651785, 41.845286], [-87.66744, 41.837772], [-87.680834, 41.836863], [-87.808237, 41.796778], [-87.817366, 41.796078], [-87.836747, 41.779534], [-87.849313, 41.765701], [-87.852334, 41.76403], [-87.874555, 41.761008], [-87.897628, 41.760818], [-87.902193, 41.761157], [-87.908177, 41.76612], [-87.906285, 41.770484], [-87.907145, 41.774627], [-87.908162, 41.797088], [-87.913363, 41.811357], [-87.914117, 41.818943], [-87.91302, 41.819684], [-87.91339, 41.818744], [-87.92553, 41.816704], [-87.939714, 41.812208], [-87.939525, 41.807768]], "type": "LineString"}, "properties": {"timestamp": "2023-07-30T00:57:28", "type": "ride"}}, {"type": "Feature", "geometry": {"coordinates": [[-87.939525, 41.807768], [-87.939714, 41.812208], [-87.944621, 41.81106], [-87.952533, 41.81784], [-87.953703, 41.829025], [-87.957544, 41.840646], [-87.956534, 41.844182], [-87.94557, 41.845432], [-87.93305, 41.853085], [-87.922937, 41.864502], [-87.919232, 41.868165], [-87.911351, 41.872171], [-87.901684, 41.873316], [-87.888177, 41.869444], [-87.882376, 41.869576], [-87.872019, 41.870798], [-87.832982, 41.871337], [-87.810791, 41.874042], [-87.769061, 41.87064], [-87.739969, 41.871594], [-87.733692, 41.873537], [-87.724981, 41.873744], [-87.719779, 41.873518], [-87.72138, 41.9009], [-87.720148, 41.900912], [-87.720195, 41.902469]], "type": "LineString"}, "properties": {"timestamp": "2023-08-01T09:34:25", "type": "transition"}}]}