{"type": "FeatureCollection", "features": [{"type": "Feature", "geometry": {"coordinates": [[-87.648495, 41.91731], [-87.648766, 41.925453], [-87.658713, 41.932557], [-87.659238, 41.950599], [-87.664497, 41.958026], [-87.66673, 41.965274], [-87.663838, 41.965314], [-87.663815, 41.965153]], "type": "LineString"}, "properties": {"timestamp": "2023-12-11T16:10:23", "type": "ride"}}, {"type": "Feature", "geometry": {"coordinates": [[-87.663815, 41.965153], [-87.663838, 41.965314], [-87.669262, 41.96524], [-87.669707, 41.988054], [-87.669796, 41.987608], [-87.669769, 41.987519]], "type": "LineString"}, "properties": {"timestamp": "2023-12-11T16:30:40", "type": "transition"}}, {"type": "Feature", "geometry": {"coordinates": [[-87.669769, 41.987519], [-87.669343, 41.985953], [-87.669943, 41.985943], [-87.669477, 41.968876], [-87.659673, 41.969021], [-87.656894, 41.964503]], "type": "LineString"}, "properties": {"timestamp": "2023-12-11T16:30:40", "type": "ride"}}, {"type": "Feature", "geometry": {"coordinates": [[-87.656894, 41.964503], [-87.65631, 41.96359], [-87.654769, 41.963605], [-87.654759, 41.962692], [-87.65212, 41.962725]], "type": "LineString"}, "properties": {"timestamp": "2023-12-11T16:38:30", "type": "transition"}}, {"type": "Feature", "geometry": {"coordinates": [[-87.65212, 41.962725], [-87.649944, 41.962747], [-87.649918, 41.961843], [-87.669185, 41.961593], [-87.669262, 41.96524], [-87.670929, 41.965218], [-87.670902, 41.964075]], "type": "LineString"}, "properties": {"timestamp": "2023-12-11T16:38:30", "type": "ride"}}, {"type": "Feature", "geometry": {"coordinates": [[-87.670902, 41.964075], [-87.670845, 41.961569], [-87.714367, 41.961119], [-87.714413, 41.962942], [-87.713522, 41.962954]], "type": "LineString"}, "properties": {"timestamp": "2023-12-11T16:48:39", "type": "transition"}}, {"type": "Feature", "geometry": {"coordinates": [[-87.713522, 41.962954], [-87.713199, 41.962957], [-87.713554, 41.975692], [-87.689151, 41.975899], [-87.68922, 41.977715], [-87.688432, 41.977735], [-87.685014, 41.97925], [-87.679565, 41.982043], [-87.679477, 41.983198], [-87.674607, 41.983365], [-87.674641, 41.98833], [-87.669926, 41.988432], [-87.669796, 41.987608], [-87.669769, 41.987519]], "type": "LineString"}, "properties": {"timestamp": "2023-12-11T16:48:39", "type": "ride"}}, {"type": "Feature", "geometry": {"coordinates": [[-87.669769, 41.987519], [-87.669644, 41.986933], [-87.669181, 41.985433], [-87.668766, 41.983497], [-87.666707, 41.983528]], "type": "LineString"}, "properties": {"timestamp": "2023-12-11T16:59:59", "type": "transition"}}, {"type": "Feature", "geometry": {"coordinates": [[-87.666707, 41.983528], [-87.679477, 41.983198], [-87.679565, 41.982043], [-87.688432, 41.977735], [-87.68922, 41.977715], [-87.689151, 41.975899], [-87.708696, 41.975749], [-87.708478, 41.968457], [-87.720702, 41.968331], [-87.720593, 41.96468], [-87.723039, 41.964652], [-87.723065, 41.965562], [-87.722195, 41.965576]], "type": "LineString"}, "properties": {"timestamp": "2023-12-11T16:59:59", "type": "ride"}}, {"type": "Feature", "geometry": {"coordinates": [[-87.722195, 41.965576], [-87.723065, 41.965562], [-87.723143, 41.968304], [-87.714891, 41.968394]], "type": "LineString"}, "properties": {"timestamp": "2023-12-11T17:11:58", "type": "transition"}}, {"type": "Feature", "geometry": {"coordinates": [[-87.714891, 41.968394], [-87.713373, 41.968411], [-87.712908, 41.953809], [-87.701921, 41.953917], [-87.701972, 41.955614]], "type": "LineString"}, "properties": {"timestamp": "2023-12-11T17:11:58", "type": "ride"}}, {"type": "Feature", "geometry": {"coordinates": [[-87.701972, 41.955614], [-87.701976, 41.955772], [-87.70075, 41.955778], [-87.700702, 41.954], [-87.704352, 41.954003], [-87.704145, 41.946657], [-87.705359, 41.94665], [-87.705281, 41.943085]], "type": "LineString"}, "properties": {"timestamp": "2023-12-11T17:28:01", "type": "transition"}}, {"type": "Feature", "geometry": {"coordinates": [[-87.705281, 41.943085], [-87.705182, 41.939366], [-87.702718, 41.939378], [-87.702616, 41.935677], [-87.669746, 41.917124], [-87.664752, 41.909975], [-87.661559, 41.906635], [-87.661057, 41.901306], [-87.658834, 41.896667], [-87.6483, 41.889096], [-87.646108, 41.885119], [-87.646413, 41.883144], [-87.641266, 41.883178], [-87.639745, 41.883185], [-87.639932, 41.887293]], "type": "LineString"}, "properties": {"timestamp": "2023-12-11T17:28:01", "type": "ride"}}, {"type": "Feature", "geometry": {"coordinates": [[-87.639932, 41.887293], [-87.64001, 41.889064], [-87.641057, 41.88911], [-87.653397, 41.888985], [-87.653297, 41.885568], [-87.654782, 41.885544]], "type": "LineString"}, "properties": {"timestamp": "2023-12-11T17:42:08", "type": "transition"}}, {"type": "Feature", "geometry": {"coordinates": [[-87.654782, 41.885544], [-87.654467, 41.885549], [-87.654625, 41.891105], [-87.647627, 41.891194], [-87.648495, 41.91731]], "type": "LineString"}, "properties": {"timestamp": "2023-12-11T17:42:08", "type": "ride"}}, {"type": "Feature", "geometry": {"coordinates": [[-87.648495, 41.91731], [-87.648286, 41.910927], [-87.665662, 41.910672], [-87.665325, 41.910236], [-87.661559, 41.906635], [-87.661057, 41.901306], [-87.658563, 41.896333], [-87.647099, 41.887778], [-87.646219, 41.885929], [-87.645999, 41.881827], [-87.646134, 41.880956], [-87.646145, 41.879569], [-87.646166, 41.878121], [-87.646107, 41.877218], [-87.646836, 41.876066]], "type": "LineString"}, "properties": {"timestamp": "2023-12-11T18:04:07", "type": "transition"}}, {"type": "Feature", "geometry": {"coordinates": [[-87.646836, 41.876066], [-87.646947, 41.875465], [-87.645662, 41.872433], [-87.645367, 41.869682], [-87.644443, 41.869691], [-87.645711, 41.877665], [-87.645735, 41.885306], [-87.647404, 41.888483], [-87.650048, 41.890597], [-87.651108, 41.891699], [-87.650896, 41.892164], [-87.65026, 41.89242], [-87.63704, 41.892368], [-87.63724, 41.898165], [-87.634817, 41.898197]], "type": "LineString"}, "properties": {"timestamp": "2023-12-11T18:04:07", "type": "ride"}}, {"type": "Feature", "geometry": {"coordinates": [[-87.634817, 41.898197], [-87.634269, 41.898205], [-87.63421, 41.896586], [-87.621834, 41.896766], [-87.62188, 41.899027]], "type": "LineString"}, "properties": {"timestamp": "2023-12-11T18:17:26", "type": "transition"}}, {"type": "Feature", "geometry": {"coordinates": [[-87.62188, 41.899027], [-87.621902, 41.900045], [-87.631337, 41.899794], [-87.631127, 41.891621], [-87.639878, 41.891506], [-87.644384, 41.891225], [-87.644337, 41.889054], [-87.648718, 41.889017], [-87.648695, 41.887378], [-87.649864, 41.887364], [-87.649838, 41.886778], [-87.649954, 41.886776]], "type": "LineString"}, "properties": {"timestamp": "2023-12-11T18:17:26", "type": "ride"}}, {"type": "Feature", "geometry": {"coordinates": [[-87.649954, 41.886776], [-87.651006, 41.88676], [-87.650961, 41.885607], [-87.646258, 41.885682], [-87.644363, 41.857367], [-87.645245, 41.851247], [-87.642429, 41.847384], [-87.634652, 41.845323], [-87.63091, 41.84209], [-87.631289, 41.79178], [-87.631289, 41.778978], [-87.626564, 41.773198], [-87.626239, 41.768925], [-87.626556, 41.766175], [-87.626545, 41.7655], [-87.644417, 41.765212], [-87.644436, 41.766001]], "type": "LineString"}, "properties": {"timestamp": "2023-12-11T19:12:14", "type": "transition"}}, {"type": "Feature", "geometry": {"coordinates": [[-87.644436, 41.766001], [-87.644417, 41.765212], [-87.624899, 41.765368], [-87.624908, 41.765772], [-87.62543, 41.769557], [-87.626008, 41.77431], [-87.630526, 41.779578], [-87.630393, 41.837743], [-87.631347, 41.844144], [-87.642036, 41.847354], [-87.644778, 41.850632], [-87.64591, 41.885931], [-87.648317, 41.889375], [-87.6586, 41.897003], [-87.661061, 41.906443], [-87.667973, 41.915739], [-87.66968, 41.917898], [-87.667964, 41.917936], [-87.668616, 41.921563], [-87.659737, 41.921657]], "type": "LineString"}, "properties": {"timestamp": "2023-12-11T19:12:14", "type": "ride"}}, {"type": "Feature", "geometry": {"coordinates": [[-87.659737, 41.921657], [-87.65834, 41.921676], [-87.658214, 41.918041], [-87.647123, 41.918199]], "type": "LineString"}, "properties": {"timestamp": "2023-12-11T19:27:46", "type": "transition"}}, {"type": "Feature", "geometry": {"coordinates": [[-87.647123, 41.918199], [-87.648523, 41.918178], [-87.648286, 41.910927], [-87.658619, 41.910768], [-87.659943, 41.907139], [-87.659508, 41.904817], [-87.658892, 41.903997], [-87.658708, 41.903661], [-87.658875, 41.90348], [-87.665045, 41.903374], [-87.665061, 41.903929]], "type": "LineString"}, "properties": {"timestamp": "2023-12-11T19:27:46", "type": "ride"}}, {"type": "Feature", "geometry": {"coordinates": [[-87.665061, 41.903929], [-87.665154, 41.907034], [-87.666333, 41.907019], [-87.666509, 41.910658], [-87.664445, 41.910674], [-87.668091, 41.915886], [-87.670574, 41.91815], [-87.708002, 41.939496], [-87.712586, 41.942429], [-87.713255, 41.96472], [-87.713874, 41.964757]], "type": "LineString"}, "properties": {"timestamp": "2023-12-11T19:48:33", "type": "transition"}}, {"type": "Feature", "geometry": {"coordinates": [[-87.713874, 41.964757], [-87.713255, 41.96472], [-87.713554, 41.975692], [-87.745776, 41.975364], [-87.746796, 41.980645], [-87.751348, 41.987222], [-87.748745, 42.001173], [-87.749189, 42.009518], [-87.752849, 42.014015], [-87.765343, 42.021217], [-87.768599, 42.026582], [-87.768152, 42.034093], [-87.762218, 42.042872], [-87.761543, 42.052877], [-87.754688, 42.063705], [-87.758492, 42.072988], [-87.758778, 42.087288], [-87.76641, 42.09969], [-87.766476, 42.101372], [-87.751501, 42.101217], [-87.751366, 42.113933], [-87.749803, 42.1139]], "type": "LineString"}, "properties": {"timestamp": "2023-12-11T19:48:33", "type": "ride"}}, {"type": "Feature", "geometry": {"coordinates": [[-87.749803, 42.1139], [-87.751366, 42.113933], [-87.751501, 42.101217], [-87.768393, 42.101479], [-87.759119, 42.087684], [-87.758738, 42.073162], [-87.754905, 42.064039], [-87.761767, 42.05296], [-87.768822, 42.026512], [-87.765749, 42.021309], [-87.749252, 42.009007], [-87.751521, 41.987219], [-87.746835, 41.980228], [-87.747223, 41.966563], [-87.742125, 41.960129], [-87.698173, 41.933659], [-87.687291, 41.927358], [-87.684125, 41.925223], [-87.687645, 41.924902], [-87.687413, 41.917587], [-87.702101, 41.91745], [-87.702035, 41.915629], [-87.703717, 41.915612]], "type": "LineString"}, "properties": {"timestamp": "2023-12-12T08:53:28", "type": "transition"}}]}