{"type": "FeatureCollection", "features": [{"type": "Feature", "geometry": {"coordinates": [[-87.779301, 41.917853], [-87.775509, 41.917906], [-87.775719, 41.923827], [-87.646336, 41.925491], [-87.64637, 41.926694], [-87.641326, 41.927017], [-87.641881, 41.927956]], "type": "LineString"}, "properties": {}}, {"type": "Feature", "geometry": {"coordinates": [[-87.641881, 41.927956], [-87.640463, 41.92558], [-87.658464, 41.925291], [-87.65834, 41.921676], [-87.659737, 41.921657]], "type": "LineString"}, "properties": {}}, {"type": "Feature", "geometry": {"coordinates": [[-87.659737, 41.921657], [-87.65834, 41.921676], [-87.658378, 41.917139], [-87.663815, 41.917067], [-87.666413, 41.916455], [-87.66216, 41.910715], [-87.665662, 41.910672], [-87.665325, 41.910236], [-87.661439, 41.906386], [-87.661131, 41.901587], [-87.659049, 41.896968], [-87.647794, 41.888636], [-87.646315, 41.886261], [-87.646015, 41.882928], [-87.646395, 41.880505], [-87.632331, 41.880685], [-87.632362, 41.881953]], "type": "LineString"}, "properties": {}}, {"type": "Feature", "geometry": {"coordinates": [[-87.632362, 41.881953], [-87.64573, 41.881801], [-87.646594, 41.887382], [-87.651689, 41.891702], [-87.65868, 41.896836], [-87.66137, 41.906646], [-87.670146, 41.917654], [-87.709927, 41.940372], [-87.715306, 41.94215], [-87.719592, 41.947613], [-87.741635, 41.95982], [-87.746287, 41.963594], [-87.747426, 41.975724], [-87.74607, 41.976396], [-87.745776, 41.975364], [-87.765782, 41.975122], [-87.766315, 41.975691], [-87.771273, 41.975715], [-87.784738, 41.982513], [-87.812691, 41.982443], [-87.826001, 41.984517], [-87.831845, 41.984836], [-87.834971, 41.98621], [-87.854715, 41.988748], [-87.861116, 41.991658]], "type": "LineString"}, "properties": {}}, {"type": "Feature", "geometry": {"coordinates": [[-87.861116, 41.991658], [-87.859825, 41.991074], [-87.864545, 42.002336], [-87.874626, 42.01802], [-87.876318, 42.023257], [-87.879555, 42.029714]], "type": "LineString"}, "properties": {}}, {"type": "Feature", "geometry": {"coordinates": [[-87.879555, 42.029714], [-87.87693, 42.024573], [-87.873617, 42.025182], [-87.864863, 42.024644], [-87.864829, 42.017596], [-87.86009, 42.012453], [-87.857533, 42.00732], [-87.849522, 42.003198], [-87.836211, 41.99845], [-87.836333, 41.998258]], "type": "LineString"}, "properties": {}}, {"type": "Feature", "geometry": {"coordinates": [[-87.836333, 41.998258], [-87.836718, 41.986105], [-87.839816, 41.984639], [-87.847951, 41.984101], [-87.853935, 41.984487], [-87.860461, 41.986713], [-87.870465, 41.992116], [-87.875224, 41.996518], [-87.898667, 42.007565], [-87.953891, 42.021307], [-87.977902, 42.038006], [-88.018823, 42.056093], [-88.021626, 42.056828], [-88.029256, 42.057979], [-88.029776, 42.059447], [-88.02896, 42.053779], [-88.030904, 42.04186], [-88.031192, 42.018765], [-88.028037, 42.006929], [-88.027973, 42.00329], [-88.023744, 42.00334], [-88.025457, 42.003424]], "type": "LineString"}, "properties": {}}, {"type": "Feature", "geometry": {"coordinates": [[-88.025457, 42.003424], [-88.02798, 42.003402], [-88.023885, 42.003339], [-88.02372, 42.001356], [-88.025118, 42.000963], [-88.030712, 42.017366], [-88.029844, 42.045111], [-88.028387, 42.052731], [-88.027771, 42.054764], [-88.024448, 42.056683], [-88.012455, 42.05373], [-87.97554, 42.03647], [-87.954188, 42.021115], [-87.898161, 42.007134], [-87.87696, 41.997457], [-87.864082, 41.988327], [-87.850425, 41.983769], [-87.829807, 41.984449], [-87.812646, 41.982178], [-87.784776, 41.982266], [-87.759145, 41.969592], [-87.756709, 41.967916], [-87.757623, 41.967938], [-87.758399, 41.968431]], "type": "LineString"}, "properties": {}}]}