{"type": "FeatureCollection", "features": [{"type": "Feature", "geometry": {"coordinates": [[-87.728634, 41.990146], [-87.751817, 41.990525], [-87.751942, 41.991757], [-87.751225, 41.986057], [-87.746835, 41.980228], [-87.747223, 41.966563], [-87.745232, 41.962358], [-87.719592, 41.947613], [-87.715306, 41.94215], [-87.709927, 41.940372], [-87.670146, 41.917654], [-87.66137, 41.906646], [-87.659246, 41.897685], [-87.647531, 41.888343], [-87.646015, 41.882928], [-87.646395, 41.880505], [-87.632331, 41.880685], [-87.632362, 41.881953]], "type": "LineString"}, "properties": {"timestamp": "2023-09-01T15:43:03", "type": "ride", "rideType": "UberX", "pickupAddress": "W Peterson Ave and N Pulaski Rd, Chicago, IL 60646, US", "dropoffAddress": "Terminal 5, O'Hare International Airport (ORD), Chicago, IL 60666, US", "basePay": "15.73", "surge": "6.75", "tip": "4.94", "earnings": "27.42", "duration": "2260", "distance": "10.10", "rideStartTime": "September 01, 2023 at 03:43 PM", "rideEndTime": "September 01, 2023 at 04:20 PM"}}, {"type": "Feature", "geometry": {"coordinates": [[-87.632362, 41.881953], [-87.64573, 41.881801], [-87.646594, 41.887382], [-87.651689, 41.891702], [-87.65868, 41.896836], [-87.66137, 41.906646], [-87.670146, 41.917654], [-87.709927, 41.940372], [-87.715306, 41.94215], [-87.719592, 41.947613], [-87.741635, 41.95982], [-87.746287, 41.963594], [-87.747426, 41.975724], [-87.74607, 41.976396], [-87.745776, 41.975364], [-87.747984, 41.975339], [-87.747723, 41.968033], [-87.77728, 41.967665], [-87.778289, 41.96853], [-87.807176, 41.968273], [-87.807182, 41.967283], [-87.81638, 41.967049], [-87.816393, 41.963925]], "type": "LineString"}, "properties": {"timestamp": "2023-09-01T17:18:38", "type": "transition"}}, {"type": "Feature", "geometry": {"coordinates": [[-87.816393, 41.963925], [-87.816427, 41.959803], [-87.807225, 41.960057], [-87.807255, 41.952771], [-87.796264, 41.952763], [-87.795699, 41.938162], [-87.781412, 41.938379]], "type": "LineString"}, "properties": {"timestamp": "2023-09-01T17:18:38", "type": "ride", "rideType": "UberX", "pickupAddress": "N Harlem Ave, Norridge, IL 60706, US", "dropoffAddress": "W Belmont Ave, River Grove, IL 60171, US", "basePay": "8.54", "surge": "2.00", "tip": "1.00", "earnings": "11.54", "duration": "650", "distance": "2.10", "rideStartTime": "September 01, 2023 at 05:18 PM", "rideEndTime": "September 01, 2023 at 05:29 PM"}}, {"type": "Feature", "geometry": {"coordinates": [[-87.781412, 41.938379], [-87.737024, 41.938973], [-87.736863, 41.933501], [-87.732746, 41.93356]], "type": "LineString"}, "properties": {"timestamp": "2023-09-01T17:36:11", "type": "transition"}}, {"type": "Feature", "geometry": {"coordinates": [[-87.732746, 41.93356], [-87.733178, 41.933554], [-87.733109, 41.931715], [-87.696547, 41.932116], [-87.669405, 41.916815], [-87.664752, 41.909975], [-87.661559, 41.906635], [-87.661131, 41.901587], [-87.659049, 41.896968], [-87.647794, 41.888636], [-87.646315, 41.886261], [-87.646015, 41.882928], [-87.646395, 41.880505], [-87.632331, 41.880685], [-87.632362, 41.881953]], "type": "LineString"}, "properties": {"timestamp": "2023-09-01T17:36:11", "type": "ride", "rideType": "UberX", "pickupAddress": "W Belmont Ave, Elmwood Park, IL 60707-1030, US", "dropoffAddress": "Terminal 3, O'Hare International Airport (ORD), Chicago, IL 60666, US", "basePay": "12.36", "surge": "0.00", "tip": "5.19", "earnings": "17.55", "duration": "1083", "distance": "8.20", "rideStartTime": "September 01, 2023 at 05:36 PM", "rideEndTime": "September 01, 2023 at 05:54 PM"}}, {"type": "Feature", "geometry": {"coordinates": [[-87.632362, 41.881953], [-87.64573, 41.881801], [-87.645735, 41.885306], [-87.646837, 41.887752], [-87.658396, 41.896733], [-87.660726, 41.901461], [-87.661061, 41.906443], [-87.669227, 41.917096], [-87.708002, 41.939496], [-87.712586, 41.942429], [-87.713022, 41.957384]], "type": "LineString"}, "properties": {"timestamp": "2023-09-01T18:51:54", "type": "transition"}}, {"type": "Feature", "geometry": {"coordinates": [[-87.713022, 41.957384], [-87.712911, 41.953916], [-87.757157, 41.953293], [-87.756589, 41.935969], [-87.754141, 41.935999], [-87.754065, 41.93418], [-87.754361, 41.934176]], "type": "LineString"}, "properties": {"timestamp": "2023-09-01T18:51:54", "type": "ride", "rideType": "UberX", "pickupAddress": "N Kimball Ave, Chicago, IL 60618-7524, US", "dropoffAddress": "W Oakdale Ave, Chicago, IL 60641-5016, US", "basePay": "8.14", "surge": "4.50", "tip": "5.00", "earnings": "17.64", "duration": "1099", "distance": "2.20", "rideStartTime": "September 01, 2023 at 06:51 PM", "rideEndTime": "September 01, 2023 at 07:10 PM"}}, {"type": "Feature", "geometry": {"coordinates": [[-87.754361, 41.934176], [-87.756522, 41.934148], [-87.756925, 41.94599], [-87.727395, 41.946377], [-87.727368, 41.945471], [-87.725105, 41.945499]], "type": "LineString"}, "properties": {"timestamp": "2023-09-01T19:07:54", "type": "transition"}}, {"type": "Feature", "geometry": {"coordinates": [[-87.725105, 41.945499], [-87.718551, 41.945584], [-87.718156, 41.944989], [-87.715518, 41.942115], [-87.709442, 41.939977], [-87.668499, 41.915851], [-87.661559, 41.906635], [-87.658834, 41.896667], [-87.646614, 41.886973], [-87.64461, 41.864445], [-87.645245, 41.851247], [-87.642429, 41.847384], [-87.634652, 41.845323], [-87.631511, 41.841797], [-87.63168, 41.838241], [-87.626758, 41.838295], [-87.626711, 41.836401], [-87.626276, 41.836491]], "type": "LineString"}, "properties": {"timestamp": "2023-09-01T19:07:54", "type": "ride", "rideType": "UberX", "pickupAddress": "W Eddy St, Chicago, IL 60641-3427, US", "dropoffAddress": "W 35th St, Chicago, IL 60616, US", "basePay": "21.30", "surge": "0.00", "tip": "0.00", "earnings": "21.30", "duration": "2762", "distance": "11.70", "rideStartTime": "September 01, 2023 at 07:07 PM", "rideEndTime": "September 01, 2023 at 07:53 PM"}}, {"type": "Feature", "geometry": {"coordinates": [[-87.626276, 41.836491], [-87.626711, 41.836401], [-87.62663, 41.831006], [-87.623244, 41.831047], [-87.62314, 41.823762], [-87.621597, 41.823783], [-87.621608, 41.824244]], "type": "LineString"}, "properties": {"timestamp": "2023-09-01T20:07:11", "type": "transition"}}, {"type": "Feature", "geometry": {"coordinates": [[-87.621608, 41.824244], [-87.621754, 41.831064], [-87.629817, 41.830961], [-87.629831, 41.831311], [-87.630393, 41.837743], [-87.630317, 41.842376], [-87.631347, 41.844144], [-87.633465, 41.84523], [-87.642036, 41.847354], [-87.644933, 41.850987], [-87.644156, 41.857362], [-87.645685, 41.885013], [-87.647091, 41.888098], [-87.650048, 41.890597], [-87.651108, 41.891699], [-87.65026, 41.89242], [-87.631145, 41.892439], [-87.631072, 41.889473]], "type": "LineString"}, "properties": {"timestamp": "2023-09-01T20:07:11", "type": "ride", "rideType": "UberX", "pickupAddress": "S Indiana Ave, Chicago, IL 60616, US", "dropoffAddress": "N Clark St, Chicago, IL 60654, US", "basePay": "9.96", "surge": "0.00", "tip": "0.00", "earnings": "9.96", "duration": "977", "distance": "6.20", "rideStartTime": "September 01, 2023 at 08:07 PM", "rideEndTime": "September 01, 2023 at 08:23 PM"}}, {"type": "Feature", "geometry": {"coordinates": [[-87.631072, 41.889473], [-87.631063, 41.889218], [-87.644337, 41.889054], [-87.647627, 41.891194], [-87.686683, 41.890646], [-87.686835, 41.89575], [-87.691761, 41.895706], [-87.691808, 41.897514], [-87.690593, 41.897528], [-87.690571, 41.896716]], "type": "LineString"}, "properties": {"timestamp": "2023-09-05T09:57:35", "type": "transition"}}]}