{"type": "FeatureCollection", "features": [{"type": "Feature", "geometry": {"coordinates": [[-87.722562, 41.900086], [-87.722532, 41.899059], [-87.708783, 41.899176], [-87.699899, 41.895625], [-87.639973, 41.896517], [-87.64005, 41.900464], [-87.636654, 41.900504]], "type": "LineString"}, "properties": {"timestamp": "2023-12-07T07:26:21", "type": "ride"}}, {"type": "Feature", "geometry": {"coordinates": [[-87.636654, 41.900504], [-87.643088, 41.900414], [-87.642947, 41.896481], [-87.65541, 41.896254], [-87.660982, 41.899842], [-87.686926, 41.899379], [-87.687018, 41.903025], [-87.701605, 41.902888]], "type": "LineString"}, "properties": {"timestamp": "2023-12-07T08:06:40", "type": "transition"}}, {"type": "Feature", "geometry": {"coordinates": [[-87.701605, 41.902888], [-87.702278, 41.902886], [-87.700765, 41.86606], [-87.702213, 41.864917], [-87.702318, 41.860512], [-87.700851, 41.856802], [-87.699255, 41.855938], [-87.698938, 41.84804], [-87.695328, 41.84789], [-87.695276, 41.846461], [-87.697744, 41.846431], [-87.697717, 41.845549], [-87.695956, 41.845569]], "type": "LineString"}, "properties": {"timestamp": "2023-12-07T08:06:40", "type": "ride"}}, {"type": "Feature", "geometry": {"coordinates": [[-87.695956, 41.845569], [-87.695243, 41.845577], [-87.694996, 41.833044], [-87.69537, 41.832656], [-87.698851, 41.831418], [-87.700566, 41.830863], [-87.718339, 41.82508], [-87.722555, 41.823909], [-87.724004, 41.823672], [-87.724208, 41.830338], [-87.727196, 41.830308], [-87.72891, 41.83076], [-87.735366, 41.83061], [-87.735199, 41.827166], [-87.729252, 41.827196], [-87.72673, 41.827956]], "type": "LineString"}, "properties": {"timestamp": "2023-12-07T08:22:25", "type": "transition"}}, {"type": "Feature", "geometry": {"coordinates": [[-87.72673, 41.827956], [-87.724177, 41.828755], [-87.724363, 41.836894], [-87.743728, 41.836672], [-87.744871, 41.872073], [-87.752123, 41.872011]], "type": "LineString"}, "properties": {"timestamp": "2023-12-07T08:22:25", "type": "ride"}}, {"type": "Feature", "geometry": {"coordinates": [[-87.752123, 41.872011], [-87.754752, 41.871957], [-87.754521, 41.865756], [-87.725178, 41.866176], [-87.724958, 41.858868], [-87.722485, 41.858897], [-87.722391, 41.856326]], "type": "LineString"}, "properties": {"timestamp": "2023-12-07T08:36:37", "type": "transition"}}, {"type": "Feature", "geometry": {"coordinates": [[-87.722391, 41.856326], [-87.722357, 41.855029], [-87.721092, 41.85504], [-87.72146, 41.864385], [-87.719497, 41.86441], [-87.719779, 41.873518], [-87.719121, 41.873525], [-87.716086, 41.873851], [-87.708482, 41.873969], [-87.704448, 41.874481], [-87.701026, 41.874345], [-87.70111, 41.877385], [-87.69832, 41.877408]], "type": "LineString"}, "properties": {"timestamp": "2023-12-07T08:36:37", "type": "ride"}}, {"type": "Feature", "geometry": {"coordinates": [[-87.69832, 41.877408], [-87.70111, 41.877385], [-87.701067, 41.875937], [-87.701496, 41.875935], [-87.703443, 41.87509], [-87.708052, 41.874348], [-87.732948, 41.873967], [-87.735047, 41.873583], [-87.739541, 41.871955], [-87.749896, 41.871736], [-87.754752, 41.871957], [-87.755071, 41.880818]], "type": "LineString"}, "properties": {"timestamp": "2023-12-07T08:59:15", "type": "transition"}}, {"type": "Feature", "geometry": {"coordinates": [[-87.755071, 41.880818], [-87.754713, 41.871048], [-87.75319, 41.871067], [-87.739558, 41.871635], [-87.733001, 41.87362], [-87.69832, 41.875168], [-87.620619, 41.875815], [-87.620697, 41.878331], [-87.617182, 41.878364], [-87.616996, 41.882205], [-87.613645, 41.884762], [-87.614041, 41.892878], [-87.619441, 41.900921], [-87.624048, 41.902893], [-87.631851, 41.928415], [-87.632152, 41.934381], [-87.638833, 41.941219], [-87.644376, 41.950931], [-87.647541, 41.967723], [-87.647273, 41.969474], [-87.656225, 41.96907], [-87.656365, 41.974712]], "type": "LineString"}, "properties": {"timestamp": "2023-12-07T08:59:15", "type": "ride"}}, {"type": "Feature", "geometry": {"coordinates": [[-87.656365, 41.974712], [-87.656408, 41.976381], [-87.659864, 41.976324], [-87.660074, 41.983631], [-87.665884, 41.987189], [-87.669585, 41.987146], [-87.669707, 41.988054], [-87.66987, 41.988049], [-87.669796, 41.987608], [-87.669769, 41.987519]], "type": "LineString"}, "properties": {"timestamp": "2023-12-07T10:16:46", "type": "transition"}}, {"type": "Feature", "geometry": {"coordinates": [[-87.669769, 41.987519], [-87.669343, 41.985953], [-87.669821, 41.985945], [-87.669568, 41.986947], [-87.66991, 41.989824], [-87.670204, 41.996889], [-87.672167, 42.002613], [-87.673021, 42.002599]], "type": "LineString"}, "properties": {"timestamp": "2023-12-07T10:16:46", "type": "ride"}}, {"type": "Feature", "geometry": {"coordinates": [[-87.673021, 42.002599], [-87.675144, 42.002563], [-87.675223, 42.005299], [-87.673112, 42.005339], [-87.674238, 42.010204], [-87.674804, 42.013758], [-87.672406, 42.013801], [-87.672456, 42.015255]], "type": "LineString"}, "properties": {"timestamp": "2023-12-07T10:34:50", "type": "transition"}}, {"type": "Feature", "geometry": {"coordinates": [[-87.672456, 42.015255], [-87.672368, 42.012681], [-87.682294, 42.012511], [-87.682444, 42.012621], [-87.683329, 42.012227], [-87.69024, 42.012287], [-87.689674, 41.990567], [-87.70943, 41.990388]], "type": "LineString"}, "properties": {"timestamp": "2023-12-07T10:34:50", "type": "ride"}}, {"type": "Feature", "geometry": {"coordinates": [[-87.70943, 41.990388], [-87.67223, 41.990752], [-87.662456, 41.985105], [-87.654178, 41.985586], [-87.653157, 41.984999], [-87.652706, 41.981232], [-87.648822, 41.972134], [-87.644905, 41.955203], [-87.64469, 41.951193], [-87.638957, 41.941067], [-87.632527, 41.93482], [-87.632048, 41.928427], [-87.627538, 41.915117], [-87.627206, 41.913042], [-87.628067, 41.912346], [-87.631075, 41.913404], [-87.632856, 41.913169], [-87.634358, 41.915623], [-87.634849, 41.915479], [-87.638503, 41.918106]], "type": "LineString"}, "properties": {"timestamp": "2023-12-07T10:54:29", "type": "transition"}}, {"type": "Feature", "geometry": {"coordinates": [[-87.638503, 41.918106], [-87.634849, 41.915479], [-87.634358, 41.915623], [-87.632796, 41.913071], [-87.628505, 41.912247], [-87.626932, 41.912316], [-87.624114, 41.90257], [-87.619617, 41.900898], [-87.614264, 41.892868], [-87.614127, 41.884928], [-87.617453, 41.881821], [-87.617261, 41.869765], [-87.619589, 41.866068], [-87.607689, 41.833588], [-87.593977, 41.815295], [-87.58209, 41.803885], [-87.57922, 41.796009], [-87.58022, 41.791662], [-87.574954, 41.781232], [-87.579216, 41.779846], [-87.584175, 41.780203], [-87.604644, 41.780425], [-87.604614, 41.776542]], "type": "LineString"}, "properties": {"timestamp": "2023-12-07T10:54:29", "type": "ride"}}, {"type": "Feature", "geometry": {"coordinates": [[-87.604614, 41.776542], [-87.604581, 41.774977], [-87.586148, 41.775171], [-87.586575, 41.787644], [-87.585422, 41.787942], [-87.584985, 41.788615], [-87.58536, 41.789718], [-87.585341, 41.792075], [-87.583879, 41.792642], [-87.584048, 41.799619], [-87.585511, 41.7996], [-87.58599, 41.800871]], "type": "LineString"}, "properties": {"timestamp": "2023-12-07T12:00:00", "type": "transition"}}, {"type": "Feature", "geometry": {"coordinates": [[-87.58599, 41.800871], [-87.586639, 41.8025], [-87.587802, 41.802516], [-87.589845, 41.807036], [-87.592005, 41.809338], [-87.592028, 41.809694], [-87.588944, 41.810893], [-87.593676, 41.815381], [-87.598158, 41.821212], [-87.600955, 41.826403], [-87.606909, 41.832668], [-87.608141, 41.838145], [-87.610426, 41.843509], [-87.61149, 41.847741], [-87.612641, 41.848604], [-87.623817, 41.848065], [-87.628154, 41.84709], [-87.630973, 41.847424], [-87.634449, 41.847955], [-87.636524, 41.84749], [-87.641219, 41.847736], [-87.64329, 41.848618], [-87.644555, 41.850742], [-87.644517, 41.867845], [-87.644628, 41.873521], [-87.645646, 41.875725], [-87.649223, 41.875863], [-87.662425, 41.876121], [-87.666742, 41.876354], [-87.666531, 41.869262], [-87.670488, 41.8692]], "type": "LineString"}, "properties": {"timestamp": "2023-12-07T12:00:00", "type": "ride"}}, {"type": "Feature", "geometry": {"coordinates": [[-87.670488, 41.8692], [-87.666399, 41.869264], [-87.666563, 41.875179], [-87.666292, 41.875183], [-87.650308, 41.875329], [-87.647601, 41.875302], [-87.645452, 41.874563], [-87.644482, 41.875077], [-87.64458, 41.876036], [-87.645275, 41.880374], [-87.645355, 41.881847], [-87.645393, 41.882198], [-87.64591, 41.885931], [-87.647404, 41.888483], [-87.658783, 41.897251], [-87.660805, 41.901753], [-87.660967, 41.906186], [-87.662226, 41.907951], [-87.664445, 41.910674], [-87.653121, 41.910848], [-87.653217, 41.913746], [-87.651985, 41.913764], [-87.652125, 41.91767]], "type": "LineString"}, "properties": {"timestamp": "2023-12-07T15:54:15", "type": "transition"}}, {"type": "Feature", "geometry": {"coordinates": [[-87.652125, 41.91767], [-87.652141, 41.918124], [-87.648523, 41.918178], [-87.648495, 41.91731]], "type": "LineString"}, "properties": {"timestamp": "2023-12-07T15:54:15", "type": "ride"}}, {"type": "Feature", "geometry": {"coordinates": [[-87.648495, 41.91731], [-87.648892, 41.929091], [-87.645275, 41.929156], [-87.642943, 41.929694], [-87.64223, 41.928546], [-87.642977, 41.928323]], "type": "LineString"}, "properties": {"timestamp": "2023-12-07T16:09:28", "type": "transition"}}, {"type": "Feature", "geometry": {"coordinates": [[-87.642977, 41.928323], [-87.644207, 41.928034], [-87.643933, 41.925527], [-87.631853, 41.926001], [-87.626142, 41.912297], [-87.62421, 41.902733], [-87.619617, 41.900898], [-87.614264, 41.892868], [-87.614127, 41.884928], [-87.617453, 41.881821], [-87.617261, 41.869765], [-87.619588, 41.866208], [-87.614728, 41.853242], [-87.614444, 41.848506], [-87.626818, 41.84732], [-87.631727, 41.847855], [-87.631351, 41.843118], [-87.630789, 41.819121], [-87.631192, 41.816682], [-87.631192, 41.816426], [-87.623022, 41.816544], [-87.623001, 41.815421]], "type": "LineString"}, "properties": {"timestamp": "2023-12-07T16:09:28", "type": "ride"}}, {"type": "Feature", "geometry": {"coordinates": [[-87.623001, 41.815421], [-87.622988, 41.814738], [-87.626222, 41.814689], [-87.626265, 41.816493], [-87.629441, 41.816448], [-87.629444, 41.816639], [-87.630393, 41.837743], [-87.631001, 41.844069], [-87.63096, 41.845776], [-87.630081, 41.846653], [-87.623841, 41.847827], [-87.616851, 41.847976], [-87.613276, 41.848193], [-87.612177, 41.849732], [-87.618709, 41.863523], [-87.62045, 41.867696], [-87.62062, 41.875872]], "type": "LineString"}, "properties": {"timestamp": "2023-12-07T16:26:16", "type": "transition"}}, {"type": "Feature", "geometry": {"coordinates": [[-87.62062, 41.875872], [-87.620697, 41.878331], [-87.617182, 41.878364], [-87.616996, 41.882205], [-87.613645, 41.884762], [-87.614041, 41.892878], [-87.619441, 41.900921], [-87.623983, 41.902767], [-87.631799, 41.928213], [-87.632273, 41.934701], [-87.638833, 41.941219], [-87.644376, 41.950931], [-87.648738, 41.973046], [-87.652765, 41.984866], [-87.662456, 41.985105], [-87.672113, 41.990814], [-87.695751, 41.990472], [-87.695927, 41.995828], [-87.695573, 41.995833]], "type": "LineString"}, "properties": {"timestamp": "2023-12-07T16:26:16", "type": "ride"}}, {"type": "Feature", "geometry": {"coordinates": [[-87.695573, 41.995833], [-87.693495, 41.995863], [-87.693553, 41.997666], [-87.706934, 41.997436], [-87.706973, 41.998152]], "type": "LineString"}, "properties": {"timestamp": "2023-12-07T17:28:30", "type": "transition"}}, {"type": "Feature", "geometry": {"coordinates": [[-87.706973, 41.998152], [-87.707012, 41.999258], [-87.709357, 41.999218], [-87.709089, 41.991365], [-87.695129, 41.983137], [-87.689415, 41.983166], [-87.688512, 41.955627], [-87.688345, 41.949742]], "type": "LineString"}, "properties": {"timestamp": "2023-12-07T17:28:30", "type": "ride"}}, {"type": "Feature", "geometry": {"coordinates": [[-87.688345, 41.949742], [-87.687645, 41.924902], [-87.695613, 41.92483], [-87.695588, 41.923888], [-87.694737, 41.923895]], "type": "LineString"}, "properties": {"timestamp": "2023-12-07T18:03:45", "type": "transition"}}, {"type": "Feature", "geometry": {"coordinates": [[-87.694737, 41.923895], [-87.693734, 41.923903], [-87.693756, 41.924846], [-87.683686, 41.924962], [-87.683325, 41.924765], [-87.67993, 41.923176], [-87.671496, 41.918378], [-87.668499, 41.915851], [-87.664752, 41.909975], [-87.661559, 41.906635], [-87.66114, 41.905221], [-87.661288, 41.902553], [-87.660921, 41.900902], [-87.659049, 41.896968], [-87.657114, 41.895018], [-87.655657, 41.89377], [-87.654831, 41.89226], [-87.653963, 41.891931], [-87.651034, 41.892554], [-87.624293, 41.892538], [-87.624246, 41.890945], [-87.621986, 41.890981], [-87.62164, 41.890945], [-87.624074, 41.890948], [-87.624094, 41.891505]], "type": "LineString"}, "properties": {"timestamp": "2023-12-07T18:03:45", "type": "ride"}}, {"type": "Feature", "geometry": {"coordinates": [[-87.624094, 41.891505], [-87.624121, 41.892541], [-87.620263, 41.892588], [-87.620283, 41.893412], [-87.621935, 41.893376]], "type": "LineString"}, "properties": {"timestamp": "2023-12-07T18:37:28", "type": "transition"}}, {"type": "Feature", "geometry": {"coordinates": [[-87.621935, 41.893376], [-87.622735, 41.89336], [-87.622685, 41.891751], [-87.624238, 41.891729], [-87.624172, 41.889907], [-87.624549, 41.888297], [-87.62549, 41.888214], [-87.626429, 41.887194], [-87.627036, 41.886941], [-87.635171, 41.886919], [-87.635761, 41.886721], [-87.636873, 41.88588], [-87.636965, 41.884459], [-87.646033, 41.884406]], "type": "LineString"}, "properties": {"timestamp": "2023-12-07T18:37:28", "type": "ride"}}, {"type": "Feature", "geometry": {"coordinates": [[-87.646033, 41.884406], [-87.647438, 41.884415], [-87.647482, 41.885665], [-87.646258, 41.885682], [-87.645922, 41.884746], [-87.645999, 41.881827], [-87.646134, 41.880956], [-87.646145, 41.879569], [-87.646166, 41.878121], [-87.646815, 41.876334], [-87.647774, 41.87588], [-87.649135, 41.875728], [-87.657603, 41.876197], [-87.688313, 41.875763], [-87.692409, 41.875862], [-87.701067, 41.875937], [-87.701479, 41.889426], [-87.701974, 41.891131], [-87.702191, 41.895594], [-87.701213, 41.895606]], "type": "LineString"}, "properties": {"timestamp": "2023-12-08T13:31:03", "type": "transition"}}]}