{"type": "FeatureCollection", "features": [{"type": "Feature", "geometry": {"coordinates": [[-87.639435, 41.936919], [-87.639537, 41.940119], [-87.638088, 41.940568], [-87.644437, 41.951086], [-87.648738, 41.973046], [-87.652803, 41.984951], [-87.655253, 41.985556], [-87.655634, 41.997803], [-87.659646, 41.998196], [-87.666866, 42.026154], [-87.668578, 42.027161], [-87.678958, 42.027274], [-87.678877, 42.026622], [-87.685466, 42.026675], [-87.685342, 42.025607], [-87.685572, 42.025609]], "type": "LineString"}, "properties": {}}, {"type": "Feature", "geometry": {"coordinates": [[-87.685572, 42.025609], [-87.690093, 42.025635], [-87.689937, 41.999547], [-87.68384, 41.999642], [-87.6838, 41.998046]], "type": "LineString"}, "properties": {}}, {"type": "Feature", "geometry": {"coordinates": [[-87.6838, 41.998046], [-87.683795, 41.997839], [-87.718483, 41.997281], [-87.729559, 42.004145], [-87.739245, 42.011819], [-87.748445, 42.011822], [-87.764685, 42.020691], [-87.767317, 42.023353], [-87.768599, 42.026582], [-87.768152, 42.034093], [-87.763477, 42.040071], [-87.762218, 42.042872], [-87.761543, 42.052877], [-87.760136, 42.055579], [-87.755714, 42.060438], [-87.754815, 42.061803], [-87.754408, 42.062463], [-87.750323, 42.062419], [-87.750273, 42.064858], [-87.75066, 42.064862]], "type": "LineString"}, "properties": {}}, {"type": "Feature", "geometry": {"coordinates": [[-87.75066, 42.064862], [-87.750273, 42.064858], [-87.750323, 42.062419], [-87.746772, 42.062416], [-87.746988, 42.049713], [-87.750748, 42.046198], [-87.750565, 42.0461], [-87.750587, 42.04358]], "type": "LineString"}, "properties": {}}, {"type": "Feature", "geometry": {"coordinates": [[-87.750587, 42.04358], [-87.750654, 42.040838], [-87.759721, 42.040926], [-87.760384, 42.041165], [-87.762024, 42.043059], [-87.761765, 42.052043], [-87.760136, 42.055579], [-87.755714, 42.060438], [-87.754815, 42.061803], [-87.754408, 42.062463], [-87.750323, 42.062419], [-87.750273, 42.064858], [-87.75066, 42.064862]], "type": "LineString"}, "properties": {}}, {"type": "Feature", "geometry": {"coordinates": [[-87.75066, 42.064862], [-87.750273, 42.064858], [-87.750323, 42.062419], [-87.727436, 42.062482], [-87.727537, 42.055257], [-87.715818, 42.055334], [-87.709349, 42.052539], [-87.706397, 42.05196], [-87.688763, 42.052194], [-87.688069, 42.051448], [-87.688792, 42.048527], [-87.688374, 42.041263], [-87.686761, 42.034007], [-87.684048, 42.033982], [-87.684068, 42.033266]], "type": "LineString"}, "properties": {}}, {"type": "Feature", "geometry": {"coordinates": [[-87.684068, 42.033266], [-87.684048, 42.033982], [-87.710925, 42.033689], [-87.710761, 42.040919], [-87.759721, 42.040926], [-87.762024, 42.043059], [-87.761765, 42.052043], [-87.760136, 42.055579], [-87.755346, 42.061066], [-87.754733, 42.064801], [-87.758492, 42.072988], [-87.758778, 42.087288], [-87.76768, 42.101655], [-87.767834, 42.102657], [-87.766821, 42.102866], [-87.76622, 42.101936], [-87.767201, 42.101471], [-87.78121, 42.101677], [-87.78292, 42.102241], [-87.78689, 42.105208], [-87.799086, 42.105463], [-87.798827, 42.102607], [-87.798669, 42.10261]], "type": "LineString"}, "properties": {}}, {"type": "Feature", "geometry": {"coordinates": [[-87.798669, 42.10261], [-87.798871, 42.105336], [-87.787024, 42.10514], [-87.781421, 42.101596], [-87.769209, 42.101376], [-87.766856, 42.099938], [-87.759119, 42.087684], [-87.758738, 42.073162], [-87.754905, 42.064039], [-87.75591, 42.060525], [-87.761767, 42.05296], [-87.762482, 42.042734], [-87.768058, 42.034858], [-87.768822, 42.026512], [-87.765749, 42.021309], [-87.752686, 42.013632], [-87.749733, 42.010212], [-87.748936, 42.001528], [-87.751322, 41.990329], [-87.752053, 41.989376], [-87.753165, 41.990092], [-87.67223, 41.990752], [-87.662456, 41.985105], [-87.658072, 41.985487], [-87.658038, 41.984272]], "type": "LineString"}, "properties": {}}, {"type": "Feature", "geometry": {"coordinates": [[-87.658038, 41.984272], [-87.658021, 41.983669], [-87.679477, 41.983198], [-87.679565, 41.982043], [-87.688432, 41.977735], [-87.68922, 41.977715], [-87.689151, 41.975899], [-87.708696, 41.975749], [-87.708478, 41.968457], [-87.715821, 41.968384], [-87.715763, 41.966567], [-87.716128, 41.966563]], "type": "LineString"}, "properties": {}}, {"type": "Feature", "geometry": {"coordinates": [[-87.716128, 41.966563], [-87.713315, 41.966593], [-87.713138, 41.961136], [-87.649918, 41.961843], [-87.649893, 41.96095], [-87.649583, 41.960955]], "type": "LineString"}, "properties": {}}, {"type": "Feature", "geometry": {"coordinates": [[-87.649583, 41.960955], [-87.646837, 41.961], [-87.64694, 41.962188], [-87.648279, 41.964152], [-87.649644, 41.969172], [-87.698683, 41.968549], [-87.698757, 41.970722], [-87.695921, 41.970749]], "type": "LineString"}, "properties": {}}, {"type": "Feature", "geometry": {"coordinates": [[-87.695921, 41.970749], [-87.689974, 41.970842], [-87.688961, 41.970413], [-87.688893, 41.968612], [-87.648824, 41.969276], [-87.644507, 41.950757], [-87.632453, 41.934639], [-87.62421, 41.902733], [-87.619617, 41.900898], [-87.614264, 41.892868], [-87.619588, 41.866208], [-87.614728, 41.853242], [-87.614444, 41.848506], [-87.626818, 41.84732], [-87.631727, 41.847855], [-87.631351, 41.843118], [-87.631207, 41.779686], [-87.626113, 41.772231], [-87.624621, 41.72052], [-87.62925, 41.71536], [-87.648733, 41.714664], [-87.652734, 41.712423], [-87.653382, 41.700924], [-87.658942, 41.696057], [-87.662025, 41.687822], [-87.662861, 41.667302], [-87.663294, 41.662843], [-87.704626, 41.662361], [-87.704661, 41.663375], [-87.710159, 41.665334], [-87.71014, 41.664523]], "type": "LineString"}, "properties": {}}, {"type": "Feature", "geometry": {"coordinates": [[-87.71014, 41.664523], [-87.710159, 41.665334], [-87.704661, 41.663375], [-87.704626, 41.662361], [-87.738093, 41.661857], [-87.738526, 41.662219], [-87.772531, 41.676645], [-87.787611, 41.702461], [-87.828696, 41.740705], [-87.90378, 41.767004], [-87.918967, 41.848604], [-87.919409, 41.857343], [-87.918197, 41.87812], [-87.923856, 41.906807], [-88.017056, 41.955051], [-88.02586, 41.961619], [-88.029844, 42.045111], [-88.028511, 42.077139], [-88.029834, 42.081295], [-88.02382, 42.079489], [-88.024183, 42.079028]], "type": "LineString"}, "properties": {}}, {"type": "Feature", "geometry": {"coordinates": [[-88.024183, 42.079028], [-88.02382, 42.079489], [-88.031195, 42.082724], [-88.027903, 42.072965], [-88.028798, 42.057033], [-88.029574, 42.055885], [-88.031108, 42.05619], [-88.030381, 42.057362], [-88.027829, 42.057285], [-88.012455, 42.05373], [-87.976956, 42.037208], [-87.953733, 42.020919], [-87.898161, 42.007134], [-87.87696, 41.997457], [-87.867492, 41.990238], [-87.866726, 41.98854], [-87.867638, 41.989626], [-87.865502, 41.997121], [-87.868255, 42.004711], [-87.868336, 42.012497], [-87.865569, 42.019959], [-87.865363, 42.028999], [-87.867423, 42.036181], [-87.867474, 42.038274], [-87.865583, 42.039097], [-87.830561, 42.040191], [-87.692103, 42.041239], [-87.692102, 42.041948]], "type": "LineString"}, "properties": {}}, {"type": "Feature", "geometry": {"coordinates": [[-87.692102, 42.041948], [-87.692103, 42.041239], [-87.75648, 42.040894], [-87.769885, 42.022521], [-87.772571, 42.020662], [-87.772675, 42.019497], [-87.777105, 42.019194], [-87.776921, 42.018802], [-87.791526, 42.011941], [-87.798054, 42.012556], [-87.806637, 42.011715], [-87.80696, 41.982766], [-87.807545, 41.982752], [-87.813555, 41.982508], [-87.826001, 41.984517], [-87.831845, 41.984836], [-87.836934, 41.984644], [-87.847951, 41.984101], [-87.853594, 41.984848], [-87.858508, 41.98384], [-87.861598, 41.983848], [-87.862973, 41.984158], [-87.863192, 41.984778], [-87.861137, 41.985053], [-87.862386, 41.978669], [-87.866303, 41.978557], [-87.866552, 41.976958]], "type": "LineString"}, "properties": {}}, {"type": "Feature", "geometry": {"coordinates": [[-87.866552, 41.976958], [-87.86662, 41.976682], [-87.862766, 41.976882], [-87.861858, 41.971227], [-87.860781, 41.957575], [-87.860159, 41.956566], [-87.857289, 41.954442], [-87.85666, 41.953474], [-87.854665, 41.953093], [-87.836865, 41.952054], [-87.807255, 41.952771], [-87.807233, 41.952116]], "type": "LineString"}, "properties": {}}, {"type": "Feature", "geometry": {"coordinates": [[-87.807233, 41.952116], [-87.807255, 41.952771], [-87.796264, 41.952763], [-87.795957, 41.9449]], "type": "LineString"}, "properties": {}}, {"type": "Feature", "geometry": {"coordinates": [[-87.795957, 41.9449], [-87.796264, 41.952763], [-87.807534, 41.952771], [-87.81343, 41.952624], [-87.813354, 41.959889], [-87.816427, 41.959803], [-87.816393, 41.963925]], "type": "LineString"}, "properties": {}}, {"type": "Feature", "geometry": {"coordinates": [[-87.816393, 41.963925], [-87.816427, 41.959803], [-87.807225, 41.960057], [-87.805238, 41.894231], [-87.740786, 41.895105], [-87.738417, 41.893529], [-87.738282, 41.89137], [-87.737172, 41.891391]], "type": "LineString"}, "properties": {}}, {"type": "Feature", "geometry": {"coordinates": [[-87.737172, 41.891391], [-87.738282, 41.89137], [-87.738104, 41.886183], [-87.735638, 41.886032], [-87.735504, 41.881928], [-87.729812, 41.881986]], "type": "LineString"}, "properties": {}}, {"type": "Feature", "geometry": {"coordinates": [[-87.729812, 41.881986], [-87.725697, 41.881929], [-87.726081, 41.89537], [-87.712666, 41.895494], [-87.712636, 41.894497]], "type": "LineString"}, "properties": {}}, {"type": "Feature", "geometry": {"coordinates": [[-87.712636, 41.894497], [-87.712611, 41.893664], [-87.713826, 41.893653], [-87.713882, 41.895482], [-87.760642, 41.89489], [-87.760706, 41.896715], [-87.758673, 41.896732]], "type": "LineString"}, "properties": {}}, {"type": "Feature", "geometry": {"coordinates": [[-87.758673, 41.896732], [-87.756876, 41.896746], [-87.756834, 41.894918], [-87.765388, 41.894854], [-87.764644, 41.871829], [-87.774065, 41.871215], [-87.810299, 41.874235], [-87.832523, 41.871501], [-87.887193, 41.869778], [-87.903102, 41.873868], [-87.9098, 41.87295], [-87.918965, 41.868556], [-87.929548, 41.857187], [-87.944298, 41.846444], [-87.946856, 41.84555], [-87.948024, 41.846448], [-87.948088, 41.84684], [-87.948175, 41.849021], [-87.948993, 41.848858], [-87.950502, 41.850881]], "type": "LineString"}, "properties": {}}, {"type": "Feature", "geometry": {"coordinates": [[-87.950502, 41.850881], [-87.950502, 41.850881]], "type": "LineString"}, "properties": {}}, {"type": "Feature", "geometry": {"coordinates": [[-87.950502, 41.850881], [-87.950242, 41.8517], [-87.948334, 41.851568], [-87.948095, 41.847019], [-87.957825, 41.846732], [-87.957399, 41.83649], [-87.95397, 41.829094], [-87.952789, 41.8178], [-87.950447, 41.815304], [-87.948229, 41.812974], [-87.948869, 41.811086], [-87.948633, 41.810648], [-87.944765, 41.81093], [-87.929377, 41.814791], [-87.92924, 41.81214], [-87.927649, 41.812178], [-87.927226, 41.802965], [-87.920009, 41.803886], [-87.919925, 41.801857], [-87.920258, 41.801845]], "type": "LineString"}, "properties": {}}, {"type": "Feature", "geometry": {"coordinates": [[-87.920258, 41.801845], [-87.919925, 41.801857], [-87.92012, 41.806494], [-87.917738, 41.806556], [-87.918249, 41.817882], [-87.911891, 41.818886], [-87.915358, 41.821642], [-87.917824, 41.826296], [-87.918967, 41.848604], [-87.919409, 41.857343], [-87.918422, 41.861361], [-87.91693, 41.863218], [-87.917917, 41.862315], [-87.955691, 41.861139], [-87.959249, 41.863209], [-87.960919, 41.867701], [-87.962941, 41.894767]], "type": "LineString"}, "properties": {}}, {"type": "Feature", "geometry": {"coordinates": [[-87.962941, 41.894767], [-87.964568, 41.901075], [-87.964958, 41.907211], [-87.966023, 41.912903], [-87.966289, 41.916856], [-87.966202, 41.919801], [-87.965945, 41.921448], [-87.964205, 41.922698], [-87.964018, 41.922903], [-87.957625, 41.929296], [-87.955821, 41.930322], [-87.951883, 41.93083], [-87.937045, 41.931555]], "type": "LineString"}, "properties": {}}, {"type": "Feature", "geometry": {"coordinates": [[-87.937045, 41.931555], [-87.933492, 41.931673], [-87.884578, 41.930261], [-87.885267, 41.945099], [-87.884987, 41.944987], [-87.884963, 41.943677], [-87.875566, 41.94385], [-87.875611, 41.944833]], "type": "LineString"}, "properties": {}}, {"type": "Feature", "geometry": {"coordinates": [[-87.875611, 41.944833], [-87.875566, 41.94385], [-87.884963, 41.943677], [-87.885581, 41.943447], [-87.885717, 41.945263], [-87.88546, 41.945405], [-87.884438, 41.924537]], "type": "LineString"}, "properties": {}}, {"type": "Feature", "geometry": {"coordinates": [[-87.884438, 41.924537], [-87.884392, 41.921435], [-87.884314, 41.921376], [-87.884281, 41.920707], [-87.889449, 41.920612], [-87.890332, 41.920771], [-87.895734, 41.920682]], "type": "LineString"}, "properties": {}}, {"type": "Feature", "geometry": {"coordinates": [[-87.895734, 41.920682], [-87.884281, 41.920707], [-87.88291, 41.869272], [-87.884467, 41.86873], [-87.882376, 41.869576], [-87.872019, 41.870798], [-87.832982, 41.871337], [-87.810791, 41.874042], [-87.769061, 41.87064], [-87.739969, 41.871594], [-87.733001, 41.87362], [-87.69832, 41.875168], [-87.629223, 41.875546], [-87.629579, 41.889242], [-87.628704, 41.889251]], "type": "LineString"}, "properties": {}}, {"type": "Feature", "geometry": {"coordinates": [[-87.628704, 41.889251], [-87.628003, 41.889259], [-87.628048, 41.890871], [-87.62265, 41.890954], [-87.62271, 41.892566], [-87.621881, 41.892574]], "type": "LineString"}, "properties": {}}, {"type": "Feature", "geometry": {"coordinates": [[-87.621881, 41.892574], [-87.614597, 41.892685], [-87.61463, 41.893135], [-87.619754, 41.900826], [-87.620116, 41.900951], [-87.624141, 41.90082], [-87.624024, 41.901687], [-87.624503, 41.902429], [-87.625015, 41.904013], [-87.638347, 41.903783], [-87.638523, 41.909248], [-87.639739, 41.909234], [-87.6397, 41.907866]], "type": "LineString"}, "properties": {}}, {"type": "Feature", "geometry": {"coordinates": [[-87.6397, 41.907866], [-87.639662, 41.906506], [-87.638435, 41.906523], [-87.638347, 41.903783], [-87.634474, 41.903857], [-87.634293, 41.898867]], "type": "LineString"}, "properties": {}}, {"type": "Feature", "geometry": {"coordinates": [[-87.634293, 41.898867], [-87.63435, 41.90053], [-87.628335, 41.9006], [-87.62834, 41.900747], [-87.624042, 41.900824], [-87.623664, 41.902709], [-87.62589, 41.912141], [-87.628743, 41.918036], [-87.631851, 41.928415], [-87.632152, 41.934381], [-87.633661, 41.936704], [-87.63676, 41.939073], [-87.638088, 41.940568], [-87.639537, 41.940119], [-87.641989, 41.946112], [-87.644042, 41.945418]], "type": "LineString"}, "properties": {}}, {"type": "Feature", "geometry": {"coordinates": [[-87.644042, 41.945418], [-87.645737, 41.944845], [-87.64961, 41.95119], [-87.649662, 41.953239], [-87.656894, 41.964503]], "type": "LineString"}, "properties": {}}, {"type": "Feature", "geometry": {"coordinates": [[-87.656894, 41.964503], [-87.655148, 41.961772], [-87.646878, 41.961908], [-87.644507, 41.950757], [-87.638957, 41.941067], [-87.632453, 41.934639], [-87.632048, 41.928427], [-87.62421, 41.902733], [-87.619617, 41.900898], [-87.614304, 41.892985], [-87.614127, 41.884928], [-87.617321, 41.882167], [-87.617442, 41.878363], [-87.620697, 41.878331], [-87.620625, 41.876287], [-87.688313, 41.875763], [-87.692409, 41.875862], [-87.696151, 41.875983], [-87.696189, 41.877434], [-87.693785, 41.877461], [-87.693796, 41.878371], [-87.696046, 41.878346]], "type": "LineString"}, "properties": {}}, {"type": "Feature", "geometry": {"coordinates": [[-87.696046, 41.878346], [-87.696214, 41.878344], [-87.695913, 41.866515], [-87.671352, 41.866763], [-87.671422, 41.869184], [-87.670488, 41.8692]], "type": "LineString"}, "properties": {}}, {"type": "Feature", "geometry": {"coordinates": [[-87.670488, 41.8692], [-87.666399, 41.869264], [-87.666563, 41.875179], [-87.666292, 41.875183], [-87.650308, 41.875329], [-87.647601, 41.875302], [-87.645452, 41.874563], [-87.644482, 41.875077], [-87.64458, 41.876036], [-87.645275, 41.880374], [-87.645355, 41.881847], [-87.645393, 41.882198], [-87.64591, 41.885931], [-87.647404, 41.888483], [-87.658783, 41.897251], [-87.660805, 41.901753], [-87.661061, 41.906443], [-87.664439, 41.910145], [-87.668091, 41.915886], [-87.670574, 41.91815], [-87.678438, 41.922676], [-87.681513, 41.924733], [-87.700436, 41.924799], [-87.701488, 41.925445], [-87.70114, 41.925798]], "type": "LineString"}, "properties": {}}, {"type": "Feature", "geometry": {"coordinates": [[-87.70114, 41.925798], [-87.701488, 41.925445], [-87.700436, 41.924799], [-87.79707, 41.923585], [-87.797058, 41.923215]], "type": "LineString"}, "properties": {}}, {"type": "Feature", "geometry": {"coordinates": [[-87.797058, 41.923215], [-87.79707, 41.923585], [-87.789403, 41.92364], [-87.731667, 41.924435], [-87.731611, 41.922601], [-87.731192, 41.922606]], "type": "LineString"}, "properties": {}}, {"type": "Feature", "geometry": {"coordinates": [[-87.731192, 41.922606], [-87.730387, 41.922615], [-87.730442, 41.924449], [-87.63436, 41.925687], [-87.63067, 41.926223], [-87.631851, 41.928415], [-87.632612, 41.935386], [-87.638833, 41.941219], [-87.644376, 41.950931], [-87.644596, 41.954749], [-87.648738, 41.973046], [-87.652251, 41.981039], [-87.652803, 41.984951], [-87.655253, 41.985556], [-87.655324, 41.987812]], "type": "LineString"}, "properties": {}}]}