{"type": "FeatureCollection", "features": [{"type": "Feature", "geometry": {"coordinates": [[-87.636803, 41.876812], [-87.639817, 41.876769], [-87.639853, 41.875788], [-87.64257, 41.875632], [-87.644772, 41.875942], [-87.645648, 41.877134], [-87.645685, 41.885013], [-87.646594, 41.887382], [-87.64861, 41.889615], [-87.6586, 41.897003], [-87.660805, 41.901753], [-87.661061, 41.906443], [-87.664439, 41.910145], [-87.667973, 41.915739], [-87.66968, 41.917898], [-87.667964, 41.917936], [-87.668616, 41.921563], [-87.664379, 41.921608], [-87.664499, 41.921692]], "type": "LineString"}, "properties": {"timestamp": "2023-10-18T15:39:46", "type": "ride"}}, {"type": "Feature", "geometry": {"coordinates": [[-87.664499, 41.921692], [-87.663168, 41.920731], [-87.663134, 41.919363], [-87.66003, 41.917114], [-87.659108, 41.917121], [-87.65779, 41.916182], [-87.655387, 41.913961]], "type": "LineString"}, "properties": {"timestamp": "2023-10-18T16:01:31", "type": "transition"}}, {"type": "Feature", "geometry": {"coordinates": [[-87.655387, 41.913961], [-87.659108, 41.917121], [-87.663815, 41.917067], [-87.66782, 41.916129], [-87.667365, 41.896069], [-87.75438, 41.894951], [-87.754397, 41.895651]], "type": "LineString"}, "properties": {"timestamp": "2023-10-18T16:01:31", "type": "ride"}}, {"type": "Feature", "geometry": {"coordinates": [[-87.754397, 41.895651], [-87.754422, 41.896766], [-87.753201, 41.896776], [-87.753158, 41.894959], [-87.755593, 41.894936], [-87.755309, 41.88719], [-87.757922, 41.887392], [-87.760399, 41.88736], [-87.760278, 41.885763], [-87.761733, 41.885757], [-87.761782, 41.887191]], "type": "LineString"}, "properties": {"timestamp": "2023-10-18T16:35:32", "type": "transition"}}, {"type": "Feature", "geometry": {"coordinates": [[-87.761782, 41.887191], [-87.761784, 41.887251], [-87.756227, 41.887238], [-87.74525, 41.886592], [-87.740268, 41.886239], [-87.740143, 41.881869], [-87.729812, 41.881986]], "type": "LineString"}, "properties": {"timestamp": "2023-10-18T16:35:32", "type": "ride"}}, {"type": "Feature", "geometry": {"coordinates": [[-87.729812, 41.881986], [-87.720824, 41.881908], [-87.714285, 41.88123], [-87.711979, 41.881823], [-87.706156, 41.881893], [-87.706225, 41.884354], [-87.70083, 41.884098], [-87.676739, 41.88498], [-87.677276, 41.903184], [-87.674833, 41.903226], [-87.674795, 41.902204]], "type": "LineString"}, "properties": {"timestamp": "2023-10-18T17:40:19", "type": "transition"}}, {"type": "Feature", "geometry": {"coordinates": [[-87.674795, 41.902204], [-87.674717, 41.899586], [-87.660982, 41.899842], [-87.660843, 41.899711], [-87.657719, 41.895493], [-87.649448, 41.889964], [-87.647531, 41.888343], [-87.646219, 41.885929], [-87.645999, 41.881827], [-87.646134, 41.880956], [-87.64632, 41.87924], [-87.649612, 41.879181], [-87.649583, 41.878315]], "type": "LineString"}, "properties": {"timestamp": "2023-10-18T17:40:19", "type": "ride"}}, {"type": "Feature", "geometry": {"coordinates": [[-87.649583, 41.878315], [-87.649612, 41.879181], [-87.650775, 41.87916], [-87.650741, 41.878179]], "type": "LineString"}, "properties": {"timestamp": "2023-10-18T17:51:54", "type": "transition"}}, {"type": "Feature", "geometry": {"coordinates": [[-87.650741, 41.878179], [-87.650731, 41.87789], [-87.645564, 41.877963], [-87.645275, 41.880374], [-87.645355, 41.881847], [-87.645393, 41.882198], [-87.64591, 41.885931], [-87.647404, 41.888483], [-87.64861, 41.889615], [-87.657024, 41.895403], [-87.658783, 41.897251], [-87.659164, 41.89954], [-87.659701, 41.899938], [-87.67107, 41.899648], [-87.671103, 41.900741]], "type": "LineString"}, "properties": {"timestamp": "2023-10-18T17:51:54", "type": "ride"}}, {"type": "Feature", "geometry": {"coordinates": [[-87.671103, 41.900741], [-87.67118, 41.903289], [-87.667439, 41.903351], [-87.667641, 41.910635], [-87.664445, 41.910674], [-87.668091, 41.915886], [-87.670574, 41.91815], [-87.704001, 41.937344], [-87.707163, 41.939332], [-87.707595, 41.939599], [-87.707815, 41.945936], [-87.712782, 41.949329], [-87.713373, 41.968411], [-87.714891, 41.968394]], "type": "LineString"}, "properties": {"timestamp": "2023-10-18T18:52:38", "type": "transition"}}, {"type": "Feature", "geometry": {"coordinates": [[-87.714891, 41.968394], [-87.718256, 41.968358], [-87.718432, 41.975642], [-87.745776, 41.975364], [-87.745747, 41.976243], [-87.746921, 41.977435], [-87.746578, 41.979776], [-87.747021, 41.98112], [-87.750246, 41.984797], [-87.751129, 41.986272], [-87.751131, 41.99049], [-87.750682, 41.991249], [-87.749995, 41.991278], [-87.749823, 41.990571], [-87.750238, 41.990216], [-87.752725, 41.990827], [-87.779748, 42.003394]], "type": "LineString"}, "properties": {"timestamp": "2023-10-18T18:52:38", "type": "ride"}}, {"type": "Feature", "geometry": {"coordinates": [[-87.779748, 42.003394], [-87.753476, 41.991079], [-87.75084, 41.990159], [-87.748818, 41.989843], [-87.707391, 41.99039], [-87.699239, 41.985538], [-87.69911, 41.981302], [-87.702753, 41.981284]], "type": "LineString"}, "properties": {"timestamp": "2023-10-18T19:12:50", "type": "transition"}}, {"type": "Feature", "geometry": {"coordinates": [[-87.702753, 41.981284], [-87.704514, 41.981274], [-87.705071, 41.983097], [-87.728412, 41.98284], [-87.727167, 41.938375]], "type": "LineString"}, "properties": {"timestamp": "2023-10-18T19:12:50", "type": "ride"}}, {"type": "Feature", "geometry": {"coordinates": [[-87.727167, 41.938375], [-87.727612, 41.95365], [-87.688469, 41.953985], [-87.688751, 41.963152], [-87.683897, 41.963207], [-87.683901, 41.964123], [-87.683055, 41.964133]], "type": "LineString"}, "properties": {"timestamp": "2023-10-18T19:33:53", "type": "transition"}}, {"type": "Feature", "geometry": {"coordinates": [[-87.683055, 41.964133], [-87.683901, 41.964123], [-87.683919, 41.964988], [-87.688797, 41.964875], [-87.688512, 41.955627], [-87.688345, 41.949742]], "type": "LineString"}, "properties": {"timestamp": "2023-10-18T19:33:53", "type": "ride"}}, {"type": "Feature", "geometry": {"coordinates": [[-87.688345, 41.949742], [-87.688245, 41.946744], [-87.673726, 41.946928], [-87.669927, 41.941506], [-87.657794, 41.941681], [-87.657753, 41.940121]], "type": "LineString"}, "properties": {"timestamp": "2023-10-20T19:23:07", "type": "transition"}}]}