{"type": "FeatureCollection", "features": [{"type": "Feature", "geometry": {"coordinates": [[-87.673955, 41.909456], [-87.673782, 41.90961], [-87.673991, 41.917824], [-87.682516, 41.917673], [-87.682542, 41.918425], [-87.683685, 41.918404]], "type": "LineString"}, "properties": {"timestamp": "2023-08-30T17:42:43", "type": "ride", "rideType": "UberX", "pickupAddress": "N Honore St, Chicago, IL 60622-1301, US", "dropoffAddress": "W McLean Ave, Chicago, IL 60647, US", "basePay": "2.95", "surge": "1.25", "tip": "0.00", "earnings": "4.20", "duration": "289", "distance": "1.10", "rideStartTime": "August 30, 2023 at 05:42 PM", "rideEndTime": "August 30, 2023 at 05:47 PM"}}, {"type": "Feature", "geometry": {"coordinates": [[-87.683685, 41.918404], [-87.687437, 41.918337], [-87.687645, 41.924902], [-87.690086, 41.924878], [-87.690094, 41.925214]], "type": "LineString"}, "properties": {"timestamp": "2023-08-30T17:47:36", "type": "transition"}}, {"type": "Feature", "geometry": {"coordinates": [[-87.690094, 41.925214], [-87.690149, 41.926696], [-87.687704, 41.926718], [-87.687672, 41.926885], [-87.687339, 41.927019], [-87.686023, 41.926403], [-87.683686, 41.924962], [-87.682301, 41.924978], [-87.685177, 41.926707], [-87.709664, 41.940439], [-87.714861, 41.942208], [-87.716273, 41.943331], [-87.718472, 41.946973], [-87.719618, 41.947985], [-87.738838, 41.958569], [-87.741371, 41.960451], [-87.74187, 41.960845], [-87.75449, 41.960636], [-87.757803, 41.964478]], "type": "LineString"}, "properties": {"timestamp": "2023-08-30T17:47:36", "type": "ride", "rideType": "UberX", "pickupAddress": "N Campbell Ave, Chicago, IL 60647-4151, US", "dropoffAddress": "N Milwaukee Ave, Chicago, IL 60630-2115, US", "basePay": "10.36", "surge": "2.50", "tip": "0.00", "earnings": "12.86", "duration": "1435", "distance": "6.50", "rideStartTime": "August 30, 2023 at 05:47 PM", "rideEndTime": "August 30, 2023 at 06:11 PM"}}, {"type": "Feature", "geometry": {"coordinates": [[-87.757803, 41.964478], [-87.757803, 41.964478]], "type": "LineString"}, "properties": {"timestamp": "2023-08-30T18:17:27", "type": "transition"}}, {"type": "Feature", "geometry": {"coordinates": [[-87.757803, 41.964478], [-87.760755, 41.967869], [-87.77728, 41.967665], [-87.778289, 41.96853], [-87.807176, 41.968273], [-87.807182, 41.967283], [-87.861655, 41.965985], [-87.860873, 41.958206]], "type": "LineString"}, "properties": {"timestamp": "2023-08-30T18:17:27", "type": "ride", "rideType": "UberX", "pickupAddress": "N Milwaukee Ave, Chicago, IL 60630, US", "dropoffAddress": "W Montrose Ave, Norridge, IL 60706-1157, US", "basePay": "7.18", "surge": "0.00", "tip": "0.00", "earnings": "7.18", "duration": "1038", "distance": "3.40", "rideStartTime": "August 30, 2023 at 06:17 PM", "rideEndTime": "August 30, 2023 at 06:34 PM"}}, {"type": "Feature", "geometry": {"coordinates": [[-87.860873, 41.958206], [-87.860159, 41.956566], [-87.857289, 41.954442], [-87.85666, 41.953474], [-87.854665, 41.953093], [-87.836865, 41.952054], [-87.809667, 41.952719], [-87.800157, 41.957277], [-87.800123, 41.963167]], "type": "LineString"}, "properties": {"timestamp": "2023-08-30T18:39:32", "type": "transition"}}, {"type": "Feature", "geometry": {"coordinates": [[-87.800123, 41.963167], [-87.800131, 41.9665], [-87.800314, 41.966499]], "type": "LineString"}, "properties": {"timestamp": "2023-08-30T18:39:32", "type": "ride", "rideType": "UberX", "pickupAddress": "N New England Ave, Harwood Heights, IL 60706-7132, US", "dropoffAddress": "W Leland Ave, Harwood Heights, IL 60706-4715, US", "basePay": "3.83", "surge": "0.00", "tip": "0.00", "earnings": "3.83", "duration": "332", "distance": "1.50", "rideStartTime": "August 30, 2023 at 06:39 PM", "rideEndTime": "August 30, 2023 at 06:45 PM"}}, {"type": "Feature", "geometry": {"coordinates": [[-87.800314, 41.966499], [-87.800131, 41.9665], [-87.800136, 41.968324], [-87.778289, 41.96853], [-87.77728, 41.967665], [-87.747723, 41.968033], [-87.747918, 41.972896], [-87.747761, 41.972794], [-87.747223, 41.966563], [-87.745961, 41.963113], [-87.742125, 41.960129], [-87.719592, 41.947613], [-87.715306, 41.94215], [-87.710219, 41.940524], [-87.698173, 41.933659], [-87.687291, 41.927358], [-87.684125, 41.925223], [-87.700436, 41.924799], [-87.701488, 41.925445], [-87.70114, 41.925798]], "type": "LineString"}, "properties": {"timestamp": "2023-08-31T08:13:48", "type": "transition"}}]}