{"type": "FeatureCollection", "features": [{"type": "Feature", "geometry": {"coordinates": [[-87.624039, 41.868888], [-87.624138, 41.873158], [-87.617066, 41.873249], [-87.617167, 41.881825], [-87.613613, 41.884932], [-87.614041, 41.892878], [-87.619441, 41.900921], [-87.624048, 41.902893], [-87.631851, 41.928415], [-87.632152, 41.934381], [-87.638833, 41.941219], [-87.644376, 41.950931], [-87.648738, 41.973046], [-87.652803, 41.984951], [-87.655253, 41.985556], [-87.655634, 41.997803], [-87.659646, 41.998196], [-87.666866, 42.026154], [-87.668578, 42.027161], [-87.678155, 42.027266], [-87.678285, 42.028177]], "type": "LineString"}, "properties": {"timestamp": "2023-07-06T19:11:25", "type": "ride"}}, {"type": "Feature", "geometry": {"coordinates": [[-87.678285, 42.028177], [-87.678155, 42.027266], [-87.668578, 42.027161], [-87.666902, 42.025972], [-87.665412, 42.023099], [-87.66691, 42.022304], [-87.666595, 42.021131], [-87.664892, 42.015441], [-87.662865, 42.011614], [-87.660929, 42.005557], [-87.66054, 41.998191], [-87.660365, 41.992729], [-87.66379, 41.992688]], "type": "LineString"}, "properties": {"timestamp": "2023-07-06T19:59:19", "type": "transition"}}, {"type": "Feature", "geometry": {"coordinates": [[-87.66379, 41.992688], [-87.670192, 41.992611], [-87.670085, 41.989706], [-87.669796, 41.987608], [-87.669769, 41.987519]], "type": "LineString"}, "properties": {"timestamp": "2023-07-06T19:59:19", "type": "ride"}}, {"type": "Feature", "geometry": {"coordinates": [[-87.669769, 41.987519], [-87.669181, 41.985433], [-87.663294, 41.985603], [-87.662456, 41.985105], [-87.654178, 41.985586], [-87.653157, 41.984999], [-87.652706, 41.981232], [-87.648822, 41.972134], [-87.644905, 41.955203], [-87.64469, 41.951193], [-87.638957, 41.941067], [-87.632527, 41.93482], [-87.632048, 41.928427], [-87.627538, 41.915117], [-87.627206, 41.913042], [-87.628067, 41.912346], [-87.632438, 41.913334], [-87.633196, 41.912907], [-87.633223, 41.911171], [-87.658619, 41.910768], [-87.658997, 41.909631]], "type": "LineString"}, "properties": {"timestamp": "2023-07-08T00:50:12", "type": "transition"}}]}