{"type": "FeatureCollection", "features": [{"type": "Feature", "geometry": {"coordinates": [[-87.647955, 41.929095], [-87.653741, 41.929016], [-87.663209, 41.935776]], "type": "LineString"}, "properties": {"timestamp": "2023-12-27T14:52:46", "type": "ride", "rideType": "UberX", "pickupAddress": "N Ashland Ave, Chicago, IL 60622, US", "dropoffAddress": "N Lincoln Ave, Chicago, IL 60657-1173, US", "basePay": "6.65", "surge": "0.00", "tip": "0.00", "earnings": "6.65", "duration": "576", "distance": "1.90", "rideStartTime": "December 27, 2023 at 02:52 PM", "rideEndTime": "December 27, 2023 at 03:02 PM"}}, {"type": "Feature", "geometry": {"coordinates": [[-87.663209, 41.935776], [-87.663682, 41.936111], [-87.663758, 41.938211]], "type": "LineString"}, "properties": {"timestamp": "2023-12-27T15:12:12", "type": "transition"}}, {"type": "Feature", "geometry": {"coordinates": [[-87.663758, 41.938211], [-87.663815, 41.939759], [-87.638796, 41.940268], [-87.638606, 41.939931], [-87.634194, 41.936955], [-87.632453, 41.934639], [-87.632048, 41.928427], [-87.629189, 41.918735], [-87.62605, 41.911998], [-87.62421, 41.902733], [-87.62264, 41.901491], [-87.619617, 41.900898], [-87.614907, 41.893955], [-87.614335, 41.8919], [-87.614196, 41.891128], [-87.61158, 41.891141], [-87.611597, 41.891968], [-87.612627, 41.891945]], "type": "LineString"}, "properties": {"timestamp": "2023-12-27T15:12:12", "type": "ride", "rideType": "UberX", "pickupAddress": "N Southport Ave, Chicago, IL 60657-1419, US", "dropoffAddress": "E Grand Ave, Chicago, IL 60611-3312, US", "basePay": "8.17", "surge": "0.00", "tip": "1.00", "earnings": "9.17", "duration": "1038", "distance": "5.40", "rideStartTime": "December 27, 2023 at 03:12 PM", "rideEndTime": "December 27, 2023 at 03:29 PM"}}, {"type": "Feature", "geometry": {"coordinates": [[-87.612627, 41.891945], [-87.614335, 41.8919], [-87.614043, 41.887479], [-87.613921, 41.885252], [-87.614074, 41.884717], [-87.614923, 41.883808], [-87.616685, 41.882873], [-87.617391, 41.882006], [-87.617442, 41.878363], [-87.620697, 41.878331], [-87.620625, 41.876287], [-87.621081, 41.875931], [-87.623122, 41.875906], [-87.62435, 41.875724], [-87.631738, 41.875684], [-87.631731, 41.875522], [-87.631448, 41.875518]], "type": "LineString"}, "properties": {"timestamp": "2023-12-27T15:34:49", "type": "transition"}}, {"type": "Feature", "geometry": {"coordinates": [[-87.631448, 41.875518], [-87.620619, 41.875815], [-87.620697, 41.878331], [-87.617182, 41.878364], [-87.616996, 41.882205], [-87.616282, 41.882876], [-87.614349, 41.883727], [-87.613645, 41.884762], [-87.614041, 41.892878], [-87.619441, 41.900921], [-87.620113, 41.90131], [-87.622526, 41.901629], [-87.623907, 41.902638], [-87.625717, 41.909833], [-87.625477, 41.912497], [-87.626017, 41.913347], [-87.626875, 41.912624], [-87.627835, 41.912344], [-87.630971, 41.913382], [-87.632438, 41.913334], [-87.633196, 41.912907], [-87.633223, 41.911171], [-87.641018, 41.911125], [-87.641023, 41.911281]], "type": "LineString"}, "properties": {"timestamp": "2023-12-27T15:34:49", "type": "ride", "rideType": "UberX", "pickupAddress": "N La Salle Dr, Chicago, IL 60654, US", "dropoffAddress": "N Cleveland Ave, Chicago, IL 60614-5640, US", "basePay": "3.86", "surge": "0.00", "tip": "0.00", "earnings": "3.86", "duration": "646", "distance": "1.60", "rideStartTime": "December 27, 2023 at 03:34 PM", "rideEndTime": "December 27, 2023 at 03:45 PM"}}, {"type": "Feature", "geometry": {"coordinates": [[-87.641023, 41.911281], [-87.641015, 41.911006], [-87.63858, 41.911039], [-87.638808, 41.918322], [-87.636542, 41.918356], [-87.636131, 41.918472], [-87.636142, 41.918564], [-87.63633, 41.919111], [-87.636391, 41.919706]], "type": "LineString"}, "properties": {"timestamp": "2023-12-27T15:52:21", "type": "transition"}}, {"type": "Feature", "geometry": {"coordinates": [[-87.636391, 41.919706], [-87.636415, 41.918803], [-87.632796, 41.913071], [-87.631046, 41.913236], [-87.628505, 41.912247], [-87.626932, 41.912316], [-87.624114, 41.90257], [-87.62264, 41.901491], [-87.619617, 41.900898], [-87.614264, 41.892868], [-87.614184, 41.884726], [-87.617484, 41.881642], [-87.617318, 41.873248], [-87.624138, 41.873158], [-87.624171, 41.874529], [-87.626634, 41.874402], [-87.626671, 41.874067]], "type": "LineString"}, "properties": {"timestamp": "2023-12-27T15:52:21", "type": "ride", "rideType": "UberX", "pickupAddress": "N Lincoln Park W, Chicago, IL 60614-3418, US", "dropoffAddress": "N Dearborn St, Chicago, IL 60602-4310, US", "basePay": "7.84", "surge": "0.00", "tip": "1.00", "earnings": "8.84", "duration": "1074", "distance": "3.20", "rideStartTime": "December 27, 2023 at 03:52 PM", "rideEndTime": "December 27, 2023 at 04:10 PM"}}, {"type": "Feature", "geometry": {"coordinates": [[-87.626671, 41.874067], [-87.626634, 41.874402], [-87.624328, 41.874452], [-87.624171, 41.874529], [-87.624176, 41.87756], [-87.624303, 41.880103], [-87.624206, 41.881322], [-87.624385, 41.882083], [-87.624759, 41.882108]], "type": "LineString"}, "properties": {"timestamp": "2023-12-27T16:14:02", "type": "transition"}}, {"type": "Feature", "geometry": {"coordinates": [[-87.624759, 41.882108], [-87.626192, 41.882079], [-87.626161, 41.880802], [-87.617506, 41.88092], [-87.619589, 41.866068], [-87.614728, 41.853242], [-87.614444, 41.848506], [-87.626818, 41.84732], [-87.631727, 41.847855], [-87.631351, 41.843118], [-87.631207, 41.779686], [-87.626113, 41.772231], [-87.624621, 41.72052], [-87.621065, 41.713653], [-87.600337, 41.713191], [-87.592948, 41.708673], [-87.592406, 41.703483], [-87.601798, 41.685512], [-87.601728, 41.676933], [-87.589096, 41.660202], [-87.59119, 41.659512], [-87.560717, 41.658851], [-87.555878, 41.656176], [-87.555649, 41.65737], [-87.553811, 41.65736], [-87.553812, 41.656889]], "type": "LineString"}, "properties": {"timestamp": "2023-12-27T16:14:02", "type": "ride", "rideType": "UberX", "pickupAddress": "E Madison St, Chicago, IL 60602, US", "dropoffAddress": "S Michigan Ave, Chicago, IL 60605, US", "basePay": "5.47", "surge": "0.00", "tip": "0.00", "earnings": "5.47", "duration": "469", "distance": "1.40", "rideStartTime": "December 27, 2023 at 04:14 PM", "rideEndTime": "December 27, 2023 at 04:21 PM"}}, {"type": "Feature", "geometry": {"coordinates": [[-87.553812, 41.656889], [-87.553811, 41.65736], [-87.557102, 41.657281], [-87.585314, 41.660149], [-87.590822, 41.662478], [-87.601403, 41.675885], [-87.601563, 41.685726], [-87.594329, 41.69908], [-87.591535, 41.705863], [-87.595707, 41.711823], [-87.618809, 41.713575], [-87.62372, 41.717096], [-87.625651, 41.769497], [-87.630747, 41.779495], [-87.630667, 41.838631], [-87.631001, 41.844069], [-87.630081, 41.846653], [-87.616851, 41.847976], [-87.61216, 41.849538], [-87.617619, 41.860334], [-87.613838, 41.86038], [-87.613754, 41.866115], [-87.607427, 41.866381]], "type": "LineString"}, "properties": {"timestamp": "2023-12-27T16:29:40", "type": "transition"}}, {"type": "Feature", "geometry": {"coordinates": [[-87.607427, 41.866381], [-87.614089, 41.86504], [-87.619403, 41.864977], [-87.614728, 41.853242], [-87.614444, 41.848506], [-87.626818, 41.84732], [-87.631727, 41.847855], [-87.631351, 41.843118], [-87.631207, 41.779686], [-87.626113, 41.772231], [-87.624621, 41.72052], [-87.621065, 41.713653], [-87.600337, 41.713191], [-87.592948, 41.708673], [-87.592406, 41.703483], [-87.601798, 41.685512], [-87.601728, 41.676933], [-87.589096, 41.660202], [-87.59119, 41.659512], [-87.560717, 41.658851], [-87.555878, 41.656176], [-87.555649, 41.65737], [-87.553811, 41.65736], [-87.553812, 41.656889]], "type": "LineString"}, "properties": {"timestamp": "2023-12-27T16:29:40", "type": "ride", "rideType": "UberX", "pickupAddress": "S Lake Shore Dr, Chicago, IL 60605, US", "dropoffAddress": "S Michigan Ave, Chicago, IL 60605, US", "basePay": "5.59", "surge": "0.00", "tip": "5.00", "earnings": "10.59", "duration": "529", "distance": "1.10", "rideStartTime": "December 27, 2023 at 04:29 PM", "rideEndTime": "December 27, 2023 at 04:38 PM"}}, {"type": "Feature", "geometry": {"coordinates": [[-87.553812, 41.656889], [-87.553811, 41.65736], [-87.557102, 41.657281], [-87.585314, 41.660149], [-87.590822, 41.662478], [-87.601403, 41.675885], [-87.601563, 41.685726], [-87.594329, 41.69908], [-87.591535, 41.705863], [-87.595707, 41.711823], [-87.618809, 41.713575], [-87.62372, 41.717096], [-87.625651, 41.769497], [-87.630747, 41.779495], [-87.630667, 41.838631], [-87.631001, 41.844069], [-87.630081, 41.846653], [-87.616851, 41.847976], [-87.612177, 41.849732], [-87.618709, 41.863523], [-87.62062, 41.875872]], "type": "LineString"}, "properties": {"timestamp": "2023-12-27T16:52:58", "type": "transition"}}, {"type": "Feature", "geometry": {"coordinates": [[-87.62062, 41.875872], [-87.620619, 41.875815], [-87.64257, 41.875632], [-87.645648, 41.877134], [-87.646457, 41.887151], [-87.651689, 41.891702], [-87.65868, 41.896836], [-87.66137, 41.906646], [-87.670146, 41.917654], [-87.709927, 41.940372], [-87.715306, 41.94215], [-87.719592, 41.947613], [-87.741635, 41.95982], [-87.746287, 41.963594], [-87.747426, 41.975724], [-87.74607, 41.976396], [-87.745776, 41.975364], [-87.713554, 41.975692], [-87.713373, 41.968411], [-87.710925, 41.968433], [-87.710876, 41.966925]], "type": "LineString"}, "properties": {"timestamp": "2023-12-27T16:52:58", "type": "ride", "rideType": "UberX Share", "pickupAddress": "E Monroe St, Chicago, IL 60603, US", "dropoffAddress": "N Spaulding Ave, Chicago, IL 60659-3512, US", "basePay": "27.26", "surge": "0.00", "tip": "7.00", "earnings": "34.26", "duration": "2387", "distance": "15.20", "rideStartTime": "December 27, 2023 at 04:52 PM", "rideEndTime": "December 27, 2023 at 05:32 PM"}}, {"type": "Feature", "geometry": {"coordinates": [[-87.710876, 41.966925], [-87.710803, 41.964694], [-87.70836, 41.964711], [-87.708014, 41.953885], [-87.645235, 41.954634], [-87.644611, 41.950978], [-87.639315, 41.941594], [-87.632527, 41.93482], [-87.632048, 41.928427], [-87.627538, 41.915117], [-87.627206, 41.913042], [-87.628067, 41.912346], [-87.631075, 41.913404], [-87.632856, 41.913169], [-87.634358, 41.915623], [-87.634849, 41.915479], [-87.638503, 41.918106]], "type": "LineString"}, "properties": {"timestamp": "2023-12-27T18:11:50", "type": "transition"}}, {"type": "Feature", "geometry": {"coordinates": [[-87.638503, 41.918106], [-87.668425, 41.939512], [-87.672471, 41.945127], [-87.6785, 41.945048], [-87.678527, 41.946063]], "type": "LineString"}, "properties": {"timestamp": "2023-12-27T18:11:50", "type": "ride", "rideType": "UberX", "pickupAddress": "N Lincoln Ave, Chicago, IL 60625, US", "dropoffAddress": "N Damen Ave, Chicago, IL 60618-8203, US", "basePay": "7.36", "surge": "0.00", "tip": "0.00", "earnings": "7.36", "duration": "789", "distance": "2.50", "rideStartTime": "December 27, 2023 at 06:11 PM", "rideEndTime": "December 27, 2023 at 06:24 PM"}}, {"type": "Feature", "geometry": {"coordinates": [[-87.678527, 41.946063], [-87.678349, 41.939586], [-87.663815, 41.939759], [-87.663758, 41.938211]], "type": "LineString"}, "properties": {"timestamp": "2023-12-27T18:30:06", "type": "transition"}}, {"type": "Feature", "geometry": {"coordinates": [[-87.663758, 41.938211], [-87.663815, 41.939759], [-87.693034, 41.939429], [-87.692873, 41.93693], [-87.693715, 41.936922]], "type": "LineString"}, "properties": {"timestamp": "2023-12-27T18:30:06", "type": "ride", "rideType": "UberX", "pickupAddress": "N Southport Ave, Chicago, IL 60657, US", "dropoffAddress": "W Nelson St, Chicago, IL 60618-7012, US", "basePay": "6.98", "surge": "0.00", "tip": "0.00", "earnings": "6.98", "duration": "739", "distance": "2.30", "rideStartTime": "December 27, 2023 at 06:30 PM", "rideEndTime": "December 27, 2023 at 06:42 PM"}}, {"type": "Feature", "geometry": {"coordinates": [[-87.693715, 41.936922], [-87.692873, 41.93693], [-87.692833, 41.935786], [-87.694053, 41.935773], [-87.693919, 41.932134], [-87.696547, 41.932116], [-87.669746, 41.917124], [-87.661559, 41.906635], [-87.658834, 41.896667], [-87.647099, 41.887778], [-87.644363, 41.857367], [-87.644333, 41.849097], [-87.641933, 41.846546], [-87.616851, 41.847976], [-87.612314, 41.847086], [-87.607188, 41.832576], [-87.58209, 41.803885], [-87.574954, 41.781232], [-87.584175, 41.780203], [-87.586376, 41.776085], [-87.586137, 41.759682], [-87.585114, 41.759693], [-87.585107, 41.759229], [-87.584124, 41.759242]], "type": "LineString"}, "properties": {"timestamp": "2023-12-27T18:50:23", "type": "transition"}}, {"type": "Feature", "geometry": {"coordinates": [[-87.584124, 41.759242], [-87.585107, 41.759229], [-87.585114, 41.759693], [-87.585762, 41.759686], [-87.585994, 41.771514], [-87.584175, 41.780203], [-87.574628, 41.780713], [-87.581975, 41.803976], [-87.60745, 41.833737], [-87.619244, 41.8661], [-87.614041, 41.892878], [-87.619441, 41.900921], [-87.624048, 41.902893], [-87.632152, 41.934381], [-87.63676, 41.939073], [-87.638088, 41.940568], [-87.663815, 41.939759], [-87.663907, 41.943419], [-87.665475, 41.943396]], "type": "LineString"}, "properties": {"timestamp": "2023-12-27T18:50:23", "type": "ride", "rideType": "UberX", "pickupAddress": "W Fullerton Ave, Chicago, IL 60614, US", "dropoffAddress": "W Roscoe St, Chicago, IL 60657-1216, US", "basePay": "5.15", "surge": "0.00", "tip": "0.00", "earnings": "5.15", "duration": "606", "distance": "1.50", "rideStartTime": "December 27, 2023 at 06:50 PM", "rideEndTime": "December 27, 2023 at 07:00 PM"}}, {"type": "Feature", "geometry": {"coordinates": [[-87.665475, 41.943396], [-87.666342, 41.943383], [-87.666233, 41.939729], [-87.650679, 41.939965], [-87.649915, 41.939012], [-87.651855, 41.938982]], "type": "LineString"}, "properties": {"timestamp": "2023-12-27T19:07:52", "type": "transition"}}, {"type": "Feature", "geometry": {"coordinates": [[-87.651855, 41.938982], [-87.654074, 41.938945], [-87.654273, 41.944458], [-87.662225, 41.95438], [-87.676324, 41.954253], [-87.6764, 41.956747]], "type": "LineString"}, "properties": {"timestamp": "2023-12-27T19:07:52", "type": "ride", "rideType": "UberX", "pickupAddress": "W Fletcher St, Chicago, IL 60657-3213, US", "dropoffAddress": "N Wolcott Ave, Chicago, IL 60640-2611, US", "basePay": "6.50", "surge": "0.00", "tip": "0.00", "earnings": "6.50", "duration": "723", "distance": "3.20", "rideStartTime": "December 27, 2023 at 07:07 PM", "rideEndTime": "December 27, 2023 at 07:19 PM"}}, {"type": "Feature", "geometry": {"coordinates": [[-87.6764, 41.956747], [-87.676433, 41.957841], [-87.673876, 41.957882], [-87.6744, 41.978844], [-87.674163, 41.978847]], "type": "LineString"}, "properties": {"timestamp": "2023-12-27T19:40:19", "type": "transition"}}, {"type": "Feature", "geometry": {"coordinates": [[-87.674163, 41.978847], [-87.669739, 41.978915], [-87.66966, 41.976173], [-87.651813, 41.976453], [-87.648822, 41.972134], [-87.644611, 41.950978], [-87.638957, 41.941067], [-87.632527, 41.93482], [-87.632048, 41.928427], [-87.627538, 41.915117], [-87.627206, 41.913042], [-87.633227, 41.912793], [-87.632696, 41.891597], [-87.644384, 41.891225], [-87.644337, 41.889054], [-87.648718, 41.889017], [-87.648695, 41.887378], [-87.649864, 41.887364], [-87.649838, 41.886778], [-87.649954, 41.886776]], "type": "LineString"}, "properties": {"timestamp": "2023-12-27T19:40:19", "type": "ride", "rideType": "UberX", "pickupAddress": "W Summerdale Ave, Chicago, IL 60640-2115, US", "dropoffAddress": "W Fulton Market, Chicago, IL 60607, US", "basePay": "12.62", "surge": "0.00", "tip": "5.74", "earnings": "18.36", "duration": "1625", "distance": "8.80", "rideStartTime": "December 27, 2023 at 07:40 PM", "rideEndTime": "December 27, 2023 at 08:07 PM"}}, {"type": "Feature", "geometry": {"coordinates": [[-87.649954, 41.886776], [-87.652176, 41.886743], [-87.652212, 41.888087]], "type": "LineString"}, "properties": {"timestamp": "2023-12-27T20:11:53", "type": "transition"}}, {"type": "Feature", "geometry": {"coordinates": [[-87.652212, 41.888087], [-87.652288, 41.891135], [-87.647627, 41.891194], [-87.647675, 41.896405], [-87.63421, 41.896586], [-87.634293, 41.898867]], "type": "LineString"}, "properties": {"timestamp": "2023-12-27T20:11:53", "type": "ride", "rideType": "UberX", "pickupAddress": "N Morgan St, Chicago, IL 60607, US", "dropoffAddress": "N Wells St, Chicago, IL 60610-1307, US", "basePay": "5.38", "surge": "0.00", "tip": "3.00", "earnings": "8.38", "duration": "802", "distance": "2.90", "rideStartTime": "December 27, 2023 at 08:11 PM", "rideEndTime": "December 27, 2023 at 08:25 PM"}}, {"type": "Feature", "geometry": {"coordinates": [[-87.634293, 41.898867], [-87.634474, 41.903857], [-87.632844, 41.90389], [-87.633095, 41.912584], [-87.632796, 41.913071], [-87.636142, 41.918564], [-87.636391, 41.919706]], "type": "LineString"}, "properties": {"timestamp": "2023-12-27T20:24:48", "type": "transition"}}, {"type": "Feature", "geometry": {"coordinates": [[-87.636391, 41.919706], [-87.636415, 41.918803], [-87.632796, 41.913071], [-87.631046, 41.913236], [-87.628505, 41.912247], [-87.626932, 41.912316], [-87.62645, 41.912166], [-87.626204, 41.911491], [-87.624861, 41.904908], [-87.624179, 41.901978], [-87.624316, 41.893335], [-87.626758, 41.893295], [-87.626665, 41.889909]], "type": "LineString"}, "properties": {"timestamp": "2023-12-27T20:24:48", "type": "ride", "rideType": "UberX", "pickupAddress": "N Lincoln Park W, Chicago, IL 60614-5307, US", "dropoffAddress": "N Wabash Ave, Chicago, IL 60611-3548, US", "basePay": "5.73", "surge": "0.00", "tip": "0.00", "earnings": "5.73", "duration": "797", "distance": "3.20", "rideStartTime": "December 27, 2023 at 08:24 PM", "rideEndTime": "December 27, 2023 at 08:38 PM"}}, {"type": "Feature", "geometry": {"coordinates": [[-87.626665, 41.889909], [-87.626684, 41.889386], [-87.625539, 41.889589], [-87.625442, 41.889565], [-87.624104, 41.889803], [-87.623418, 41.890004], [-87.62303, 41.890076], [-87.621696, 41.890131], [-87.621628, 41.890062], [-87.621612, 41.88971], [-87.621542, 41.889634], [-87.618129, 41.889507]], "type": "LineString"}, "properties": {"timestamp": "2023-12-27T20:42:02", "type": "transition"}}, {"type": "Feature", "geometry": {"coordinates": [[-87.618129, 41.889507], [-87.61855, 41.889504], [-87.61861, 41.891051], [-87.613969, 41.891124], [-87.613996, 41.891797], [-87.613994, 41.893178], [-87.619441, 41.900921], [-87.620113, 41.90131], [-87.622526, 41.901629], [-87.623907, 41.902638], [-87.625717, 41.909833], [-87.625477, 41.912497], [-87.626017, 41.913347], [-87.626875, 41.912624], [-87.627835, 41.912344], [-87.630971, 41.913382], [-87.632438, 41.913334], [-87.633196, 41.912907], [-87.633223, 41.911171], [-87.648286, 41.910927], [-87.648495, 41.91731]], "type": "LineString"}, "properties": {"timestamp": "2023-12-27T20:42:02", "type": "ride", "rideType": "UberX", "pickupAddress": "E North Water St, Chicago, IL 60611, US", "dropoffAddress": "N Halsted St, Chicago, IL 60614, US", "basePay": "9.17", "surge": "0.00", "tip": "3.00", "earnings": "12.17", "duration": "1052", "distance": "5.00", "rideStartTime": "December 27, 2023 at 08:42 PM", "rideEndTime": "December 27, 2023 at 08:59 PM"}}, {"type": "Feature", "geometry": {"coordinates": [[-87.648495, 41.91731], [-87.648257, 41.910013], [-87.640519, 41.90446]], "type": "LineString"}, "properties": {"timestamp": "2023-12-27T21:10:36", "type": "transition"}}, {"type": "Feature", "geometry": {"coordinates": [[-87.640519, 41.90446], [-87.639563, 41.903768], [-87.648086, 41.903643], [-87.647482, 41.885665], [-87.646258, 41.885682], [-87.645999, 41.881827], [-87.646134, 41.880956], [-87.646145, 41.879569], [-87.646166, 41.878121], [-87.646815, 41.876334], [-87.649135, 41.875728], [-87.657603, 41.876197], [-87.697235, 41.875658], [-87.708052, 41.874348], [-87.716326, 41.874195], [-87.719801, 41.874461], [-87.720824, 41.881908], [-87.729812, 41.881986]], "type": "LineString"}, "properties": {"timestamp": "2023-12-27T21:10:36", "type": "ride", "rideType": "UberX Share", "pickupAddress": "N Clybourn Ave, Chicago, IL 60622, US", "dropoffAddress": "W Washington Blvd, Chicago, IL 60644-2951, US", "basePay": "12.89", "surge": "0.00", "tip": "0.00", "earnings": "12.89", "duration": "1039", "distance": "10.60", "rideStartTime": "December 27, 2023 at 09:10 PM", "rideEndTime": "December 27, 2023 at 09:27 PM"}}, {"type": "Feature", "geometry": {"coordinates": [[-87.729812, 41.881986], [-87.745328, 41.881811], [-87.745008, 41.872067], [-87.746045, 41.872052], [-87.771005, 41.871077], [-87.810299, 41.874235], [-87.832523, 41.871501], [-87.887193, 41.869778], [-87.903102, 41.873868], [-87.911886, 41.874428], [-87.91705, 41.876389], [-87.919569, 41.878895], [-87.920355, 41.901573], [-87.921556, 41.906052], [-87.919193, 41.906433], [-87.919016, 41.903572], [-87.918476, 41.933523], [-87.913207, 41.937129], [-87.891671, 41.940957], [-87.886057, 41.944143], [-87.869309, 41.97281], [-87.869432, 41.978438], [-87.868435, 41.980974], [-87.866316, 41.985972], [-87.862627, 41.986907], [-87.860665, 41.986273], [-87.859838, 41.990615], [-87.852741, 41.98856], [-87.852779, 41.988287], [-87.852095, 41.988175], [-87.850966, 41.986522]], "type": "LineString"}, "properties": {"timestamp": "2023-12-28T08:25:54", "type": "transition"}}]}