{"type": "FeatureCollection", "features": [{"type": "Feature", "geometry": {"coordinates": [[-87.82067, 41.934634], [-87.820654, 41.93424], [-87.821275, 41.934229], [-87.821404, 41.937842], [-87.688003, 41.939468], [-87.683107, 41.935872], [-87.674697, 41.935976]], "type": "LineString"}, "properties": {"timestamp": "2023-06-09T22:20:54", "type": "ride"}}, {"type": "Feature", "geometry": {"coordinates": [[-87.674697, 41.935976], [-87.663682, 41.936111], [-87.658713, 41.932557], [-87.65822, 41.932567]], "type": "LineString"}, "properties": {"timestamp": "2023-06-09T22:30:50", "type": "transition"}}, {"type": "Feature", "geometry": {"coordinates": [[-87.65822, 41.932567], [-87.658713, 41.932557], [-87.648766, 41.925453], [-87.648378, 41.913826], [-87.649577, 41.913806], [-87.649617, 41.914943]], "type": "LineString"}, "properties": {"timestamp": "2023-06-09T22:30:50", "type": "ride"}}, {"type": "Feature", "geometry": {"coordinates": [[-87.649617, 41.914943], [-87.649617, 41.914943]], "type": "LineString"}, "properties": {"timestamp": "2023-06-09T22:44:42", "type": "transition"}}, {"type": "Feature", "geometry": {"coordinates": [[-87.649617, 41.914943], [-87.649729, 41.918159], [-87.648523, 41.918178], [-87.648766, 41.925453], [-87.653741, 41.929016], [-87.653827, 41.931569]], "type": "LineString"}, "properties": {"timestamp": "2023-06-09T22:44:42", "type": "ride"}}, {"type": "Feature", "geometry": {"coordinates": [[-87.653827, 41.931569], [-87.654016, 41.937175], [-87.653552, 41.937186], [-87.65355, 41.937074]], "type": "LineString"}, "properties": {"timestamp": "2023-06-09T22:51:21", "type": "transition"}}, {"type": "Feature", "geometry": {"coordinates": [[-87.65355, 41.937074], [-87.653552, 41.937186], [-87.654016, 41.937175], [-87.653863, 41.932636], [-87.678134, 41.932278], [-87.677893, 41.925026], [-87.687645, 41.924902], [-87.687207, 41.910324], [-87.706907, 41.910104], [-87.706541, 41.89556], [-87.712666, 41.895494], [-87.712611, 41.893664], [-87.714811, 41.893644]], "type": "LineString"}, "properties": {"timestamp": "2023-06-09T22:51:21", "type": "ride"}}, {"type": "Feature", "geometry": {"coordinates": [[-87.714811, 41.893644], [-87.711387, 41.893676], [-87.711331, 41.891856], [-87.708887, 41.891883], [-87.708841, 41.890287], [-87.710341, 41.890273]], "type": "LineString"}, "properties": {"timestamp": "2023-06-09T23:13:27", "type": "transition"}}, {"type": "Feature", "geometry": {"coordinates": [[-87.710341, 41.890273], [-87.711283, 41.890264], [-87.711113, 41.884634], [-87.701291, 41.884089], [-87.701237, 41.881942], [-87.696313, 41.881992], [-87.696189, 41.877434], [-87.693785, 41.877461], [-87.693796, 41.878371], [-87.696046, 41.878346]], "type": "LineString"}, "properties": {"timestamp": "2023-06-09T23:13:27", "type": "ride"}}, {"type": "Feature", "geometry": {"coordinates": [[-87.696046, 41.878346], [-87.696214, 41.878344], [-87.696127, 41.874902], [-87.695509, 41.874908], [-87.690201, 41.875125], [-87.659837, 41.87561], [-87.651569, 41.875318], [-87.635788, 41.875572], [-87.634246, 41.875312], [-87.634438, 41.874721], [-87.635124, 41.874834], [-87.635957, 41.875828], [-87.6367, 41.876925], [-87.636742, 41.885888], [-87.635334, 41.886831], [-87.630247, 41.886849], [-87.630207, 41.885746], [-87.627936, 41.885755]], "type": "LineString"}, "properties": {"timestamp": "2023-06-09T23:34:29", "type": "transition"}}, {"type": "Feature", "geometry": {"coordinates": [[-87.627936, 41.885755], [-87.627799, 41.882046], [-87.64573, 41.881801], [-87.645735, 41.885306], [-87.646837, 41.887752], [-87.658396, 41.896733], [-87.660726, 41.901461], [-87.661061, 41.906443], [-87.669227, 41.917096], [-87.702937, 41.93676], [-87.710036, 41.940632], [-87.713979, 41.941793], [-87.715981, 41.943044], [-87.717815, 41.94651], [-87.739921, 41.946215]], "type": "LineString"}, "properties": {"timestamp": "2023-06-09T23:34:29", "type": "ride"}}, {"type": "Feature", "geometry": {"coordinates": [[-87.739921, 41.946215], [-87.739921, 41.946215]], "type": "LineString"}, "properties": {"timestamp": "2023-06-10T00:16:02", "type": "transition"}}, {"type": "Feature", "geometry": {"coordinates": [[-87.739921, 41.946215], [-87.71959, 41.946484], [-87.718156, 41.944989], [-87.668499, 41.915851], [-87.658834, 41.896667], [-87.646614, 41.886973], [-87.645245, 41.851247], [-87.634652, 41.845323], [-87.624621, 41.72052], [-87.62925, 41.71536], [-87.653181, 41.711591], [-87.662258, 41.686593], [-87.662544, 41.636998], [-87.738588, 41.579239], [-87.743713, 41.570233], [-87.771437, 41.553321], [-87.786896, 41.551212], [-87.792612, 41.558551], [-87.812264, 41.558297], [-87.812471, 41.56548], [-87.816693, 41.565414], [-87.816629, 41.564069], [-87.815097, 41.564076]], "type": "LineString"}, "properties": {"timestamp": "2023-06-10T00:16:02", "type": "ride"}}, {"type": "Feature", "geometry": {"coordinates": [[-87.815097, 41.564076], [-87.816629, 41.564069], [-87.816693, 41.565414], [-87.812471, 41.56548], [-87.812264, 41.558297], [-87.793416, 41.558532], [-87.79258, 41.55037], [-87.774374, 41.552051], [-87.745971, 41.563929], [-87.737975, 41.579429], [-87.662381, 41.636784], [-87.661904, 41.686296], [-87.652822, 41.711489], [-87.632642, 41.714662], [-87.624177, 41.719562], [-87.625651, 41.769497], [-87.630747, 41.779495], [-87.630667, 41.838631], [-87.644903, 41.850908], [-87.644854, 41.873493], [-87.645275, 41.880374], [-87.645355, 41.881847], [-87.645393, 41.882198], [-87.645396, 41.883308], [-87.645365, 41.885689], [-87.648644, 41.885646], [-87.648752, 41.889662]], "type": "LineString"}, "properties": {"timestamp": "2023-06-10T02:36:51", "type": "transition"}}, {"type": "Feature", "geometry": {"coordinates": [[-87.648752, 41.889662], [-87.64876, 41.890082], [-87.647611, 41.890088], [-87.647627, 41.891194], [-87.654976, 41.895983], [-87.655808, 41.89501], [-87.657675, 41.89596], [-87.65932, 41.898217], [-87.660805, 41.901753], [-87.661253, 41.906799], [-87.669547, 41.91737], [-87.704001, 41.937344], [-87.710036, 41.940632], [-87.715161, 41.942387], [-87.71887, 41.947406], [-87.723791, 41.950079], [-87.727575, 41.952511], [-87.727531, 41.951378], [-87.720007, 41.947686], [-87.718393, 41.945898]], "type": "LineString"}, "properties": {"timestamp": "2023-06-10T02:36:51", "type": "ride"}}, {"type": "Feature", "geometry": {"coordinates": [[-87.718393, 41.945898], [-87.716727, 41.94319], [-87.716084, 41.942523], [-87.715518, 41.942115], [-87.71542, 41.941929], [-87.714674, 41.941459], [-87.713508, 41.941087], [-87.712526, 41.940478], [-87.712704, 41.946565], [-87.708842, 41.946623], [-87.705317, 41.944219], [-87.705281, 41.943085]], "type": "LineString"}, "properties": {"timestamp": "2023-06-10T03:14:42", "type": "transition"}}, {"type": "Feature", "geometry": {"coordinates": [[-87.705281, 41.943085], [-87.70527, 41.942755], [-87.697932, 41.942795], [-87.698254, 41.953982], [-87.668983, 41.954306], [-87.669543, 41.976174], [-87.659864, 41.976324], [-87.660018, 41.981805], [-87.661293, 41.981785], [-87.661271, 41.980907]], "type": "LineString"}, "properties": {"timestamp": "2023-06-10T03:14:42", "type": "ride"}}, {"type": "Feature", "geometry": {"coordinates": [[-87.661271, 41.980907], [-87.661135, 41.976304], [-87.668416, 41.976191], [-87.667482, 41.968818], [-87.665949, 41.961638], [-87.664292, 41.957682], [-87.663953, 41.945247], [-87.664502, 41.945239]], "type": "LineString"}, "properties": {"timestamp": "2023-06-10T03:46:44", "type": "transition"}}, {"type": "Feature", "geometry": {"coordinates": [[-87.664502, 41.945239], [-87.665169, 41.94523], [-87.66513, 41.943401], [-87.668829, 41.943346], [-87.668122, 41.924216], [-87.668616, 41.921563], [-87.677765, 41.92139], [-87.677565, 41.914726], [-87.680277, 41.914668]], "type": "LineString"}, "properties": {"timestamp": "2023-06-10T03:46:44", "type": "ride"}}, {"type": "Feature", "geometry": {"coordinates": [[-87.680277, 41.914668], [-87.677565, 41.914726], [-87.677893, 41.925026], [-87.681912, 41.924981], [-87.685177, 41.926707], [-87.709664, 41.940439], [-87.714861, 41.942208], [-87.719618, 41.947985], [-87.738838, 41.958569], [-87.741371, 41.960451], [-87.74187, 41.960845], [-87.794287, 41.960061], [-87.822074, 41.946631], [-87.821404, 41.937842], [-87.820185, 41.937866], [-87.820102, 41.936076], [-87.820727, 41.936062], [-87.82067, 41.934634]], "type": "LineString"}, "properties": {"timestamp": "2023-06-10T04:03:20", "type": "transition"}}, {"type": "Feature", "geometry": {"coordinates": [[-87.82067, 41.934634], [-87.820654, 41.93424], [-87.81151, 41.934421], [-87.811185, 41.924776], [-87.803157, 41.923552], [-87.789403, 41.92364], [-87.783067, 41.921935], [-87.75594, 41.916918], [-87.755824, 41.914045], [-87.754294, 41.914081], [-87.754209, 41.914836]], "type": "LineString"}, "properties": {"timestamp": "2023-06-10T04:03:20", "type": "ride"}}, {"type": "Feature", "geometry": {"coordinates": [[-87.754209, 41.914836], [-87.754294, 41.914081], [-87.755824, 41.914045], [-87.75594, 41.916918], [-87.782959, 41.921914], [-87.785406, 41.922641], [-87.786299, 41.945676], [-87.791262, 41.945578], [-87.7913, 41.946512]], "type": "LineString"}, "properties": {"timestamp": "2023-06-24T13:15:51", "type": "transition"}}]}