{"type": "FeatureCollection", "features": [{"type": "Feature", "geometry": {"coordinates": [[-87.632538, 41.778543], [-87.632128, 41.779366], [-87.631833, 41.779372], [-87.631812, 41.778124], [-87.635009, 41.778077], [-87.635057, 41.779907], [-87.630139, 41.779931], [-87.630149, 41.780433], [-87.630393, 41.837743], [-87.631347, 41.844144], [-87.642221, 41.847448], [-87.644991, 41.851145], [-87.647091, 41.888098], [-87.658396, 41.896733], [-87.661061, 41.906443], [-87.669227, 41.917096], [-87.704001, 41.937344], [-87.706845, 41.939348], [-87.703956, 41.939372], [-87.704044, 41.942762], [-87.701229, 41.942777]], "type": "LineString"}, "properties": {"timestamp": "2023-05-26T20:19:23", "type": "ride"}}, {"type": "Feature", "geometry": {"coordinates": [[-87.701229, 41.942777], [-87.697932, 41.942795], [-87.698037, 41.946686], [-87.668799, 41.947006], [-87.66884, 41.948822], [-87.667351, 41.948845]], "type": "LineString"}, "properties": {"timestamp": "2023-05-26T20:43:38", "type": "transition"}}, {"type": "Feature", "geometry": {"coordinates": [[-87.667351, 41.948845], [-87.664054, 41.948897], [-87.664217, 41.954357], [-87.645235, 41.954634], [-87.644611, 41.950978], [-87.639315, 41.941594], [-87.632527, 41.93482], [-87.632048, 41.928427], [-87.627538, 41.915117], [-87.627206, 41.913042], [-87.628067, 41.912346], [-87.632438, 41.913334], [-87.633196, 41.912907], [-87.633223, 41.911171], [-87.638583, 41.911164], [-87.638637, 41.912857], [-87.638064, 41.912834]], "type": "LineString"}, "properties": {"timestamp": "2023-05-26T20:43:38", "type": "ride"}}, {"type": "Feature", "geometry": {"coordinates": [[-87.638064, 41.912834], [-87.633196, 41.912907], [-87.632884, 41.899913]], "type": "LineString"}, "properties": {"timestamp": "2023-05-26T21:01:56", "type": "transition"}}, {"type": "Feature", "geometry": {"coordinates": [[-87.632884, 41.899913], [-87.632866, 41.899245], [-87.632844, 41.90389], [-87.639563, 41.903768], [-87.658278, 41.917207], [-87.65834, 41.921676], [-87.658623, 41.921672]], "type": "LineString"}, "properties": {"timestamp": "2023-05-26T21:01:56", "type": "ride"}}, {"type": "Feature", "geometry": {"coordinates": [[-87.658623, 41.921672], [-87.664379, 41.921608], [-87.664499, 41.921692]], "type": "LineString"}, "properties": {"timestamp": "2023-05-26T21:10:21", "type": "transition"}}, {"type": "Feature", "geometry": {"coordinates": [[-87.664499, 41.921692], [-87.664379, 41.921608], [-87.677255, 41.921395], [-87.671115, 41.918139], [-87.668247, 41.915543], [-87.664752, 41.909975], [-87.661559, 41.906635], [-87.661131, 41.901587], [-87.659049, 41.896968], [-87.647531, 41.888343], [-87.646219, 41.885929], [-87.645999, 41.881827], [-87.646134, 41.880956], [-87.646145, 41.879569], [-87.646166, 41.878121], [-87.646107, 41.877218], [-87.646972, 41.875597], [-87.645662, 41.872433], [-87.645367, 41.869682], [-87.64081, 41.869741], [-87.640765, 41.868867]], "type": "LineString"}, "properties": {"timestamp": "2023-05-26T21:10:21", "type": "ride"}}, {"type": "Feature", "geometry": {"coordinates": [[-87.640765, 41.868867], [-87.640724, 41.867302], [-87.670142, 41.866906], [-87.670194, 41.869204], [-87.670488, 41.8692]], "type": "LineString"}, "properties": {"timestamp": "2023-05-26T21:28:00", "type": "transition"}}, {"type": "Feature", "geometry": {"coordinates": [[-87.670488, 41.8692], [-87.671422, 41.869184], [-87.671566, 41.874114], [-87.674027, 41.874081], [-87.674059, 41.874737], [-87.663487, 41.883985], [-87.65893, 41.891061], [-87.659484, 41.891055], [-87.659547, 41.893465], [-87.658764, 41.893479]], "type": "LineString"}, "properties": {"timestamp": "2023-05-26T21:28:00", "type": "ride"}}, {"type": "Feature", "geometry": {"coordinates": [[-87.658764, 41.893479], [-87.657432, 41.893502], [-87.65741, 41.892863], [-87.655717, 41.894874], [-87.65932, 41.898217], [-87.661253, 41.906799], [-87.669906, 41.91766], [-87.709664, 41.940439], [-87.714861, 41.942208], [-87.719618, 41.947985], [-87.742619, 41.960998], [-87.783994, 41.982348], [-87.812691, 41.982443], [-87.826001, 41.984517], [-87.831845, 41.984836], [-87.834971, 41.98621], [-87.852741, 41.98856], [-87.852779, 41.988287], [-87.852095, 41.988175], [-87.850966, 41.986522]], "type": "LineString"}, "properties": {"timestamp": "2023-05-28T11:11:25", "type": "transition"}}]}