{"type": "FeatureCollection", "features": [{"type": "Feature", "geometry": {"coordinates": [[-87.727167, 41.938375], [-87.727187, 41.939096], [-87.712487, 41.939288], [-87.712526, 41.940478], [-87.709442, 41.939977], [-87.669746, 41.917124], [-87.664752, 41.909975], [-87.661559, 41.906635], [-87.660921, 41.900902], [-87.659049, 41.896968], [-87.657114, 41.895018], [-87.653963, 41.891931], [-87.651034, 41.892554], [-87.624121, 41.892541], [-87.624176, 41.896741], [-87.622557, 41.896757]], "type": "LineString"}, "properties": {}}, {"type": "Feature", "geometry": {"coordinates": [[-87.622557, 41.896757], [-87.624345, 41.896737], [-87.624388, 41.896443], [-87.624357, 41.894946], [-87.625475, 41.894921], [-87.625513, 41.89638]], "type": "LineString"}, "properties": {}}, {"type": "Feature", "geometry": {"coordinates": [[-87.625513, 41.89638], [-87.625999, 41.897556], [-87.624066, 41.897586], [-87.624077, 41.900014], [-87.624024, 41.901687], [-87.625015, 41.904013], [-87.626281, 41.911131], [-87.627054, 41.912538], [-87.628511, 41.912414], [-87.631428, 41.913459], [-87.632856, 41.913169], [-87.634358, 41.915623], [-87.634849, 41.915479], [-87.638503, 41.918106]], "type": "LineString"}, "properties": {}}, {"type": "Feature", "geometry": {"coordinates": [[-87.638503, 41.918106], [-87.653741, 41.929016], [-87.654016, 41.937175], [-87.653552, 41.937186], [-87.65355, 41.937074]], "type": "LineString"}, "properties": {}}, {"type": "Feature", "geometry": {"coordinates": [[-87.65355, 41.937074], [-87.653552, 41.937186], [-87.654016, 41.937175], [-87.653601, 41.925374], [-87.658464, 41.925291], [-87.658201, 41.917264], [-87.666413, 41.916455], [-87.66216, 41.910715], [-87.665662, 41.910672], [-87.665325, 41.910236], [-87.661439, 41.906386], [-87.661057, 41.901306], [-87.658834, 41.896667], [-87.648602, 41.889352], [-87.646315, 41.886261], [-87.646574, 41.884406], [-87.653261, 41.884311], [-87.653233, 41.883338]], "type": "LineString"}, "properties": {}}, {"type": "Feature", "geometry": {"coordinates": [[-87.653233, 41.883338], [-87.653188, 41.881686], [-87.657142, 41.881621], [-87.657084, 41.876513], [-87.65728, 41.876511], [-87.661623, 41.876138], [-87.688313, 41.875763], [-87.692409, 41.875862], [-87.696151, 41.875983], [-87.696189, 41.877434], [-87.693785, 41.877461], [-87.693796, 41.878371], [-87.696046, 41.878346]], "type": "LineString"}, "properties": {}}, {"type": "Feature", "geometry": {"coordinates": [[-87.696046, 41.878346], [-87.696214, 41.878344], [-87.696127, 41.874902], [-87.695509, 41.874908], [-87.690201, 41.875125], [-87.659837, 41.87561], [-87.650308, 41.875329], [-87.647601, 41.875302], [-87.645452, 41.874563], [-87.644482, 41.875077], [-87.64458, 41.876036], [-87.645364, 41.877863], [-87.645275, 41.880374], [-87.645355, 41.881847], [-87.645393, 41.882198], [-87.645396, 41.883308], [-87.645365, 41.885689], [-87.647482, 41.885665], [-87.647627, 41.891194], [-87.650448, 41.893035]], "type": "LineString"}, "properties": {}}, {"type": "Feature", "geometry": {"coordinates": [[-87.650448, 41.893035], [-87.650924, 41.893342], [-87.647667, 41.89336], [-87.648086, 41.903643], [-87.639563, 41.903768], [-87.6404, 41.904375], [-87.64022, 41.904515], [-87.639718, 41.904149]], "type": "LineString"}, "properties": {}}, {"type": "Feature", "geometry": {"coordinates": [[-87.639718, 41.904149], [-87.64022, 41.904515], [-87.6404, 41.904375], [-87.639563, 41.903768], [-87.633004, 41.903886], [-87.632362, 41.881953]], "type": "LineString"}, "properties": {}}, {"type": "Feature", "geometry": {"coordinates": [[-87.632362, 41.881953], [-87.633848, 41.881941], [-87.633684, 41.87567], [-87.697235, 41.875658], [-87.70915, 41.874284], [-87.732948, 41.873967], [-87.740374, 41.87187], [-87.767488, 41.871015], [-87.799298, 41.873251], [-87.804441, 41.87368], [-87.806222, 41.923096], [-87.812358, 41.923406], [-87.812304, 41.921759]], "type": "LineString"}, "properties": {}}, {"type": "Feature", "geometry": {"coordinates": [[-87.812304, 41.921759], [-87.812117, 41.916087], [-87.805999, 41.916191], [-87.804598, 41.873618], [-87.769061, 41.87064], [-87.739969, 41.871594], [-87.733001, 41.87362], [-87.69832, 41.875168], [-87.635788, 41.875572], [-87.634246, 41.875312], [-87.635124, 41.874834], [-87.635189, 41.876431], [-87.635307, 41.88065], [-87.632331, 41.880685], [-87.632362, 41.881953]], "type": "LineString"}, "properties": {}}, {"type": "Feature", "geometry": {"coordinates": [[-87.632362, 41.881953], [-87.64573, 41.881801], [-87.645735, 41.885306], [-87.646837, 41.887752], [-87.658396, 41.896733], [-87.660726, 41.901461], [-87.661253, 41.906799], [-87.669547, 41.91737], [-87.704001, 41.937344], [-87.710036, 41.940632], [-87.714861, 41.942208], [-87.719618, 41.947985], [-87.738838, 41.958569], [-87.741371, 41.960451], [-87.747538, 41.960724], [-87.747132, 41.947676]], "type": "LineString"}, "properties": {}}, {"type": "Feature", "geometry": {"coordinates": [[-87.747132, 41.947676], [-87.747568, 41.96178], [-87.746911, 41.962975], [-87.747627, 41.96438], [-87.745977, 41.964394], [-87.747015, 41.96725], [-87.747318, 41.972024], [-87.746614, 41.980044], [-87.751348, 41.987222], [-87.750649, 41.995203], [-87.748714, 42.001506], [-87.748691, 42.007768], [-87.750639, 42.011931], [-87.750297, 42.013105], [-87.749434, 42.012339], [-87.750189, 42.011836], [-87.77782, 42.011989]], "type": "LineString"}, "properties": {}}, {"type": "Feature", "geometry": {"coordinates": [[-87.77782, 42.011989], [-87.773348, 42.011959], [-87.765439, 41.996715], [-87.753476, 41.991079], [-87.746835, 41.980228], [-87.747223, 41.966563], [-87.745961, 41.963113], [-87.742125, 41.960129], [-87.719592, 41.947613], [-87.715306, 41.94215], [-87.698173, 41.933659], [-87.687291, 41.927358], [-87.684125, 41.925223], [-87.687645, 41.924902], [-87.687207, 41.910324], [-87.701875, 41.910165], [-87.702278, 41.902886], [-87.731211, 41.902599], [-87.731064, 41.897122], [-87.73476, 41.897055], [-87.734739, 41.896294]], "type": "LineString"}, "properties": {}}]}