{"type": "FeatureCollection", "features": [{"type": "Feature", "geometry": {"coordinates": [[-87.751741, 41.93147], [-87.717188, 41.931929], [-87.717101, 41.92898]], "type": "LineString"}, "properties": {"timestamp": "2023-11-17T15:40:17", "type": "ride"}}, {"type": "Feature", "geometry": {"coordinates": [[-87.717101, 41.92898], [-87.716986, 41.924616], [-87.731667, 41.924435], [-87.731611, 41.922601], [-87.731192, 41.922606]], "type": "LineString"}, "properties": {"timestamp": "2023-11-17T15:51:26", "type": "transition"}}, {"type": "Feature", "geometry": {"coordinates": [[-87.731192, 41.922606], [-87.730387, 41.922615], [-87.730442, 41.924449], [-87.683686, 41.924962], [-87.683325, 41.924765], [-87.671496, 41.918378], [-87.668499, 41.915851], [-87.664752, 41.909975], [-87.661559, 41.906635], [-87.660921, 41.900902], [-87.659049, 41.896968], [-87.657114, 41.895018], [-87.653963, 41.891931], [-87.651034, 41.892554], [-87.620263, 41.892588], [-87.620313, 41.894445]], "type": "LineString"}, "properties": {"timestamp": "2023-11-17T15:51:26", "type": "ride"}}, {"type": "Feature", "geometry": {"coordinates": [[-87.620313, 41.894445], [-87.620283, 41.893412], [-87.637063, 41.893148], [-87.637178, 41.896556], [-87.647675, 41.896405], [-87.648124, 41.905038], [-87.649202, 41.905042], [-87.649323, 41.905133]], "type": "LineString"}, "properties": {"timestamp": "2023-11-17T16:19:00", "type": "transition"}}, {"type": "Feature", "geometry": {"coordinates": [[-87.649323, 41.905133], [-87.649202, 41.905042], [-87.648124, 41.905038], [-87.647627, 41.891194], [-87.634054, 41.891576], [-87.634037, 41.890774], [-87.632683, 41.890793], [-87.632362, 41.881953]], "type": "LineString"}, "properties": {"timestamp": "2023-11-17T16:19:00", "type": "ride"}}, {"type": "Feature", "geometry": {"coordinates": [[-87.632362, 41.881953], [-87.64573, 41.881801], [-87.646594, 41.887382], [-87.651689, 41.891702], [-87.65868, 41.896836], [-87.66137, 41.906646], [-87.670146, 41.917654], [-87.715306, 41.94215], [-87.719592, 41.947613], [-87.746287, 41.963594], [-87.746614, 41.980044], [-87.751348, 41.987222], [-87.748777, 42.008181], [-87.75175, 42.013083], [-87.768078, 42.024765], [-87.768407, 42.033299], [-87.764702, 42.038593], [-87.759717, 42.040844], [-87.705371, 42.041009], [-87.705228, 42.047557]], "type": "LineString"}, "properties": {"timestamp": "2023-11-17T18:42:35", "type": "transition"}}, {"type": "Feature", "geometry": {"coordinates": [[-87.705228, 42.047557], [-87.705207, 42.048276], [-87.714181, 42.048153], [-87.720086, 42.040827], [-87.763691, 42.040938], [-87.764624, 42.041577], [-87.763223, 42.042189], [-87.768504, 42.03371], [-87.768822, 42.026512], [-87.765749, 42.021309], [-87.752686, 42.013632], [-87.749252, 42.009007], [-87.748976, 42.001046], [-87.751521, 41.987219], [-87.746835, 41.980228], [-87.747223, 41.966563], [-87.745232, 41.962358], [-87.719592, 41.947613], [-87.715306, 41.94215], [-87.709927, 41.940372], [-87.670146, 41.917654], [-87.66137, 41.906646], [-87.659066, 41.897394], [-87.653065, 41.892534], [-87.626742, 41.892498], [-87.626665, 41.889909]], "type": "LineString"}, "properties": {"timestamp": "2023-11-17T18:42:35", "type": "ride"}}, {"type": "Feature", "geometry": {"coordinates": [[-87.626665, 41.889909], [-87.626657, 41.889438], [-87.627171, 41.888834], [-87.627249, 41.888509], [-87.627099, 41.888182], [-87.626374, 41.887032], [-87.626312, 41.886804], [-87.626286, 41.88576], [-87.625004, 41.885767]], "type": "LineString"}, "properties": {"timestamp": "2023-11-17T19:35:12", "type": "transition"}}, {"type": "Feature", "geometry": {"coordinates": [[-87.625004, 41.885767], [-87.626286, 41.88576], [-87.626192, 41.882079], [-87.630875, 41.881984], [-87.630715, 41.875701], [-87.643841, 41.875615], [-87.651991, 41.875736], [-87.657268, 41.876192], [-87.662425, 41.876121], [-87.666742, 41.876354], [-87.666133, 41.855063], [-87.664038, 41.855112]], "type": "LineString"}, "properties": {"timestamp": "2023-11-17T19:35:12", "type": "ride"}}, {"type": "Feature", "geometry": {"coordinates": [[-87.664038, 41.855112], [-87.666016, 41.855077], [-87.666563, 41.875179], [-87.666292, 41.875183], [-87.650308, 41.875329], [-87.645452, 41.874563], [-87.64458, 41.876036], [-87.645275, 41.880374], [-87.645355, 41.881847], [-87.645393, 41.882198], [-87.647404, 41.888483], [-87.658783, 41.897251], [-87.661061, 41.906443], [-87.669227, 41.917096], [-87.702937, 41.93676], [-87.715981, 41.943044], [-87.717815, 41.94651], [-87.723631, 41.946429], [-87.723636, 41.946606]], "type": "LineString"}, "properties": {"timestamp": "2023-11-20T08:19:44", "type": "transition"}}]}