{"type": "FeatureCollection", "features": [{"type": "Feature", "geometry": {"coordinates": [[-87.719618, 41.931377], [-87.719583, 41.93007], [-87.720801, 41.930057], [-87.720852, 41.931876], [-87.696547, 41.932116], [-87.669746, 41.917124], [-87.661559, 41.906635], [-87.658834, 41.896667], [-87.647099, 41.887778], [-87.644363, 41.857367], [-87.644333, 41.849097], [-87.641933, 41.846546], [-87.616851, 41.847976], [-87.612314, 41.847086], [-87.607188, 41.832576], [-87.58209, 41.803885], [-87.574954, 41.781232], [-87.584175, 41.780203], [-87.586376, 41.776085], [-87.586137, 41.759682], [-87.585114, 41.759693], [-87.585107, 41.759229], [-87.584124, 41.759242]], "type": "LineString"}, "properties": {"timestamp": "2023-12-29T14:47:34", "type": "ride", "rideType": "Comfort", "pickupAddress": "N Lawndale Ave, Chicago, IL 60647-3402, US", "dropoffAddress": "W Fullerton Ave, Chicago, IL 60614-2129, US", "basePay": "10.01", "surge": "0.00", "tip": "0.00", "earnings": "10.01", "duration": "755", "distance": "3.30", "rideStartTime": "December 29, 2023 at 02:47 PM", "rideEndTime": "December 29, 2023 at 03:00 PM"}}, {"type": "Feature", "geometry": {"coordinates": [[-87.584124, 41.759242], [-87.585107, 41.759229], [-87.585114, 41.759693], [-87.585762, 41.759686], [-87.585994, 41.771514], [-87.584175, 41.780203], [-87.574628, 41.780713], [-87.580105, 41.791827], [-87.579065, 41.795899], [-87.581975, 41.803976], [-87.593676, 41.815381], [-87.60745, 41.833737], [-87.619244, 41.8661], [-87.617003, 41.869799], [-87.617167, 41.881825], [-87.613645, 41.884762], [-87.614003, 41.89273], [-87.619441, 41.900921], [-87.623907, 41.902638], [-87.625717, 41.909833], [-87.626017, 41.913347], [-87.627835, 41.912344], [-87.632856, 41.913169], [-87.636131, 41.918472], [-87.647123, 41.918199]], "type": "LineString"}, "properties": {"timestamp": "2023-12-29T15:04:21", "type": "transition"}}, {"type": "Feature", "geometry": {"coordinates": [[-87.647123, 41.918199], [-87.648523, 41.918178], [-87.648257, 41.910013], [-87.646352, 41.908629]], "type": "LineString"}, "properties": {"timestamp": "2023-12-29T15:04:21", "type": "ride", "rideType": "UberX", "pickupAddress": "W Armitage Ave, Chicago, IL 60614, US", "dropoffAddress": "1500 N Clybourn Ave, Chicago, IL 60610, US", "basePay": "3.97", "surge": "0.00", "tip": "0.00", "earnings": "3.97", "duration": "406", "distance": "1.00", "rideStartTime": "December 29, 2023 at 03:04 PM", "rideEndTime": "December 29, 2023 at 03:11 PM"}}, {"type": "Feature", "geometry": {"coordinates": [[-87.646352, 41.908629], [-87.649501, 41.910903], [-87.664445, 41.910674], [-87.668091, 41.915886], [-87.670574, 41.91815], [-87.709664, 41.940439], [-87.714861, 41.942208], [-87.719618, 41.947985], [-87.738838, 41.958569], [-87.741371, 41.960451], [-87.74187, 41.960845], [-87.794161, 41.960081], [-87.816945, 41.949144], [-87.816641, 41.941072]], "type": "LineString"}, "properties": {"timestamp": "2023-12-29T15:13:55", "type": "transition"}}, {"type": "Feature", "geometry": {"coordinates": [[-87.816641, 41.941072], [-87.816524, 41.93794], [-87.688003, 41.939468], [-87.683107, 41.935872], [-87.674697, 41.935976]], "type": "LineString"}, "properties": {"timestamp": "2023-12-29T15:13:55", "type": "ride", "rideType": "UberX", "pickupAddress": "W North Ave, Chicago, IL 60642, US", "dropoffAddress": "W Wellington Ave, Chicago, IL 60657, US", "basePay": "4.87", "surge": "0.00", "tip": "0.00", "earnings": "4.87", "duration": "731", "distance": "2.30", "rideStartTime": "December 29, 2023 at 03:13 PM", "rideEndTime": "December 29, 2023 at 03:26 PM"}}, {"type": "Feature", "geometry": {"coordinates": [[-87.674697, 41.935976], [-87.673353, 41.935993], [-87.673458, 41.939643], [-87.654106, 41.939918]], "type": "LineString"}, "properties": {"timestamp": "2023-12-29T15:30:07", "type": "transition"}}, {"type": "Feature", "geometry": {"coordinates": [[-87.654106, 41.939918], [-87.666233, 41.939729], [-87.666175, 41.937916], [-87.668655, 41.93788], [-87.668616, 41.921563], [-87.677255, 41.921395], [-87.671115, 41.918139], [-87.668247, 41.915543], [-87.664752, 41.909975], [-87.661559, 41.906635], [-87.661131, 41.901587], [-87.659049, 41.896968], [-87.647531, 41.888343], [-87.646219, 41.885929], [-87.645999, 41.881827], [-87.646134, 41.880956], [-87.646145, 41.879569], [-87.646166, 41.878121], [-87.646815, 41.876334], [-87.649135, 41.875728], [-87.657603, 41.876197], [-87.688313, 41.875763], [-87.692409, 41.875862], [-87.696151, 41.875983], [-87.696261, 41.880169], [-87.695733, 41.880173]], "type": "LineString"}, "properties": {"timestamp": "2023-12-29T15:30:07", "type": "ride", "rideType": "UberX", "pickupAddress": "W Belmont Ave and N Sheffield Ave, Chicago, IL 60657, US", "dropoffAddress": "W Monroe St, Chicago, IL 60607, US", "basePay": "10.30", "surge": "0.00", "tip": "0.00", "earnings": "10.30", "duration": "1704", "distance": "5.30", "rideStartTime": "December 29, 2023 at 03:30 PM", "rideEndTime": "December 29, 2023 at 03:58 PM"}}, {"type": "Feature", "geometry": {"coordinates": [[-87.695733, 41.880173], [-87.696261, 41.880169], [-87.69636, 41.884255], [-87.662599, 41.885414], [-87.661497, 41.887468], [-87.659834, 41.889971], [-87.653442, 41.890032], [-87.653444, 41.890128]], "type": "LineString"}, "properties": {"timestamp": "2023-12-29T16:02:58", "type": "transition"}}, {"type": "Feature", "geometry": {"coordinates": [[-87.653444, 41.890128], [-87.653449, 41.89112], [-87.655792, 41.891092], [-87.655874, 41.893379], [-87.656089, 41.893691], [-87.656525, 41.893906], [-87.655717, 41.894874], [-87.657675, 41.89596], [-87.658396, 41.896733], [-87.659161, 41.897893], [-87.660194, 41.900116], [-87.66059, 41.901618], [-87.660665, 41.90345], [-87.666158, 41.903366], [-87.666435, 41.909028]], "type": "LineString"}, "properties": {"timestamp": "2023-12-29T16:02:58", "type": "ride", "rideType": "UberX", "pickupAddress": "N Carpenter St, Chicago, IL 60607, US", "dropoffAddress": "N Bosworth Ave, Chicago, IL 60642-3316, US", "basePay": "5.03", "surge": "0.00", "tip": "0.00", "earnings": "5.03", "duration": "455", "distance": "1.90", "rideStartTime": "December 29, 2023 at 04:02 PM", "rideEndTime": "December 29, 2023 at 04:10 PM"}}, {"type": "Feature", "geometry": {"coordinates": [[-87.666435, 41.909028], [-87.666509, 41.910658], [-87.66776, 41.910633], [-87.667457, 41.899711], [-87.674089, 41.899597], [-87.67412, 41.90052]], "type": "LineString"}, "properties": {"timestamp": "2023-12-29T16:14:30", "type": "transition"}}, {"type": "Feature", "geometry": {"coordinates": [[-87.67412, 41.90052], [-87.674089, 41.899597], [-87.677161, 41.899544], [-87.677325, 41.905006], [-87.684023, 41.904903]], "type": "LineString"}, "properties": {"timestamp": "2023-12-29T16:14:30", "type": "ride", "rideType": "UberX", "pickupAddress": "N Milwaukee Ave, Chicago, IL 60622-9318, US", "dropoffAddress": "W Potomac Ave, Chicago, IL 60622-3011, US", "basePay": "2.94", "surge": "0.00", "tip": "0.00", "earnings": "2.94", "duration": "286", "distance": "0.70", "rideStartTime": "December 29, 2023 at 04:14 PM", "rideEndTime": "December 29, 2023 at 04:19 PM"}}, {"type": "Feature", "geometry": {"coordinates": [[-87.684023, 41.904903], [-87.684636, 41.90489], [-87.684574, 41.90306], [-87.701605, 41.902888]], "type": "LineString"}, "properties": {"timestamp": "2023-12-29T16:20:39", "type": "transition"}}, {"type": "Feature", "geometry": {"coordinates": [[-87.701605, 41.902888], [-87.702278, 41.902886], [-87.701241, 41.907558], [-87.701875, 41.910165], [-87.702467, 41.94223], [-87.705317, 41.944219], [-87.705748, 41.959386], [-87.702918, 41.959389]], "type": "LineString"}, "properties": {"timestamp": "2023-12-29T16:20:39", "type": "ride", "rideType": "UberX", "pickupAddress": "W Division St, Chicago, IL 60622, US", "dropoffAddress": "W Cullom Ave, Chicago, IL 60618, US", "basePay": "10.19", "surge": "0.00", "tip": "0.00", "earnings": "10.19", "duration": "1392", "distance": "5.40", "rideStartTime": "December 29, 2023 at 04:20 PM", "rideEndTime": "December 29, 2023 at 04:43 PM"}}, {"type": "Feature", "geometry": {"coordinates": [[-87.702918, 41.959389], [-87.700849, 41.959402], [-87.700702, 41.954], [-87.703126, 41.954006], [-87.702922, 41.946815]], "type": "LineString"}, "properties": {"timestamp": "2023-12-29T16:46:41", "type": "transition"}}, {"type": "Feature", "geometry": {"coordinates": [[-87.702922, 41.946815], [-87.702918, 41.946663], [-87.688245, 41.946744], [-87.688345, 41.949742]], "type": "LineString"}, "properties": {"timestamp": "2023-12-29T16:46:41", "type": "ride", "rideType": "UberX", "pickupAddress": "N Sacramento Ave, Chicago, IL 60618-1408, US", "dropoffAddress": "N Western Ave, Chicago, IL 60618, US", "basePay": "5.20", "surge": "0.00", "tip": "0.00", "earnings": "5.20", "duration": "531", "distance": "1.70", "rideStartTime": "December 29, 2023 at 04:46 PM", "rideEndTime": "December 29, 2023 at 04:55 PM"}}, {"type": "Feature", "geometry": {"coordinates": [[-87.688345, 41.949742], [-87.688469, 41.953985], [-87.650527, 41.954553], [-87.649662, 41.953239], [-87.64961, 41.95119], [-87.644532, 41.942862], [-87.644433, 41.94114], [-87.644851, 41.941134]], "type": "LineString"}, "properties": {"timestamp": "2023-12-29T17:10:22", "type": "transition"}}, {"type": "Feature", "geometry": {"coordinates": [[-87.644851, 41.941134], [-87.649309, 41.941079], [-87.649356, 41.942712], [-87.652729, 41.942502], [-87.662225, 41.95438], [-87.698254, 41.953982], [-87.698335, 41.956867]], "type": "LineString"}, "properties": {"timestamp": "2023-12-29T17:10:22", "type": "ride", "rideType": "UberX", "pickupAddress": "W Melrose St, Chicago, IL 60657-1002, US", "dropoffAddress": "N California Ave, Chicago, IL 60647-1733, US", "basePay": "6.91", "surge": "0.00", "tip": "0.00", "earnings": "6.91", "duration": "816", "distance": "2.10", "rideStartTime": "December 29, 2023 at 05:10 PM", "rideEndTime": "December 29, 2023 at 05:23 PM"}}, {"type": "Feature", "geometry": {"coordinates": [[-87.698335, 41.956867], [-87.698037, 41.946686], [-87.694882, 41.946711], [-87.694885, 41.947669]], "type": "LineString"}, "properties": {"timestamp": "2023-12-29T17:26:54", "type": "transition"}}, {"type": "Feature", "geometry": {"coordinates": [[-87.694885, 41.947669], [-87.694882, 41.946711], [-87.795979, 41.945482], [-87.795245, 41.923598], [-87.79707, 41.923585], [-87.797058, 41.923215]], "type": "LineString"}, "properties": {"timestamp": "2023-12-29T17:26:54", "type": "ride", "rideType": "UberX", "pickupAddress": "N Talman Ave, Chicago, IL 60618-7813, US", "dropoffAddress": "W Fullerton Ave, Chicago, IL 60647, US", "basePay": "4.15", "surge": "0.00", "tip": "5.00", "earnings": "9.15", "duration": "307", "distance": "0.90", "rideStartTime": "December 29, 2023 at 05:26 PM", "rideEndTime": "December 29, 2023 at 05:32 PM"}}, {"type": "Feature", "geometry": {"coordinates": [[-87.797058, 41.923215], [-87.79707, 41.923585], [-87.795245, 41.923598], [-87.795699, 41.938162], [-87.786046, 41.938315], [-87.786554, 41.95292], [-87.719156, 41.953712], [-87.718284, 41.953111]], "type": "LineString"}, "properties": {"timestamp": "2023-12-29T18:12:50", "type": "transition"}}, {"type": "Feature", "geometry": {"coordinates": [[-87.718284, 41.953111], [-87.698314, 41.939401], [-87.688003, 41.939468], [-87.678134, 41.932278], [-87.668327, 41.932402], [-87.668361, 41.933311], [-87.668473, 41.932963]], "type": "LineString"}, "properties": {"timestamp": "2023-12-29T18:12:50", "type": "ride", "rideType": "UberX", "pickupAddress": "N Elston Ave, Chicago, IL 60647, US", "dropoffAddress": "N Ashland Ave, Chicago, IL 60657, US", "basePay": "5.17", "surge": "0.00", "tip": "0.00", "earnings": "5.17", "duration": "659", "distance": "1.90", "rideStartTime": "December 29, 2023 at 06:12 PM", "rideEndTime": "December 29, 2023 at 06:23 PM"}}, {"type": "Feature", "geometry": {"coordinates": [[-87.668473, 41.932963], [-87.668452, 41.9324], [-87.668885, 41.950643], [-87.669671, 41.950633]], "type": "LineString"}, "properties": {"timestamp": "2023-12-29T18:28:54", "type": "transition"}}, {"type": "Feature", "geometry": {"coordinates": [[-87.669671, 41.950633], [-87.669013, 41.950641], [-87.668729, 41.939809], [-87.663682, 41.936111], [-87.663383, 41.927039], [-87.660977, 41.927077]], "type": "LineString"}, "properties": {"timestamp": "2023-12-29T18:28:54", "type": "ride", "rideType": "UberX", "pickupAddress": "W Grace St, Chicago, IL 60613-2701, US", "dropoffAddress": "W Altgeld St, Chicago, IL 60614, US", "basePay": "6.12", "surge": "0.00", "tip": "0.00", "earnings": "6.12", "duration": "793", "distance": "2.00", "rideStartTime": "December 29, 2023 at 06:28 PM", "rideEndTime": "December 29, 2023 at 06:42 PM"}}, {"type": "Feature", "geometry": {"coordinates": [[-87.660977, 41.927077], [-87.658527, 41.927117], [-87.658558, 41.928024], [-87.657193, 41.92805]], "type": "LineString"}, "properties": {"timestamp": "2023-12-29T18:42:37", "type": "transition"}}, {"type": "Feature", "geometry": {"coordinates": [[-87.657193, 41.92805], [-87.658558, 41.928024], [-87.658527, 41.927117], [-87.663383, 41.927039], [-87.6632, 41.921626], [-87.677765, 41.92139], [-87.677621, 41.91776], [-87.698589, 41.917481], [-87.698598, 41.91774]], "type": "LineString"}, "properties": {"timestamp": "2023-12-29T18:42:37", "type": "ride", "rideType": "UberX", "pickupAddress": "W Lill Ave, Chicago, IL 60614-2207, US", "dropoffAddress": "2840 W Armitage Ave, Chicago, IL 60647, US", "basePay": "6.59", "surge": "0.00", "tip": "0.00", "earnings": "6.59", "duration": "821", "distance": "2.80", "rideStartTime": "December 29, 2023 at 06:42 PM", "rideEndTime": "December 29, 2023 at 06:56 PM"}}, {"type": "Feature", "geometry": {"coordinates": [[-87.698598, 41.91774], [-87.698589, 41.917481], [-87.697194, 41.917494], [-87.697029, 41.910223], [-87.695773, 41.910241], [-87.69582, 41.911942]], "type": "LineString"}, "properties": {"timestamp": "2023-12-29T19:00:31", "type": "transition"}}, {"type": "Feature", "geometry": {"coordinates": [[-87.69582, 41.911942], [-87.695823, 41.912067], [-87.694602, 41.912078], [-87.69455, 41.910258], [-87.687207, 41.910324], [-87.686972, 41.901212], [-87.67415, 41.901415], [-87.67412, 41.90052]], "type": "LineString"}, "properties": {"timestamp": "2023-12-29T19:00:31", "type": "ride", "rideType": "UberX", "pickupAddress": "N Fairfield Ave, Chicago, IL 60647-4213, US", "dropoffAddress": "N Milwaukee Ave, Chicago, IL 60622, US", "basePay": "5.69", "surge": "0.00", "tip": "0.00", "earnings": "5.69", "duration": "749", "distance": "1.80", "rideStartTime": "December 29, 2023 at 07:00 PM", "rideEndTime": "December 29, 2023 at 07:13 PM"}}, {"type": "Feature", "geometry": {"coordinates": [[-87.67412, 41.90052], [-87.67412, 41.90052]], "type": "LineString"}, "properties": {"timestamp": "2023-12-29T19:16:15", "type": "transition"}}, {"type": "Feature", "geometry": {"coordinates": [[-87.67412, 41.90052], [-87.674089, 41.899597], [-87.677161, 41.899544], [-87.677057, 41.895912], [-87.701213, 41.895606]], "type": "LineString"}, "properties": {"timestamp": "2023-12-29T19:16:15", "type": "ride", "rideType": "UberX", "pickupAddress": "N Milwaukee Ave, Chicago, IL 60622-9317, US", "dropoffAddress": "W Chicago Ave, Chicago, IL 60622-5548, US", "basePay": "3.13", "surge": "0.00", "tip": "2.00", "earnings": "5.13", "duration": "267", "distance": "1.10", "rideStartTime": "December 29, 2023 at 07:16 PM", "rideEndTime": "December 29, 2023 at 07:20 PM"}}, {"type": "Feature", "geometry": {"coordinates": [[-87.701213, 41.895606], [-87.686835, 41.89575], [-87.686881, 41.897571], [-87.681995, 41.897649], [-87.681969, 41.896746], [-87.683255, 41.896725]], "type": "LineString"}, "properties": {"timestamp": "2023-12-29T19:22:43", "type": "transition"}}, {"type": "Feature", "geometry": {"coordinates": [[-87.683255, 41.896725], [-87.68442, 41.896706], [-87.684398, 41.89579], [-87.632635, 41.896613], [-87.632751, 41.900548], [-87.628335, 41.9006], [-87.62834, 41.900747], [-87.624042, 41.900824], [-87.623664, 41.902709], [-87.625557, 41.90867], [-87.62589, 41.912141], [-87.628743, 41.918036], [-87.631417, 41.926949]], "type": "LineString"}, "properties": {"timestamp": "2023-12-29T19:22:43", "type": "ride", "rideType": "UberX", "pickupAddress": "W Rice St, Chicago, IL 60622, US", "dropoffAddress": "N Lake Shore Dr, Chicago, IL 60601, US", "basePay": "8.50", "surge": "0.00", "tip": "0.00", "earnings": "8.50", "duration": "1024", "distance": "6.10", "rideStartTime": "December 29, 2023 at 07:22 PM", "rideEndTime": "December 29, 2023 at 07:39 PM"}}, {"type": "Feature", "geometry": {"coordinates": [[-87.631417, 41.926949], [-87.632273, 41.934701], [-87.633661, 41.936704], [-87.63676, 41.939073], [-87.638088, 41.940568], [-87.638796, 41.940268], [-87.638606, 41.939931], [-87.634194, 41.936955], [-87.632453, 41.934639], [-87.632048, 41.928427], [-87.629189, 41.918735], [-87.62605, 41.911998], [-87.62421, 41.902733], [-87.62264, 41.901491], [-87.619617, 41.900898], [-87.614264, 41.892868], [-87.614127, 41.884928], [-87.617453, 41.881821], [-87.617247, 41.869895], [-87.618862, 41.86764], [-87.620423, 41.867601], [-87.619968, 41.865835], [-87.619558, 41.864987], [-87.613948, 41.865039], [-87.613754, 41.866115], [-87.607427, 41.866381]], "type": "LineString"}, "properties": {"timestamp": "2023-12-29T19:44:42", "type": "transition"}}, {"type": "Feature", "geometry": {"coordinates": [[-87.607427, 41.866381], [-87.613892, 41.866397], [-87.614212, 41.866175], [-87.614089, 41.86504], [-87.619015, 41.864982], [-87.619088, 41.866961], [-87.617003, 41.869799], [-87.617167, 41.881825], [-87.61661, 41.882664], [-87.614208, 41.883848], [-87.613613, 41.884932], [-87.614041, 41.892878], [-87.616735, 41.89691], [-87.617065, 41.89684], [-87.619261, 41.900095], [-87.626209, 41.89998]], "type": "LineString"}, "properties": {"timestamp": "2023-12-29T19:44:42", "type": "ride", "rideType": "UberX", "pickupAddress": "S Lake Shore Dr, Chicago, IL 60605, US", "dropoffAddress": "E Walton St, Chicago, IL 60611, US", "basePay": "9.41", "surge": "0.00", "tip": "5.00", "earnings": "14.41", "duration": "1159", "distance": "3.40", "rideStartTime": "December 29, 2023 at 07:44 PM", "rideEndTime": "December 29, 2023 at 08:04 PM"}}, {"type": "Feature", "geometry": {"coordinates": [[-87.626209, 41.89998], [-87.626209, 41.89998]], "type": "LineString"}, "properties": {"timestamp": "2023-12-29T20:07:43", "type": "transition"}}, {"type": "Feature", "geometry": {"coordinates": [[-87.626209, 41.89998], [-87.631337, 41.899794], [-87.631127, 41.891621], [-87.639878, 41.891506], [-87.644384, 41.891225], [-87.644337, 41.889054], [-87.648718, 41.889017], [-87.648695, 41.887378], [-87.649864, 41.887364], [-87.649838, 41.886778], [-87.649954, 41.886776]], "type": "LineString"}, "properties": {"timestamp": "2023-12-29T20:07:43", "type": "ride", "rideType": "UberX", "pickupAddress": "E Walton St, Chicago, IL 60611-1419, US", "dropoffAddress": "W Fulton Market, Chicago, IL 60607, US", "basePay": "5.13", "surge": "0.00", "tip": "0.00", "earnings": "5.13", "duration": "933", "distance": "2.10", "rideStartTime": "December 29, 2023 at 08:07 PM", "rideEndTime": "December 29, 2023 at 08:23 PM"}}, {"type": "Feature", "geometry": {"coordinates": [[-87.649954, 41.886776], [-87.651006, 41.88676], [-87.650961, 41.885607], [-87.649818, 41.885626], [-87.649583, 41.878315], [-87.649942, 41.878307]], "type": "LineString"}, "properties": {"timestamp": "2023-12-29T20:30:55", "type": "transition"}}, {"type": "Feature", "geometry": {"coordinates": [[-87.649942, 41.878307], [-87.649583, 41.878315], [-87.64957, 41.877909], [-87.645564, 41.877963], [-87.645275, 41.880374], [-87.645355, 41.881847], [-87.645393, 41.882198], [-87.64591, 41.885931], [-87.647404, 41.888483], [-87.658783, 41.897251], [-87.660805, 41.901753], [-87.661061, 41.906443], [-87.664439, 41.910145], [-87.668091, 41.915886], [-87.670574, 41.91815], [-87.678438, 41.922676], [-87.681513, 41.924733], [-87.731667, 41.924435], [-87.731611, 41.922601], [-87.731192, 41.922606]], "type": "LineString"}, "properties": {"timestamp": "2023-12-29T20:30:55", "type": "ride", "rideType": "UberX", "pickupAddress": "N Peoria St, Chicago, IL 60607-1750, US", "dropoffAddress": "W Belden Ave, Chicago, IL 60647-2801, US", "basePay": "8.21", "surge": "0.00", "tip": "5.00", "earnings": "13.21", "duration": "1054", "distance": "4.90", "rideStartTime": "December 29, 2023 at 08:30 PM", "rideEndTime": "December 29, 2023 at 08:48 PM"}}, {"type": "Feature", "geometry": {"coordinates": [[-87.731192, 41.922606], [-87.730387, 41.922615], [-87.730442, 41.924449], [-87.775719, 41.923827], [-87.775966, 41.931151], [-87.806486, 41.930831], [-87.806613, 41.934519], [-87.820654, 41.93424], [-87.82067, 41.934634]], "type": "LineString"}, "properties": {"timestamp": "2023-12-29T20:50:15", "type": "transition"}}, {"type": "Feature", "geometry": {"coordinates": [[-87.82067, 41.934634], [-87.820654, 41.93424], [-87.821275, 41.934229], [-87.821404, 41.937842], [-87.786046, 41.938315], [-87.786299, 41.945676], [-87.71959, 41.946484], [-87.718156, 41.944989], [-87.715518, 41.942115], [-87.710267, 41.940414], [-87.687291, 41.927358], [-87.683686, 41.924962], [-87.640463, 41.92558], [-87.638269, 41.921963], [-87.635731, 41.922], [-87.635682, 41.921147]], "type": "LineString"}, "properties": {"timestamp": "2023-12-29T20:50:15", "type": "ride", "rideType": "UberX", "pickupAddress": "N Milwaukee Ave, Chicago, IL 60647, US", "dropoffAddress": "N Stockton Dr, Chicago, IL 60614, US", "basePay": "8.07", "surge": "0.00", "tip": "0.00", "earnings": "8.07", "duration": "1021", "distance": "4.70", "rideStartTime": "December 29, 2023 at 08:50 PM", "rideEndTime": "December 29, 2023 at 09:07 PM"}}, {"type": "Feature", "geometry": {"coordinates": [[-87.635682, 41.921147], [-87.635731, 41.922], [-87.638269, 41.921963], [-87.641881, 41.927956]], "type": "LineString"}, "properties": {"timestamp": "2023-12-30T14:52:28", "type": "transition"}}]}