{"type": "FeatureCollection", "features": [{"type": "Feature", "geometry": {"coordinates": [[-87.715459, 41.942862], [-87.714433, 41.942252], [-87.712582, 41.942239], [-87.712487, 41.939288], [-87.717392, 41.939221], [-87.71669, 41.909987], [-87.718643, 41.909964]], "type": "LineString"}, "properties": {"timestamp": "2023-05-29T11:45:44", "type": "ride", "rideType": "UberX", "pickupAddress": "N Drake Ave, Chicago, IL 60647-4820, US", "dropoffAddress": "W North Ave, Chicago, IL 60639-5220, US", "basePay": "4.43", "surge": "4.00", "tip": "0.00", "earnings": "8.43", "duration": "308", "distance": "1.10", "rideStartTime": "May 29, 2023 at 11:45 AM", "rideEndTime": "May 29, 2023 at 11:50 AM"}}, {"type": "Feature", "geometry": {"coordinates": [[-87.718643, 41.909964], [-87.726341, 41.90987], [-87.726514, 41.909332], [-87.726353, 41.904478], [-87.733736, 41.904369], [-87.733761, 41.905271], [-87.731634, 41.905302]], "type": "LineString"}, "properties": {"timestamp": "2023-05-29T11:51:51", "type": "transition"}}, {"type": "Feature", "geometry": {"coordinates": [[-87.731634, 41.905302], [-87.726383, 41.905379], [-87.726413, 41.906161], [-87.712809, 41.900762], [-87.711889, 41.900057], [-87.711243, 41.900143], [-87.687437, 41.890657], [-87.652288, 41.891135], [-87.652264, 41.890047], [-87.651106, 41.890059], [-87.651107, 41.890448]], "type": "LineString"}, "properties": {"timestamp": "2023-05-29T11:51:51", "type": "ride", "rideType": "UberX", "pickupAddress": "W Kamerling Ave, Chicago, IL 60651-1839, US", "dropoffAddress": "N Sangamon St, Chicago, IL 60607, US", "basePay": "8.74", "surge": "3.75", "tip": "0.00", "earnings": "12.49", "duration": "1211", "distance": "5.40", "rideStartTime": "May 29, 2023 at 11:51 AM", "rideEndTime": "May 29, 2023 at 12:12 PM"}}, {"type": "Feature", "geometry": {"coordinates": [[-87.651107, 41.890448], [-87.651106, 41.890059], [-87.647611, 41.890088], [-87.647482, 41.885665], [-87.646258, 41.885682], [-87.646031, 41.885494], [-87.645922, 41.884746], [-87.645999, 41.881827], [-87.646134, 41.880956], [-87.64632, 41.87924], [-87.649612, 41.879181], [-87.649583, 41.878315]], "type": "LineString"}, "properties": {"timestamp": "2023-05-29T12:16:27", "type": "transition"}}, {"type": "Feature", "geometry": {"coordinates": [[-87.649583, 41.878315], [-87.649654, 41.880461], [-87.632331, 41.880685], [-87.632362, 41.881953]], "type": "LineString"}, "properties": {"timestamp": "2023-05-29T12:16:27", "type": "ride", "rideType": "Comfort", "pickupAddress": "S Peoria St, Chicago, IL 60607-3004, US", "dropoffAddress": "Terminal 3, O'Hare International Airport (ORD), Chicago, IL 60666, US", "basePay": "22.97", "surge": "7.00", "tip": "2.00", "earnings": "31.97", "duration": "1810", "distance": "17.90", "rideStartTime": "May 29, 2023 at 12:16 PM", "rideEndTime": "May 29, 2023 at 12:46 PM"}}, {"type": "Feature", "geometry": {"coordinates": [[-87.632362, 41.881953], [-87.64573, 41.881801], [-87.646594, 41.887382], [-87.651689, 41.891702], [-87.65868, 41.896836], [-87.66137, 41.906646], [-87.670146, 41.917654], [-87.709927, 41.940372], [-87.715306, 41.94215], [-87.719592, 41.947613], [-87.741635, 41.95982], [-87.746287, 41.963594], [-87.747426, 41.975724], [-87.74607, 41.976396], [-87.745776, 41.975364], [-87.765782, 41.975122], [-87.766315, 41.975691], [-87.771273, 41.975715], [-87.784738, 41.982513], [-87.812691, 41.982443], [-87.826001, 41.984517], [-87.831845, 41.984836], [-87.834971, 41.98621], [-87.854715, 41.988748], [-87.861116, 41.991658]], "type": "LineString"}, "properties": {"timestamp": "2023-05-29T12:58:48", "type": "transition"}}, {"type": "Feature", "geometry": {"coordinates": [[-87.861116, 41.991658], [-87.836628, 41.986389], [-87.836718, 41.986105], [-87.847951, 41.984101], [-87.863825, 41.988484], [-87.870183, 42.045543], [-87.867958, 42.108936], [-87.887066, 42.129272], [-87.885824, 42.141339], [-87.872197, 42.152771], [-87.874141, 42.176182], [-87.900812, 42.227366], [-87.901711, 42.257923], [-87.913033, 42.276026], [-87.902645, 42.296692], [-87.90678, 42.32463], [-87.920057, 42.341991], [-87.920874, 42.345351], [-87.911429, 42.346246], [-87.902697, 42.346571], [-87.898731, 42.343298]], "type": "LineString"}, "properties": {"timestamp": "2023-05-29T12:58:48", "type": "ride", "rideType": "UberX", "pickupAddress": "W Higgins Rd, Chicago, IL 60631, US", "dropoffAddress": "Fountain Square Pl, Waukegan, IL 60085, US", "basePay": "21.75", "surge": "0.00", "tip": "2.00", "earnings": "23.75", "duration": "1667", "distance": "29.30", "rideStartTime": "May 29, 2023 at 12:58 PM", "rideEndTime": "May 29, 2023 at 01:26 PM"}}, {"type": "Feature", "geometry": {"coordinates": [[-87.898731, 42.343298], [-87.894933, 42.342957], [-87.895063, 42.348174], [-87.893664, 42.352967], [-87.8946, 42.35615], [-87.894587, 42.357044], [-87.893664, 42.35793], [-87.893551, 42.358955], [-87.893022, 42.359484], [-87.891716, 42.359637], [-87.876002, 42.359519], [-87.871742, 42.359222], [-87.871547, 42.366338]], "type": "LineString"}, "properties": {"timestamp": "2023-05-29T14:10:17", "type": "transition"}}, {"type": "Feature", "geometry": {"coordinates": [[-87.871547, 42.366338], [-87.871559, 42.364935], [-87.877505, 42.364933], [-87.87428, 42.349349], [-87.876264, 42.349136], [-87.893577, 42.347865], [-87.863294, 42.264313], [-87.862356, 42.239772], [-87.787387, 42.136654], [-87.759119, 42.087684], [-87.75495, 42.063156], [-87.768925, 42.027501], [-87.749252, 42.009007], [-87.747223, 41.966563], [-87.715306, 41.94215], [-87.670146, 41.917654], [-87.659246, 41.897685], [-87.646015, 41.882928], [-87.646395, 41.880505], [-87.632331, 41.880685], [-87.632362, 41.881953]], "type": "LineString"}, "properties": {"timestamp": "2023-05-29T14:10:17", "type": "ride", "rideType": "UberX Share", "pickupAddress": "Baldwin Ave, Waukegan, IL 60085-2324, US", "dropoffAddress": "Gates G1 - G21, H1 - H18, K1 - K20, L1 - L24, O'Hare International Airport (ORD), Chicago, IL 60666, US", "basePay": "32.27", "surge": "0.00", "tip": "0.00", "earnings": "32.27", "duration": "2049", "distance": "33.90", "rideStartTime": "May 29, 2023 at 02:10 PM", "rideEndTime": "May 29, 2023 at 02:44 PM"}}, {"type": "Feature", "geometry": {"coordinates": [[-87.632362, 41.881953], [-87.64573, 41.881801], [-87.646594, 41.887382], [-87.651689, 41.891702], [-87.65868, 41.896836], [-87.66137, 41.906646], [-87.670146, 41.917654], [-87.709927, 41.940372], [-87.715306, 41.94215], [-87.719592, 41.947613], [-87.741635, 41.95982], [-87.746287, 41.963594], [-87.747426, 41.975724], [-87.74607, 41.976396], [-87.745776, 41.975364], [-87.765782, 41.975122], [-87.766315, 41.975691], [-87.771273, 41.975715], [-87.784738, 41.982513], [-87.812691, 41.982443], [-87.826001, 41.984517], [-87.831845, 41.984836], [-87.834971, 41.98621], [-87.854946, 41.9888], [-87.864606, 41.992912]], "type": "LineString"}, "properties": {"timestamp": "2023-05-29T14:58:05", "type": "transition"}}, {"type": "Feature", "geometry": {"coordinates": [[-87.864606, 41.992912], [-87.859825, 41.991074], [-87.861538, 41.983066], [-87.863213, 41.982434], [-87.862114, 41.983343], [-87.829807, 41.984449], [-87.812646, 41.982178], [-87.785176, 41.982327], [-87.759145, 41.969592], [-87.756709, 41.967916], [-87.747723, 41.968033], [-87.747918, 41.972896], [-87.747761, 41.972794], [-87.747223, 41.966563], [-87.745961, 41.963113], [-87.742125, 41.960129], [-87.719592, 41.947613], [-87.715306, 41.94215], [-87.698173, 41.933659], [-87.687291, 41.927358], [-87.683686, 41.924962], [-87.646336, 41.925491], [-87.64637, 41.926694], [-87.641326, 41.927017], [-87.641881, 41.927956]], "type": "LineString"}, "properties": {"timestamp": "2023-05-29T14:58:05", "type": "ride", "rideType": "UberX", "pickupAddress": "Mannheim Rd, Des Plaines, IL 60018, US", "dropoffAddress": "N Clark St, Chicago, IL 60614, US", "basePay": "22.59", "surge": "0.00", "tip": "5.99", "earnings": "28.58", "duration": "2574", "distance": "16.70", "rideStartTime": "May 29, 2023 at 02:58 PM", "rideEndTime": "May 29, 2023 at 03:40 PM"}}, {"type": "Feature", "geometry": {"coordinates": [[-87.641881, 41.927956], [-87.640463, 41.92558], [-87.681912, 41.924981], [-87.685177, 41.926707], [-87.709664, 41.940439], [-87.715161, 41.942387], [-87.716453, 41.943551], [-87.71887, 41.947406], [-87.723791, 41.950079], [-87.727575, 41.952511], [-87.727531, 41.951378], [-87.720007, 41.947686], [-87.718393, 41.945898]], "type": "LineString"}, "properties": {"timestamp": "2023-05-29T19:22:57", "type": "transition"}}, {"type": "Feature", "geometry": {"coordinates": [[-87.718393, 41.945898], [-87.715518, 41.942115], [-87.709442, 41.939977], [-87.669746, 41.917124], [-87.664752, 41.909975], [-87.661559, 41.906635], [-87.660921, 41.900902], [-87.659049, 41.896968], [-87.657114, 41.895018], [-87.653963, 41.891931], [-87.651034, 41.892554], [-87.62271, 41.892566], [-87.62278, 41.894975], [-87.623046, 41.894971]], "type": "LineString"}, "properties": {"timestamp": "2023-05-29T19:22:57", "type": "ride", "rideType": "UberX Share", "pickupAddress": "W Belmont Ave, Chicago, IL 60618, US", "dropoffAddress": "E Huron St, Chicago, IL 60611-2925, US", "basePay": "12.92", "surge": "0.00", "tip": "3.00", "earnings": "15.92", "duration": "1485", "distance": "9.20", "rideStartTime": "May 29, 2023 at 07:22 PM", "rideEndTime": "May 29, 2023 at 07:47 PM"}}, {"type": "Feature", "geometry": {"coordinates": [[-87.623046, 41.894971], [-87.624182, 41.89495], [-87.624176, 41.896741], [-87.654734, 41.896269], [-87.655808, 41.89501], [-87.657675, 41.89596], [-87.65932, 41.898217], [-87.660805, 41.901753], [-87.660803, 41.905559], [-87.661536, 41.907216], [-87.664439, 41.910145], [-87.668818, 41.916712], [-87.670574, 41.91815], [-87.675191, 41.920831], [-87.677815, 41.922669], [-87.677893, 41.925026], [-87.676308, 41.925043], [-87.676303, 41.924891]], "type": "LineString"}, "properties": {"timestamp": "2023-05-29T20:11:08", "type": "transition"}}, {"type": "Feature", "geometry": {"coordinates": [[-87.676303, 41.924891], [-87.676308, 41.925043], [-87.677893, 41.925026], [-87.677765, 41.92139], [-87.677255, 41.921395], [-87.668918, 41.916326], [-87.661559, 41.906635], [-87.658834, 41.896667], [-87.646614, 41.886973], [-87.645245, 41.851247], [-87.642429, 41.847384], [-87.634652, 41.845323], [-87.63091, 41.84209], [-87.631289, 41.79178], [-87.631289, 41.778978], [-87.626564, 41.773198], [-87.626239, 41.768925], [-87.626556, 41.766175], [-87.626545, 41.7655], [-87.696705, 41.764482], [-87.696598, 41.760842], [-87.697815, 41.760823], [-87.697782, 41.759447]], "type": "LineString"}, "properties": {"timestamp": "2023-05-29T20:11:08", "type": "ride", "rideType": "UberX Share", "pickupAddress": "1917 W Fullerton Ave, Chicago, IL 60614, US", "dropoffAddress": "S Sacramento Ave, Chicago, IL 60629-2621, US", "basePay": "23.96", "surge": "1.00", "tip": "0.00", "earnings": "24.96", "duration": "2581", "distance": "18.10", "rideStartTime": "May 29, 2023 at 08:11 PM", "rideEndTime": "May 29, 2023 at 08:54 PM"}}, {"type": "Feature", "geometry": {"coordinates": [[-87.697782, 41.759447], [-87.697918, 41.764461], [-87.624899, 41.765368], [-87.624908, 41.765772], [-87.62543, 41.769557], [-87.630526, 41.779578], [-87.630393, 41.837743], [-87.631001, 41.844069], [-87.630081, 41.846653], [-87.616851, 41.847976], [-87.612168, 41.84938], [-87.619244, 41.8661], [-87.614003, 41.89273], [-87.619441, 41.900921], [-87.623983, 41.902767], [-87.630534, 41.924159], [-87.63067, 41.926223], [-87.648766, 41.925453], [-87.653741, 41.929016], [-87.653827, 41.931569]], "type": "LineString"}, "properties": {"timestamp": "2023-06-03T00:41:31", "type": "transition"}}]}