{"type": "FeatureCollection", "features": [{"type": "Feature", "geometry": {"coordinates": [[-87.703892, 41.915416], [-87.703857, 41.913751], [-87.70233, 41.913772], [-87.702233, 41.910161], [-87.665662, 41.910672], [-87.665325, 41.910236], [-87.662271, 41.907574], [-87.661439, 41.906386], [-87.661057, 41.901306], [-87.658834, 41.896667], [-87.657114, 41.895018], [-87.6483, 41.889096], [-87.646614, 41.886973], [-87.646108, 41.885119], [-87.646413, 41.883144], [-87.642677, 41.883172], [-87.642815, 41.887871]], "type": "LineString"}, "properties": {"timestamp": "2023-11-28T08:22:29", "type": "ride", "rideType": "UberX", "pickupAddress": "N Whipple St, Chicago, IL 60647-3821, US", "dropoffAddress": "N Jefferson St, Chicago, IL 60661-1111, US", "basePay": "12.86", "surge": "2.25", "tip": "3.14", "earnings": "18.25", "duration": "1483", "distance": "5.00", "rideStartTime": "November 28, 2023 at 08:22 AM", "rideEndTime": "November 28, 2023 at 08:47 AM"}}, {"type": "Feature", "geometry": {"coordinates": [[-87.642815, 41.887871], [-87.642802, 41.886807], [-87.644278, 41.886799], [-87.644242, 41.885699], [-87.645903, 41.885686], [-87.645988, 41.877697], [-87.644538, 41.861936], [-87.645083, 41.855528], [-87.64655, 41.854689], [-87.646443, 41.844914], [-87.646255, 41.844758]], "type": "LineString"}, "properties": {"timestamp": "2023-11-28T08:52:09", "type": "transition"}}, {"type": "Feature", "geometry": {"coordinates": [[-87.646255, 41.844758], [-87.646335, 41.844917], [-87.646443, 41.844914], [-87.646483, 41.847216], [-87.641877, 41.849104], [-87.638494, 41.851096], [-87.639228, 41.86722], [-87.624158, 41.867398], [-87.624344, 41.884366], [-87.623414, 41.884372], [-87.621085, 41.884319]], "type": "LineString"}, "properties": {"timestamp": "2023-11-28T08:52:09", "type": "ride", "rideType": "UberX", "pickupAddress": "N Halsted St, Chicago, IL 60661, US", "dropoffAddress": "E Randolph St, Chicago, IL 60601, US", "basePay": "7.58", "surge": "6.00", "tip": "0.00", "earnings": "13.58", "duration": "539", "distance": "1.80", "rideStartTime": "November 28, 2023 at 08:52 AM", "rideEndTime": "November 28, 2023 at 09:01 AM"}}, {"type": "Feature", "geometry": {"coordinates": [[-87.621085, 41.884319], [-87.620576, 41.884316], [-87.620643, 41.886862], [-87.622315, 41.886841], [-87.622313, 41.886781], [-87.62067, 41.886798], [-87.620668, 41.886864]], "type": "LineString"}, "properties": {"timestamp": "2023-11-28T09:00:54", "type": "transition"}}, {"type": "Feature", "geometry": {"coordinates": [[-87.620668, 41.886864], [-87.620671, 41.887844], [-87.615811, 41.887462], [-87.614014, 41.887175], [-87.613921, 41.885252], [-87.614645, 41.884041], [-87.616874, 41.882715], [-87.617484, 41.881642], [-87.617261, 41.869765], [-87.619235, 41.86721], [-87.619588, 41.866208], [-87.618099, 41.860907], [-87.61714, 41.857849], [-87.617238, 41.857825], [-87.615619, 41.854301], [-87.616027, 41.855615], [-87.616271, 41.855561], [-87.615604, 41.854397], [-87.615902, 41.854329]], "type": "LineString"}, "properties": {"timestamp": "2023-11-28T09:00:54", "type": "ride", "rideType": "Comfort", "pickupAddress": "N Columbus Dr, Chicago, IL 60601, US", "dropoffAddress": "S Dr Martin Luther King Jr Dr, Chicago, IL 60616, US", "basePay": "7.75", "surge": "3.75", "tip": "6.56", "earnings": "18.06", "duration": "792", "distance": "5.10", "rideStartTime": "November 28, 2023 at 09:00 AM", "rideEndTime": "November 28, 2023 at 09:14 AM"}}, {"type": "Feature", "geometry": {"coordinates": [[-87.615902, 41.854329], [-87.615604, 41.854397], [-87.616271, 41.855561], [-87.616027, 41.855615], [-87.615619, 41.854301], [-87.615992, 41.85521], [-87.616959, 41.854986], [-87.616876, 41.85573], [-87.616543, 41.856402], [-87.617503, 41.857757], [-87.616068, 41.858122], [-87.61744, 41.859955], [-87.618159, 41.861647], [-87.618709, 41.863523], [-87.619221, 41.866556], [-87.619018, 41.867469], [-87.619267, 41.867615], [-87.624157, 41.867506], [-87.624075, 41.870601], [-87.628609, 41.870542], [-87.62857, 41.869756]], "type": "LineString"}, "properties": {"timestamp": "2023-11-28T09:15:18", "type": "transition"}}, {"type": "Feature", "geometry": {"coordinates": [[-87.62857, 41.869756], [-87.628609, 41.870542], [-87.627449, 41.870533], [-87.627634, 41.875711], [-87.651339, 41.875719], [-87.657603, 41.876197], [-87.688313, 41.875763], [-87.692409, 41.875862], [-87.696151, 41.875983], [-87.696261, 41.880169], [-87.695733, 41.880173]], "type": "LineString"}, "properties": {"timestamp": "2023-11-28T09:15:18", "type": "ride", "rideType": "UberX", "pickupAddress": "S Plymouth Ct, Chicago, IL 60605-2719, US", "dropoffAddress": "W Monroe St, Chicago, IL 60606, US", "basePay": "6.10", "surge": "0.00", "tip": "0.00", "earnings": "6.10", "duration": "655", "distance": "1.70", "rideStartTime": "November 28, 2023 at 09:15 AM", "rideEndTime": "November 28, 2023 at 09:26 AM"}}, {"type": "Feature", "geometry": {"coordinates": [[-87.695733, 41.880173], [-87.696261, 41.880169], [-87.696127, 41.874902], [-87.695509, 41.874908], [-87.690201, 41.875125], [-87.659837, 41.87561], [-87.651569, 41.875318], [-87.635788, 41.875572], [-87.634246, 41.875312], [-87.634438, 41.874721], [-87.635124, 41.874834], [-87.635957, 41.875828], [-87.6367, 41.876925], [-87.63689, 41.884877], [-87.636546, 41.886119], [-87.635215, 41.886847], [-87.627147, 41.88686], [-87.62512, 41.888251], [-87.620671, 41.887844], [-87.620283, 41.893412], [-87.621935, 41.893376]], "type": "LineString"}, "properties": {"timestamp": "2023-11-28T09:57:09", "type": "transition"}}, {"type": "Feature", "geometry": {"coordinates": [[-87.621935, 41.893376], [-87.62414, 41.893338], [-87.624207, 41.896353], [-87.624029, 41.897744], [-87.62406, 41.899218], [-87.623008, 41.89923]], "type": "LineString"}, "properties": {"timestamp": "2023-11-28T09:57:09", "type": "ride", "rideType": "Comfort", "pickupAddress": "E Ontario St, Chicago, IL 60611, US", "dropoffAddress": "E Delaware Pl, Chicago, IL 60611, US", "basePay": "5.46", "surge": "0.00", "tip": "0.00", "earnings": "5.46", "duration": "323", "distance": "0.70", "rideStartTime": "November 28, 2023 at 09:57 AM", "rideEndTime": "November 28, 2023 at 10:02 AM"}}, {"type": "Feature", "geometry": {"coordinates": [[-87.623008, 41.89923], [-87.621885, 41.899246], [-87.621902, 41.900045], [-87.624245, 41.900012], [-87.624198, 41.897917], [-87.624388, 41.896443], [-87.624246, 41.890945], [-87.621986, 41.890981], [-87.621861, 41.890848], [-87.62164, 41.890945], [-87.621785, 41.891098], [-87.621986, 41.890981], [-87.624074, 41.890948], [-87.624094, 41.891505]], "type": "LineString"}, "properties": {"timestamp": "2023-11-28T10:00:01", "type": "transition"}}, {"type": "Feature", "geometry": {"coordinates": [[-87.624094, 41.891505], [-87.624094, 41.891505]], "type": "LineString"}, "properties": {"timestamp": "2023-11-28T10:00:01", "type": "ride", "rideType": "UberX", "pickupAddress": "N Michigan Ave, Chicago, IL 60611-4502, US", "dropoffAddress": "N Michigan Ave, Chicago, IL 60611-4502, US", "basePay": "5.69", "surge": "0.00", "tip": "10.00", "earnings": "15.69", "duration": "845", "distance": "1.90", "rideStartTime": "November 28, 2023 at 10:00 AM", "rideEndTime": "November 28, 2023 at 10:14 AM"}}, {"type": "Feature", "geometry": {"coordinates": [[-87.624094, 41.891505], [-87.624094, 41.891505]], "type": "LineString"}, "properties": {"timestamp": "2023-11-28T10:19:13", "type": "transition"}}, {"type": "Feature", "geometry": {"coordinates": [[-87.624094, 41.891505], [-87.624121, 41.892541], [-87.620263, 41.892588], [-87.620762, 41.887855], [-87.615811, 41.887462], [-87.614014, 41.887175], [-87.613921, 41.885252], [-87.614645, 41.884041], [-87.616874, 41.882715], [-87.617484, 41.881642], [-87.617261, 41.869765], [-87.619235, 41.86721], [-87.619588, 41.866208], [-87.618099, 41.860907], [-87.61714, 41.857849], [-87.617238, 41.857825], [-87.615619, 41.854301], [-87.616027, 41.855615], [-87.616271, 41.855561], [-87.615604, 41.854397], [-87.615902, 41.854329]], "type": "LineString"}, "properties": {"timestamp": "2023-11-28T10:19:13", "type": "ride", "rideType": "UberX", "pickupAddress": "N Michigan Ave, Chicago, IL 60611, US", "dropoffAddress": "S Dr Martin Luther King Jr Dr, Chicago, IL 60616, US", "basePay": "9.59", "surge": "0.00", "tip": "3.73", "earnings": "13.32", "duration": "1323", "distance": "5.80", "rideStartTime": "November 28, 2023 at 10:19 AM", "rideEndTime": "November 28, 2023 at 10:41 AM"}}, {"type": "Feature", "geometry": {"coordinates": [[-87.615902, 41.854329], [-87.615604, 41.854397], [-87.616271, 41.855561], [-87.616027, 41.855615], [-87.615619, 41.854301], [-87.615992, 41.85521], [-87.616959, 41.854986], [-87.616876, 41.85573], [-87.617503, 41.857757], [-87.616068, 41.858122], [-87.619249, 41.866344], [-87.617003, 41.869799], [-87.617167, 41.881825], [-87.613645, 41.884762], [-87.614095, 41.89303], [-87.619441, 41.900921], [-87.623983, 41.902767], [-87.631799, 41.928213], [-87.632273, 41.934701], [-87.638833, 41.941219], [-87.644376, 41.950931], [-87.648738, 41.973046], [-87.652803, 41.984951], [-87.662456, 41.985105], [-87.665051, 41.986679], [-87.665118, 41.989013], [-87.662854, 41.989036]], "type": "LineString"}, "properties": {"timestamp": "2023-11-28T16:22:21", "type": "transition"}}, {"type": "Feature", "geometry": {"coordinates": [[-87.662854, 41.989036], [-87.661524, 41.98905], [-87.661555, 41.989984], [-87.669914, 41.989919], [-87.670138, 41.99639], [-87.670543, 41.998086], [-87.67684, 41.99796], [-87.681855, 42.008899], [-87.683956, 42.014829]], "type": "LineString"}, "properties": {"timestamp": "2023-11-28T16:22:21", "type": "ride", "rideType": "UberX", "pickupAddress": "W Rosedale Ave, Chicago, IL 60660-3453, US", "dropoffAddress": "N Ridge Blvd, Chicago, IL 60645-3503, US", "basePay": "11.42", "surge": "0.00", "tip": "0.00", "earnings": "11.42", "duration": "1702", "distance": "3.40", "rideStartTime": "November 28, 2023 at 04:22 PM", "rideEndTime": "November 28, 2023 at 04:50 PM"}}, {"type": "Feature", "geometry": {"coordinates": [[-87.683956, 42.014829], [-87.684645, 42.019488], [-87.759649, 42.019116], [-87.761686, 42.011954], [-87.77782, 42.011989]], "type": "LineString"}, "properties": {"timestamp": "2023-11-28T16:53:04", "type": "transition"}}, {"type": "Feature", "geometry": {"coordinates": [[-87.77782, 42.011989], [-87.761544, 42.011818], [-87.761395, 42.013835], [-87.759649, 42.019116], [-87.712298, 42.019106]], "type": "LineString"}, "properties": {"timestamp": "2023-11-28T16:53:04", "type": "ride", "rideType": "UberX", "pickupAddress": "W Touhy Ave, Chicago, IL 60645-3506, US", "dropoffAddress": "W Howard St, Chicago, IL 60626, US", "basePay": "2.97", "surge": "0.00", "tip": "0.00", "earnings": "2.97", "duration": "382", "distance": "1.10", "rideStartTime": "November 28, 2023 at 04:53 PM", "rideEndTime": "November 28, 2023 at 04:59 PM"}}, {"type": "Feature", "geometry": {"coordinates": [[-87.712298, 42.019106], [-87.684645, 42.019488], [-87.684067, 42.015152], [-87.680175, 42.005209], [-87.666961, 42.005444], [-87.666905, 42.003606], [-87.668125, 42.003585], [-87.668176, 42.005122]], "type": "LineString"}, "properties": {"timestamp": "2023-11-28T17:22:01", "type": "transition"}}, {"type": "Feature", "geometry": {"coordinates": [[-87.668176, 42.005122], [-87.668185, 42.005422], [-87.660929, 42.005557], [-87.66054, 41.998191], [-87.660132, 41.985467], [-87.653157, 41.984999], [-87.648822, 41.972134], [-87.64469, 41.951193], [-87.638957, 41.941067], [-87.632527, 41.93482], [-87.632048, 41.928427], [-87.624861, 41.904908], [-87.624179, 41.901978], [-87.624357, 41.894946], [-87.625475, 41.894921], [-87.625513, 41.89638]], "type": "LineString"}, "properties": {"timestamp": "2023-11-28T17:22:01", "type": "ride", "rideType": "Comfort", "pickupAddress": "N Greenview Ave, Chicago, IL 60626-2808, US", "dropoffAddress": "N Rush St, Chicago, IL 60611, US", "basePay": "17.09", "surge": "0.00", "tip": "0.00", "earnings": "17.09", "duration": "1569", "distance": "8.80", "rideStartTime": "November 28, 2023 at 05:22 PM", "rideEndTime": "November 28, 2023 at 05:48 PM"}}, {"type": "Feature", "geometry": {"coordinates": [[-87.625513, 41.89638], [-87.625522, 41.8966], [-87.625592, 41.896714], [-87.624345, 41.896737], [-87.624387, 41.896318], [-87.624293, 41.892538], [-87.621881, 41.892574]], "type": "LineString"}, "properties": {"timestamp": "2023-11-28T17:54:32", "type": "transition"}}, {"type": "Feature", "geometry": {"coordinates": [[-87.621881, 41.892574], [-87.620263, 41.892588], [-87.620235, 41.891803], [-87.647627, 41.891194], [-87.660982, 41.899842], [-87.674089, 41.899597], [-87.67412, 41.90052]], "type": "LineString"}, "properties": {"timestamp": "2023-11-28T17:54:32", "type": "ride", "rideType": "UberX", "pickupAddress": "E Ohio St, Chicago, IL 60611, US", "dropoffAddress": "N Milwaukee Ave, Chicago, IL 60622, US", "basePay": "19.30", "surge": "0.00", "tip": "0.00", "earnings": "19.30", "duration": "2279", "distance": "3.50", "rideStartTime": "November 28, 2023 at 05:54 PM", "rideEndTime": "November 28, 2023 at 06:32 PM"}}, {"type": "Feature", "geometry": {"coordinates": [[-87.67412, 41.90052], [-87.67412, 41.90052]], "type": "LineString"}, "properties": {"timestamp": "2023-11-28T18:50:52", "type": "transition"}}, {"type": "Feature", "geometry": {"coordinates": [[-87.67412, 41.90052], [-87.67415, 41.901415], [-87.673548, 41.901426], [-87.673606, 41.903247], [-87.667439, 41.903351], [-87.66782, 41.916129], [-87.663815, 41.917067], [-87.658201, 41.917264], [-87.658713, 41.932557], [-87.65822, 41.932567]], "type": "LineString"}, "properties": {"timestamp": "2023-11-28T18:50:52", "type": "ride", "rideType": "UberX", "pickupAddress": "N Milwaukee Ave, Chicago, IL 60622-2008, US", "dropoffAddress": "W Diversey Pkwy, Chicago, IL 60614, US", "basePay": "6.97", "surge": "0.00", "tip": "0.00", "earnings": "6.97", "duration": "1026", "distance": "2.60", "rideStartTime": "November 28, 2023 at 06:50 PM", "rideEndTime": "November 28, 2023 at 07:07 PM"}}, {"type": "Feature", "geometry": {"coordinates": [[-87.65822, 41.932567], [-87.658713, 41.932557], [-87.663682, 41.936111], [-87.663758, 41.938211]], "type": "LineString"}, "properties": {"timestamp": "2023-11-28T19:10:33", "type": "transition"}}, {"type": "Feature", "geometry": {"coordinates": [[-87.663758, 41.938211], [-87.663815, 41.939759], [-87.658974, 41.939838], [-87.659238, 41.950599], [-87.662225, 41.95438], [-87.664497, 41.958026], [-87.665949, 41.961638], [-87.66673, 41.965274], [-87.662408, 41.965333], [-87.662436, 41.965538]], "type": "LineString"}, "properties": {"timestamp": "2023-11-28T19:10:33", "type": "ride", "rideType": "UberX", "pickupAddress": "N Southport Ave, Chicago, IL 60614-1227, US", "dropoffAddress": "N Malden St, Chicago, IL 60640, US", "basePay": "7.07", "surge": "1.00", "tip": "5.00", "earnings": "13.07", "duration": "1113", "distance": "2.60", "rideStartTime": "November 28, 2023 at 07:10 PM", "rideEndTime": "November 28, 2023 at 07:29 PM"}}, {"type": "Feature", "geometry": {"coordinates": [[-87.662436, 41.965538], [-87.662436, 41.965538]], "type": "LineString"}, "properties": {"timestamp": "2023-11-28T19:37:08", "type": "transition"}}, {"type": "Feature", "geometry": {"coordinates": [[-87.662436, 41.965538], [-87.662408, 41.965333], [-87.657469, 41.965401], [-87.656894, 41.964503]], "type": "LineString"}, "properties": {"timestamp": "2023-11-28T19:37:08", "type": "ride", "rideType": "UberX", "pickupAddress": "N Malden St, Chicago, IL 60640-5530, US", "dropoffAddress": "N Broadway St, Chicago, IL 60640, US", "basePay": "3.01", "surge": "0.00", "tip": "0.00", "earnings": "3.01", "duration": "249", "distance": "0.60", "rideStartTime": "November 28, 2023 at 07:37 PM", "rideEndTime": "November 28, 2023 at 07:41 PM"}}, {"type": "Feature", "geometry": {"coordinates": [[-87.656894, 41.964503], [-87.654742, 41.961156], [-87.654549, 41.954492], [-87.796264, 41.952763], [-87.795245, 41.923598], [-87.79707, 41.923585], [-87.797058, 41.923215]], "type": "LineString"}, "properties": {"timestamp": "2023-11-29T08:28:40", "type": "transition"}}]}