{"type": "FeatureCollection", "features": [{"type": "Feature", "geometry": {"coordinates": [[-87.717101, 41.92898], [-87.717188, 41.931929], [-87.696547, 41.932116], [-87.689917, 41.928847], [-87.673831, 41.919706], [-87.671882, 41.918264], [-87.671723, 41.918151], [-87.671212, 41.917869], [-87.667505, 41.91793], [-87.666413, 41.916455], [-87.663815, 41.917067], [-87.658378, 41.917139], [-87.658214, 41.918041], [-87.647123, 41.918199]], "type": "LineString"}, "properties": {"timestamp": "2023-11-08T09:07:04", "type": "ride"}}, {"type": "Feature", "geometry": {"coordinates": [[-87.647123, 41.918199], [-87.638808, 41.918322], [-87.638941, 41.921954], [-87.638269, 41.921963], [-87.641881, 41.927956]], "type": "LineString"}, "properties": {"timestamp": "2023-11-08T09:29:27", "type": "transition"}}, {"type": "Feature", "geometry": {"coordinates": [[-87.641881, 41.927956], [-87.640463, 41.92558], [-87.643933, 41.925527], [-87.64326, 41.905061], [-87.648123, 41.905001], [-87.647627, 41.891194], [-87.654625, 41.891105], [-87.654546, 41.888297]], "type": "LineString"}, "properties": {"timestamp": "2023-11-08T09:29:27", "type": "ride"}}, {"type": "Feature", "geometry": {"coordinates": [[-87.654546, 41.888297], [-87.654546, 41.888297]], "type": "LineString"}, "properties": {"timestamp": "2023-11-08T10:01:52", "type": "transition"}}, {"type": "Feature", "geometry": {"coordinates": [[-87.654546, 41.888297], [-87.654467, 41.885549], [-87.646258, 41.885682], [-87.646031, 41.885494], [-87.645922, 41.884746], [-87.645999, 41.881827], [-87.646134, 41.880956], [-87.646145, 41.879569], [-87.646166, 41.878121], [-87.646107, 41.877218], [-87.646063, 41.876551], [-87.646733, 41.875649], [-87.646541, 41.875257], [-87.645999, 41.87505], [-87.644423, 41.875457], [-87.627629, 41.875571], [-87.627593, 41.874392], [-87.626634, 41.874402], [-87.626671, 41.874067]], "type": "LineString"}, "properties": {"timestamp": "2023-11-08T10:01:52", "type": "ride"}}, {"type": "Feature", "geometry": {"coordinates": [[-87.626671, 41.874067], [-87.626634, 41.874402], [-87.627593, 41.874392], [-87.6276, 41.874559], [-87.629195, 41.874543], [-87.629401, 41.881987], [-87.631509, 41.881974], [-87.632365, 41.882009], [-87.632386, 41.885742], [-87.630207, 41.885746], [-87.630192, 41.886506]], "type": "LineString"}, "properties": {"timestamp": "2023-11-08T10:19:50", "type": "transition"}}, {"type": "Feature", "geometry": {"coordinates": [[-87.630192, 41.886506], [-87.63022, 41.886919], [-87.635269, 41.886908], [-87.636802, 41.885987], [-87.636895, 41.878024], [-87.636543, 41.876121], [-87.634264, 41.876336], [-87.634064, 41.87588], [-87.641651, 41.875644], [-87.646562, 41.876207], [-87.645662, 41.872433], [-87.644363, 41.857367], [-87.645793, 41.852447], [-87.644333, 41.849097], [-87.643039, 41.847022], [-87.641933, 41.846546], [-87.638623, 41.847063], [-87.634629, 41.84669], [-87.632091, 41.847362], [-87.628234, 41.846918], [-87.622076, 41.847894], [-87.618737, 41.847534], [-87.618426, 41.847534], [-87.617702, 41.8474], [-87.617659, 41.845728], [-87.620049, 41.845692]], "type": "LineString"}, "properties": {"timestamp": "2023-11-08T10:19:50", "type": "ride"}}, {"type": "Feature", "geometry": {"coordinates": [[-87.620049, 41.845692], [-87.631783, 41.845528], [-87.632116, 41.847131], [-87.632105, 41.847462], [-87.631842, 41.848269], [-87.632001, 41.851747]], "type": "LineString"}, "properties": {"timestamp": "2023-11-08T10:46:35", "type": "transition"}}, {"type": "Feature", "geometry": {"coordinates": [[-87.632001, 41.851747], [-87.632031, 41.852788], [-87.627091, 41.85282], [-87.626975, 41.846782], [-87.626258, 41.84692], [-87.624884, 41.847492], [-87.622663, 41.847885], [-87.616851, 41.847976], [-87.613392, 41.848153], [-87.612502, 41.848702], [-87.612168, 41.84938], [-87.612223, 41.849917], [-87.613531, 41.852962], [-87.615427, 41.855833], [-87.616068, 41.858122], [-87.617238, 41.857825], [-87.616421, 41.856365], [-87.615619, 41.854301], [-87.616027, 41.855615], [-87.616271, 41.855561], [-87.615604, 41.854397], [-87.615902, 41.854329]], "type": "LineString"}, "properties": {"timestamp": "2023-11-08T10:46:35", "type": "ride"}}, {"type": "Feature", "geometry": {"coordinates": [[-87.615902, 41.854329], [-87.615604, 41.854397], [-87.616271, 41.855561], [-87.616027, 41.855615], [-87.615619, 41.854301], [-87.615992, 41.85521], [-87.616959, 41.854986], [-87.616876, 41.85573], [-87.616543, 41.856402], [-87.617503, 41.857757], [-87.61714, 41.857849], [-87.614728, 41.853242], [-87.613506, 41.849799], [-87.614678, 41.848403], [-87.623817, 41.848065], [-87.628154, 41.84709], [-87.630973, 41.847424], [-87.634449, 41.847955], [-87.636524, 41.84749], [-87.641219, 41.847736], [-87.64329, 41.848618], [-87.644555, 41.850742], [-87.644517, 41.867845], [-87.644628, 41.873521], [-87.645646, 41.875725], [-87.649223, 41.875863], [-87.697235, 41.875658], [-87.708052, 41.874348], [-87.716326, 41.874195], [-87.719801, 41.874461], [-87.720917, 41.885208], [-87.725297, 41.885455], [-87.725796, 41.885541], [-87.726341, 41.90987], [-87.732446, 41.909799], [-87.732609, 41.915272], [-87.731385, 41.915287], [-87.731323, 41.913271]], "type": "LineString"}, "properties": {"timestamp": "2023-11-08T16:14:07", "type": "transition"}}, {"type": "Feature", "geometry": {"coordinates": [[-87.731323, 41.913271], [-87.731216, 41.909813], [-87.726341, 41.90987], [-87.725794, 41.885478], [-87.720917, 41.885208], [-87.72037, 41.873515], [-87.719121, 41.873525], [-87.697594, 41.875189], [-87.650308, 41.875329], [-87.648052, 41.875215], [-87.646345, 41.874508], [-87.645538, 41.872825], [-87.644538, 41.861936], [-87.644794, 41.857575], [-87.638934, 41.857668], [-87.63887, 41.855696], [-87.636891, 41.85673], [-87.635402, 41.860657], [-87.635159, 41.866122], [-87.637449, 41.870301], [-87.63867, 41.879638], [-87.638562, 41.885478]], "type": "LineString"}, "properties": {"timestamp": "2023-11-08T16:14:07", "type": "ride"}}, {"type": "Feature", "geometry": {"coordinates": [[-87.638562, 41.885478], [-87.63867, 41.879638], [-87.637729, 41.875814], [-87.637499, 41.870606], [-87.635413, 41.867471], [-87.635031, 41.86228], [-87.636891, 41.85673], [-87.63887, 41.855696], [-87.638934, 41.857668], [-87.643769, 41.857593], [-87.643778, 41.857758], [-87.644517, 41.867845], [-87.644628, 41.873521], [-87.644827, 41.874907], [-87.645646, 41.875725], [-87.646533, 41.875961], [-87.649223, 41.875863], [-87.652598, 41.875763], [-87.657603, 41.876197], [-87.688313, 41.875763], [-87.692409, 41.875862], [-87.696151, 41.875983], [-87.696261, 41.880169], [-87.695733, 41.880173]], "type": "LineString"}, "properties": {"timestamp": "2023-11-08T16:40:55", "type": "transition"}}, {"type": "Feature", "geometry": {"coordinates": [[-87.695733, 41.880173], [-87.696261, 41.880169], [-87.696127, 41.874902], [-87.695509, 41.874908], [-87.690201, 41.875125], [-87.650308, 41.875329], [-87.648052, 41.875215], [-87.646014, 41.874037], [-87.644983, 41.869485], [-87.644357, 41.857055], [-87.645374, 41.852823], [-87.644998, 41.850609], [-87.642186, 41.847255], [-87.634652, 41.845323], [-87.632773, 41.844384], [-87.631597, 41.842703], [-87.631069, 41.830548], [-87.631351, 41.823664], [-87.619991, 41.823804], [-87.619964, 41.822908]], "type": "LineString"}, "properties": {"timestamp": "2023-11-08T16:40:55", "type": "ride"}}, {"type": "Feature", "geometry": {"coordinates": [[-87.619964, 41.822908], [-87.619795, 41.816594], [-87.616799, 41.816641], [-87.615967, 41.794477], [-87.615669, 41.794482], [-87.611263, 41.793256], [-87.608135, 41.791621], [-87.607212, 41.786422], [-87.606055, 41.786414], [-87.605849, 41.77677], [-87.60462, 41.776783], [-87.604614, 41.776542]], "type": "LineString"}, "properties": {"timestamp": "2023-11-08T17:03:35", "type": "transition"}}, {"type": "Feature", "geometry": {"coordinates": [[-87.604614, 41.776542], [-87.604581, 41.774977], [-87.584893, 41.77523], [-87.585251, 41.777713], [-87.584175, 41.780203], [-87.57958, 41.77981], [-87.574628, 41.780713], [-87.577194, 41.785263], [-87.577988, 41.789105], [-87.580105, 41.791827], [-87.579065, 41.795899], [-87.5812, 41.799076], [-87.581975, 41.803976], [-87.593676, 41.815381], [-87.599195, 41.823136], [-87.599849, 41.825435], [-87.604296, 41.824226], [-87.614358, 41.823874], [-87.614398, 41.825693], [-87.613544, 41.825705]], "type": "LineString"}, "properties": {"timestamp": "2023-11-08T17:03:35", "type": "ride"}}, {"type": "Feature", "geometry": {"coordinates": [[-87.613544, 41.825705], [-87.614398, 41.825693], [-87.614433, 41.827515], [-87.621676, 41.827423], [-87.621723, 41.829629], [-87.623998, 41.829595]], "type": "LineString"}, "properties": {"timestamp": "2023-11-08T17:18:41", "type": "transition"}}, {"type": "Feature", "geometry": {"coordinates": [[-87.623998, 41.829595], [-87.623208, 41.829607], [-87.62314, 41.823762], [-87.631351, 41.823664], [-87.631372, 41.823339], [-87.631289, 41.778978], [-87.627804, 41.775353], [-87.619425, 41.774072], [-87.530854, 41.709259], [-87.528418, 41.706459], [-87.524487, 41.702692], [-87.53166, 41.702718], [-87.531656, 41.696782]], "type": "LineString"}, "properties": {"timestamp": "2023-11-08T17:18:41", "type": "ride"}}, {"type": "Feature", "geometry": {"coordinates": [[-87.531656, 41.696782], [-87.531655, 41.695466], [-87.524621, 41.695429], [-87.524579, 41.699048], [-87.523607, 41.698996], [-87.521317, 41.698531], [-87.520176, 41.698606], [-87.514494, 41.69347], [-87.514402, 41.693637], [-87.51609, 41.695162]], "type": "LineString"}, "properties": {"timestamp": "2023-11-08T18:24:08", "type": "transition"}}, {"type": "Feature", "geometry": {"coordinates": [[-87.51609, 41.695162], [-87.526384, 41.704773], [-87.526471, 41.705585], [-87.535299, 41.713463], [-87.545142, 41.719355], [-87.551308, 41.72511], [-87.565948, 41.735508], [-87.567932, 41.737203], [-87.568835, 41.737144], [-87.573006, 41.740172]], "type": "LineString"}, "properties": {"timestamp": "2023-11-08T18:24:08", "type": "ride"}}, {"type": "Feature", "geometry": {"coordinates": [[-87.573006, 41.740172], [-87.566558, 41.734973], [-87.556369, 41.72819], [-87.55535, 41.728206], [-87.620232, 41.774621], [-87.625253, 41.77516], [-87.625108, 41.76912], [-87.62498, 41.769366]], "type": "LineString"}, "properties": {"timestamp": "2023-11-08T18:52:10", "type": "transition"}}, {"type": "Feature", "geometry": {"coordinates": [[-87.62498, 41.769366], [-87.625035, 41.772828], [-87.62998, 41.772715], [-87.630149, 41.780433], [-87.63142, 41.807989], [-87.629665, 41.812785], [-87.630393, 41.837743], [-87.631001, 41.844069], [-87.630081, 41.846653], [-87.616851, 41.847976], [-87.612514, 41.847311], [-87.609757, 41.841157], [-87.609375, 41.839163], [-87.615619, 41.854301], [-87.616027, 41.855615], [-87.616271, 41.855561], [-87.615604, 41.854397], [-87.615902, 41.854329]], "type": "LineString"}, "properties": {"timestamp": "2023-11-08T18:52:10", "type": "ride"}}, {"type": "Feature", "geometry": {"coordinates": [[-87.615902, 41.854329], [-87.615604, 41.854397], [-87.616271, 41.855561], [-87.616027, 41.855615], [-87.615619, 41.854301], [-87.615992, 41.85521], [-87.616959, 41.854986], [-87.616876, 41.85573], [-87.616543, 41.856402], [-87.617503, 41.857757], [-87.61714, 41.857849], [-87.615656, 41.855456], [-87.613763, 41.851178], [-87.608419, 41.838015], [-87.607384, 41.832923], [-87.6048, 41.82949], [-87.60211, 41.827252], [-87.600903, 41.82517], [-87.604296, 41.824226], [-87.605374, 41.8244], [-87.606923, 41.823974], [-87.621597, 41.823783], [-87.621608, 41.824244]], "type": "LineString"}, "properties": {"timestamp": "2023-11-08T19:04:06", "type": "transition"}}, {"type": "Feature", "geometry": {"coordinates": [[-87.621608, 41.824244], [-87.621754, 41.831064], [-87.629817, 41.830961], [-87.629831, 41.831311], [-87.630393, 41.837743], [-87.631001, 41.844069], [-87.63096, 41.845776], [-87.630081, 41.846653], [-87.623841, 41.847827], [-87.616851, 41.847976], [-87.613392, 41.848153], [-87.61216, 41.849538], [-87.617619, 41.860334], [-87.619224, 41.865968], [-87.617003, 41.869799], [-87.617244, 41.880924], [-87.620794, 41.880871], [-87.620283, 41.893412], [-87.621935, 41.893376]], "type": "LineString"}, "properties": {"timestamp": "2023-11-08T19:04:06", "type": "ride"}}, {"type": "Feature", "geometry": {"coordinates": [[-87.621935, 41.893376], [-87.62414, 41.893338], [-87.624208, 41.896271], [-87.624176, 41.896741], [-87.622557, 41.896757]], "type": "LineString"}, "properties": {"timestamp": "2023-11-08T19:30:32", "type": "transition"}}, {"type": "Feature", "geometry": {"coordinates": [[-87.622557, 41.896757], [-87.616893, 41.896844], [-87.614264, 41.892868], [-87.614081, 41.885247], [-87.617453, 41.881821], [-87.617261, 41.869765], [-87.619588, 41.866208], [-87.618646, 41.862252], [-87.607188, 41.832576], [-87.600839, 41.825932], [-87.593977, 41.815295], [-87.581876, 41.803502], [-87.57922, 41.796009], [-87.58022, 41.791662], [-87.57482, 41.780894], [-87.575197, 41.775384], [-87.570388, 41.775494], [-87.566817, 41.773554], [-87.566505, 41.765805], [-87.561909, 41.760862], [-87.562386, 41.7617], [-87.562019, 41.761885]], "type": "LineString"}, "properties": {"timestamp": "2023-11-08T19:30:32", "type": "ride"}}, {"type": "Feature", "geometry": {"coordinates": [[-87.562019, 41.761885], [-87.562386, 41.7617], [-87.5664, 41.7662], [-87.566817, 41.773554], [-87.570388, 41.775494], [-87.575197, 41.775384], [-87.574628, 41.780713], [-87.580105, 41.791827], [-87.579065, 41.795899], [-87.581733, 41.80353], [-87.593676, 41.815381], [-87.600955, 41.826403], [-87.606909, 41.832668], [-87.610426, 41.843509], [-87.612641, 41.848604], [-87.630973, 41.847424], [-87.641219, 41.847736], [-87.644555, 41.850742], [-87.644517, 41.867845], [-87.644628, 41.873521], [-87.645646, 41.875725], [-87.649223, 41.875863], [-87.688313, 41.875763], [-87.692409, 41.875862], [-87.701067, 41.875937], [-87.702222, 41.896575], [-87.706651, 41.898325], [-87.706796, 41.913717], [-87.705759, 41.913734], [-87.705719, 41.912103]], "type": "LineString"}, "properties": {"timestamp": "2023-11-09T15:54:30", "type": "transition"}}]}