{"type": "FeatureCollection", "features": [{"type": "Feature", "geometry": {"coordinates": [[-87.797058, 41.923215], [-87.79707, 41.923585], [-87.806251, 41.924003], [-87.804598, 41.873618], [-87.769061, 41.87064], [-87.739969, 41.871594], [-87.733001, 41.87362], [-87.708909, 41.873948], [-87.699066, 41.875134], [-87.680246, 41.875358], [-87.673671, 41.875065], [-87.663487, 41.883985], [-87.659834, 41.889971], [-87.653442, 41.890032], [-87.653444, 41.890128]], "type": "LineString"}, "properties": {}}, {"type": "Feature", "geometry": {"coordinates": [[-87.653444, 41.890128], [-87.653449, 41.89112], [-87.663894, 41.891011], [-87.664011, 41.895209], [-87.662558, 41.895231]], "type": "LineString"}, "properties": {}}, {"type": "Feature", "geometry": {"coordinates": [[-87.662558, 41.895231], [-87.662372, 41.895233], [-87.662395, 41.896146], [-87.647675, 41.896405], [-87.648086, 41.903643], [-87.638347, 41.903783], [-87.638941, 41.921954], [-87.638269, 41.921963], [-87.641881, 41.927956]], "type": "LineString"}, "properties": {}}, {"type": "Feature", "geometry": {"coordinates": [[-87.641881, 41.927956], [-87.640463, 41.92558], [-87.63067, 41.926223], [-87.632612, 41.935386], [-87.638833, 41.941219], [-87.644437, 41.951086], [-87.648738, 41.973046], [-87.652803, 41.984951], [-87.662456, 41.985105], [-87.67531, 41.992132], [-87.683076, 42.012318], [-87.686154, 42.012243], [-87.686055, 42.011115], [-87.683771, 42.011219]], "type": "LineString"}, "properties": {}}, {"type": "Feature", "geometry": {"coordinates": [[-87.683771, 42.011219], [-87.682709, 42.011268], [-87.67531, 41.992132], [-87.662456, 41.985105], [-87.653157, 41.984999], [-87.648822, 41.972134], [-87.64469, 41.951193], [-87.638957, 41.941067], [-87.632527, 41.93482], [-87.632048, 41.928427], [-87.624861, 41.904908], [-87.624179, 41.901978], [-87.624316, 41.893335], [-87.626758, 41.893295], [-87.626725, 41.891688], [-87.628847, 41.891657]], "type": "LineString"}, "properties": {}}, {"type": "Feature", "geometry": {"coordinates": [[-87.628847, 41.891657], [-87.647627, 41.891194], [-87.660982, 41.899842], [-87.674089, 41.899597], [-87.67412, 41.90052]], "type": "LineString"}, "properties": {}}, {"type": "Feature", "geometry": {"coordinates": [[-87.67412, 41.90052], [-87.674089, 41.899597], [-87.660982, 41.899842], [-87.660843, 41.899711], [-87.657719, 41.895493], [-87.649448, 41.889964], [-87.647531, 41.888343], [-87.646219, 41.885929], [-87.645999, 41.881827], [-87.646134, 41.880956], [-87.646145, 41.879569], [-87.646166, 41.878121], [-87.646815, 41.876334], [-87.647774, 41.87588], [-87.649135, 41.875728], [-87.657603, 41.876197], [-87.688313, 41.875763], [-87.692409, 41.875862], [-87.696151, 41.875983], [-87.696098, 41.873794], [-87.697016, 41.873784]], "type": "LineString"}, "properties": {}}, {"type": "Feature", "geometry": {"coordinates": [[-87.697016, 41.873784], [-87.696098, 41.873794], [-87.696029, 41.871066], [-87.69479, 41.87108]], "type": "LineString"}, "properties": {}}, {"type": "Feature", "geometry": {"coordinates": [[-87.69479, 41.87108], [-87.696029, 41.871066], [-87.696127, 41.874902], [-87.695509, 41.874908], [-87.690201, 41.875125], [-87.6605, 41.875604], [-87.651569, 41.875318], [-87.62435, 41.875724], [-87.624157, 41.867506], [-87.624039, 41.868888]], "type": "LineString"}, "properties": {}}, {"type": "Feature", "geometry": {"coordinates": [[-87.624039, 41.868888], [-87.624431, 41.88577], [-87.626286, 41.88576], [-87.626374, 41.887032], [-87.627125, 41.888453], [-87.626665, 41.889909]], "type": "LineString"}, "properties": {}}, {"type": "Feature", "geometry": {"coordinates": [[-87.626665, 41.889909], [-87.626725, 41.891688], [-87.647627, 41.891194], [-87.660982, 41.899842], [-87.674089, 41.899597], [-87.67412, 41.90052]], "type": "LineString"}, "properties": {}}, {"type": "Feature", "geometry": {"coordinates": [[-87.67412, 41.90052], [-87.67412, 41.90052]], "type": "LineString"}, "properties": {}}, {"type": "Feature", "geometry": {"coordinates": [[-87.67412, 41.90052], [-87.674089, 41.899597], [-87.660982, 41.899842], [-87.660843, 41.899711], [-87.659797, 41.898134], [-87.659541, 41.897886], [-87.659383, 41.897534], [-87.659407, 41.897335], [-87.658904, 41.896502], [-87.657508, 41.895016], [-87.657432, 41.893502], [-87.658764, 41.893479]], "type": "LineString"}, "properties": {}}, {"type": "Feature", "geometry": {"coordinates": [[-87.658764, 41.893479], [-87.657432, 41.893502], [-87.657374, 41.891076], [-87.644384, 41.891225], [-87.644337, 41.889054], [-87.628704, 41.889251]], "type": "LineString"}, "properties": {}}, {"type": "Feature", "geometry": {"coordinates": [[-87.628704, 41.889251], [-87.628003, 41.889259], [-87.628048, 41.890871], [-87.62021, 41.891016], [-87.620283, 41.893412], [-87.621935, 41.893376]], "type": "LineString"}, "properties": {}}, {"type": "Feature", "geometry": {"coordinates": [[-87.621935, 41.893376], [-87.622735, 41.89336], [-87.622757, 41.894164], [-87.62188, 41.894176]], "type": "LineString"}, "properties": {}}, {"type": "Feature", "geometry": {"coordinates": [[-87.62188, 41.894176], [-87.620307, 41.894214], [-87.620387, 41.896781], [-87.616893, 41.896844], [-87.614264, 41.892868], [-87.614081, 41.885247], [-87.614645, 41.884041], [-87.617453, 41.881821], [-87.617261, 41.869765], [-87.619589, 41.866068], [-87.614728, 41.853242], [-87.613521, 41.849959], [-87.614264, 41.84861], [-87.623007, 41.848129], [-87.626571, 41.847768], [-87.626978, 41.847608], [-87.626957, 41.845591], [-87.631783, 41.845528], [-87.631842, 41.848269], [-87.637627, 41.848177]], "type": "LineString"}, "properties": {}}, {"type": "Feature", "geometry": {"coordinates": [[-87.637627, 41.848177], [-87.638411, 41.848167], [-87.638934, 41.857668], [-87.643769, 41.857593], [-87.643778, 41.857758], [-87.645735, 41.885306], [-87.651689, 41.891702], [-87.65868, 41.896836], [-87.66137, 41.906646], [-87.670146, 41.917654], [-87.715306, 41.94215], [-87.719592, 41.947613], [-87.746287, 41.963594], [-87.746614, 41.980044], [-87.751348, 41.987222], [-87.748777, 42.008181], [-87.75175, 42.013083], [-87.768078, 42.024765], [-87.768407, 42.033299], [-87.764702, 42.038593], [-87.759717, 42.040844], [-87.707413, 42.040976]], "type": "LineString"}, "properties": {}}]}