{"type": "FeatureCollection", "features": [{"type": "Feature", "geometry": {"coordinates": [[-87.70114, 41.925798], [-87.701488, 41.925445], [-87.700436, 41.924799], [-87.765997, 41.923987], [-87.765733, 41.909384], [-87.781715, 41.909186], [-87.781778, 41.911009], [-87.782134, 41.911003]], "type": "LineString"}, "properties": {"timestamp": "2023-08-31T08:13:48", "type": "ride", "rideType": "Comfort", "pickupAddress": "N Richmond St, Chicago, IL 60647-3913, US", "dropoffAddress": "W Wabansia Ave, Chicago, IL 60639, US", "basePay": "7.47", "surge": "5.50", "tip": "0.00", "earnings": "12.97", "duration": "699", "distance": "2.70", "rideStartTime": "August 31, 2023 at 08:13 AM", "rideEndTime": "August 31, 2023 at 08:25 AM"}}, {"type": "Feature", "geometry": {"coordinates": [[-87.782134, 41.911003], [-87.780168, 41.911024], [-87.780108, 41.909205], [-87.759687, 41.909458], [-87.75959, 41.905832], [-87.757177, 41.905861]], "type": "LineString"}, "properties": {"timestamp": "2023-08-31T08:25:15", "type": "transition"}}, {"type": "Feature", "geometry": {"coordinates": [[-87.757177, 41.905861], [-87.755859, 41.905876], [-87.755768, 41.902251], [-87.784867, 41.901867], [-87.784501, 41.881708], [-87.787777, 41.881657], [-87.787712, 41.879804]], "type": "LineString"}, "properties": {"timestamp": "2023-08-31T08:25:15", "type": "ride", "rideType": "UberX", "pickupAddress": "W Hirsch St, Chicago, IL 60651-1923, US", "dropoffAddress": "Madison St, Oak Park, IL 60302-4406, US", "basePay": "12.06", "surge": "6.00", "tip": "0.00", "earnings": "18.06", "duration": "1438", "distance": "5.00", "rideStartTime": "August 31, 2023 at 08:25 AM", "rideEndTime": "August 31, 2023 at 08:49 AM"}}, {"type": "Feature", "geometry": {"coordinates": [[-87.787712, 41.879804], [-87.755056, 41.88033], [-87.754948, 41.877568], [-87.75476, 41.877569]], "type": "LineString"}, "properties": {"timestamp": "2023-08-31T09:14:47", "type": "transition"}}, {"type": "Feature", "geometry": {"coordinates": [[-87.75476, 41.877569], [-87.753444, 41.877578], [-87.753379, 41.87577], [-87.754883, 41.87575], [-87.754713, 41.871048], [-87.75319, 41.871067], [-87.739558, 41.871635], [-87.733001, 41.87362], [-87.708909, 41.873948], [-87.69832, 41.875168], [-87.650308, 41.875329], [-87.647601, 41.875302], [-87.645452, 41.874563], [-87.644482, 41.875077], [-87.64458, 41.876036], [-87.645275, 41.880374], [-87.645355, 41.881847], [-87.645393, 41.882198], [-87.646457, 41.887151], [-87.650048, 41.890597], [-87.651108, 41.891699], [-87.65026, 41.89242], [-87.628093, 41.892476], [-87.628071, 41.891667], [-87.628847, 41.891657]], "type": "LineString"}, "properties": {"timestamp": "2023-08-31T09:14:47", "type": "ride", "rideType": "UberX", "pickupAddress": "W Quincy St, Chicago, IL 60644-4337, US", "dropoffAddress": "W Grand Ave, Chicago, IL 60651-2014, US", "basePay": "8.63", "surge": "0.00", "tip": "0.00", "earnings": "8.63", "duration": "848", "distance": "3.50", "rideStartTime": "August 31, 2023 at 09:14 AM", "rideEndTime": "August 31, 2023 at 09:28 AM"}}, {"type": "Feature", "geometry": {"coordinates": [[-87.628847, 41.891657], [-87.687286, 41.890639], [-87.706651, 41.898325], [-87.706907, 41.910104], [-87.718643, 41.909964]], "type": "LineString"}, "properties": {"timestamp": "2023-08-31T09:28:30", "type": "transition"}}, {"type": "Feature", "geometry": {"coordinates": [[-87.718643, 41.909964], [-87.721646, 41.909928], [-87.720917, 41.885208], [-87.717348, 41.885001], [-87.716831, 41.884883], [-87.715214, 41.882794], [-87.71591, 41.881139], [-87.714846, 41.846222], [-87.718511, 41.846182], [-87.718525, 41.846727]], "type": "LineString"}, "properties": {"timestamp": "2023-08-31T09:28:30", "type": "ride", "rideType": "UberX", "pickupAddress": "W North Ave, Chicago, IL 60639-5206, US", "dropoffAddress": "S Ridgeway Ave, Chicago, IL 60623-2021, US", "basePay": "8.99", "surge": "5.50", "tip": "0.00", "earnings": "14.49", "duration": "1154", "distance": "4.10", "rideStartTime": "August 31, 2023 at 09:28 AM", "rideEndTime": "August 31, 2023 at 09:47 AM"}}, {"type": "Feature", "geometry": {"coordinates": [[-87.718525, 41.846727], [-87.718658, 41.85163], [-87.717439, 41.851643], [-87.717432, 41.851365]], "type": "LineString"}, "properties": {"timestamp": "2023-08-31T09:51:25", "type": "transition"}}, {"type": "Feature", "geometry": {"coordinates": [[-87.717432, 41.851365], [-87.717439, 41.851643], [-87.763903, 41.851059], [-87.764158, 41.86033]], "type": "LineString"}, "properties": {"timestamp": "2023-08-31T09:51:25", "type": "ride", "rideType": "UberX", "pickupAddress": "S Lawndale Ave, Chicago, IL 60623-3155, US", "dropoffAddress": "S Central Ave, Cicero, IL 60804, US", "basePay": "7.57", "surge": "3.25", "tip": "0.00", "earnings": "10.82", "duration": "714", "distance": "3.80", "rideStartTime": "August 31, 2023 at 09:51 AM", "rideEndTime": "August 31, 2023 at 10:03 AM"}}, {"type": "Feature", "geometry": {"coordinates": [[-87.764158, 41.86033], [-87.764302, 41.87066], [-87.759558, 41.87127], [-87.739969, 41.871594], [-87.733001, 41.87362], [-87.708909, 41.873948], [-87.699066, 41.875134], [-87.680246, 41.875358], [-87.676418, 41.875016], [-87.677161, 41.899544], [-87.674089, 41.899597], [-87.67412, 41.90052]], "type": "LineString"}, "properties": {"timestamp": "2023-08-31T17:01:37", "type": "transition"}}, {"type": "Feature", "geometry": {"coordinates": [[-87.67412, 41.90052], [-87.67415, 41.901415], [-87.673548, 41.901426], [-87.673606, 41.903247], [-87.667439, 41.903351], [-87.667641, 41.910635], [-87.664445, 41.910674], [-87.670574, 41.91815], [-87.714861, 41.942208], [-87.719618, 41.947985], [-87.742619, 41.960998], [-87.78422, 41.982409], [-87.852562, 41.984247], [-87.875224, 41.996518], [-87.898667, 42.007565], [-87.953891, 42.021307], [-87.977902, 42.038006], [-88.021008, 42.056593], [-88.102744, 42.066697], [-88.213853, 42.066664], [-88.223517, 42.067203], [-88.222705, 42.06095], [-88.226079, 42.057894], [-88.221173, 42.054648], [-88.224592, 42.053547], [-88.225504, 42.050354], [-88.22668, 42.050593]], "type": "LineString"}, "properties": {"timestamp": "2023-08-31T17:01:37", "type": "ride", "rideType": "UberX", "pickupAddress": "N Milwaukee Ave, Chicago, IL 60622-9214, US", "dropoffAddress": "Bison Ln, Hoffman Estates, IL 60192, US", "basePay": "35.55", "surge": "1.75", "tip": "0.00", "earnings": "37.30", "duration": "3960", "distance": "34.40", "rideStartTime": "August 31, 2023 at 05:01 PM", "rideEndTime": "August 31, 2023 at 06:07 PM"}}, {"type": "Feature", "geometry": {"coordinates": [[-88.22668, 42.050593], [-88.225864, 42.050508], [-88.224807, 42.049834], [-88.224748, 42.049333], [-88.225231, 42.047731], [-88.221174, 42.047198], [-88.221657, 42.045183], [-88.222777, 42.042526], [-88.227619, 42.038489], [-88.22832, 42.038296], [-88.244402, 42.038015], [-88.244285, 42.035785], [-88.245437, 42.035736]], "type": "LineString"}, "properties": {"timestamp": "2023-08-31T18:10:02", "type": "transition"}}, {"type": "Feature", "geometry": {"coordinates": [[-88.245437, 42.035736], [-88.244285, 42.035785], [-88.246546, 42.032155], [-88.246518, 42.031682], [-88.249998, 42.032561], [-88.265433, 42.037149], [-88.26761, 42.037152], [-88.267926, 42.036896], [-88.267999, 42.030516], [-88.272132, 42.03133], [-88.273576, 42.031963], [-88.27397, 42.031625]], "type": "LineString"}, "properties": {"timestamp": "2023-08-31T18:10:02", "type": "ride", "rideType": "UberX", "pickupAddress": "Hackberry Ct, Elgin, IL 60120-4871, US", "dropoffAddress": "National St, Elgin, IL 60120-7823, US", "basePay": "6.08", "surge": "0.00", "tip": "0.00", "earnings": "6.08", "duration": "486", "distance": "2.20", "rideStartTime": "August 31, 2023 at 06:10 PM", "rideEndTime": "August 31, 2023 at 06:18 PM"}}, {"type": "Feature", "geometry": {"coordinates": [[-88.27397, 42.031625], [-88.273743, 42.031706], [-88.273576, 42.031963], [-88.281066, 42.037243], [-88.269707, 42.054177], [-88.268034, 42.054107], [-88.264544, 42.064385], [-88.260148, 42.064704], [-88.102759, 42.06647], [-88.021728, 42.056522], [-87.97554, 42.03647], [-87.954188, 42.021115], [-87.898161, 42.007134], [-87.87696, 41.997457], [-87.864082, 41.988327], [-87.850425, 41.983769], [-87.792871, 41.982345], [-87.788361, 41.982061], [-87.787747, 41.982061], [-87.787472, 41.997353], [-87.766713, 41.99731], [-87.753476, 41.991079], [-87.728634, 41.990146]], "type": "LineString"}, "properties": {"timestamp": "2023-09-01T15:43:03", "type": "transition"}}]}