{"type": "FeatureCollection", "features": [{"type": "Feature", "geometry": {"coordinates": [[-87.708238, 41.930765], [-87.707463, 41.930297], [-87.707505, 41.930261], [-87.707814, 41.929332], [-87.707541, 41.929168], [-87.707825, 41.928361], [-87.707297, 41.927157], [-87.706541, 41.89556], [-87.751931, 41.894964], [-87.752005, 41.898397]], "type": "LineString"}, "properties": {"timestamp": "2023-12-14T08:57:08", "type": "ride", "rideType": "UberX", "pickupAddress": "N Emmett St, Chicago, IL 60647-1512, US", "dropoffAddress": "N Lawler Ave, Chicago, IL 60651-1565, US", "basePay": "9.95", "surge": "0.00", "tip": "0.00", "earnings": "9.95", "duration": "1029", "distance": "3.90", "rideStartTime": "December 14, 2023 at 08:57 AM", "rideEndTime": "December 14, 2023 at 09:14 AM"}}, {"type": "Feature", "geometry": {"coordinates": [[-87.752005, 41.898397], [-87.75201, 41.898631], [-87.733586, 41.8989], [-87.733611, 41.899819], [-87.735367, 41.899795]], "type": "LineString"}, "properties": {"timestamp": "2023-12-14T09:12:40", "type": "transition"}}, {"type": "Feature", "geometry": {"coordinates": [[-87.735367, 41.899795], [-87.736064, 41.899785], [-87.736145, 41.902516], [-87.745973, 41.902357], [-87.746129, 41.909683], [-87.749173, 41.90959], [-87.755785, 41.909507], [-87.756422, 41.931408], [-87.761321, 41.931344], [-87.76134, 41.931863]], "type": "LineString"}, "properties": {"timestamp": "2023-12-14T09:12:40", "type": "ride", "rideType": "UberX", "pickupAddress": "W Cortez St, Chicago, IL 60651-3537, US", "dropoffAddress": "N Long Ave, Chicago, IL 60639, US", "basePay": "7.51", "surge": "0.00", "tip": "0.00", "earnings": "7.51", "duration": "824", "distance": "2.60", "rideStartTime": "December 14, 2023 at 09:12 AM", "rideEndTime": "December 14, 2023 at 09:26 AM"}}, {"type": "Feature", "geometry": {"coordinates": [[-87.76134, 41.931863], [-87.761578, 41.93864], [-87.743881, 41.938879], [-87.743909, 41.939556]], "type": "LineString"}, "properties": {"timestamp": "2023-12-14T09:46:20", "type": "transition"}}, {"type": "Feature", "geometry": {"coordinates": [[-87.743909, 41.939556], [-87.744004, 41.942524], [-87.746971, 41.942483], [-87.746319, 41.92425], [-87.765997, 41.923987], [-87.765733, 41.909384], [-87.805768, 41.908935], [-87.805238, 41.894231], [-87.805109, 41.894215]], "type": "LineString"}, "properties": {"timestamp": "2023-12-14T09:46:20", "type": "ride", "rideType": "UberX", "pickupAddress": "N Kilpatrick Ave, Chicago, IL 60639-1819, US", "dropoffAddress": "Chicago Ave, Oak Park, IL 60302-2314, US", "basePay": "9.60", "surge": "0.00", "tip": "3.00", "earnings": "12.60", "duration": "1034", "distance": "4.20", "rideStartTime": "December 14, 2023 at 09:46 AM", "rideEndTime": "December 14, 2023 at 10:03 AM"}}, {"type": "Feature", "geometry": {"coordinates": [[-87.805109, 41.894215], [-87.775128, 41.894715], [-87.775187, 41.896532], [-87.770319, 41.896604], [-87.770298, 41.89594]], "type": "LineString"}, "properties": {"timestamp": "2023-12-14T10:18:50", "type": "transition"}}, {"type": "Feature", "geometry": {"coordinates": [[-87.770298, 41.89594], [-87.7702, 41.894781], [-87.765388, 41.894854], [-87.765658, 41.902145], [-87.757004, 41.90224], [-87.757001, 41.902105]], "type": "LineString"}, "properties": {"timestamp": "2023-12-14T10:18:50", "type": "ride", "rideType": "UberX", "pickupAddress": "N Menard Ave, Chicago, IL 60644-1036, US", "dropoffAddress": "N Latrobe Ave, Chicago, IL 60651-1471, US", "basePay": "4.52", "surge": "0.00", "tip": "0.00", "earnings": "4.52", "duration": "497", "distance": "1.90", "rideStartTime": "December 14, 2023 at 10:18 AM", "rideEndTime": "December 14, 2023 at 10:27 AM"}}, {"type": "Feature", "geometry": {"coordinates": [[-87.757001, 41.902105], [-87.757001, 41.902105]], "type": "LineString"}, "properties": {"timestamp": "2023-12-14T10:25:37", "type": "transition"}}, {"type": "Feature", "geometry": {"coordinates": [[-87.757001, 41.902105], [-87.757001, 41.902105]], "type": "LineString"}, "properties": {"timestamp": "2023-12-14T10:25:37", "type": "ride", "rideType": "UberX", "pickupAddress": "N Latrobe Ave, Chicago, IL 60639-4302, US", "dropoffAddress": "N Latrobe Ave, Chicago, IL 60639-4302, US", "basePay": "10.83", "surge": "0.00", "tip": "0.00", "earnings": "10.83", "duration": "1523", "distance": "3.60", "rideStartTime": "December 14, 2023 at 10:25 AM", "rideEndTime": "December 14, 2023 at 10:51 AM"}}, {"type": "Feature", "geometry": {"coordinates": [[-87.757001, 41.902105], [-87.756961, 41.900406], [-87.758199, 41.900393], [-87.758251, 41.902229], [-87.765658, 41.902145], [-87.765733, 41.909384], [-87.805768, 41.908935], [-87.806735, 41.938002], [-87.815295, 41.937955], [-87.815423, 41.94138], [-87.816652, 41.941356], [-87.816641, 41.941072]], "type": "LineString"}, "properties": {"timestamp": "2023-12-14T13:32:30", "type": "transition"}}, {"type": "Feature", "geometry": {"coordinates": [[-87.816641, 41.941072], [-87.816587, 41.939617], [-87.815358, 41.939641], [-87.815563, 41.945096], [-87.735605, 41.946271], [-87.723912, 41.939142], [-87.656082, 41.939885]], "type": "LineString"}, "properties": {"timestamp": "2023-12-14T13:32:30", "type": "ride", "rideType": "UberX", "pickupAddress": "W North Ave, Chicago, IL 60642, US", "dropoffAddress": "1051 W Belmont Ave, Chicago, IL 60657, US", "basePay": "5.22", "surge": "0.00", "tip": "3.00", "earnings": "8.22", "duration": "951", "distance": "2.60", "rideStartTime": "December 14, 2023 at 01:32 PM", "rideEndTime": "December 14, 2023 at 01:48 PM"}}, {"type": "Feature", "geometry": {"coordinates": [[-87.656082, 41.939885], [-87.723912, 41.939142], [-87.735605, 41.946271], [-87.739921, 41.946215]], "type": "LineString"}, "properties": {"timestamp": "2023-12-14T13:45:30", "type": "transition"}}, {"type": "Feature", "geometry": {"coordinates": [[-87.739921, 41.946215], [-87.71959, 41.946484], [-87.718156, 41.944989], [-87.715518, 41.942115], [-87.709442, 41.939977], [-87.669746, 41.917124], [-87.664752, 41.909975], [-87.661559, 41.906635], [-87.661057, 41.901306], [-87.658834, 41.896667], [-87.648602, 41.889352], [-87.646315, 41.886261], [-87.646574, 41.884406], [-87.64978, 41.884373], [-87.649838, 41.886778], [-87.649954, 41.886776]], "type": "LineString"}, "properties": {"timestamp": "2023-12-14T13:45:30", "type": "ride", "rideType": "UberX", "pickupAddress": "W Addison St, Chicago, IL 60613-4414, US", "dropoffAddress": "W Fulton Market, Chicago, IL 60607, US", "basePay": "10.74", "surge": "0.00", "tip": "0.00", "earnings": "10.74", "duration": "1477", "distance": "4.50", "rideStartTime": "December 14, 2023 at 01:45 PM", "rideEndTime": "December 14, 2023 at 02:10 PM"}}, {"type": "Feature", "geometry": {"coordinates": [[-87.649954, 41.886776], [-87.649954, 41.886776]], "type": "LineString"}, "properties": {"timestamp": "2023-12-14T14:20:34", "type": "transition"}}, {"type": "Feature", "geometry": {"coordinates": [[-87.649954, 41.886776], [-87.651006, 41.88676], [-87.650961, 41.885607], [-87.646258, 41.885682], [-87.644363, 41.857367], [-87.645245, 41.851247], [-87.642429, 41.847384], [-87.634652, 41.845323], [-87.632305, 41.843952], [-87.631511, 41.841797], [-87.631593, 41.834597], [-87.628886, 41.834642], [-87.628847, 41.833673]], "type": "LineString"}, "properties": {"timestamp": "2023-12-14T14:20:34", "type": "ride", "rideType": "UberX", "pickupAddress": "W Fulton Market, Chicago, IL 60607, US", "dropoffAddress": "S Dearborn St, Chicago, IL 60603-2397, US", "basePay": "4.32", "surge": "0.00", "tip": "0.00", "earnings": "4.32", "duration": "695", "distance": "1.50", "rideStartTime": "December 14, 2023 at 02:20 PM", "rideEndTime": "December 14, 2023 at 02:32 PM"}}, {"type": "Feature", "geometry": {"coordinates": [[-87.628847, 41.833673], [-87.628886, 41.834642], [-87.629907, 41.834623], [-87.6301, 41.841613], [-87.631814, 41.844491], [-87.641891, 41.847286], [-87.644549, 41.850184], [-87.645183, 41.852401], [-87.644172, 41.856638], [-87.644517, 41.867845], [-87.644628, 41.873521], [-87.643707, 41.875312], [-87.635788, 41.875572], [-87.634246, 41.875312], [-87.634438, 41.874721], [-87.635124, 41.874834], [-87.635189, 41.876431], [-87.635307, 41.88065], [-87.632331, 41.880685], [-87.632377, 41.882302]], "type": "LineString"}, "properties": {"timestamp": "2023-12-14T14:34:59", "type": "transition"}}, {"type": "Feature", "geometry": {"coordinates": [[-87.632377, 41.882302], [-87.632362, 41.881953], [-87.639706, 41.881889], [-87.639866, 41.885734], [-87.641353, 41.886808], [-87.641369, 41.889103], [-87.648718, 41.889017], [-87.648752, 41.889662]], "type": "LineString"}, "properties": {"timestamp": "2023-12-14T14:34:59", "type": "ride", "rideType": "UberX", "pickupAddress": "W Wacker Dr, Chicago, IL 60601-1608, US", "dropoffAddress": "N Green St, Chicago, IL 60607, US", "basePay": "3.91", "surge": "0.00", "tip": "0.00", "earnings": "3.91", "duration": "623", "distance": "1.60", "rideStartTime": "December 14, 2023 at 02:34 PM", "rideEndTime": "December 14, 2023 at 02:45 PM"}}, {"type": "Feature", "geometry": {"coordinates": [[-87.648752, 41.889662], [-87.64876, 41.890082], [-87.667177, 41.889894], [-87.667087, 41.886928], [-87.673532, 41.886827]], "type": "LineString"}, "properties": {"timestamp": "2023-12-14T15:00:47", "type": "transition"}}, {"type": "Feature", "geometry": {"coordinates": [[-87.673532, 41.886827], [-87.666966, 41.886929], [-87.667085, 41.890974], [-87.65893, 41.891061], [-87.655717, 41.894874], [-87.657675, 41.89596], [-87.65932, 41.898217], [-87.660805, 41.901753], [-87.661253, 41.906799], [-87.669906, 41.91766], [-87.709664, 41.940439], [-87.714861, 41.942208], [-87.719618, 41.947985], [-87.738838, 41.958569], [-87.741371, 41.960451], [-87.74187, 41.960845], [-87.794161, 41.960081], [-87.816945, 41.949144], [-87.816641, 41.941072]], "type": "LineString"}, "properties": {"timestamp": "2023-12-14T15:00:47", "type": "ride", "rideType": "UberX", "pickupAddress": "W Fulton St Fl 5, Chicago, IL 60607, US", "dropoffAddress": "W North Ave, Chicago, IL 60642, US", "basePay": "7.27", "surge": "0.00", "tip": "12.00", "earnings": "19.27", "duration": "874", "distance": "2.50", "rideStartTime": "December 14, 2023 at 03:00 PM", "rideEndTime": "December 14, 2023 at 03:15 PM"}}, {"type": "Feature", "geometry": {"coordinates": [[-87.816641, 41.941072], [-87.816587, 41.939617], [-87.817797, 41.939594], [-87.818384, 41.948419], [-87.797713, 41.958438], [-87.797737, 41.968342], [-87.778289, 41.96853], [-87.77728, 41.967665], [-87.747723, 41.968033], [-87.747918, 41.972896], [-87.747761, 41.972794], [-87.747223, 41.966563], [-87.745961, 41.963113], [-87.742125, 41.960129], [-87.719592, 41.947613], [-87.715306, 41.94215], [-87.710219, 41.940524], [-87.698173, 41.933659], [-87.673831, 41.919706], [-87.671882, 41.918264], [-87.671723, 41.918151], [-87.667505, 41.91793], [-87.666413, 41.916455], [-87.663815, 41.917067], [-87.658378, 41.917139], [-87.658214, 41.918041], [-87.648523, 41.918178], [-87.648495, 41.91731]], "type": "LineString"}, "properties": {"timestamp": "2023-12-14T15:38:13", "type": "transition"}}, {"type": "Feature", "geometry": {"coordinates": [[-87.648495, 41.91731], [-87.648766, 41.925453], [-87.63067, 41.926223], [-87.632612, 41.935386], [-87.638833, 41.941219], [-87.644376, 41.950931], [-87.648738, 41.973046], [-87.652803, 41.984951], [-87.655253, 41.985556], [-87.655634, 41.997803], [-87.659646, 41.998196], [-87.666866, 42.026154], [-87.668578, 42.027161], [-87.678155, 42.027266], [-87.680569, 42.041201], [-87.681375, 42.041208], [-87.68191, 42.043758]], "type": "LineString"}, "properties": {"timestamp": "2023-12-14T15:38:13", "type": "ride", "rideType": "UberX", "pickupAddress": "N Halsted St, Chicago, IL 60614, US", "dropoffAddress": "Sherman Ave, Evanston, IL 60201, US", "basePay": "15.28", "surge": "0.00", "tip": "10.00", "earnings": "25.28", "duration": "2007", "distance": "10.80", "rideStartTime": "December 14, 2023 at 03:38 PM", "rideEndTime": "December 14, 2023 at 04:11 PM"}}, {"type": "Feature", "geometry": {"coordinates": [[-87.68191, 42.043758], [-87.681904, 42.044102], [-87.688534, 42.044191], [-87.688792, 42.048527], [-87.688587, 42.049394]], "type": "LineString"}, "properties": {"timestamp": "2023-12-14T16:15:35", "type": "transition"}}, {"type": "Feature", "geometry": {"coordinates": [[-87.688587, 42.049394], [-87.687935, 42.051264], [-87.688577, 42.052175], [-87.740001, 42.055271], [-87.756258, 42.041109], [-87.763691, 42.040938], [-87.768504, 42.03371], [-87.768822, 42.026512], [-87.765749, 42.021309], [-87.749252, 42.009007], [-87.751521, 41.987219], [-87.746835, 41.980228], [-87.747223, 41.966563], [-87.745232, 41.962358], [-87.719592, 41.947613], [-87.715306, 41.94215], [-87.670146, 41.917654], [-87.66137, 41.906646], [-87.659246, 41.897685], [-87.646473, 41.886676], [-87.644538, 41.861936], [-87.645083, 41.855528], [-87.64655, 41.854689], [-87.646268, 41.838041], [-87.651151, 41.837977], [-87.651081, 41.835279], [-87.652291, 41.835257], [-87.652247, 41.833573]], "type": "LineString"}, "properties": {"timestamp": "2023-12-14T16:15:35", "type": "ride", "rideType": "UberX", "pickupAddress": "Ridge Ave, Evanston, IL 60201, US", "dropoffAddress": "S Carpenter St, Chicago, IL 60608, US", "basePay": "24.48", "surge": "0.00", "tip": "0.00", "earnings": "24.48", "duration": "3333", "distance": "18.90", "rideStartTime": "December 14, 2023 at 04:15 PM", "rideEndTime": "December 14, 2023 at 05:11 PM"}}, {"type": "Feature", "geometry": {"coordinates": [[-87.652247, 41.833573], [-87.652291, 41.835257], [-87.653501, 41.835234], [-87.653576, 41.837946], [-87.660661, 41.837842], [-87.662145, 41.839637], [-87.66568, 41.83774], [-87.665955, 41.852337], [-87.675845, 41.852181], [-87.675934, 41.855831], [-87.677704, 41.855815]], "type": "LineString"}, "properties": {"timestamp": "2023-12-14T17:17:51", "type": "transition"}}, {"type": "Feature", "geometry": {"coordinates": [[-87.677704, 41.855815], [-87.675934, 41.855831], [-87.676418, 41.875016], [-87.676128, 41.875021], [-87.650308, 41.875329], [-87.645452, 41.874563], [-87.64458, 41.876036], [-87.645275, 41.880374], [-87.645355, 41.881847], [-87.645393, 41.882198], [-87.647404, 41.888483], [-87.658783, 41.897251], [-87.661061, 41.906443], [-87.669547, 41.91737], [-87.704001, 41.937344], [-87.714861, 41.942208], [-87.719618, 41.947985], [-87.738838, 41.958569], [-87.741371, 41.960451], [-87.747538, 41.960724], [-87.747132, 41.947676]], "type": "LineString"}, "properties": {"timestamp": "2023-12-14T17:17:51", "type": "ride", "rideType": "UberX", "pickupAddress": "W 19th St, Chicago, IL 60608-2606, US", "dropoffAddress": "N Cicero Ave, Chicago, IL 60641-5131, US", "basePay": "23.19", "surge": "0.00", "tip": "0.00", "earnings": "23.19", "duration": "3720", "distance": "9.80", "rideStartTime": "December 14, 2023 at 05:17 PM", "rideEndTime": "December 14, 2023 at 06:19 PM"}}, {"type": "Feature", "geometry": {"coordinates": [[-87.747132, 41.947676], [-87.747072, 41.946122], [-87.723631, 41.946429], [-87.723636, 41.946606]], "type": "LineString"}, "properties": {"timestamp": "2023-12-14T19:02:46", "type": "transition"}}, {"type": "Feature", "geometry": {"coordinates": [[-87.723636, 41.946606], [-87.723695, 41.948712], [-87.720091, 41.946669], [-87.720056, 41.946478], [-87.71959, 41.946484], [-87.718735, 41.945881], [-87.718156, 41.944989], [-87.718165, 41.94468], [-87.71756, 41.943897], [-87.717188, 41.931929], [-87.719631, 41.931892], [-87.719618, 41.931377]], "type": "LineString"}, "properties": {"timestamp": "2023-12-14T19:02:46", "type": "ride", "rideType": "UberX", "pickupAddress": "N Avers Ave, Chicago, IL 60647-3421, US", "dropoffAddress": "N Lawndale Ave, Chicago, IL 60647-1109, US", "basePay": "5.99", "surge": "1.00", "tip": "0.00", "earnings": "6.99", "duration": "235", "distance": "0.80", "rideStartTime": "December 14, 2023 at 07:02 PM", "rideEndTime": "December 14, 2023 at 07:06 PM"}}, {"type": "Feature", "geometry": {"coordinates": [[-87.719618, 41.931377], [-87.719534, 41.928233], [-87.71708, 41.928261], [-87.717101, 41.92898]], "type": "LineString"}, "properties": {"timestamp": "2023-12-14T19:17:55", "type": "transition"}}, {"type": "Feature", "geometry": {"coordinates": [[-87.717101, 41.92898], [-87.717188, 41.931929], [-87.696547, 41.932116], [-87.669405, 41.916815], [-87.664752, 41.909975], [-87.661559, 41.906635], [-87.660921, 41.900902], [-87.659049, 41.896968], [-87.657114, 41.895018], [-87.653963, 41.891931], [-87.651034, 41.892554], [-87.624293, 41.892538], [-87.624246, 41.890945], [-87.621986, 41.890981], [-87.624074, 41.890948], [-87.624094, 41.891505]], "type": "LineString"}, "properties": {"timestamp": "2023-12-14T19:17:55", "type": "ride", "rideType": "Comfort", "pickupAddress": "N Central Park Ave, Chicago, IL 60647-3612, US", "dropoffAddress": "N Michigan Ave, Chicago, IL 60611, US", "basePay": "15.07", "surge": "1.50", "tip": "4.39", "earnings": "20.96", "duration": "1943", "distance": "6.40", "rideStartTime": "December 14, 2023 at 07:17 PM", "rideEndTime": "December 14, 2023 at 07:50 PM"}}, {"type": "Feature", "geometry": {"coordinates": [[-87.624094, 41.891505], [-87.624121, 41.892541], [-87.620263, 41.892588], [-87.620762, 41.887855], [-87.615811, 41.887462], [-87.614014, 41.887175], [-87.61394, 41.885118], [-87.617453, 41.881821], [-87.617261, 41.869765], [-87.619589, 41.866068], [-87.614728, 41.853242], [-87.614444, 41.848506], [-87.626818, 41.84732], [-87.631727, 41.847855], [-87.631351, 41.843118], [-87.631289, 41.79178], [-87.631532, 41.783322], [-87.631833, 41.779372], [-87.632128, 41.779366], [-87.632538, 41.778543]], "type": "LineString"}, "properties": {"timestamp": "2023-12-14T22:04:33", "type": "transition"}}, {"type": "Feature", "geometry": {"coordinates": [[-87.632538, 41.778543], [-87.632128, 41.779366], [-87.631833, 41.779372], [-87.631812, 41.778124], [-87.635009, 41.778077], [-87.635057, 41.779907], [-87.630139, 41.779931], [-87.630149, 41.780433], [-87.63142, 41.807989], [-87.629665, 41.812785], [-87.630393, 41.837743], [-87.631347, 41.844144], [-87.642036, 41.847354], [-87.644778, 41.850632], [-87.64591, 41.885931], [-87.648317, 41.889375], [-87.65785, 41.896124], [-87.660194, 41.900116], [-87.660665, 41.90345], [-87.658338, 41.903492], [-87.660908, 41.908679]], "type": "LineString"}, "properties": {"timestamp": "2023-12-14T22:04:33", "type": "ride", "rideType": "UberX", "pickupAddress": "W North Ave, Chicago, IL 60610-1125, US", "dropoffAddress": "N Elston Ave, Chicago, IL 60642, US", "basePay": "3.72", "surge": "0.00", "tip": "5.00", "earnings": "8.72", "duration": "301", "distance": "1.30", "rideStartTime": "December 14, 2023 at 10:04 PM", "rideEndTime": "December 14, 2023 at 10:09 PM"}}, {"type": "Feature", "geometry": {"coordinates": [[-87.660908, 41.908679], [-87.659943, 41.907139], [-87.659432, 41.904628], [-87.659164, 41.904243], [-87.658338, 41.903492], [-87.655448, 41.903534], [-87.656534, 41.904795], [-87.656617, 41.907144], [-87.655968, 41.907157]], "type": "LineString"}, "properties": {"timestamp": "2023-12-14T22:13:28", "type": "transition"}}, {"type": "Feature", "geometry": {"coordinates": [[-87.655968, 41.907157], [-87.656617, 41.907144], [-87.655448, 41.903534], [-87.661667, 41.903435], [-87.658563, 41.896333], [-87.648602, 41.889352], [-87.646315, 41.886261], [-87.644363, 41.857367], [-87.645793, 41.852447], [-87.644333, 41.849097], [-87.644894, 41.846776], [-87.652708, 41.844955], [-87.66744, 41.837772], [-87.680834, 41.836863], [-87.808237, 41.796778], [-87.81334, 41.796664], [-87.817561, 41.796227], [-87.82855, 41.796432], [-87.832286, 41.798453], [-87.833265, 41.802], [-87.832418, 41.805866], [-87.898468, 41.804439], [-87.898647, 41.809443], [-87.896902, 41.80982]], "type": "LineString"}, "properties": {"timestamp": "2023-12-14T22:13:28", "type": "ride", "rideType": "UberX", "pickupAddress": "W Blackhawk St, Chicago, IL 60642, US", "dropoffAddress": "Burlington Ave, Western Springs, IL 60558-1635, US", "basePay": "17.83", "surge": "0.00", "tip": "7.98", "earnings": "25.81", "duration": "2517", "distance": "20.10", "rideStartTime": "December 14, 2023 at 10:13 PM", "rideEndTime": "December 14, 2023 at 10:55 PM"}}, {"type": "Feature", "geometry": {"coordinates": [[-87.896902, 41.80982], [-87.898647, 41.809443], [-87.899084, 41.820622], [-87.900167, 41.824706], [-87.900599, 41.833598], [-87.861578, 41.834592], [-87.852788, 41.828453]], "type": "LineString"}, "properties": {"timestamp": "2023-12-14T23:11:51", "type": "transition"}}, {"type": "Feature", "geometry": {"coordinates": [[-87.852788, 41.828453], [-87.854022, 41.829318], [-87.851586, 41.829395], [-87.851812, 41.834856], [-87.833527, 41.835271], [-87.833403, 41.839018], [-87.83259, 41.842604], [-87.800539, 41.843157], [-87.790671, 41.850552], [-87.765152, 41.850936], [-87.765244, 41.854512]], "type": "LineString"}, "properties": {"timestamp": "2023-12-14T23:11:51", "type": "ride", "rideType": "UberX", "pickupAddress": "Grand Blvd, Brookfield, IL 60513, US", "dropoffAddress": "S 56th Ct, Cicero, IL 60804, US", "basePay": "9.98", "surge": "0.00", "tip": "0.00", "earnings": "9.98", "duration": "879", "distance": "6.20", "rideStartTime": "December 14, 2023 at 11:11 PM", "rideEndTime": "December 14, 2023 at 11:26 PM"}}, {"type": "Feature", "geometry": {"coordinates": [[-87.765244, 41.854512], [-87.765247, 41.854628], [-87.764002, 41.854645], [-87.763707, 41.843689], [-87.7514, 41.843881], [-87.748961, 41.84468], [-87.744322, 41.844793], [-87.742475, 41.845201], [-87.742059, 41.845022], [-87.741576, 41.844186], [-87.740985, 41.843979], [-87.729417, 41.844188], [-87.729309, 41.840507], [-87.730524, 41.840493], [-87.730527, 41.840618]], "type": "LineString"}, "properties": {"timestamp": "2023-12-14T23:33:20", "type": "transition"}}, {"type": "Feature", "geometry": {"coordinates": [[-87.730527, 41.840618], [-87.730628, 41.844172], [-87.73427, 41.844122], [-87.735214, 41.872889], [-87.731862, 41.873657], [-87.708909, 41.873948], [-87.704448, 41.874481], [-87.701026, 41.874345], [-87.702191, 41.895594], [-87.701213, 41.895606]], "type": "LineString"}, "properties": {"timestamp": "2023-12-14T23:33:20", "type": "ride", "rideType": "UberX", "pickupAddress": "S Tripp Ave, Chicago, IL 60623-1165, US", "dropoffAddress": "W Chicago Ave, Chicago, IL 60651-3704, US", "basePay": "7.92", "surge": "0.00", "tip": "0.00", "earnings": "7.92", "duration": "673", "distance": "2.90", "rideStartTime": "December 14, 2023 at 11:33 PM", "rideEndTime": "December 14, 2023 at 11:44 PM"}}, {"type": "Feature", "geometry": {"coordinates": [[-87.701213, 41.895606], [-87.702191, 41.895594], [-87.702222, 41.896575], [-87.711243, 41.900143], [-87.711889, 41.900057], [-87.712727, 41.900725], [-87.716556, 41.902232], [-87.716622, 41.904574], [-87.715988, 41.90458], [-87.716651, 41.905353], [-87.717134, 41.930091], [-87.718374, 41.930086], [-87.718419, 41.931664]], "type": "LineString"}, "properties": {"timestamp": "2023-12-14T23:41:29", "type": "transition"}}, {"type": "Feature", "geometry": {"coordinates": [[-87.718419, 41.931664], [-87.718427, 41.93191], [-87.717188, 41.931929], [-87.71669, 41.909987], [-87.721646, 41.909928], [-87.720964, 41.886818], [-87.721861, 41.886809]], "type": "LineString"}, "properties": {"timestamp": "2023-12-14T23:41:29", "type": "ride", "rideType": "UberX", "pickupAddress": "N Monticello Ave, Chicago, IL 60651-3948, US", "dropoffAddress": "W Fulton St, Chicago, IL 60624-1926, US", "basePay": "2.94", "surge": "0.00", "tip": "0.00", "earnings": "2.94", "duration": "274", "distance": "1.00", "rideStartTime": "December 14, 2023 at 11:41 PM", "rideEndTime": "December 14, 2023 at 11:46 PM"}}, {"type": "Feature", "geometry": {"coordinates": [[-87.721861, 41.886809], [-87.720964, 41.886818], [-87.720917, 41.885208], [-87.701291, 41.884089], [-87.676739, 41.88498], [-87.676791, 41.886776], [-87.673532, 41.886827]], "type": "LineString"}, "properties": {"timestamp": "2023-12-14T23:53:33", "type": "transition"}}, {"type": "Feature", "geometry": {"coordinates": [[-87.673532, 41.886827], [-87.673532, 41.886827]], "type": "LineString"}, "properties": {"timestamp": "2023-12-14T23:53:33", "type": "ride", "rideType": "UberX", "pickupAddress": "W Fulton St, Chicago, IL 60612-1708, US", "dropoffAddress": "W Fulton St, Chicago, IL 60612-1708, US", "basePay": "4.33", "surge": "0.00", "tip": "5.00", "earnings": "9.33", "duration": "531", "distance": "1.30", "rideStartTime": "December 14, 2023 at 11:53 PM", "rideEndTime": "December 15, 2023 at 12:02 AM"}}, {"type": "Feature", "geometry": {"coordinates": [[-87.673532, 41.886827], [-87.676791, 41.886776], [-87.676739, 41.88498], [-87.686532, 41.884621], [-87.686432, 41.881166], [-87.696286, 41.881077], [-87.696261, 41.880169], [-87.695733, 41.880173]], "type": "LineString"}, "properties": {"timestamp": "2023-12-15T00:14:41", "type": "transition"}}, {"type": "Feature", "geometry": {"coordinates": [[-87.695733, 41.880173], [-87.696261, 41.880169], [-87.69636, 41.884255], [-87.701426, 41.884091], [-87.725794, 41.885478], [-87.757813, 41.887387], [-87.762446, 41.887338], [-87.76325, 41.887349], [-87.763296, 41.88773], [-87.765123, 41.887722], [-87.765522, 41.898494], [-87.770378, 41.898428], [-87.770348, 41.89751], [-87.77057, 41.897508]], "type": "LineString"}, "properties": {"timestamp": "2023-12-15T00:14:41", "type": "ride", "rideType": "UberX Share", "pickupAddress": "W Monroe St, Chicago, IL 60612-2823, US", "dropoffAddress": "W Walton St, Chicago, IL 60651-2542, US", "basePay": "11.18", "surge": "0.00", "tip": "0.00", "earnings": "11.18", "duration": "1245", "distance": "6.90", "rideStartTime": "December 15, 2023 at 12:14 AM", "rideEndTime": "December 15, 2023 at 12:35 AM"}}, {"type": "Feature", "geometry": {"coordinates": [[-87.77057, 41.897508], [-87.772382, 41.897483], [-87.772411, 41.898401], [-87.765522, 41.898494], [-87.765658, 41.902145], [-87.706787, 41.902833], [-87.706867, 41.915578], [-87.703717, 41.915612]], "type": "LineString"}, "properties": {"timestamp": "2023-12-15T01:32:18", "type": "transition"}}, {"type": "Feature", "geometry": {"coordinates": [[-87.703717, 41.915612], [-87.702035, 41.915629], [-87.702101, 41.91745], [-87.687413, 41.917587], [-87.688393, 41.951293], [-87.689719, 41.951275]], "type": "LineString"}, "properties": {"timestamp": "2023-12-15T01:32:18", "type": "ride", "rideType": "Comfort", "pickupAddress": "W Cortland St, Chicago, IL 60622, US", "dropoffAddress": "W Berenice Ave, Chicago, IL 60618-3707, US", "basePay": "7.75", "surge": "0.00", "tip": "5.00", "earnings": "12.75", "duration": "570", "distance": "2.80", "rideStartTime": "December 15, 2023 at 01:32 AM", "rideEndTime": "December 15, 2023 at 01:41 AM"}}, {"type": "Feature", "geometry": {"coordinates": [[-87.689719, 41.951275], [-87.688393, 41.951293], [-87.688345, 41.949742]], "type": "LineString"}, "properties": {"timestamp": "2023-12-15T01:49:29", "type": "transition"}}, {"type": "Feature", "geometry": {"coordinates": [[-87.688345, 41.949742], [-87.688245, 41.946744], [-87.766768, 41.945882], [-87.76649, 41.93858], [-87.772556, 41.938501], [-87.772439, 41.934843], [-87.774011, 41.934821]], "type": "LineString"}, "properties": {"timestamp": "2023-12-15T01:49:29", "type": "ride", "rideType": "UberX", "pickupAddress": "N Western Ave, Chicago, IL 60618-6344, US", "dropoffAddress": "W Wellington Ave, Chicago, IL 60641-5243, US", "basePay": "6.25", "surge": "0.00", "tip": "0.00", "earnings": "6.25", "duration": "837", "distance": "3.50", "rideStartTime": "December 15, 2023 at 01:49 AM", "rideEndTime": "December 15, 2023 at 02:03 AM"}}, {"type": "Feature", "geometry": {"coordinates": [[-87.774011, 41.934821], [-87.773657, 41.934826], [-87.773785, 41.938486], [-87.746879, 41.93884], [-87.747627, 41.96438], [-87.745977, 41.964394], [-87.746614, 41.980044], [-87.751348, 41.987222], [-87.748898, 42.00867], [-87.752849, 42.014015], [-87.764685, 42.020691], [-87.768078, 42.024765], [-87.768407, 42.033299], [-87.764702, 42.038593], [-87.759717, 42.040844], [-87.720086, 42.040827], [-87.714181, 42.048153], [-87.685633, 42.048504], [-87.685471, 42.048465], [-87.684986, 42.047061], [-87.685699, 42.047071]], "type": "LineString"}, "properties": {"timestamp": "2023-12-15T16:47:10", "type": "transition"}}]}