{"type": "FeatureCollection", "features": [{"type": "Feature", "geometry": {"coordinates": [[-87.678821, 42.038819], [-87.678825, 42.039252], [-87.680405, 42.039269], [-87.680565, 42.040143], [-87.680521, 42.044073], [-87.679657, 42.046194], [-87.682652, 42.047008], [-87.683456, 42.047037], [-87.683358, 42.049605]], "type": "LineString"}, "properties": {"timestamp": "2023-11-26T15:52:09", "type": "ride", "rideType": "UberX", "pickupAddress": "Hinman Ave, Evanston, IL 60202-2517, US", "dropoffAddress": "Benson Ave, Evanston, IL 60201-3704, US", "basePay": "5.11", "surge": "0.00", "tip": "1.00", "earnings": "6.11", "duration": "429", "distance": "1.40", "rideStartTime": "November 26, 2023 at 03:52 PM", "rideEndTime": "November 26, 2023 at 03:59 PM"}}, {"type": "Feature", "geometry": {"coordinates": [[-87.683358, 42.049605], [-87.683456, 42.047037], [-87.684986, 42.047061], [-87.685009, 42.046334]], "type": "LineString"}, "properties": {"timestamp": "2023-11-26T16:01:27", "type": "transition"}}, {"type": "Feature", "geometry": {"coordinates": [[-87.685009, 42.046334], [-87.685025, 42.045599], [-87.680232, 42.045024], [-87.680565, 42.040143], [-87.678155, 42.027266], [-87.668578, 42.027161], [-87.666902, 42.025972], [-87.665412, 42.023099], [-87.66691, 42.022304], [-87.666595, 42.021131], [-87.660929, 42.005557], [-87.66054, 41.998191], [-87.660132, 41.985467], [-87.658072, 41.985487], [-87.658038, 41.984272]], "type": "LineString"}, "properties": {"timestamp": "2023-11-26T16:01:27", "type": "ride", "rideType": "UberX Share", "pickupAddress": "Maple Ave, Evanston, IL 60201, US", "dropoffAddress": "N Winthrop Ave, Chicago, IL 60640-2310, US", "basePay": "13.85", "surge": "0.00", "tip": "1.00", "earnings": "14.85", "duration": "1749", "distance": "6.40", "rideStartTime": "November 26, 2023 at 04:01 PM", "rideEndTime": "November 26, 2023 at 04:30 PM"}}, {"type": "Feature", "geometry": {"coordinates": [[-87.658038, 41.984272], [-87.658021, 41.983669], [-87.654482, 41.983848], [-87.653702, 41.983688], [-87.653016, 41.98172], [-87.649277, 41.973607], [-87.648547, 41.97096], [-87.648824, 41.969276], [-87.656225, 41.96907], [-87.656365, 41.974712]], "type": "LineString"}, "properties": {"timestamp": "2023-11-26T16:31:49", "type": "transition"}}, {"type": "Feature", "geometry": {"coordinates": [[-87.656365, 41.974712], [-87.656375, 41.975268], [-87.654984, 41.97529], [-87.655324, 41.987812]], "type": "LineString"}, "properties": {"timestamp": "2023-11-26T16:31:49", "type": "ride", "rideType": "UberX", "pickupAddress": "N Kenmore Ave, Chicago, IL 60640-2408, US", "dropoffAddress": "N Sheridan Rd, Chicago, IL 60626-3811, US", "basePay": "4.81", "surge": "0.00", "tip": "0.00", "earnings": "4.81", "duration": "634", "distance": "2.10", "rideStartTime": "November 26, 2023 at 04:31 PM", "rideEndTime": "November 26, 2023 at 04:42 PM"}}, {"type": "Feature", "geometry": {"coordinates": [[-87.655324, 41.987812], [-87.655621, 41.997711], [-87.655995, 41.99817], [-87.67684, 41.99796], [-87.681855, 42.008899], [-87.682247, 42.00895]], "type": "LineString"}, "properties": {"timestamp": "2023-11-26T16:43:53", "type": "transition"}}, {"type": "Feature", "geometry": {"coordinates": [[-87.682247, 42.00895], [-87.681855, 42.008899], [-87.683956, 42.014829]], "type": "LineString"}, "properties": {"timestamp": "2023-11-26T16:43:53", "type": "ride", "rideType": "UberX Share", "pickupAddress": "W Lunt Ave, Chicago, IL 60626-3032, US", "dropoffAddress": "N Ridge Blvd, Chicago, IL 60645-2011, US", "basePay": "3.72", "surge": "0.00", "tip": "0.00", "earnings": "3.72", "duration": "333", "distance": "1.20", "rideStartTime": "November 26, 2023 at 04:43 PM", "rideEndTime": "November 26, 2023 at 04:49 PM"}}, {"type": "Feature", "geometry": {"coordinates": [[-87.683956, 42.014829], [-87.681855, 42.008899], [-87.680175, 42.005209], [-87.666961, 42.005444], [-87.666905, 42.003606], [-87.668125, 42.003585], [-87.668176, 42.005122]], "type": "LineString"}, "properties": {"timestamp": "2023-11-26T17:28:49", "type": "transition"}}, {"type": "Feature", "geometry": {"coordinates": [[-87.668176, 42.005122], [-87.668185, 42.005422], [-87.683168, 42.005153]], "type": "LineString"}, "properties": {"timestamp": "2023-11-26T17:28:49", "type": "ride", "rideType": "UberX", "pickupAddress": "N Greenview Ave, Chicago, IL 60626-4207, US", "dropoffAddress": "W Pratt Blvd, Chicago, IL 60626-4273, US", "basePay": "2.94", "surge": "0.00", "tip": "0.00", "earnings": "2.94", "duration": "87", "distance": "0.20", "rideStartTime": "November 26, 2023 at 05:28 PM", "rideEndTime": "November 26, 2023 at 05:30 PM"}}, {"type": "Feature", "geometry": {"coordinates": [[-87.683168, 42.005153], [-87.690071, 42.005024], [-87.688512, 41.955627], [-87.688245, 41.946744], [-87.712704, 41.946565], [-87.712582, 41.942239], [-87.715459, 41.942862]], "type": "LineString"}, "properties": {"timestamp": "2023-11-27T08:30:06", "type": "transition"}}]}