{"type": "FeatureCollection", "features": [{"type": "Feature", "geometry": {"coordinates": [[-87.681335, 42.006428], [-87.680726, 42.00644], [-87.680175, 42.005209], [-87.690071, 42.005024], [-87.688512, 41.955627], [-87.688469, 41.954086], [-87.727612, 41.95365], [-87.727187, 41.939096], [-87.729641, 41.939065], [-87.729619, 41.938152], [-87.731281, 41.938134]], "type": "LineString"}, "properties": {"timestamp": "2023-01-15T08:50:02", "type": "ride", "rideType": "UberX", "pickupAddress": "W Farwell Ave, Chicago, IL 60626-3215, US", "dropoffAddress": "W Fletcher St, Chicago, IL 60641-4945, US", "basePay": "13.63", "surge": "0.00", "tip": "0.00", "earnings": "13.63", "duration": "1386", "distance": "10.30", "rideStartTime": "January 15, 2023 at 08:50 AM", "rideEndTime": "January 15, 2023 at 09:13 AM"}}, {"type": "Feature", "geometry": {"coordinates": [[-87.731281, 41.938134], [-87.732965, 41.938115], [-87.732991, 41.939024], [-87.739491, 41.938939], [-87.739705, 41.946218], [-87.739921, 41.946215]], "type": "LineString"}, "properties": {"timestamp": "2023-01-15T09:21:58", "type": "transition"}}, {"type": "Feature", "geometry": {"coordinates": [[-87.739921, 41.946215], [-87.727395, 41.946377], [-87.727612, 41.95365], [-87.72272, 41.953653], [-87.722659, 41.951905], [-87.72506, 41.951862], [-87.725075, 41.952765], [-87.72631, 41.95275]], "type": "LineString"}, "properties": {"timestamp": "2023-01-15T09:21:58", "type": "ride", "rideType": "UberX", "pickupAddress": "W Addison Ave, Chicago, IL 60634, US", "dropoffAddress": "W Dakin St, Chicago, IL 60634-2413, US", "basePay": "3.04", "surge": "0.00", "tip": "0.00", "earnings": "3.04", "duration": "306", "distance": "1.60", "rideStartTime": "January 15, 2023 at 09:21 AM", "rideEndTime": "January 15, 2023 at 09:27 AM"}}, {"type": "Feature", "geometry": {"coordinates": [[-87.72631, 41.95275], [-87.727582, 41.952735], [-87.727612, 41.95365], [-87.809667, 41.952719], [-87.825325, 41.945086], [-87.829056, 41.944969], [-87.829127, 41.946778], [-87.830116, 41.946751]], "type": "LineString"}, "properties": {"timestamp": "2023-01-15T09:33:15", "type": "transition"}}, {"type": "Feature", "geometry": {"coordinates": [[-87.830116, 41.946751], [-87.827898, 41.94681], [-87.827822, 41.945006], [-87.825325, 41.945086], [-87.794287, 41.960061], [-87.767783, 41.960475], [-87.767788, 41.960923], [-87.767619, 41.960925]], "type": "LineString"}, "properties": {"timestamp": "2023-01-15T09:33:15", "type": "ride", "rideType": "UberX", "pickupAddress": "W Waveland Ave, Chicago, IL 60634-2434, US", "dropoffAddress": "N Central Ave, Chicago, IL 60634, US", "basePay": "2.91", "surge": "0.00", "tip": "0.00", "earnings": "2.91", "duration": "273", "distance": "1.00", "rideStartTime": "January 15, 2023 at 09:33 AM", "rideEndTime": "January 15, 2023 at 09:37 AM"}}, {"type": "Feature", "geometry": {"coordinates": [[-87.767619, 41.960925], [-87.767255, 41.960928], [-87.767242, 41.960484], [-87.739819, 41.960823], [-87.739742, 41.959456], [-87.738898, 41.958999], [-87.738362, 41.958991], [-87.738204, 41.957068], [-87.738806, 41.957146], [-87.740053, 41.957989]], "type": "LineString"}, "properties": {"timestamp": "2023-01-15T09:41:54", "type": "transition"}}, {"type": "Feature", "geometry": {"coordinates": [[-87.740053, 41.957989], [-87.738806, 41.957146], [-87.738204, 41.957068], [-87.738067, 41.953535], [-87.731304, 41.953617], [-87.719717, 41.947499], [-87.715518, 41.942115], [-87.709442, 41.939977], [-87.673831, 41.919706], [-87.671882, 41.918264], [-87.671723, 41.918151], [-87.667505, 41.91793], [-87.666413, 41.916455], [-87.663815, 41.917067], [-87.658378, 41.917139], [-87.658214, 41.918041], [-87.638808, 41.918322], [-87.638503, 41.918106]], "type": "LineString"}, "properties": {"timestamp": "2023-01-15T09:41:54", "type": "ride", "rideType": "UberX", "pickupAddress": "W Irving Park Rd, Chicago, IL 60641-2639, US", "dropoffAddress": "N Lincoln Ave, Chicago, IL 60625-2026, US", "basePay": "6.09", "surge": "0.00", "tip": "0.00", "earnings": "6.09", "duration": "948", "distance": "4.40", "rideStartTime": "January 15, 2023 at 09:41 AM", "rideEndTime": "January 15, 2023 at 09:57 AM"}}, {"type": "Feature", "geometry": {"coordinates": [[-87.638503, 41.918106], [-87.638808, 41.918322], [-87.638941, 41.921954], [-87.63646, 41.92199], [-87.636586, 41.925658], [-87.636058, 41.925673], [-87.636155, 41.925892], [-87.636833, 41.926079], [-87.63794, 41.926736], [-87.638765, 41.927795], [-87.638762, 41.930111], [-87.638993, 41.931592], [-87.638681, 41.932293], [-87.63931, 41.932914], [-87.639435, 41.936919]], "type": "LineString"}, "properties": {"timestamp": "2023-01-15T10:55:02", "type": "transition"}}, {"type": "Feature", "geometry": {"coordinates": [[-87.639435, 41.936919], [-87.639537, 41.940119], [-87.673369, 41.939644]], "type": "LineString"}, "properties": {"timestamp": "2023-01-15T10:55:02", "type": "ride", "rideType": "UberX", "pickupAddress": "N Sheridan Rd, Chicago, IL 60640-5618, US", "dropoffAddress": "W Belmont Ave, Chicago, IL 60657, US", "basePay": "4.14", "surge": "0.00", "tip": "0.00", "earnings": "4.14", "duration": "645", "distance": "3.00", "rideStartTime": "January 15, 2023 at 10:55 AM", "rideEndTime": "January 15, 2023 at 11:05 AM"}}, {"type": "Feature", "geometry": {"coordinates": [[-87.673369, 41.939644], [-87.668609, 41.939697], [-87.658713, 41.932557], [-87.653863, 41.932636], [-87.653827, 41.931569]], "type": "LineString"}, "properties": {"timestamp": "2023-01-15T11:05:24", "type": "transition"}}, {"type": "Feature", "geometry": {"coordinates": [[-87.653827, 41.931569], [-87.653601, 41.925374], [-87.658464, 41.925291], [-87.658201, 41.917264], [-87.663815, 41.917067], [-87.66782, 41.916129], [-87.66776, 41.910633], [-87.665662, 41.910672], [-87.665325, 41.910236], [-87.661439, 41.906386], [-87.661057, 41.901306], [-87.658834, 41.896667], [-87.6483, 41.889096], [-87.646108, 41.885119], [-87.646413, 41.883144], [-87.641266, 41.883178], [-87.639745, 41.883185], [-87.639953, 41.887994], [-87.640199, 41.88801]], "type": "LineString"}, "properties": {"timestamp": "2023-01-15T11:05:24", "type": "ride", "rideType": "UberX", "pickupAddress": "N Sheffield Ave, Chicago, IL 60657-4420, US", "dropoffAddress": "S Canal St, Chicago, IL 60606, US", "basePay": "7.85", "surge": "0.00", "tip": "0.00", "earnings": "7.85", "duration": "922", "distance": "5.60", "rideStartTime": "January 15, 2023 at 11:05 AM", "rideEndTime": "January 15, 2023 at 11:20 AM"}}, {"type": "Feature", "geometry": {"coordinates": [[-87.640199, 41.88801], [-87.639953, 41.887994], [-87.64001, 41.889064], [-87.641432, 41.889102], [-87.64118, 41.880567], [-87.639693, 41.880598], [-87.639706, 41.881889], [-87.640505, 41.881877]], "type": "LineString"}, "properties": {"timestamp": "2023-01-15T11:25:24", "type": "transition"}}, {"type": "Feature", "geometry": {"coordinates": [[-87.640505, 41.881877], [-87.645827, 41.8818], [-87.644363, 41.857367], [-87.645793, 41.852447], [-87.644333, 41.849097], [-87.643981, 41.847746], [-87.644894, 41.846776], [-87.652708, 41.844955], [-87.667166, 41.837862], [-87.680151, 41.837032], [-87.695427, 41.832287], [-87.698851, 41.831418], [-87.700566, 41.830863], [-87.70462, 41.83001], [-87.705107, 41.846341], [-87.705703, 41.846334], [-87.705748, 41.847871]], "type": "LineString"}, "properties": {"timestamp": "2023-01-15T11:25:24", "type": "ride", "rideType": "UberX", "pickupAddress": "W Madison St, Chicago, IL 60661, US", "dropoffAddress": "N Kedzie Blvd, Chicago, IL 60647, US", "basePay": "6.11", "surge": "0.00", "tip": "0.00", "earnings": "6.11", "duration": "642", "distance": "5.20", "rideStartTime": "January 15, 2023 at 11:25 AM", "rideEndTime": "January 15, 2023 at 11:36 AM"}}, {"type": "Feature", "geometry": {"coordinates": [[-87.705748, 41.847871], [-87.705755, 41.848132], [-87.705157, 41.848139], [-87.705421, 41.857847], [-87.695753, 41.861327], [-87.696127, 41.874902], [-87.695509, 41.874908], [-87.690201, 41.875125], [-87.650308, 41.875329], [-87.645452, 41.874563], [-87.64458, 41.876036], [-87.645275, 41.880374], [-87.645355, 41.881847], [-87.645393, 41.882198], [-87.647404, 41.888483], [-87.658783, 41.897251], [-87.661061, 41.906443], [-87.668818, 41.916712], [-87.704001, 41.937344], [-87.706845, 41.939348], [-87.706369, 41.93936], [-87.706177, 41.944803], [-87.705317, 41.944219], [-87.705281, 41.943085]], "type": "LineString"}, "properties": {"timestamp": "2023-01-15T11:36:27", "type": "transition"}}, {"type": "Feature", "geometry": {"coordinates": [[-87.705281, 41.943085], [-87.705182, 41.939366], [-87.702718, 41.939378], [-87.702616, 41.935677], [-87.669746, 41.917124], [-87.664752, 41.909975], [-87.661559, 41.906635], [-87.661131, 41.901587], [-87.659383, 41.897534], [-87.657508, 41.895016], [-87.657416, 41.893069], [-87.660796, 41.88891], [-87.663487, 41.883985], [-87.666061, 41.881475], [-87.679085, 41.881324], [-87.678236, 41.88126]], "type": "LineString"}, "properties": {"timestamp": "2023-01-15T11:36:27", "type": "ride", "rideType": "UberX", "pickupAddress": "N Albany Ave, Chicago, IL 60647, US", "dropoffAddress": "W Madison St, Chicago, IL 60607, US", "basePay": "6.34", "surge": "0.00", "tip": "3.00", "earnings": "9.34", "duration": "783", "distance": "4.90", "rideStartTime": "January 15, 2023 at 11:36 AM", "rideEndTime": "January 15, 2023 at 11:49 AM"}}, {"type": "Feature", "geometry": {"coordinates": [[-87.678236, 41.88126], [-87.676638, 41.881323], [-87.676683, 41.883149], [-87.686477, 41.883003], [-87.686532, 41.884621], [-87.701291, 41.884089], [-87.702431, 41.897899], [-87.702311, 41.902777], [-87.701241, 41.907558], [-87.701859, 41.909737], [-87.702035, 41.915629], [-87.703897, 41.91561], [-87.703892, 41.915416]], "type": "LineString"}, "properties": {"timestamp": "2023-01-15T12:12:29", "type": "transition"}}, {"type": "Feature", "geometry": {"coordinates": [[-87.703892, 41.915416], [-87.703857, 41.913751], [-87.70233, 41.913772], [-87.702283, 41.912], [-87.701932, 41.912147], [-87.702101, 41.91745], [-87.687413, 41.917587], [-87.687645, 41.924902], [-87.633621, 41.925745], [-87.637134, 41.931132], [-87.636082, 41.933168], [-87.636648, 41.934349], [-87.636832, 41.936481]], "type": "LineString"}, "properties": {"timestamp": "2023-01-15T12:12:29", "type": "ride", "rideType": "UberX", "pickupAddress": "N Whipple St, Chicago, IL 60647-3821, US", "dropoffAddress": "N Lake Shore Dr, Chicago, IL 60657-3950, US", "basePay": "7.48", "surge": "0.00", "tip": "3.00", "earnings": "10.48", "duration": "1317", "distance": "5.50", "rideStartTime": "January 15, 2023 at 12:12 PM", "rideEndTime": "January 15, 2023 at 12:34 PM"}}, {"type": "Feature", "geometry": {"coordinates": [[-87.636832, 41.936481], [-87.636768, 41.935621], [-87.647101, 41.935537], [-87.650679, 41.939965], [-87.673369, 41.939644]], "type": "LineString"}, "properties": {"timestamp": "2023-01-15T13:17:41", "type": "transition"}}, {"type": "Feature", "geometry": {"coordinates": [[-87.673369, 41.939644], [-87.668727, 41.939696], [-87.668583, 41.936056], [-87.668189, 41.936061]], "type": "LineString"}, "properties": {"timestamp": "2023-01-15T13:17:41", "type": "ride", "rideType": "UberX", "pickupAddress": "W Belmont Ave, Chicago, IL 60657-4511, US", "dropoffAddress": "3001 N Ashland Ave, Chicago, IL 60657, US", "basePay": "4.44", "surge": "3.75", "tip": "3.00", "earnings": "11.19", "duration": "713", "distance": "1.50", "rideStartTime": "January 15, 2023 at 01:17 PM", "rideEndTime": "January 15, 2023 at 01:29 PM"}}, {"type": "Feature", "geometry": {"coordinates": [[-87.668189, 41.936061], [-87.666109, 41.936087], [-87.666233, 41.939729], [-87.658974, 41.939838], [-87.659024, 41.941664], [-87.657794, 41.941681], [-87.657753, 41.940121]], "type": "LineString"}, "properties": {"timestamp": "2023-01-15T13:33:41", "type": "transition"}}, {"type": "Feature", "geometry": {"coordinates": [[-87.657753, 41.940121], [-87.657746, 41.939858], [-87.638796, 41.940268], [-87.638606, 41.939931], [-87.632453, 41.934639], [-87.62421, 41.902733], [-87.619617, 41.900898], [-87.614264, 41.892868], [-87.619588, 41.866208], [-87.614728, 41.853242], [-87.614444, 41.848506], [-87.626818, 41.84732], [-87.631727, 41.847855], [-87.631351, 41.843118], [-87.631207, 41.779686], [-87.626113, 41.772231], [-87.624621, 41.72052], [-87.62925, 41.71536], [-87.652269, 41.712978], [-87.653382, 41.700924], [-87.65921, 41.695638], [-87.662318, 41.684066], [-87.662461, 41.677524], [-87.714872, 41.676752], [-87.715055, 41.680844], [-87.714366, 41.680858]], "type": "LineString"}, "properties": {"timestamp": "2023-01-15T13:33:41", "type": "ride", "rideType": "UberX", "pickupAddress": "N Clifton Ave, Chicago, IL 60657-2224, US", "dropoffAddress": "N Lincoln Ave, Chicago, IL 60613, US", "basePay": "4.56", "surge": "0.00", "tip": "3.00", "earnings": "7.56", "duration": "642", "distance": "1.60", "rideStartTime": "January 15, 2023 at 01:33 PM", "rideEndTime": "January 15, 2023 at 01:44 PM"}}, {"type": "Feature", "geometry": {"coordinates": [[-87.714366, 41.680858], [-87.714366, 41.680858]], "type": "LineString"}, "properties": {"timestamp": "2023-01-15T13:45:31", "type": "transition"}}, {"type": "Feature", "geometry": {"coordinates": [[-87.714366, 41.680858], [-87.712596, 41.680894], [-87.71243, 41.676791], [-87.661368, 41.677536], [-87.661398, 41.67848], [-87.661551, 41.688215], [-87.658693, 41.695796], [-87.653084, 41.700714], [-87.652438, 41.712247], [-87.648322, 41.714432], [-87.632642, 41.714662], [-87.627057, 41.715693], [-87.624177, 41.719562], [-87.625651, 41.769497], [-87.630747, 41.779495], [-87.630667, 41.838631], [-87.631001, 41.844069], [-87.630081, 41.846653], [-87.616851, 41.847976], [-87.612168, 41.84938], [-87.619244, 41.8661], [-87.614003, 41.89273], [-87.619441, 41.900921], [-87.624048, 41.902893], [-87.632152, 41.934381], [-87.63676, 41.939073], [-87.638088, 41.940568], [-87.663815, 41.939759], [-87.663758, 41.938211]], "type": "LineString"}, "properties": {"timestamp": "2023-01-15T13:45:31", "type": "ride", "rideType": "UberX", "pickupAddress": "N Lincoln Ave, Chicago, IL 60613, US", "dropoffAddress": "N Southport Ave, Chicago, IL 60614, US", "basePay": "4.13", "surge": "0.00", "tip": "0.00", "earnings": "4.13", "duration": "835", "distance": "2.40", "rideStartTime": "January 15, 2023 at 01:45 PM", "rideEndTime": "January 15, 2023 at 01:59 PM"}}, {"type": "Feature", "geometry": {"coordinates": [[-87.663758, 41.938211], [-87.663682, 41.936111], [-87.653741, 41.929016], [-87.647955, 41.929095]], "type": "LineString"}, "properties": {"timestamp": "2023-01-15T14:05:57", "type": "transition"}}, {"type": "Feature", "geometry": {"coordinates": [[-87.647955, 41.929095], [-87.648892, 41.929091], [-87.648766, 41.925453], [-87.658464, 41.925291], [-87.658201, 41.917264], [-87.663815, 41.917067], [-87.66782, 41.916129], [-87.667053, 41.886129], [-87.667085, 41.885323], [-87.676739, 41.88498], [-87.676638, 41.881323], [-87.679085, 41.881324], [-87.678236, 41.88126]], "type": "LineString"}, "properties": {"timestamp": "2023-01-15T14:05:57", "type": "ride", "rideType": "Comfort", "pickupAddress": "N Ashland Ave, Chicago, IL 60614-1105, US", "dropoffAddress": "W Madison St, Chicago, IL 60612, US", "basePay": "9.72", "surge": "0.00", "tip": "1.00", "earnings": "10.72", "duration": "956", "distance": "3.90", "rideStartTime": "January 15, 2023 at 02:05 PM", "rideEndTime": "January 15, 2023 at 02:21 PM"}}, {"type": "Feature", "geometry": {"coordinates": [[-87.678236, 41.88126], [-87.676638, 41.881323], [-87.676555, 41.875016], [-87.676128, 41.875021], [-87.6605, 41.875604], [-87.650308, 41.875329], [-87.648052, 41.875215], [-87.646274, 41.874432], [-87.645285, 41.87175], [-87.644363, 41.857367], [-87.645793, 41.852447], [-87.644333, 41.849097], [-87.643981, 41.847746], [-87.644894, 41.846776], [-87.652708, 41.844955], [-87.667166, 41.837862], [-87.679805, 41.837095], [-87.690167, 41.833938]], "type": "LineString"}, "properties": {"timestamp": "2023-01-17T17:59:23", "type": "transition"}}]}