{"type": "FeatureCollection", "features": [{"type": "Feature", "geometry": {"coordinates": [[-87.82067, 41.934634], [-87.820654, 41.93424], [-87.821275, 41.934229], [-87.821404, 41.937842], [-87.786046, 41.938315], [-87.786299, 41.945676], [-87.735605, 41.946271], [-87.737418, 41.947388], [-87.736646, 41.948077], [-87.736648, 41.948162]], "type": "LineString"}, "properties": {"timestamp": "2023-08-02T18:55:28", "type": "ride"}}, {"type": "Feature", "geometry": {"coordinates": [[-87.736648, 41.948162], [-87.736694, 41.949925], [-87.740528, 41.949874], [-87.740099, 41.949043], [-87.749242, 41.954581], [-87.757803, 41.964478]], "type": "LineString"}, "properties": {"timestamp": "2023-08-02T19:04:31", "type": "transition"}}, {"type": "Feature", "geometry": {"coordinates": [[-87.757803, 41.964478], [-87.749242, 41.954581], [-87.747303, 41.953418], [-87.746595, 41.931542], [-87.749065, 41.931507], [-87.749089, 41.932158]], "type": "LineString"}, "properties": {"timestamp": "2023-08-02T19:04:31", "type": "ride"}}, {"type": "Feature", "geometry": {"coordinates": [[-87.749089, 41.932158], [-87.749132, 41.933325], [-87.746665, 41.933358], [-87.747303, 41.953418], [-87.727612, 41.95365], [-87.728031, 41.968251], [-87.714891, 41.968394]], "type": "LineString"}, "properties": {"timestamp": "2023-08-02T19:14:08", "type": "transition"}}, {"type": "Feature", "geometry": {"coordinates": [[-87.714891, 41.968394], [-87.713373, 41.968411], [-87.713749, 41.98302], [-87.712522, 41.983036], [-87.712493, 41.981932]], "type": "LineString"}, "properties": {"timestamp": "2023-08-02T19:14:08", "type": "ride"}}, {"type": "Feature", "geometry": {"coordinates": [[-87.712493, 41.981932], [-87.712428, 41.979369], [-87.713651, 41.979355], [-87.712582, 41.942239], [-87.714433, 41.942252], [-87.715459, 41.942862]], "type": "LineString"}, "properties": {"timestamp": "2023-08-02T19:34:11", "type": "transition"}}, {"type": "Feature", "geometry": {"coordinates": [[-87.715459, 41.942862], [-87.712582, 41.942239], [-87.712526, 41.940478], [-87.709442, 41.939977], [-87.669746, 41.917124], [-87.664752, 41.909975], [-87.661559, 41.906635], [-87.660921, 41.900902], [-87.659049, 41.896968], [-87.657114, 41.895018], [-87.653963, 41.891931], [-87.651034, 41.892554], [-87.62271, 41.892566], [-87.62278, 41.894975], [-87.623046, 41.894971]], "type": "LineString"}, "properties": {"timestamp": "2023-08-02T19:34:11", "type": "ride"}}, {"type": "Feature", "geometry": {"coordinates": [[-87.623046, 41.894971], [-87.624357, 41.894946], [-87.624316, 41.893335], [-87.637063, 41.893148], [-87.64596, 41.892522], [-87.65028, 41.892674], [-87.653268, 41.892622], [-87.658404, 41.896481], [-87.660896, 41.901399], [-87.66137, 41.906646], [-87.670146, 41.917654], [-87.709927, 41.940372], [-87.715306, 41.94215], [-87.719592, 41.947613], [-87.741635, 41.95982], [-87.746287, 41.963594], [-87.747426, 41.975724], [-87.74607, 41.976396], [-87.745776, 41.975364], [-87.747984, 41.975339], [-87.747132, 41.947676]], "type": "LineString"}, "properties": {"timestamp": "2023-08-03T08:34:09", "type": "transition"}}]}