{"type": "FeatureCollection", "features": [{"type": "Feature", "geometry": {"coordinates": [[-87.723636, 41.946606], [-87.723695, 41.948712], [-87.720056, 41.946478], [-87.717815, 41.94651], [-87.742619, 41.960998], [-87.746732, 41.965012], [-87.746614, 41.980044], [-87.751348, 41.987222], [-87.749189, 42.009518], [-87.765343, 42.021217], [-87.768599, 42.026582], [-87.761543, 42.052877], [-87.754799, 42.062763], [-87.75864, 42.086787], [-87.790096, 42.140407], [-87.811919, 42.166395], [-87.818465, 42.181007], [-87.854966, 42.232612], [-87.83361, 42.232385], [-87.839324, 42.250058], [-87.838461, 42.250182], [-87.839447, 42.253436], [-87.831793, 42.255207], [-87.831032, 42.257148], [-87.829273, 42.258506], [-87.825627, 42.259602], [-87.825302, 42.259183]], "type": "LineString"}, "properties": {}}, {"type": "Feature", "geometry": {"coordinates": [[-87.825302, 42.259183], [-87.823403, 42.256052], [-87.828128, 42.254848], [-87.829162, 42.253431], [-87.831671, 42.252432], [-87.830241, 42.248586], [-87.827256, 42.245815], [-87.82676, 42.23964], [-87.824671, 42.237498], [-87.827731, 42.232581], [-87.830028, 42.232385], [-87.83085, 42.231734], [-87.816302, 42.211969], [-87.813773, 42.210543], [-87.811658, 42.207002], [-87.813675, 42.207023], [-87.812189, 42.205016]], "type": "LineString"}, "properties": {}}, {"type": "Feature", "geometry": {"coordinates": [[-87.812189, 42.205016], [-87.813675, 42.207023], [-87.811658, 42.207002], [-87.813773, 42.210543], [-87.816302, 42.211969], [-87.83007, 42.231249], [-87.831646, 42.2322], [-87.83361, 42.232385], [-87.840622, 42.25446]], "type": "LineString"}, "properties": {}}, {"type": "Feature", "geometry": {"coordinates": [[-87.840622, 42.25446], [-87.83361, 42.232385], [-87.855193, 42.232625], [-87.75931, 42.088171], [-87.75495, 42.063156], [-87.768925, 42.027501], [-87.749252, 42.009007], [-87.747223, 41.966563], [-87.698173, 41.933659], [-87.687291, 41.927358], [-87.684125, 41.925223], [-87.687645, 41.924902], [-87.687207, 41.910324], [-87.701875, 41.910165], [-87.702461, 41.899238], [-87.711552, 41.899152], [-87.711458, 41.896053]], "type": "LineString"}, "properties": {}}, {"type": "Feature", "geometry": {"coordinates": [[-87.711458, 41.896053], [-87.71106, 41.88275], [-87.713594, 41.881322], [-87.715847, 41.881544], [-87.715417, 41.866294], [-87.716292, 41.866283]], "type": "LineString"}, "properties": {}}, {"type": "Feature", "geometry": {"coordinates": [[-87.716292, 41.866283], [-87.719558, 41.866245], [-87.719779, 41.873518], [-87.719121, 41.873525], [-87.716086, 41.873851], [-87.708482, 41.873969], [-87.704448, 41.874481], [-87.700677, 41.874347], [-87.69896, 41.874859], [-87.696127, 41.874902], [-87.69617, 41.876701], [-87.693741, 41.876734], [-87.693713, 41.876006], [-87.695752, 41.875985]], "type": "LineString"}, "properties": {}}, {"type": "Feature", "geometry": {"coordinates": [[-87.695752, 41.875985], [-87.696151, 41.875983], [-87.696127, 41.874902], [-87.695509, 41.874908], [-87.690201, 41.875125], [-87.659837, 41.87561], [-87.651569, 41.875318], [-87.629223, 41.875546], [-87.629291, 41.878179], [-87.624208, 41.878293], [-87.624484, 41.887965], [-87.624094, 41.891505]], "type": "LineString"}, "properties": {}}, {"type": "Feature", "geometry": {"coordinates": [[-87.624094, 41.891505], [-87.624094, 41.891505]], "type": "LineString"}, "properties": {}}, {"type": "Feature", "geometry": {"coordinates": [[-87.624094, 41.891505], [-87.62414, 41.893338], [-87.632719, 41.893209], [-87.632696, 41.891597], [-87.687286, 41.890639], [-87.700674, 41.895937], [-87.700474, 41.89934]], "type": "LineString"}, "properties": {}}, {"type": "Feature", "geometry": {"coordinates": [[-87.700474, 41.89934], [-87.700566, 41.902897], [-87.687018, 41.903025], [-87.686972, 41.901212], [-87.679648, 41.901333], [-87.679673, 41.902216], [-87.681164, 41.902193]], "type": "LineString"}, "properties": {}}, {"type": "Feature", "geometry": {"coordinates": [[-87.681164, 41.902193], [-87.682123, 41.902178], [-87.682046, 41.899461], [-87.686926, 41.899379], [-87.685535, 41.845699]], "type": "LineString"}, "properties": {}}, {"type": "Feature", "geometry": {"coordinates": [[-87.685535, 41.845699], [-87.685518, 41.84485], [-87.694653, 41.844703], [-87.694869, 41.847798], [-87.698857, 41.847944], [-87.699093, 41.85186], [-87.710877, 41.851661], [-87.711165, 41.851938], [-87.712591, 41.8517], [-87.723333, 41.851643], [-87.73165, 41.848648]], "type": "LineString"}, "properties": {}}, {"type": "Feature", "geometry": {"coordinates": [[-87.73165, 41.848648], [-87.734395, 41.847679], [-87.735214, 41.872889], [-87.731862, 41.873657], [-87.708909, 41.873948], [-87.697594, 41.875189], [-87.650308, 41.875329], [-87.647601, 41.875302], [-87.645452, 41.874563], [-87.644482, 41.875077], [-87.64458, 41.876036], [-87.645275, 41.880374], [-87.645355, 41.881847], [-87.645393, 41.882198], [-87.64591, 41.885931], [-87.647404, 41.888483], [-87.658783, 41.897251], [-87.659407, 41.899821], [-87.66251, 41.899796], [-87.662504, 41.899631]], "type": "LineString"}, "properties": {}}, {"type": "Feature", "geometry": {"coordinates": [[-87.662504, 41.899631], [-87.662524, 41.900824], [-87.667446, 41.903976], [-87.667586, 41.90882], [-87.666429, 41.908834], [-87.666435, 41.909028]], "type": "LineString"}, "properties": {}}, {"type": "Feature", "geometry": {"coordinates": [[-87.666435, 41.909028], [-87.666509, 41.910658], [-87.648286, 41.910927], [-87.648495, 41.91731]], "type": "LineString"}, "properties": {}}, {"type": "Feature", "geometry": {"coordinates": [[-87.648495, 41.91731], [-87.648495, 41.91731]], "type": "LineString"}, "properties": {}}, {"type": "Feature", "geometry": {"coordinates": [[-87.648495, 41.91731], [-87.647482, 41.885665], [-87.646258, 41.885682], [-87.645245, 41.851247], [-87.642429, 41.847384], [-87.634652, 41.845323], [-87.63091, 41.84209], [-87.631207, 41.779686], [-87.626113, 41.772231], [-87.624621, 41.72052], [-87.621065, 41.713653], [-87.600337, 41.713191], [-87.592948, 41.708673], [-87.592406, 41.703483], [-87.601798, 41.685512], [-87.601728, 41.676933], [-87.589096, 41.660202], [-87.59119, 41.659512], [-87.560717, 41.658851], [-87.555878, 41.656176], [-87.555649, 41.65737], [-87.553811, 41.65736], [-87.553812, 41.656889]], "type": "LineString"}, "properties": {}}, {"type": "Feature", "geometry": {"coordinates": [[-87.553812, 41.656889], [-87.553811, 41.65736], [-87.557102, 41.657281], [-87.585314, 41.660149], [-87.590822, 41.662478], [-87.601403, 41.675885], [-87.601563, 41.685726], [-87.594329, 41.69908], [-87.591535, 41.705863], [-87.595707, 41.711823], [-87.618809, 41.713575], [-87.62372, 41.717096], [-87.625651, 41.769497], [-87.630747, 41.779495], [-87.630667, 41.838631], [-87.631001, 41.844069], [-87.630081, 41.846653], [-87.616851, 41.847976], [-87.612314, 41.847086], [-87.602929, 41.827907]], "type": "LineString"}, "properties": {}}, {"type": "Feature", "geometry": {"coordinates": [[-87.602929, 41.827907], [-87.60211, 41.827252], [-87.600903, 41.82517], [-87.599849, 41.825435], [-87.604294, 41.829367], [-87.607125, 41.833032], [-87.608141, 41.838145], [-87.610426, 41.843509], [-87.61149, 41.847741], [-87.612641, 41.848604], [-87.623817, 41.848065], [-87.628154, 41.84709], [-87.630973, 41.847424], [-87.634449, 41.847955], [-87.636524, 41.84749], [-87.641219, 41.847736], [-87.64329, 41.848618], [-87.644555, 41.850742], [-87.644396, 41.865222], [-87.645685, 41.885013], [-87.647091, 41.888098], [-87.650048, 41.890597], [-87.651108, 41.891699], [-87.65026, 41.89242], [-87.634077, 41.892404], [-87.634037, 41.890774], [-87.633354, 41.890784]], "type": "LineString"}, "properties": {}}, {"type": "Feature", "geometry": {"coordinates": [[-87.633354, 41.890784], [-87.632484, 41.890795], [-87.632511, 41.892423], [-87.628093, 41.892476], [-87.628109, 41.893025]], "type": "LineString"}, "properties": {}}, {"type": "Feature", "geometry": {"coordinates": [[-87.628109, 41.893025], [-87.628071, 41.891667], [-87.644384, 41.891225], [-87.644242, 41.885699], [-87.645903, 41.885686], [-87.645999, 41.881827], [-87.646134, 41.880956], [-87.646145, 41.879569], [-87.646166, 41.878121], [-87.646815, 41.876334], [-87.647774, 41.87588], [-87.649135, 41.875728], [-87.657603, 41.876197], [-87.697235, 41.875658], [-87.706246, 41.87458], [-87.710807, 41.874552], [-87.710331, 41.859033], [-87.712768, 41.859006], [-87.712722, 41.857404]], "type": "LineString"}, "properties": {}}, {"type": "Feature", "geometry": {"coordinates": [[-87.712722, 41.857404], [-87.712343, 41.85173], [-87.711165, 41.851938], [-87.710877, 41.851661], [-87.705261, 41.851772], [-87.704879, 41.839055], [-87.702417, 41.839099]], "type": "LineString"}, "properties": {}}, {"type": "Feature", "geometry": {"coordinates": [[-87.702417, 41.839099], [-87.702362, 41.837285], [-87.691181, 41.837498], [-87.688992, 41.838338], [-87.687353, 41.83839], [-87.68523, 41.839081], [-87.6858, 41.85724], [-87.684269, 41.857564], [-87.676002, 41.857666], [-87.676219, 41.864954], [-87.672534, 41.865003]], "type": "LineString"}, "properties": {}}, {"type": "Feature", "geometry": {"coordinates": [[-87.672534, 41.865003], [-87.685988, 41.86479], [-87.686683, 41.890646], [-87.706651, 41.898325], [-87.706796, 41.913717], [-87.705759, 41.913734], [-87.705719, 41.912103]], "type": "LineString"}, "properties": {}}]}