{"type": "FeatureCollection", "features": [{"type": "Feature", "geometry": {"coordinates": [[-87.687505, 42.017428], [-87.687761, 42.017429], [-87.687732, 42.019522], [-87.671924, 42.019377], [-87.671905, 42.020379]], "type": "LineString"}, "properties": {"timestamp": "2023-01-20T18:08:38", "type": "ride"}}, {"type": "Feature", "geometry": {"coordinates": [[-87.671905, 42.020379], [-87.671924, 42.019377], [-87.676332, 42.01941], [-87.678089, 42.026691], [-87.678285, 42.028177]], "type": "LineString"}, "properties": {"timestamp": "2023-01-20T18:21:32", "type": "transition"}}, {"type": "Feature", "geometry": {"coordinates": [[-87.678285, 42.028177], [-87.678089, 42.026691], [-87.676332, 42.01941], [-87.675457, 42.017327], [-87.673966, 42.008991]], "type": "LineString"}, "properties": {"timestamp": "2023-01-20T18:21:32", "type": "ride"}}, {"type": "Feature", "geometry": {"coordinates": [[-87.673966, 42.008991], [-87.673666, 42.007777], [-87.66169, 42.00798], [-87.660904, 42.005442], [-87.660744, 42.00154]], "type": "LineString"}, "properties": {"timestamp": "2023-01-20T18:41:07", "type": "transition"}}, {"type": "Feature", "geometry": {"coordinates": [[-87.660744, 42.00154], [-87.66054, 41.998191], [-87.660132, 41.985467], [-87.653995, 41.985582], [-87.653157, 41.984999], [-87.652706, 41.981232], [-87.648822, 41.972134], [-87.644905, 41.955203], [-87.64469, 41.951193], [-87.639566, 41.942042], [-87.638796, 41.940268], [-87.639537, 41.940119], [-87.63931, 41.932914], [-87.653863, 41.932636], [-87.653827, 41.931569]], "type": "LineString"}, "properties": {"timestamp": "2023-01-20T18:41:07", "type": "ride"}}, {"type": "Feature", "geometry": {"coordinates": [[-87.653827, 41.931569], [-87.653671, 41.927194], [-87.658527, 41.927117], [-87.658482, 41.925818], [-87.658802, 41.925814]], "type": "LineString"}, "properties": {"timestamp": "2023-01-20T19:09:25", "type": "transition"}}, {"type": "Feature", "geometry": {"coordinates": [[-87.658802, 41.925814], [-87.658482, 41.925818], [-87.658464, 41.925291], [-87.63436, 41.925687], [-87.631853, 41.926001], [-87.630603, 41.923776], [-87.628851, 41.917816], [-87.626142, 41.912297], [-87.62586, 41.909073], [-87.62421, 41.902733], [-87.62264, 41.901491], [-87.619743, 41.900996], [-87.61878, 41.899659], [-87.618191, 41.898469], [-87.622926, 41.898405]], "type": "LineString"}, "properties": {"timestamp": "2023-01-20T19:09:25", "type": "ride"}}, {"type": "Feature", "geometry": {"coordinates": [[-87.622926, 41.898405], [-87.624206, 41.898386], [-87.624388, 41.896443], [-87.624246, 41.890945], [-87.621986, 41.890981], [-87.621861, 41.890848], [-87.62164, 41.890945], [-87.621785, 41.891098], [-87.621986, 41.890981], [-87.624074, 41.890948], [-87.624094, 41.891505]], "type": "LineString"}, "properties": {"timestamp": "2023-01-20T19:36:12", "type": "transition"}}, {"type": "Feature", "geometry": {"coordinates": [[-87.624094, 41.891505], [-87.624042, 41.900824], [-87.62589, 41.912141], [-87.631851, 41.928415], [-87.632152, 41.934381], [-87.638833, 41.941219], [-87.644376, 41.950931], [-87.648738, 41.973046], [-87.652803, 41.984951], [-87.655253, 41.985556], [-87.655324, 41.987812]], "type": "LineString"}, "properties": {"timestamp": "2023-01-20T19:36:12", "type": "ride"}}, {"type": "Feature", "geometry": {"coordinates": [[-87.655324, 41.987812], [-87.65567, 41.997897], [-87.656191, 41.998216], [-87.659646, 41.998196], [-87.660644, 41.998874], [-87.660929, 42.005557], [-87.662865, 42.011614], [-87.664678, 42.015024], [-87.667467, 42.014978]], "type": "LineString"}, "properties": {"timestamp": "2023-01-26T09:18:31", "type": "transition"}}]}