{"type": "FeatureCollection", "features": [{"type": "Feature", "geometry": {"coordinates": [[-87.729996, 41.910403], [-87.730038, 41.911658], [-87.731272, 41.911641], [-87.731216, 41.909813], [-87.726341, 41.90987], [-87.725794, 41.885478], [-87.720917, 41.885208], [-87.72037, 41.873515], [-87.719121, 41.873525], [-87.697594, 41.875189], [-87.650308, 41.875329], [-87.648052, 41.875215], [-87.646014, 41.874037], [-87.644983, 41.869485], [-87.644357, 41.857055], [-87.645374, 41.852823], [-87.644998, 41.850609], [-87.642186, 41.847255], [-87.634652, 41.845323], [-87.632773, 41.844384], [-87.63164, 41.842858], [-87.631163, 41.834246], [-87.631513, 41.830937], [-87.626457, 41.831008], [-87.626475, 41.83283], [-87.625023, 41.832863]], "type": "LineString"}, "properties": {"timestamp": "2023-10-24T09:47:51", "type": "ride", "rideType": "UberX", "pickupAddress": "N Kedvale Ave, Chicago, IL 60651-1817, US", "dropoffAddress": "S Wabash Ave, Chicago, IL 60605-2300, US", "basePay": "15.12", "surge": "4.25", "tip": "0.00", "earnings": "19.37", "duration": "1992", "distance": "8.10", "rideStartTime": "October 24, 2023 at 09:47 AM", "rideEndTime": "October 24, 2023 at 10:21 AM"}}, {"type": "Feature", "geometry": {"coordinates": [[-87.625023, 41.832863], [-87.626475, 41.83283], [-87.626821, 41.846791], [-87.626258, 41.84692], [-87.622663, 41.847885], [-87.616851, 41.847976], [-87.613276, 41.848193], [-87.612394, 41.848832], [-87.612177, 41.849732], [-87.613531, 41.852962], [-87.615172, 41.85531], [-87.617619, 41.860334], [-87.618518, 41.862767], [-87.619221, 41.866556], [-87.619018, 41.867469], [-87.624157, 41.867506], [-87.624044, 41.869319], [-87.625591, 41.869287]], "type": "LineString"}, "properties": {"timestamp": "2023-10-24T10:26:18", "type": "transition"}}, {"type": "Feature", "geometry": {"coordinates": [[-87.625591, 41.869287], [-87.624207, 41.869316], [-87.624158, 41.867398], [-87.61958, 41.867459], [-87.61923, 41.867274], [-87.619589, 41.866068], [-87.619138, 41.863883], [-87.618099, 41.860907], [-87.61714, 41.857849], [-87.617238, 41.857825], [-87.616421, 41.856365], [-87.615619, 41.854301], [-87.616027, 41.855615], [-87.616271, 41.855561], [-87.615604, 41.854397], [-87.615902, 41.854329]], "type": "LineString"}, "properties": {"timestamp": "2023-10-24T10:26:18", "type": "ride", "rideType": "UberX", "pickupAddress": "55 E 11th St, Chicago, IL 60605, US", "dropoffAddress": "S Dr Martin Luther King Jr Dr, Chicago, IL 60616, US", "basePay": "3.57", "surge": "0.00", "tip": "3.00", "earnings": "6.57", "duration": "459", "distance": "1.60", "rideStartTime": "October 24, 2023 at 10:26 AM", "rideEndTime": "October 24, 2023 at 10:33 AM"}}, {"type": "Feature", "geometry": {"coordinates": [[-87.615902, 41.854329], [-87.615604, 41.854397], [-87.616271, 41.855561], [-87.616027, 41.855615], [-87.615619, 41.854301], [-87.615992, 41.85521], [-87.616959, 41.854986], [-87.616876, 41.85573], [-87.617503, 41.857757], [-87.61714, 41.857849], [-87.614728, 41.853242], [-87.613506, 41.849799], [-87.614678, 41.848403], [-87.630973, 41.847424], [-87.641219, 41.847736], [-87.644555, 41.850742], [-87.645735, 41.885306], [-87.647638, 41.88874], [-87.651689, 41.891702], [-87.65868, 41.896836], [-87.66137, 41.906646], [-87.670146, 41.917654], [-87.709927, 41.940372], [-87.715306, 41.94215], [-87.719592, 41.947613], [-87.741635, 41.95982], [-87.746287, 41.963594], [-87.746614, 41.980044], [-87.750967, 41.985896], [-87.751131, 41.99049], [-87.749995, 41.991278], [-87.750238, 41.990216], [-87.752387, 41.990704], [-87.766713, 41.99731], [-87.787876, 41.997348], [-87.787492, 41.996914], [-87.787729, 41.982911], [-87.788189, 41.982907], [-87.812691, 41.982443], [-87.826001, 41.984517], [-87.831845, 41.984836], [-87.834971, 41.98621], [-87.852741, 41.98856], [-87.852779, 41.988287], [-87.852095, 41.988175], [-87.850966, 41.986522]], "type": "LineString"}, "properties": {"timestamp": "2023-10-24T15:25:42", "type": "transition"}}, {"type": "Feature", "geometry": {"coordinates": [[-87.850966, 41.986522], [-87.852095, 41.988175], [-87.852779, 41.988287], [-87.852741, 41.98856], [-87.823337, 41.984459], [-87.8235, 41.983191], [-87.821798, 41.983238], [-87.812646, 41.982178], [-87.792871, 41.982345], [-87.788361, 41.982061], [-87.787747, 41.982061], [-87.787729, 41.982911], [-87.764532, 41.983038], [-87.747761, 41.972794], [-87.747223, 41.966563], [-87.745232, 41.962358], [-87.719592, 41.947613], [-87.715306, 41.94215], [-87.709927, 41.940372], [-87.670146, 41.917654], [-87.66137, 41.906646], [-87.659066, 41.897394], [-87.653065, 41.892534], [-87.624293, 41.892538], [-87.624246, 41.890945], [-87.621986, 41.890981], [-87.624074, 41.890948], [-87.624094, 41.891505]], "type": "LineString"}, "properties": {"timestamp": "2023-10-24T15:25:42", "type": "ride", "rideType": "UberX", "pickupAddress": "W Dickens Ave, Chicago, IL 60647-3423, US", "dropoffAddress": "N Michigan Ave, Chicago, IL 60611, US", "basePay": "11.56", "surge": "0.00", "tip": "0.00", "earnings": "11.56", "duration": "1610", "distance": "6.50", "rideStartTime": "October 24, 2023 at 03:25 PM", "rideEndTime": "October 24, 2023 at 03:52 PM"}}, {"type": "Feature", "geometry": {"coordinates": [[-87.624094, 41.891505], [-87.624094, 41.891505]], "type": "LineString"}, "properties": {"timestamp": "2023-10-24T15:54:06", "type": "transition"}}, {"type": "Feature", "geometry": {"coordinates": [[-87.624094, 41.891505], [-87.624121, 41.892541], [-87.620263, 41.892588], [-87.620762, 41.887855], [-87.615811, 41.887462], [-87.614014, 41.887175], [-87.61394, 41.885118], [-87.617453, 41.881821], [-87.617261, 41.869765], [-87.619589, 41.866068], [-87.614728, 41.853242], [-87.613506, 41.849799], [-87.614444, 41.848506], [-87.623443, 41.848101], [-87.626818, 41.84732], [-87.630758, 41.848155], [-87.631727, 41.847855], [-87.631351, 41.843118], [-87.631163, 41.834246], [-87.631513, 41.830937], [-87.626457, 41.831008], [-87.626475, 41.83283], [-87.625023, 41.832863]], "type": "LineString"}, "properties": {"timestamp": "2023-10-24T15:54:06", "type": "ride", "rideType": "UberX", "pickupAddress": "N Michigan Ave, Chicago, IL 60611, US", "dropoffAddress": "S Wabash Ave, Chicago, IL 60605-1809, US", "basePay": "5.88", "surge": "0.00", "tip": "3.00", "earnings": "8.88", "duration": "800", "distance": "2.20", "rideStartTime": "October 24, 2023 at 03:54 PM", "rideEndTime": "October 24, 2023 at 04:07 PM"}}, {"type": "Feature", "geometry": {"coordinates": [[-87.625023, 41.832863], [-87.626475, 41.83283], [-87.626578, 41.838297], [-87.630021, 41.838265], [-87.6301, 41.841613], [-87.631814, 41.844491], [-87.641891, 41.847286], [-87.644549, 41.850184], [-87.645183, 41.852401], [-87.644172, 41.856638], [-87.644517, 41.867845], [-87.644628, 41.873521], [-87.645646, 41.875725], [-87.649223, 41.875863], [-87.688313, 41.875763], [-87.692409, 41.875862], [-87.696151, 41.875983], [-87.696189, 41.877434], [-87.693785, 41.877461], [-87.693796, 41.878371], [-87.696046, 41.878346]], "type": "LineString"}, "properties": {"timestamp": "2023-10-24T16:05:13", "type": "transition"}}, {"type": "Feature", "geometry": {"coordinates": [[-87.696046, 41.878346], [-87.696214, 41.878344], [-87.696127, 41.874902], [-87.695509, 41.874908], [-87.690201, 41.875125], [-87.650308, 41.875329], [-87.64458, 41.876036], [-87.646101, 41.886419], [-87.651689, 41.891702], [-87.65868, 41.896836], [-87.66137, 41.906646], [-87.670146, 41.917654], [-87.715306, 41.94215], [-87.719592, 41.947613], [-87.746287, 41.963594], [-87.746614, 41.980044], [-87.751348, 41.987222], [-87.749057, 42.009149], [-87.766135, 42.021915], [-87.768599, 42.026582], [-87.761543, 42.052877], [-87.754799, 42.062763], [-87.758527, 42.07799], [-87.754436, 42.079405], [-87.746827, 42.06788]], "type": "LineString"}, "properties": {"timestamp": "2023-10-24T16:05:13", "type": "ride", "rideType": "Comfort", "pickupAddress": "W Adams St, Chicago, IL 60603, US", "dropoffAddress": "Skokie Blvd, Wilmette, IL 60091-3003, US", "basePay": "30.89", "surge": "0.00", "tip": "8.31", "earnings": "39.20", "duration": "3131", "distance": "17.50", "rideStartTime": "October 24, 2023 at 04:05 PM", "rideEndTime": "October 24, 2023 at 04:57 PM"}}, {"type": "Feature", "geometry": {"coordinates": [[-87.746827, 42.06788], [-87.74664, 42.066584], [-87.74677, 42.062539], [-87.75032, 42.062551], [-87.750273, 42.064858], [-87.75066, 42.064862]], "type": "LineString"}, "properties": {"timestamp": "2023-10-24T17:08:25", "type": "transition"}}, {"type": "Feature", "geometry": {"coordinates": [[-87.75066, 42.064862], [-87.751446, 42.06483], [-87.751456, 42.062559], [-87.756298, 42.062565], [-87.756812, 42.063707], [-87.755346, 42.063244], [-87.755495, 42.061288], [-87.761767, 42.05296], [-87.76256, 42.042449], [-87.768058, 42.034858], [-87.768925, 42.027501], [-87.766419, 42.021928], [-87.752686, 42.013632], [-87.749252, 42.009007], [-87.748976, 42.001046], [-87.751521, 41.987219], [-87.746835, 41.980228], [-87.747223, 41.966563], [-87.745961, 41.963113], [-87.742125, 41.960129], [-87.719592, 41.947613], [-87.715306, 41.94215], [-87.698173, 41.933659], [-87.687291, 41.927358], [-87.683686, 41.924962], [-87.66815, 41.925151], [-87.668531, 41.937882], [-87.669017, 41.937875]], "type": "LineString"}, "properties": {"timestamp": "2023-10-24T17:08:25", "type": "ride", "rideType": "UberX", "pickupAddress": "Old Orchard Ctr Spc H11, Skokie, IL 60077, US", "dropoffAddress": "W Barry Ave, Chicago, IL 60657-4505, US", "basePay": "22.74", "surge": "0.00", "tip": "0.00", "earnings": "22.74", "duration": "3567", "distance": "12.90", "rideStartTime": "October 24, 2023 at 05:08 PM", "rideEndTime": "October 24, 2023 at 06:07 PM"}}, {"type": "Feature", "geometry": {"coordinates": [[-87.669017, 41.937875], [-87.671019, 41.937845], [-87.670952, 41.936022], [-87.663682, 41.936111], [-87.648766, 41.925453], [-87.648495, 41.91731]], "type": "LineString"}, "properties": {"timestamp": "2023-10-24T18:34:14", "type": "transition"}}, {"type": "Feature", "geometry": {"coordinates": [[-87.648495, 41.91731], [-87.648286, 41.910927], [-87.664445, 41.910674], [-87.668091, 41.915886], [-87.670574, 41.91815], [-87.709664, 41.940439], [-87.714861, 41.942208], [-87.719423, 41.94785], [-87.735617, 41.956778], [-87.738341, 41.958584], [-87.738067, 41.953535], [-87.786554, 41.95292], [-87.786061, 41.938679]], "type": "LineString"}, "properties": {"timestamp": "2023-10-24T18:34:14", "type": "ride", "rideType": "Comfort", "pickupAddress": "N Halsted St, Chicago, IL 60657, US", "dropoffAddress": "N Narragansett Ave, Chicago, IL 60634-1559, US", "basePay": "21.79", "surge": "0.00", "tip": "7.18", "earnings": "28.97", "duration": "2514", "distance": "9.20", "rideStartTime": "October 24, 2023 at 06:34 PM", "rideEndTime": "October 24, 2023 at 07:16 PM"}}, {"type": "Feature", "geometry": {"coordinates": [[-87.786061, 41.938679], [-87.786299, 41.945676], [-87.698037, 41.946686], [-87.697848, 41.940244], [-87.695246, 41.940262], [-87.69448, 41.940229], [-87.694671, 41.940836]], "type": "LineString"}, "properties": {"timestamp": "2023-10-24T19:32:46", "type": "transition"}}, {"type": "Feature", "geometry": {"coordinates": [[-87.694671, 41.940836], [-87.694511, 41.940307], [-87.695246, 41.940262], [-87.695268, 41.939421], [-87.688003, 41.939468], [-87.688469, 41.953985], [-87.668983, 41.954306], [-87.669185, 41.961593], [-87.655148, 41.961772], [-87.656894, 41.964503]], "type": "LineString"}, "properties": {"timestamp": "2023-10-24T19:32:46", "type": "ride", "rideType": "UberX", "pickupAddress": "W Addison St, Chicago, IL 60618, US", "dropoffAddress": "N Broadway St, Chicago, IL 60657, US", "basePay": "9.79", "surge": "0.00", "tip": "5.00", "earnings": "14.79", "duration": "1323", "distance": "3.70", "rideStartTime": "October 24, 2023 at 07:32 PM", "rideEndTime": "October 24, 2023 at 07:54 PM"}}, {"type": "Feature", "geometry": {"coordinates": [[-87.656894, 41.964503], [-87.649662, 41.953239], [-87.64961, 41.95119], [-87.649331, 41.941802], [-87.646384, 41.941839]], "type": "LineString"}, "properties": {"timestamp": "2023-10-24T19:54:25", "type": "transition"}}, {"type": "Feature", "geometry": {"coordinates": [[-87.646384, 41.941839], [-87.644463, 41.941865], [-87.64439, 41.940035], [-87.688141, 41.939467], [-87.687207, 41.910324], [-87.701875, 41.910165], [-87.701241, 41.907558], [-87.702311, 41.902777], [-87.702191, 41.895594], [-87.701213, 41.895606]], "type": "LineString"}, "properties": {"timestamp": "2023-10-24T19:54:25", "type": "ride", "rideType": "UberX", "pickupAddress": "W Aldine Ave, Chicago, IL 60657-3754, US", "dropoffAddress": "W Chicago Ave, Chicago, IL 60622, US", "basePay": "12.73", "surge": "1.00", "tip": "6.22", "earnings": "19.95", "duration": "1543", "distance": "6.80", "rideStartTime": "October 24, 2023 at 07:54 PM", "rideEndTime": "October 24, 2023 at 08:20 PM"}}, {"type": "Feature", "geometry": {"coordinates": [[-87.701213, 41.895606], [-87.701213, 41.895606]], "type": "LineString"}, "properties": {"timestamp": "2023-10-24T20:20:50", "type": "transition"}}, {"type": "Feature", "geometry": {"coordinates": [[-87.701213, 41.895606], [-87.677057, 41.895912], [-87.677893, 41.925026], [-87.663327, 41.925216], [-87.663383, 41.927039], [-87.660977, 41.927077]], "type": "LineString"}, "properties": {"timestamp": "2023-10-24T20:20:50", "type": "ride", "rideType": "UberXL", "pickupAddress": "W Chicago Ave, Chicago, IL 60622, US", "dropoffAddress": "W Altgeld St, Chicago, IL 60614, US", "basePay": "12.77", "surge": "0.00", "tip": "3.16", "earnings": "15.93", "duration": "895", "distance": "4.10", "rideStartTime": "October 24, 2023 at 08:20 PM", "rideEndTime": "October 24, 2023 at 08:35 PM"}}, {"type": "Feature", "geometry": {"coordinates": [[-87.660977, 41.927077], [-87.653671, 41.927194], [-87.653863, 41.932636], [-87.65143, 41.932682], [-87.651425, 41.932534]], "type": "LineString"}, "properties": {"timestamp": "2023-10-24T20:43:15", "type": "transition"}}, {"type": "Feature", "geometry": {"coordinates": [[-87.651425, 41.932534], [-87.65143, 41.932682], [-87.658713, 41.932557], [-87.668609, 41.939697], [-87.668885, 41.950643], [-87.669671, 41.950633]], "type": "LineString"}, "properties": {"timestamp": "2023-10-24T20:43:15", "type": "ride", "rideType": "UberX", "pickupAddress": "N Mildred Ave, Chicago, IL 60657-5002, US", "dropoffAddress": "W Grace St, Chicago, IL 60613-2830, US", "basePay": "5.03", "surge": "0.00", "tip": "3.00", "earnings": "8.03", "duration": "548", "distance": "1.50", "rideStartTime": "October 24, 2023 at 08:43 PM", "rideEndTime": "October 24, 2023 at 08:52 PM"}}, {"type": "Feature", "geometry": {"coordinates": [[-87.669671, 41.950633], [-87.669013, 41.950641], [-87.668122, 41.924216], [-87.668616, 41.921563], [-87.677255, 41.921395], [-87.671115, 41.918139], [-87.668247, 41.915543], [-87.664752, 41.909975], [-87.661559, 41.906635], [-87.661131, 41.901587], [-87.659049, 41.896968], [-87.647531, 41.888343], [-87.646219, 41.885929], [-87.645999, 41.881827], [-87.646134, 41.880956], [-87.646145, 41.879569], [-87.646166, 41.878121], [-87.646815, 41.876334], [-87.649135, 41.875728], [-87.657603, 41.876197], [-87.697235, 41.875658], [-87.708052, 41.874348], [-87.716326, 41.874195], [-87.719801, 41.874461], [-87.720824, 41.881908], [-87.725697, 41.881929], [-87.725773, 41.884689], [-87.730682, 41.88463], [-87.730649, 41.883568]], "type": "LineString"}, "properties": {"timestamp": "2023-10-25T09:38:33", "type": "transition"}}]}