{"type": "FeatureCollection", "features": [{"type": "Feature", "geometry": {"coordinates": [[-87.698734, 41.912356], [-87.697059, 41.912372], [-87.697029, 41.910223], [-87.665662, 41.910672], [-87.665325, 41.910236], [-87.661559, 41.906635], [-87.66114, 41.905221], [-87.661288, 41.902553], [-87.660921, 41.900902], [-87.659049, 41.896968], [-87.657114, 41.895018], [-87.655657, 41.89377], [-87.654831, 41.89226], [-87.653963, 41.891931], [-87.651034, 41.892554], [-87.628093, 41.892476], [-87.628109, 41.893025]], "type": "LineString"}, "properties": {"timestamp": "2023-12-19T08:49:07", "type": "ride", "rideType": "UberX", "pickupAddress": "W Wabansia Ave, Chicago, IL 60647-4937, US", "dropoffAddress": "N State St, Chicago, IL 60602-3201, US", "basePay": "13.04", "surge": "0.00", "tip": "0.00", "earnings": "13.04", "duration": "1615", "distance": "7.20", "rideStartTime": "December 19, 2023 at 08:49 AM", "rideEndTime": "December 19, 2023 at 09:16 AM"}}, {"type": "Feature", "geometry": {"coordinates": [[-87.628109, 41.893025], [-87.628116, 41.893279], [-87.629681, 41.893255], [-87.629727, 41.894584]], "type": "LineString"}, "properties": {"timestamp": "2023-12-19T09:22:21", "type": "transition"}}, {"type": "Feature", "geometry": {"coordinates": [[-87.629727, 41.894584], [-87.62978, 41.896655], [-87.632635, 41.896613], [-87.633095, 41.912584], [-87.632796, 41.913071], [-87.634358, 41.915623], [-87.634849, 41.915479], [-87.658713, 41.932557], [-87.65822, 41.932567]], "type": "LineString"}, "properties": {"timestamp": "2023-12-19T09:22:21", "type": "ride", "rideType": "UberX", "pickupAddress": "N Dearborn St, Chicago, IL 60654, US", "dropoffAddress": "W Diversey Ave Fl 3, Chicago, IL 60647, US", "basePay": "6.50", "surge": "0.00", "tip": "5.00", "earnings": "11.50", "duration": "641", "distance": "5.20", "rideStartTime": "December 19, 2023 at 09:22 AM", "rideEndTime": "December 19, 2023 at 09:33 AM"}}, {"type": "Feature", "geometry": {"coordinates": [[-87.65822, 41.932567], [-87.658713, 41.932557], [-87.648766, 41.925453], [-87.648523, 41.918178], [-87.647123, 41.918199]], "type": "LineString"}, "properties": {"timestamp": "2023-12-19T09:34:24", "type": "transition"}}, {"type": "Feature", "geometry": {"coordinates": [[-87.647123, 41.918199], [-87.648523, 41.918178], [-87.648286, 41.910927], [-87.665662, 41.910672], [-87.665325, 41.910236], [-87.661559, 41.906635], [-87.661057, 41.901306], [-87.658563, 41.896333], [-87.647099, 41.887778], [-87.646219, 41.885929], [-87.645999, 41.881827], [-87.646134, 41.880956], [-87.646145, 41.879569], [-87.646166, 41.878121], [-87.646544, 41.876602], [-87.647927, 41.875847], [-87.662425, 41.876121], [-87.666742, 41.876354], [-87.666388, 41.864177], [-87.668834, 41.864143]], "type": "LineString"}, "properties": {"timestamp": "2023-12-19T09:34:24", "type": "ride", "rideType": "UberX", "pickupAddress": "W Armitage Ave, Chicago, IL 60622-1016, US", "dropoffAddress": "S Paulina St, Chicago, IL 60612-3808, US", "basePay": "9.71", "surge": "0.00", "tip": "1.00", "earnings": "10.71", "duration": "1065", "distance": "4.90", "rideStartTime": "December 19, 2023 at 09:34 AM", "rideEndTime": "December 19, 2023 at 09:52 AM"}}, {"type": "Feature", "geometry": {"coordinates": [[-87.668834, 41.864143], [-87.666265, 41.864179], [-87.666835, 41.884777], [-87.666934, 41.886119], [-87.666648, 41.886122]], "type": "LineString"}, "properties": {"timestamp": "2023-12-19T09:58:33", "type": "transition"}}, {"type": "Feature", "geometry": {"coordinates": [[-87.666648, 41.886122], [-87.666934, 41.886119], [-87.666953, 41.886514], [-87.667053, 41.886129], [-87.666699, 41.875178], [-87.666292, 41.875183], [-87.6605, 41.875604], [-87.651569, 41.875318], [-87.633678, 41.875524], [-87.633284, 41.861304]], "type": "LineString"}, "properties": {"timestamp": "2023-12-19T09:58:33", "type": "ride", "rideType": "UberX", "pickupAddress": "S Ashland Ave, Chicago, IL 60607, US", "dropoffAddress": "W Roosevelt Rd, Chicago, IL 60608, US", "basePay": "3.63", "surge": "0.00", "tip": "1.00", "earnings": "4.63", "duration": "441", "distance": "1.60", "rideStartTime": "December 19, 2023 at 09:58 AM", "rideEndTime": "December 19, 2023 at 10:05 AM"}}, {"type": "Feature", "geometry": {"coordinates": [[-87.633284, 41.861304], [-87.633115, 41.860635], [-87.632052, 41.860175], [-87.631731, 41.859839], [-87.63188, 41.85776], [-87.638934, 41.857668], [-87.639012, 41.860021], [-87.666149, 41.859626], [-87.666265, 41.864179], [-87.66936, 41.864135]], "type": "LineString"}, "properties": {"timestamp": "2023-12-19T10:13:39", "type": "transition"}}, {"type": "Feature", "geometry": {"coordinates": [[-87.66936, 41.864135], [-87.676182, 41.864039], [-87.676512, 41.876215], [-87.676863, 41.876213], [-87.697949, 41.875633], [-87.708052, 41.874348], [-87.716326, 41.874195], [-87.719801, 41.874461], [-87.720917, 41.885208], [-87.725794, 41.885478], [-87.760323, 41.887361], [-87.760569, 41.892966], [-87.763481, 41.892946], [-87.763476, 41.892779]], "type": "LineString"}, "properties": {"timestamp": "2023-12-19T10:13:39", "type": "ride", "rideType": "UberX", "pickupAddress": "W Hastings St, Chicago, IL 60608, US", "dropoffAddress": "N Pine Ave, Chicago, IL 60644-1529, US", "basePay": "7.85", "surge": "0.00", "tip": "0.00", "earnings": "7.85", "duration": "1037", "distance": "7.30", "rideStartTime": "December 19, 2023 at 10:13 AM", "rideEndTime": "December 19, 2023 at 10:30 AM"}}, {"type": "Feature", "geometry": {"coordinates": [[-87.763476, 41.892779], [-87.763296, 41.88773], [-87.763373, 41.887231], [-87.757768, 41.887299], [-87.750405, 41.886909], [-87.750268, 41.883072], [-87.748116, 41.883098]], "type": "LineString"}, "properties": {"timestamp": "2023-12-19T10:40:23", "type": "transition"}}, {"type": "Feature", "geometry": {"coordinates": [[-87.748116, 41.883098], [-87.745377, 41.88313], [-87.747538, 41.960724], [-87.751208, 41.960677], [-87.751338, 41.964335], [-87.752565, 41.96432], [-87.752585, 41.965129], [-87.757312, 41.967942], [-87.757623, 41.967938], [-87.758399, 41.968431]], "type": "LineString"}, "properties": {"timestamp": "2023-12-19T10:40:23", "type": "ride", "rideType": "UberX", "pickupAddress": "W West End Ave, Chicago, IL 60624, US", "dropoffAddress": "W North Ave, Chicago, IL 60647-5247, US", "basePay": "6.80", "surge": "0.00", "tip": "0.00", "earnings": "6.80", "duration": "950", "distance": "4.10", "rideStartTime": "December 19, 2023 at 10:40 AM", "rideEndTime": "December 19, 2023 at 10:56 AM"}}, {"type": "Feature", "geometry": {"coordinates": [[-87.758399, 41.968431], [-87.757622, 41.967875], [-87.756709, 41.967916], [-87.746242, 41.962708], [-87.721846, 41.94853], [-87.718984, 41.946493], [-87.71959, 41.946484], [-87.718156, 41.944989], [-87.71756, 41.943897], [-87.71676, 41.909085], [-87.714329, 41.909112], [-87.714347, 41.909624]], "type": "LineString"}, "properties": {"timestamp": "2023-12-19T11:00:55", "type": "transition"}}, {"type": "Feature", "geometry": {"coordinates": [[-87.714347, 41.909624], [-87.71436, 41.910015], [-87.66216, 41.910715], [-87.660908, 41.908679]], "type": "LineString"}, "properties": {"timestamp": "2023-12-19T11:00:55", "type": "ride", "rideType": "UberX", "pickupAddress": "N Saint Louis Ave, Chicago, IL 60647-4824, US", "dropoffAddress": "N Elston Ave, Chicago, IL 60642, US", "basePay": "6.93", "surge": "0.00", "tip": "5.00", "earnings": "11.93", "duration": "823", "distance": "2.90", "rideStartTime": "December 19, 2023 at 11:00 AM", "rideEndTime": "December 19, 2023 at 11:14 AM"}}, {"type": "Feature", "geometry": {"coordinates": [[-87.660908, 41.908679], [-87.66216, 41.910715], [-87.648286, 41.910927], [-87.648523, 41.918178], [-87.647123, 41.918199]], "type": "LineString"}, "properties": {"timestamp": "2023-12-19T16:05:07", "type": "transition"}}, {"type": "Feature", "geometry": {"coordinates": [[-87.647123, 41.918199], [-87.648523, 41.918178], [-87.648766, 41.925453], [-87.651271, 41.927233], [-87.660977, 41.927077]], "type": "LineString"}, "properties": {"timestamp": "2023-12-19T16:05:07", "type": "ride", "rideType": "UberX", "pickupAddress": "W Armitage Ave, Chicago, IL 60614, US", "dropoffAddress": "W Altgeld St, Chicago, IL 60614, US", "basePay": "3.32", "surge": "0.00", "tip": "0.00", "earnings": "3.32", "duration": "290", "distance": "0.80", "rideStartTime": "December 19, 2023 at 04:05 PM", "rideEndTime": "December 19, 2023 at 04:09 PM"}}, {"type": "Feature", "geometry": {"coordinates": [[-87.660977, 41.927077], [-87.653671, 41.927194], [-87.653909, 41.934001], [-87.653675, 41.934005]], "type": "LineString"}, "properties": {"timestamp": "2023-12-19T16:14:07", "type": "transition"}}, {"type": "Feature", "geometry": {"coordinates": [[-87.653675, 41.934005], [-87.653909, 41.934001], [-87.653863, 41.932636], [-87.649013, 41.932728], [-87.648495, 41.91731]], "type": "LineString"}, "properties": {"timestamp": "2023-12-19T16:14:07", "type": "ride", "rideType": "UberX", "pickupAddress": "2835 N Sheffield Ave Ste 500, Chicago, IL 60657, US", "dropoffAddress": "N Halsted St, Chicago, IL 60613, US", "basePay": "4.36", "surge": "0.00", "tip": "0.00", "earnings": "4.36", "duration": "480", "distance": "1.30", "rideStartTime": "December 19, 2023 at 04:14 PM", "rideEndTime": "December 19, 2023 at 04:22 PM"}}, {"type": "Feature", "geometry": {"coordinates": [[-87.648495, 41.91731], [-87.648766, 41.925453], [-87.668609, 41.939697], [-87.668885, 41.950643], [-87.669671, 41.950633]], "type": "LineString"}, "properties": {"timestamp": "2023-12-19T16:26:08", "type": "transition"}}, {"type": "Feature", "geometry": {"coordinates": [[-87.669671, 41.950633], [-87.668885, 41.950643], [-87.668983, 41.954306], [-87.645235, 41.954634], [-87.639315, 41.941594], [-87.632453, 41.934639], [-87.62421, 41.902733], [-87.619617, 41.900898], [-87.614264, 41.892868], [-87.619588, 41.866208], [-87.614728, 41.853242], [-87.614444, 41.848506], [-87.626818, 41.84732], [-87.631727, 41.847855], [-87.631351, 41.843118], [-87.631289, 41.79178], [-87.631532, 41.783322], [-87.631833, 41.779372], [-87.632128, 41.779366], [-87.632538, 41.778543]], "type": "LineString"}, "properties": {"timestamp": "2023-12-19T16:26:08", "type": "ride", "rideType": "UberX", "pickupAddress": "W Grace St, Chicago, IL 60613-3905, US", "dropoffAddress": "W North Ave, Chicago, IL 60610, US", "basePay": "6.40", "surge": "0.00", "tip": "0.00", "earnings": "6.40", "duration": "855", "distance": "4.80", "rideStartTime": "December 19, 2023 at 04:26 PM", "rideEndTime": "December 19, 2023 at 04:40 PM"}}, {"type": "Feature", "geometry": {"coordinates": [[-87.632538, 41.778543], [-87.632128, 41.779366], [-87.631833, 41.779372], [-87.631812, 41.778124], [-87.635009, 41.778077], [-87.635057, 41.779907], [-87.630139, 41.779931], [-87.630149, 41.780433], [-87.63142, 41.807989], [-87.629665, 41.812785], [-87.630393, 41.837743], [-87.631001, 41.844069], [-87.630081, 41.846653], [-87.616851, 41.847976], [-87.613392, 41.848153], [-87.612168, 41.84938], [-87.619244, 41.8661], [-87.617003, 41.869799], [-87.617167, 41.881825], [-87.613645, 41.884762], [-87.613978, 41.892577], [-87.619441, 41.900921], [-87.623907, 41.902638], [-87.625717, 41.909833], [-87.626017, 41.913347], [-87.627835, 41.912344], [-87.632438, 41.913334], [-87.633223, 41.911171], [-87.636665, 41.911191], [-87.636697, 41.912179]], "type": "LineString"}, "properties": {"timestamp": "2023-12-19T16:41:56", "type": "transition"}}, {"type": "Feature", "geometry": {"coordinates": [[-87.636697, 41.912179], [-87.636661, 41.911063], [-87.633071, 41.911172], [-87.633044, 41.912903], [-87.632269, 41.913237], [-87.628505, 41.912247], [-87.626923, 41.912475], [-87.626017, 41.913347], [-87.628743, 41.918036], [-87.631735, 41.927967], [-87.632402, 41.934989], [-87.638833, 41.941219], [-87.644376, 41.950931], [-87.647541, 41.967723], [-87.647273, 41.969474], [-87.656225, 41.96907], [-87.656365, 41.974712]], "type": "LineString"}, "properties": {"timestamp": "2023-12-19T16:41:56", "type": "ride", "rideType": "UberX", "pickupAddress": "N North Park Ave, Chicago, IL 60610-1292, US", "dropoffAddress": "N Kenmore Ave, Chicago, IL 60640-5024, US", "basePay": "6.54", "surge": "0.00", "tip": "5.00", "earnings": "11.54", "duration": "841", "distance": "5.20", "rideStartTime": "December 19, 2023 at 04:41 PM", "rideEndTime": "December 19, 2023 at 04:55 PM"}}, {"type": "Feature", "geometry": {"coordinates": [[-87.656365, 41.974712], [-87.656408, 41.976381], [-87.668416, 41.976191], [-87.668351, 41.97802]], "type": "LineString"}, "properties": {"timestamp": "2023-12-19T17:08:25", "type": "transition"}}, {"type": "Feature", "geometry": {"coordinates": [[-87.668351, 41.97802], [-87.669713, 41.977992], [-87.669477, 41.968876], [-87.713373, 41.968411], [-87.713255, 41.96472], [-87.713874, 41.964757]], "type": "LineString"}, "properties": {"timestamp": "2023-12-19T17:08:25", "type": "ride", "rideType": "UberX", "pickupAddress": "N Clark St and W Berwyn Ave, Chicago, IL 60640, US", "dropoffAddress": "W Wilson Ave, Chicago, IL 60630-3324, US", "basePay": "16.40", "surge": "0.00", "tip": "0.00", "earnings": "16.40", "duration": "2220", "distance": "6.70", "rideStartTime": "December 19, 2023 at 05:08 PM", "rideEndTime": "December 19, 2023 at 05:45 PM"}}, {"type": "Feature", "geometry": {"coordinates": [[-87.713874, 41.964757], [-87.715705, 41.964736], [-87.715589, 41.961104], [-87.747538, 41.960724], [-87.74745, 41.957981], [-87.753184, 41.957912]], "type": "LineString"}, "properties": {"timestamp": "2023-12-19T18:13:17", "type": "transition"}}, {"type": "Feature", "geometry": {"coordinates": [[-87.753184, 41.957912], [-87.754833, 41.957893], [-87.754802, 41.956982], [-87.751354, 41.957023], [-87.749242, 41.954581], [-87.747303, 41.953418], [-87.746879, 41.93884], [-87.743232, 41.938888], [-87.743097, 41.935236], [-87.742237, 41.935241], [-87.742172, 41.933579]], "type": "LineString"}, "properties": {"timestamp": "2023-12-19T18:13:17", "type": "ride", "rideType": "UberX", "pickupAddress": "W Hutchinson St, Chicago, IL 60641-1450, US", "dropoffAddress": "W Belmont Ave, Chicago, IL 60641-4410, US", "basePay": "5.33", "surge": "0.00", "tip": "0.00", "earnings": "5.33", "duration": "747", "distance": "2.00", "rideStartTime": "December 19, 2023 at 06:13 PM", "rideEndTime": "December 19, 2023 at 06:25 PM"}}, {"type": "Feature", "geometry": {"coordinates": [[-87.742172, 41.933579], [-87.742237, 41.935241], [-87.743097, 41.935236], [-87.743232, 41.938888], [-87.727187, 41.939096], [-87.727612, 41.95365], [-87.719156, 41.953712], [-87.718284, 41.953111]], "type": "LineString"}, "properties": {"timestamp": "2023-12-19T18:30:11", "type": "transition"}}, {"type": "Feature", "geometry": {"coordinates": [[-87.718284, 41.953111], [-87.71933, 41.953825], [-87.796264, 41.952763], [-87.795245, 41.923598], [-87.79707, 41.923585], [-87.797058, 41.923215]], "type": "LineString"}, "properties": {"timestamp": "2023-12-19T18:30:11", "type": "ride", "rideType": "UberX", "pickupAddress": "N Elston Ave, Chicago, IL 60618-5845, US", "dropoffAddress": "W Fullerton Ave, Chicago, IL 60647, US", "basePay": "6.45", "surge": "0.00", "tip": "0.00", "earnings": "6.45", "duration": "526", "distance": "1.30", "rideStartTime": "December 19, 2023 at 06:30 PM", "rideEndTime": "December 19, 2023 at 06:38 PM"}}, {"type": "Feature", "geometry": {"coordinates": [[-87.797058, 41.923215], [-87.79707, 41.923585], [-87.789403, 41.92364], [-87.707229, 41.924722], [-87.70705, 41.9174], [-87.705789, 41.917413]], "type": "LineString"}, "properties": {"timestamp": "2023-12-19T18:46:26", "type": "transition"}}, {"type": "Feature", "geometry": {"coordinates": [[-87.705789, 41.917413], [-87.702101, 41.91745], [-87.701859, 41.909737], [-87.701241, 41.907558], [-87.702278, 41.902886], [-87.674833, 41.903226], [-87.674763, 41.901404], [-87.67415, 41.901415], [-87.67412, 41.90052]], "type": "LineString"}, "properties": {"timestamp": "2023-12-19T18:46:26", "type": "ride", "rideType": "UberX", "pickupAddress": "W Armitage Ave, Chicago, IL 60647-3862, US", "dropoffAddress": "N Milwaukee Ave, Chicago, IL 60622, US", "basePay": "6.48", "surge": "0.00", "tip": "5.00", "earnings": "11.48", "duration": "677", "distance": "2.20", "rideStartTime": "December 19, 2023 at 06:46 PM", "rideEndTime": "December 19, 2023 at 06:57 PM"}}, {"type": "Feature", "geometry": {"coordinates": [[-87.67412, 41.90052], [-87.67415, 41.901415], [-87.673548, 41.901426], [-87.673606, 41.903247], [-87.667439, 41.903351], [-87.667641, 41.910635], [-87.664445, 41.910674], [-87.668091, 41.915886], [-87.670574, 41.91815], [-87.709664, 41.940439], [-87.714861, 41.942208], [-87.719618, 41.947985], [-87.742619, 41.960998], [-87.752403, 41.966033], [-87.75503, 41.967937], [-87.757623, 41.967938], [-87.758399, 41.968431]], "type": "LineString"}, "properties": {"timestamp": "2023-12-19T19:06:18", "type": "transition"}}, {"type": "Feature", "geometry": {"coordinates": [[-87.758399, 41.968431], [-87.757622, 41.967875], [-87.756709, 41.967916], [-87.753264, 41.966268], [-87.749887, 41.964121], [-87.746242, 41.962708], [-87.74096, 41.959294], [-87.721846, 41.94853], [-87.718984, 41.946493], [-87.708842, 41.946623], [-87.698314, 41.939401], [-87.673369, 41.939644]], "type": "LineString"}, "properties": {"timestamp": "2023-12-19T19:06:18", "type": "ride", "rideType": "UberX", "pickupAddress": "W North Ave, Chicago, IL 60622-2246, US", "dropoffAddress": "W Belmont Ave, Chicago, IL 60657, US", "basePay": "6.75", "surge": "0.00", "tip": "5.00", "earnings": "11.75", "duration": "964", "distance": "2.70", "rideStartTime": "December 19, 2023 at 07:06 PM", "rideEndTime": "December 19, 2023 at 07:22 PM"}}, {"type": "Feature", "geometry": {"coordinates": [[-87.673369, 41.939644], [-87.654106, 41.939918], [-87.654016, 41.937175], [-87.653552, 41.937186], [-87.65355, 41.937074]], "type": "LineString"}, "properties": {"timestamp": "2023-12-19T19:39:38", "type": "transition"}}, {"type": "Feature", "geometry": {"coordinates": [[-87.65355, 41.937074], [-87.653552, 41.937186], [-87.654016, 41.937175], [-87.653741, 41.929016], [-87.634849, 41.915479], [-87.634809, 41.914359], [-87.634681, 41.914359], [-87.634652, 41.914295]], "type": "LineString"}, "properties": {"timestamp": "2023-12-19T19:39:38", "type": "ride", "rideType": "Uber Pet", "pickupAddress": "N Clark St, Chicago, IL 60657-5208, US", "dropoffAddress": "1749 N Wells St, Chicago, IL 60614, US", "basePay": "8.10", "surge": "0.00", "tip": "0.00", "earnings": "8.10", "duration": "483", "distance": "1.50", "rideStartTime": "December 19, 2023 at 07:39 PM", "rideEndTime": "December 19, 2023 at 07:47 PM"}}, {"type": "Feature", "geometry": {"coordinates": [[-87.634652, 41.914295], [-87.634806, 41.914268], [-87.634849, 41.915479], [-87.636321, 41.916541], [-87.638751, 41.916498], [-87.638695, 41.914718], [-87.638219, 41.914755]], "type": "LineString"}, "properties": {"timestamp": "2023-12-19T19:47:20", "type": "transition"}}, {"type": "Feature", "geometry": {"coordinates": [[-87.638219, 41.914755], [-87.636277, 41.914786], [-87.636321, 41.916541], [-87.634961, 41.916582], [-87.632796, 41.913071], [-87.631046, 41.913236], [-87.628505, 41.912247], [-87.626932, 41.912316], [-87.62645, 41.912166], [-87.626204, 41.911491], [-87.624114, 41.90257], [-87.62264, 41.901491], [-87.619898, 41.901081], [-87.61878, 41.899659], [-87.617065, 41.89684], [-87.620387, 41.896781], [-87.620313, 41.894445]], "type": "LineString"}, "properties": {"timestamp": "2023-12-19T19:47:20", "type": "ride", "rideType": "UberX", "pickupAddress": "W Menomonee St, Chicago, IL 60614-5832, US", "dropoffAddress": "W Erie St, Chicago, IL 60654, US", "basePay": "3.73", "surge": "0.00", "tip": "1.00", "earnings": "4.73", "duration": "404", "distance": "1.40", "rideStartTime": "December 19, 2023 at 07:47 PM", "rideEndTime": "December 19, 2023 at 07:54 PM"}}, {"type": "Feature", "geometry": {"coordinates": [[-87.620313, 41.894445], [-87.620211, 41.890916], [-87.620395, 41.889573], [-87.621589, 41.889608], [-87.621608, 41.890134], [-87.621641, 41.89098], [-87.621726, 41.891083], [-87.621905, 41.891081], [-87.621986, 41.890981], [-87.624074, 41.890948], [-87.624094, 41.891505]], "type": "LineString"}, "properties": {"timestamp": "2023-12-19T19:57:55", "type": "transition"}}, {"type": "Feature", "geometry": {"coordinates": [[-87.624094, 41.891505], [-87.62414, 41.893338], [-87.624581, 41.88832], [-87.625491, 41.888239], [-87.627041, 41.886971], [-87.631015, 41.886949], [-87.630236, 41.857771], [-87.63188, 41.85776], [-87.631835, 41.855391], [-87.632854, 41.85543], [-87.632835, 41.854827], [-87.634048, 41.854244]], "type": "LineString"}, "properties": {"timestamp": "2023-12-19T19:57:55", "type": "ride", "rideType": "UberX", "pickupAddress": "Michigan Ave, Chicago, IL 60611, US", "dropoffAddress": "S China Pl, Chicago, IL 60616, US", "basePay": "7.31", "surge": "0.00", "tip": "0.00", "earnings": "7.31", "duration": "916", "distance": "3.20", "rideStartTime": "December 19, 2023 at 07:57 PM", "rideEndTime": "December 19, 2023 at 08:13 PM"}}, {"type": "Feature", "geometry": {"coordinates": [[-87.634048, 41.854244], [-87.635444, 41.853574], [-87.634827, 41.852866], [-87.638539, 41.852796], [-87.63887, 41.855696], [-87.639085, 41.862465], [-87.64203, 41.86242], [-87.642168, 41.866585]], "type": "LineString"}, "properties": {"timestamp": "2023-12-19T20:22:05", "type": "transition"}}, {"type": "Feature", "geometry": {"coordinates": [[-87.642168, 41.866585], [-87.64219, 41.867285], [-87.645153, 41.867243], [-87.645098, 41.866852], [-87.644998, 41.850609], [-87.642186, 41.847255], [-87.634652, 41.845323], [-87.63091, 41.84209], [-87.631289, 41.79178], [-87.631289, 41.778978], [-87.626564, 41.773198], [-87.626239, 41.768925], [-87.626556, 41.766175], [-87.626545, 41.7655], [-87.658969, 41.764986], [-87.658872, 41.761357], [-87.662107, 41.761308]], "type": "LineString"}, "properties": {"timestamp": "2023-12-19T20:22:05", "type": "ride", "rideType": "UberX", "pickupAddress": "S Jefferson St, Chicago, IL 60607-5115, US", "dropoffAddress": "S Laflin St, Chicago, IL 60620-3957, US", "basePay": "13.58", "surge": "0.00", "tip": "0.00", "earnings": "13.58", "duration": "1836", "distance": "11.20", "rideStartTime": "December 19, 2023 at 08:22 PM", "rideEndTime": "December 19, 2023 at 08:52 PM"}}, {"type": "Feature", "geometry": {"coordinates": [[-87.662107, 41.761308], [-87.663625, 41.761285], [-87.663728, 41.764924], [-87.624899, 41.765368], [-87.624908, 41.765772], [-87.62543, 41.769557], [-87.626008, 41.77431], [-87.630526, 41.779578], [-87.630393, 41.837743], [-87.631347, 41.844144], [-87.642036, 41.847354], [-87.644829, 41.85074], [-87.644517, 41.867845], [-87.644628, 41.873521], [-87.645646, 41.875725], [-87.649223, 41.875863], [-87.688313, 41.875763], [-87.692409, 41.875862], [-87.701067, 41.875937], [-87.702035, 41.915629], [-87.702385, 41.915625], [-87.702344, 41.914235]], "type": "LineString"}, "properties": {"timestamp": "2023-12-20T09:22:06", "type": "transition"}}]}