{"type": "FeatureCollection", "features": [{"type": "Feature", "geometry": {"coordinates": [[-87.747132, 41.947676], [-87.747918, 41.972896], [-87.747761, 41.972794], [-87.747223, 41.966563], [-87.745232, 41.962358], [-87.719592, 41.947613], [-87.715306, 41.94215], [-87.709927, 41.940372], [-87.670146, 41.917654], [-87.66137, 41.906646], [-87.659246, 41.897685], [-87.647531, 41.888343], [-87.645999, 41.881827], [-87.646134, 41.880956], [-87.646145, 41.879569], [-87.646166, 41.878121], [-87.647927, 41.875847], [-87.662425, 41.876121], [-87.666742, 41.876354], [-87.666388, 41.864177], [-87.668834, 41.864143]], "type": "LineString"}, "properties": {"timestamp": "2023-08-03T08:34:09", "type": "ride"}}, {"type": "Feature", "geometry": {"coordinates": [[-87.668834, 41.864143], [-87.676182, 41.864039], [-87.675934, 41.855831], [-87.677704, 41.855815]], "type": "LineString"}, "properties": {"timestamp": "2023-08-03T09:02:18", "type": "transition"}}, {"type": "Feature", "geometry": {"coordinates": [[-87.677704, 41.855815], [-87.675934, 41.855831], [-87.676199, 41.866695], [-87.651046, 41.867054], [-87.650979, 41.864715], [-87.649934, 41.864723]], "type": "LineString"}, "properties": {"timestamp": "2023-08-03T09:02:18", "type": "ride"}}, {"type": "Feature", "geometry": {"coordinates": [[-87.649934, 41.864723], [-87.650979, 41.864715], [-87.650889, 41.862292], [-87.651032, 41.862294], [-87.651784, 41.862587], [-87.653113, 41.86257]], "type": "LineString"}, "properties": {"timestamp": "2023-08-03T09:10:03", "type": "transition"}}, {"type": "Feature", "geometry": {"coordinates": [[-87.653113, 41.86257], [-87.650889, 41.862292], [-87.651046, 41.867054], [-87.644093, 41.86715], [-87.644123, 41.867888], [-87.644628, 41.873521], [-87.644477, 41.874803], [-87.643468, 41.875355], [-87.629223, 41.875546], [-87.629579, 41.889242], [-87.626714, 41.889319], [-87.627578, 41.888668]], "type": "LineString"}, "properties": {"timestamp": "2023-08-03T09:10:03", "type": "ride"}}, {"type": "Feature", "geometry": {"coordinates": [[-87.627578, 41.888668], [-87.628193, 41.888524], [-87.629129, 41.888503], [-87.629067, 41.889247], [-87.629579, 41.889242], [-87.629727, 41.894584]], "type": "LineString"}, "properties": {"timestamp": "2023-08-03T09:28:52", "type": "transition"}}, {"type": "Feature", "geometry": {"coordinates": [[-87.629727, 41.894584], [-87.629736, 41.89485], [-87.631201, 41.894831], [-87.630743, 41.876886], [-87.636803, 41.876812]], "type": "LineString"}, "properties": {"timestamp": "2023-08-03T09:28:52", "type": "ride"}}, {"type": "Feature", "geometry": {"coordinates": [[-87.636803, 41.876812], [-87.636746, 41.876465], [-87.63607, 41.875762], [-87.635046, 41.874459], [-87.633036, 41.874483], [-87.633067, 41.875517], [-87.629223, 41.875546], [-87.629268, 41.877337]], "type": "LineString"}, "properties": {"timestamp": "2023-08-03T09:42:55", "type": "transition"}}, {"type": "Feature", "geometry": {"coordinates": [[-87.629268, 41.877337], [-87.629291, 41.878179], [-87.620697, 41.878331], [-87.620428, 41.867255], [-87.619968, 41.865835], [-87.619558, 41.864987], [-87.613948, 41.865039], [-87.613754, 41.866115], [-87.607423, 41.866198], [-87.607427, 41.866381]], "type": "LineString"}, "properties": {"timestamp": "2023-08-03T09:42:55", "type": "ride"}}, {"type": "Feature", "geometry": {"coordinates": [[-87.607427, 41.866381], [-87.613892, 41.866397], [-87.614089, 41.86504], [-87.619403, 41.864977], [-87.608419, 41.838015], [-87.607689, 41.833588], [-87.6048, 41.82949], [-87.60211, 41.827252], [-87.600903, 41.82517], [-87.604296, 41.824226], [-87.612629, 41.823894], [-87.613752, 41.818495], [-87.614739, 41.81848]], "type": "LineString"}, "properties": {"timestamp": "2023-08-03T10:14:44", "type": "transition"}}, {"type": "Feature", "geometry": {"coordinates": [[-87.614739, 41.81848], [-87.61685, 41.818448], [-87.615967, 41.794477], [-87.615669, 41.794482], [-87.611263, 41.793256], [-87.609449, 41.792609], [-87.608135, 41.791621], [-87.607659, 41.790323], [-87.60791, 41.788023], [-87.607212, 41.786422], [-87.596345, 41.786507], [-87.59632, 41.78543]], "type": "LineString"}, "properties": {"timestamp": "2023-08-03T10:14:44", "type": "ride"}}, {"type": "Feature", "geometry": {"coordinates": [[-87.59632, 41.78543], [-87.596204, 41.780518], [-87.585372, 41.780644], [-87.584693, 41.780527], [-87.584175, 41.780203], [-87.58353, 41.780442], [-87.582784, 41.780473], [-87.581895, 41.780322], [-87.580503, 41.779892], [-87.579893, 41.77982]], "type": "LineString"}, "properties": {"timestamp": "2023-08-03T10:28:18", "type": "transition"}}, {"type": "Feature", "geometry": {"coordinates": [[-87.579893, 41.77982], [-87.574628, 41.780713], [-87.580105, 41.791827], [-87.579065, 41.795899], [-87.581975, 41.803976], [-87.593676, 41.815381], [-87.600955, 41.826403], [-87.606909, 41.832668], [-87.610426, 41.843509], [-87.612641, 41.848604], [-87.630973, 41.847424], [-87.641219, 41.847736], [-87.644555, 41.850742], [-87.644854, 41.873493], [-87.645275, 41.880374], [-87.645355, 41.881847], [-87.645393, 41.882198], [-87.645396, 41.883308], [-87.645365, 41.885689], [-87.639866, 41.885734], [-87.639953, 41.887994], [-87.640199, 41.88801]], "type": "LineString"}, "properties": {"timestamp": "2023-08-03T10:28:18", "type": "ride"}}, {"type": "Feature", "geometry": {"coordinates": [[-87.640199, 41.88801], [-87.639953, 41.887994], [-87.64001, 41.889064], [-87.644337, 41.889054], [-87.644242, 41.885699], [-87.645903, 41.885686], [-87.645999, 41.881827], [-87.646134, 41.880956], [-87.646145, 41.879569], [-87.646166, 41.878121], [-87.646815, 41.876334], [-87.649135, 41.875728], [-87.657603, 41.876197], [-87.697235, 41.875658], [-87.708052, 41.874348], [-87.716326, 41.874195], [-87.719801, 41.874461], [-87.720917, 41.885208], [-87.725297, 41.885455], [-87.725796, 41.885541], [-87.726413, 41.906161], [-87.7362, 41.91003], [-87.736331, 41.917052], [-87.74, 41.917005], [-87.740016, 41.917539]], "type": "LineString"}, "properties": {"timestamp": "2023-08-03T17:56:15", "type": "transition"}}, {"type": "Feature", "geometry": {"coordinates": [[-87.740016, 41.917539], [-87.74, 41.917005], [-87.746096, 41.916928], [-87.746319, 41.92425], [-87.75615, 41.92411], [-87.756354, 41.929747]], "type": "LineString"}, "properties": {"timestamp": "2023-08-03T17:56:15", "type": "ride"}}, {"type": "Feature", "geometry": {"coordinates": [[-87.756354, 41.929747], [-87.756556, 41.935053], [-87.76145, 41.93499], [-87.761514, 41.936816], [-87.760791, 41.936824]], "type": "LineString"}, "properties": {"timestamp": "2023-08-03T18:00:11", "type": "transition"}}, {"type": "Feature", "geometry": {"coordinates": [[-87.760791, 41.936824], [-87.75907, 41.936844], [-87.759001, 41.935019], [-87.766368, 41.934928], [-87.765733, 41.909384], [-87.835067, 41.908385], [-87.833513, 41.839536], [-87.829256, 41.835367], [-87.828832, 41.823855], [-87.829026, 41.823872], [-87.832467, 41.823174], [-87.832507, 41.823917]], "type": "LineString"}, "properties": {"timestamp": "2023-08-03T18:00:11", "type": "ride"}}, {"type": "Feature", "geometry": {"coordinates": [[-87.832507, 41.823917], [-87.832567, 41.823458], [-87.832467, 41.823174], [-87.83189, 41.82318], [-87.830135, 41.823493], [-87.829026, 41.823872], [-87.828832, 41.823855], [-87.829155, 41.822996], [-87.829873, 41.822022], [-87.832154, 41.820204], [-87.833164, 41.818958], [-87.833674, 41.817773], [-87.833858, 41.816105], [-87.83207, 41.816006]], "type": "LineString"}, "properties": {"timestamp": "2023-08-03T19:00:24", "type": "transition"}}, {"type": "Feature", "geometry": {"coordinates": [[-87.83207, 41.816006], [-87.827433, 41.81593], [-87.822541, 41.819295], [-87.809429, 41.821294], [-87.743526, 41.822008], [-87.743728, 41.836672], [-87.732856, 41.836797], [-87.732769, 41.83316], [-87.732129, 41.833159]], "type": "LineString"}, "properties": {"timestamp": "2023-08-03T19:00:24", "type": "ride"}}, {"type": "Feature", "geometry": {"coordinates": [[-87.732129, 41.833159], [-87.732769, 41.83316], [-87.732856, 41.836797], [-87.734072, 41.836781], [-87.73427, 41.844122], [-87.740985, 41.843979], [-87.741576, 41.844186], [-87.742475, 41.845201], [-87.744322, 41.844793], [-87.748793, 41.844784], [-87.751692, 41.843864], [-87.815597, 41.843006], [-87.815658, 41.844721], [-87.814498, 41.844744], [-87.814537, 41.844114]], "type": "LineString"}, "properties": {"timestamp": "2023-08-03T19:06:05", "type": "transition"}}, {"type": "Feature", "geometry": {"coordinates": [[-87.814537, 41.844114], [-87.814498, 41.844744], [-87.815658, 41.844721], [-87.815871, 41.850167], [-87.80359, 41.850331], [-87.804443, 41.873604], [-87.769061, 41.87064], [-87.739969, 41.871594], [-87.733001, 41.87362], [-87.708909, 41.873948], [-87.694173, 41.875228], [-87.690201, 41.875125], [-87.68617, 41.874994], [-87.687399, 41.916838], [-87.684926, 41.915233], [-87.685337, 41.914896]], "type": "LineString"}, "properties": {"timestamp": "2023-08-03T19:06:05", "type": "ride"}}, {"type": "Feature", "geometry": {"coordinates": [[-87.685337, 41.914896], [-87.685637, 41.91465], [-87.685762, 41.914733], [-87.687336, 41.91472], [-87.687155, 41.9085], [-87.688401, 41.908488], [-87.688406, 41.908677]], "type": "LineString"}, "properties": {"timestamp": "2023-08-03T19:54:37", "type": "transition"}}, {"type": "Feature", "geometry": {"coordinates": [[-87.688406, 41.908677], [-87.688449, 41.910319], [-87.665662, 41.910672], [-87.665325, 41.910236], [-87.661439, 41.906386], [-87.658834, 41.896667], [-87.646473, 41.886676], [-87.644363, 41.857367], [-87.645793, 41.852447], [-87.644333, 41.849097], [-87.644894, 41.846776], [-87.652708, 41.844955], [-87.66744, 41.837772], [-87.680834, 41.836863], [-87.737915, 41.818901], [-87.743523, 41.817821], [-87.741532, 41.784351], [-87.742426, 41.78485], [-87.743755, 41.78386], [-87.746931, 41.786276]], "type": "LineString"}, "properties": {"timestamp": "2023-08-03T19:54:37", "type": "ride"}}, {"type": "Feature", "geometry": {"coordinates": [[-87.746931, 41.786276], [-87.743755, 41.78386], [-87.742426, 41.78485], [-87.741326, 41.784312], [-87.743306, 41.816777], [-87.680385, 41.836711], [-87.667241, 41.837594], [-87.658964, 41.841885], [-87.642563, 41.846659], [-87.644555, 41.850742], [-87.646457, 41.887151], [-87.658396, 41.896733], [-87.661061, 41.906443], [-87.668818, 41.916712], [-87.690595, 41.929581], [-87.694091, 41.931942], [-87.717188, 41.931929], [-87.717101, 41.92898]], "type": "LineString"}, "properties": {"timestamp": "2023-08-05T17:43:02", "type": "transition"}}]}