{"type": "FeatureCollection", "features": [{"type": "Feature", "geometry": {"coordinates": [[-87.720195, 41.902469], [-87.720203, 41.902727], [-87.702278, 41.902886], [-87.70125, 41.907241], [-87.701875, 41.910165], [-87.687207, 41.910324], [-87.687645, 41.924902], [-87.648766, 41.925453], [-87.648892, 41.929091], [-87.647955, 41.929095]], "type": "LineString"}, "properties": {"timestamp": "2023-12-06T08:18:04", "type": "ride", "rideType": "UberX", "pickupAddress": "N Ridgeway Ave, Chicago, IL 60647-2316, US", "dropoffAddress": "N Ashland Ave, Chicago, IL 60613, US", "basePay": "15.84", "surge": "2.00", "tip": "0.00", "earnings": "17.84", "duration": "1792", "distance": "4.80", "rideStartTime": "December 06, 2023 at 08:18 AM", "rideEndTime": "December 06, 2023 at 08:47 AM"}}, {"type": "Feature", "geometry": {"coordinates": [[-87.647955, 41.929095], [-87.647669, 41.929097], [-87.647534, 41.925472], [-87.634084, 41.925697], [-87.63067, 41.926223], [-87.631851, 41.928415], [-87.631922, 41.9333], [-87.632612, 41.935386], [-87.633661, 41.936704], [-87.637308, 41.939504], [-87.638833, 41.941219], [-87.644376, 41.950931], [-87.644596, 41.954749], [-87.64588, 41.958653], [-87.64669, 41.964019], [-87.646428, 41.965774], [-87.648611, 41.965499], [-87.648701, 41.965847]], "type": "LineString"}, "properties": {"timestamp": "2023-12-06T08:37:25", "type": "transition"}}, {"type": "Feature", "geometry": {"coordinates": [[-87.648701, 41.965847], [-87.648611, 41.965499], [-87.646428, 41.965774], [-87.652338, 41.981297], [-87.652927, 41.985125], [-87.654178, 41.985586], [-87.662456, 41.985105], [-87.672113, 41.990814], [-87.707391, 41.99039], [-87.729559, 42.004145], [-87.747721, 42.018306], [-87.747579, 42.021029], [-87.745785, 42.024211], [-87.74737, 42.02807], [-87.747227, 42.033453], [-87.746349, 42.033452], [-87.746346, 42.033241]], "type": "LineString"}, "properties": {"timestamp": "2023-12-06T08:37:25", "type": "ride", "rideType": "UberX", "pickupAddress": "N Marine Dr, Chicago, IL 60613-1700, US", "dropoffAddress": "Dempster St, Skokie, IL 60076-2263, US", "basePay": "21.40", "surge": "5.00", "tip": "0.00", "earnings": "26.40", "duration": "1738", "distance": "9.10", "rideStartTime": "December 06, 2023 at 08:37 AM", "rideEndTime": "December 06, 2023 at 09:06 AM"}}, {"type": "Feature", "geometry": {"coordinates": [[-87.746346, 42.033241], [-87.746349, 42.033452], [-87.686761, 42.034007], [-87.685721, 42.028818], [-87.684158, 42.02881], [-87.684168, 42.027774], [-87.684759, 42.027779]], "type": "LineString"}, "properties": {"timestamp": "2023-12-06T09:39:51", "type": "transition"}}, {"type": "Feature", "geometry": {"coordinates": [[-87.684759, 42.027779], [-87.685613, 42.027787], [-87.688374, 42.041263], [-87.688792, 42.048527], [-87.687935, 42.051264], [-87.698762, 42.064341], [-87.704473, 42.064385]], "type": "LineString"}, "properties": {"timestamp": "2023-12-06T09:39:51", "type": "ride", "rideType": "UberX", "pickupAddress": "South Blvd, Evanston, IL 60202, US", "dropoffAddress": "Central St, Evanston, IL 60201-1702, US", "basePay": "7.03", "surge": "1.00", "tip": "0.00", "earnings": "8.03", "duration": "791", "distance": "3.10", "rideStartTime": "December 06, 2023 at 09:39 AM", "rideEndTime": "December 06, 2023 at 09:53 AM"}}, {"type": "Feature", "geometry": {"coordinates": [[-87.704473, 42.064385], [-87.698762, 42.064341], [-87.688763, 42.052194], [-87.681754, 42.052081], [-87.681845, 42.051271], [-87.682725, 42.051277]], "type": "LineString"}, "properties": {"timestamp": "2023-12-06T09:57:34", "type": "transition"}}, {"type": "Feature", "geometry": {"coordinates": [[-87.682725, 42.051277], [-87.68283, 42.051278], [-87.706576, 42.051981], [-87.716109, 42.055369], [-87.740001, 42.055271], [-87.756258, 42.041109], [-87.763691, 42.040938], [-87.768504, 42.03371], [-87.768822, 42.026512], [-87.765749, 42.021309], [-87.749252, 42.009007], [-87.751521, 41.987219], [-87.746835, 41.980228], [-87.747223, 41.966563], [-87.745232, 41.962358], [-87.719592, 41.947613], [-87.715306, 41.94215], [-87.670146, 41.917654], [-87.66137, 41.906646], [-87.659246, 41.897685], [-87.647531, 41.888343], [-87.646015, 41.882928], [-87.646395, 41.880505], [-87.632331, 41.880685], [-87.632362, 41.881953]], "type": "LineString"}, "properties": {"timestamp": "2023-12-06T09:57:34", "type": "ride", "rideType": "UberX", "pickupAddress": "University Pl, Evanston, IL 60201-3817, US", "dropoffAddress": "Terminal 3, O'Hare International Airport (ORD), Chicago, IL 60666, US", "basePay": "19.43", "surge": "0.00", "tip": "0.00", "earnings": "19.43", "duration": "2403", "distance": "16.30", "rideStartTime": "December 06, 2023 at 09:57 AM", "rideEndTime": "December 06, 2023 at 10:37 AM"}}, {"type": "Feature", "geometry": {"coordinates": [[-87.632362, 41.881953], [-87.64573, 41.881801], [-87.645735, 41.885306], [-87.647404, 41.888483], [-87.658783, 41.897251], [-87.660805, 41.901753], [-87.661061, 41.906443], [-87.664439, 41.910145], [-87.668818, 41.916712], [-87.690595, 41.929581], [-87.694091, 41.931942], [-87.722071, 41.93186], [-87.721999, 41.929231]], "type": "LineString"}, "properties": {"timestamp": "2023-12-06T16:07:56", "type": "transition"}}, {"type": "Feature", "geometry": {"coordinates": [[-87.721999, 41.929231], [-87.721971, 41.928206], [-87.723205, 41.928192], [-87.723345, 41.933662], [-87.724582, 41.933648], [-87.724532, 41.93209]], "type": "LineString"}, "properties": {"timestamp": "2023-12-06T16:07:56", "type": "ride", "rideType": "UberX", "pickupAddress": "N Hamlin Ave, Chicago, IL 60647, US", "dropoffAddress": "N Springfield Ave, Chicago, IL 60651-2162, US", "basePay": "4.80", "surge": "0.00", "tip": "0.00", "earnings": "4.80", "duration": "733", "distance": "1.60", "rideStartTime": "December 06, 2023 at 04:07 PM", "rideEndTime": "December 06, 2023 at 04:20 PM"}}, {"type": "Feature", "geometry": {"coordinates": [[-87.724532, 41.93209], [-87.724532, 41.93209]], "type": "LineString"}, "properties": {"timestamp": "2023-12-06T16:14:43", "type": "transition"}}, {"type": "Feature", "geometry": {"coordinates": [[-87.724532, 41.93209], [-87.724523, 41.931828], [-87.696547, 41.932116], [-87.669405, 41.916815], [-87.664752, 41.909975], [-87.661559, 41.906635], [-87.661131, 41.901587], [-87.659383, 41.897534], [-87.657508, 41.895016], [-87.657416, 41.893069], [-87.660796, 41.88891], [-87.663487, 41.883985], [-87.666061, 41.881475], [-87.679085, 41.881324], [-87.678236, 41.88126]], "type": "LineString"}, "properties": {"timestamp": "2023-12-06T16:14:43", "type": "ride", "rideType": "UberX", "pickupAddress": "N Springfield Ave, Chicago, IL 60651-2026, US", "dropoffAddress": "W Madison St, Chicago, IL 60612, US", "basePay": "7.58", "surge": "1.50", "tip": "0.00", "earnings": "9.08", "duration": "995", "distance": "3.50", "rideStartTime": "December 06, 2023 at 04:14 PM", "rideEndTime": "December 06, 2023 at 04:31 PM"}}, {"type": "Feature", "geometry": {"coordinates": [[-87.678236, 41.88126], [-87.676638, 41.881323], [-87.676545, 41.877479], [-87.678738, 41.877474], [-87.679465, 41.877644], [-87.693785, 41.877461], [-87.693796, 41.878371], [-87.696046, 41.878346]], "type": "LineString"}, "properties": {"timestamp": "2023-12-06T16:32:37", "type": "transition"}}, {"type": "Feature", "geometry": {"coordinates": [[-87.696046, 41.878346], [-87.696214, 41.878344], [-87.696127, 41.874902], [-87.695509, 41.874908], [-87.690201, 41.875125], [-87.650308, 41.875329], [-87.648052, 41.875215], [-87.646014, 41.874037], [-87.644983, 41.869485], [-87.644998, 41.850609], [-87.642186, 41.847255], [-87.634652, 41.845323], [-87.630941, 41.842341], [-87.630439, 41.815532], [-87.632226, 41.807984], [-87.631696, 41.798939], [-87.631804, 41.794538], [-87.684065, 41.793876], [-87.68385, 41.78654], [-87.687505, 41.786503], [-87.687518, 41.787022]], "type": "LineString"}, "properties": {"timestamp": "2023-12-06T16:32:37", "type": "ride", "rideType": "UberX", "pickupAddress": "W Adams, Chicago, IL 60612, US", "dropoffAddress": "S Maplewood Ave, Chicago, IL 60629-1724, US", "basePay": "19.19", "surge": "0.00", "tip": "0.00", "earnings": "19.19", "duration": "2397", "distance": "7.80", "rideStartTime": "December 06, 2023 at 04:32 PM", "rideEndTime": "December 06, 2023 at 05:12 PM"}}, {"type": "Feature", "geometry": {"coordinates": [[-87.687518, 41.787022], [-87.687551, 41.788338], [-87.686331, 41.788358], [-87.686278, 41.786522], [-87.68044, 41.786529], [-87.670467, 41.786674], [-87.670418, 41.784856], [-87.671634, 41.784839], [-87.671669, 41.786209]], "type": "LineString"}, "properties": {"timestamp": "2023-12-06T17:27:09", "type": "transition"}}, {"type": "Feature", "geometry": {"coordinates": [[-87.671669, 41.786209], [-87.67168, 41.786658], [-87.664331, 41.786756], [-87.665338, 41.823146], [-87.641053, 41.82352], [-87.641139, 41.827172], [-87.63871, 41.827205], [-87.638732, 41.828073]], "type": "LineString"}, "properties": {"timestamp": "2023-12-06T17:27:09", "type": "ride", "rideType": "UberX", "pickupAddress": "S Wolcott Ave, Chicago, IL 60636, US", "dropoffAddress": "S Normal Ave, Chicago, IL 60616-3123, US", "basePay": "11.19", "surge": "0.00", "tip": "3.00", "earnings": "14.19", "duration": "1212", "distance": "5.80", "rideStartTime": "December 06, 2023 at 05:27 PM", "rideEndTime": "December 06, 2023 at 05:47 PM"}}, {"type": "Feature", "geometry": {"coordinates": [[-87.638732, 41.828073], [-87.63871, 41.827205], [-87.639932, 41.827188], [-87.640018, 41.830831], [-87.629817, 41.830961], [-87.629831, 41.831311], [-87.630393, 41.837743], [-87.631001, 41.844069], [-87.630081, 41.846653], [-87.616851, 41.847976], [-87.613392, 41.848153], [-87.612168, 41.84938], [-87.619244, 41.8661], [-87.617003, 41.869799], [-87.617167, 41.881825], [-87.613645, 41.884762], [-87.614041, 41.892878], [-87.619441, 41.900921], [-87.624048, 41.902893], [-87.631799, 41.928213], [-87.632273, 41.934701], [-87.638962, 41.941399], [-87.644572, 41.952992], [-87.644162, 41.954667], [-87.645235, 41.954634], [-87.645043, 41.952339], [-87.652017, 41.951155], [-87.651956, 41.949085], [-87.650485, 41.949109]], "type": "LineString"}, "properties": {"timestamp": "2023-12-06T17:45:05", "type": "transition"}}, {"type": "Feature", "geometry": {"coordinates": [[-87.650485, 41.949109], [-87.644573, 41.950465], [-87.645235, 41.954634], [-87.639315, 41.941594], [-87.632453, 41.934639], [-87.632048, 41.928427], [-87.62421, 41.902733], [-87.619617, 41.900898], [-87.614264, 41.892868], [-87.614127, 41.884928], [-87.617453, 41.881821], [-87.617261, 41.869765], [-87.619588, 41.866208], [-87.614728, 41.853242], [-87.613506, 41.849799], [-87.614886, 41.848332], [-87.642894, 41.847138], [-87.652077, 41.845194], [-87.669478, 41.837422], [-87.674176, 41.837483], [-87.675521, 41.836888], [-87.675328, 41.831825], [-87.68435, 41.826276], [-87.684228, 41.822995], [-87.684139, 41.819343], [-87.682902, 41.819316], [-87.682872, 41.819191]], "type": "LineString"}, "properties": {"timestamp": "2023-12-06T17:45:05", "type": "ride", "rideType": "UberX Share", "pickupAddress": "W 31st St, Chicago, IL 60608, US", "dropoffAddress": "S Oakley Ave, Chicago, IL 60608-6026, US", "basePay": "5.53", "surge": "0.00", "tip": "0.00", "earnings": "5.53", "duration": "843", "distance": "2.70", "rideStartTime": "December 06, 2023 at 05:45 PM", "rideEndTime": "December 06, 2023 at 05:59 PM"}}, {"type": "Feature", "geometry": {"coordinates": [[-87.682872, 41.819191], [-87.682902, 41.819316], [-87.684139, 41.819343], [-87.684228, 41.822995], [-87.673866, 41.82312], [-87.673942, 41.825802]], "type": "LineString"}, "properties": {"timestamp": "2023-12-06T18:12:08", "type": "transition"}}, {"type": "Feature", "geometry": {"coordinates": [[-87.673942, 41.825802], [-87.673968, 41.826761], [-87.675117, 41.826749], [-87.675396, 41.836727], [-87.667192, 41.837515], [-87.651867, 41.844887], [-87.642887, 41.846989], [-87.616851, 41.847976], [-87.613392, 41.848153], [-87.612168, 41.84938], [-87.619244, 41.8661], [-87.617003, 41.869799], [-87.617167, 41.881825], [-87.613645, 41.884762], [-87.614003, 41.89273], [-87.619441, 41.900921], [-87.623983, 41.902767], [-87.630534, 41.924159], [-87.63067, 41.926223], [-87.648766, 41.925453], [-87.663209, 41.935776]], "type": "LineString"}, "properties": {"timestamp": "2023-12-06T18:12:08", "type": "ride", "rideType": "UberX", "pickupAddress": "S Winchester Ave, Chicago, IL 60609-2039, US", "dropoffAddress": "N Lincoln Ave, Chicago, IL 60657, US", "basePay": "23.07", "surge": "0.00", "tip": "3.33", "earnings": "26.40", "duration": "3086", "distance": "8.40", "rideStartTime": "December 06, 2023 at 06:12 PM", "rideEndTime": "December 06, 2023 at 07:03 PM"}}, {"type": "Feature", "geometry": {"coordinates": [[-87.663209, 41.935776], [-87.663682, 41.936111], [-87.663815, 41.939759], [-87.658974, 41.939838], [-87.659024, 41.941664], [-87.657794, 41.941681], [-87.657753, 41.940121]], "type": "LineString"}, "properties": {"timestamp": "2023-12-06T19:07:22", "type": "transition"}}, {"type": "Feature", "geometry": {"coordinates": [[-87.657753, 41.940121], [-87.657746, 41.939858], [-87.688003, 41.939468], [-87.688345, 41.949742]], "type": "LineString"}, "properties": {"timestamp": "2023-12-06T19:07:22", "type": "ride", "rideType": "UberX", "pickupAddress": "N Clifton Ave, Chicago, IL 60657-2224, US", "dropoffAddress": "N Western Ave, Chicago, IL 60647, US", "basePay": "7.02", "surge": "0.00", "tip": "0.00", "earnings": "7.02", "duration": "772", "distance": "2.20", "rideStartTime": "December 06, 2023 at 07:07 PM", "rideEndTime": "December 06, 2023 at 07:20 PM"}}, {"type": "Feature", "geometry": {"coordinates": [[-87.688345, 41.949742], [-87.688245, 41.946744], [-87.708842, 41.946623], [-87.718284, 41.953111]], "type": "LineString"}, "properties": {"timestamp": "2023-12-06T19:20:02", "type": "transition"}}, {"type": "Feature", "geometry": {"coordinates": [[-87.718284, 41.953111], [-87.71933, 41.953825], [-87.747303, 41.953418], [-87.749242, 41.954581], [-87.75213, 41.957924], [-87.753184, 41.957912]], "type": "LineString"}, "properties": {"timestamp": "2023-12-06T19:20:02", "type": "ride", "rideType": "UberX", "pickupAddress": "N Elston Ave, Chicago, IL 60647, US", "dropoffAddress": "W Hutchinson St, Chicago, IL 60641-1610, US", "basePay": "7.28", "surge": "0.00", "tip": "1.00", "earnings": "8.28", "duration": "817", "distance": "4.30", "rideStartTime": "December 06, 2023 at 07:20 PM", "rideEndTime": "December 06, 2023 at 07:33 PM"}}, {"type": "Feature", "geometry": {"coordinates": [[-87.753184, 41.957912], [-87.754833, 41.957893], [-87.754802, 41.956982], [-87.751354, 41.957023], [-87.747303, 41.953418], [-87.746005, 41.913935], [-87.722705, 41.904687], [-87.722562, 41.900086]], "type": "LineString"}, "properties": {"timestamp": "2023-12-07T07:26:21", "type": "transition"}}]}