{"type": "FeatureCollection", "features": [{"type": "Feature", "geometry": {"coordinates": [[-87.671905, 42.020379], [-87.671924, 42.019377], [-87.690179, 42.019532], [-87.689832, 41.995738], [-87.690164, 41.995738]], "type": "LineString"}, "properties": {"timestamp": "2023-02-14T16:49:46", "type": "ride", "rideType": "UberX", "pickupAddress": "N Marshfield Ave, Chicago, IL 60626, US", "dropoffAddress": "6254 N Western Ave, Chicago, IL 60659, US", "basePay": "4.46", "surge": "4.75", "tip": "0.00", "earnings": "9.21", "duration": "908", "distance": "2.90", "rideStartTime": "February 14, 2023 at 04:49 PM", "rideEndTime": "February 14, 2023 at 05:04 PM"}}, {"type": "Feature", "geometry": {"coordinates": [[-87.690164, 41.995738], [-87.689832, 41.995738], [-87.689674, 41.990567], [-87.749719, 41.990005], [-87.753543, 41.991161], [-87.779748, 42.003394]], "type": "LineString"}, "properties": {"timestamp": "2023-02-14T17:06:58", "type": "transition"}}, {"type": "Feature", "geometry": {"coordinates": [[-87.779748, 42.003394], [-87.766713, 41.99731], [-87.763816, 41.997275], [-87.761937, 42.002724], [-87.761473, 42.013505], [-87.759649, 42.019116], [-87.712298, 42.019106]], "type": "LineString"}, "properties": {"timestamp": "2023-02-14T17:06:58", "type": "ride", "rideType": "UberX Share", "pickupAddress": "W Devon Ave, Chicago, IL 60659-2004, US", "dropoffAddress": "Howard St, Evanston, IL 60202, US", "basePay": "7.41", "surge": "0.00", "tip": "0.00", "earnings": "7.41", "duration": "963", "distance": "3.60", "rideStartTime": "February 14, 2023 at 05:06 PM", "rideEndTime": "February 14, 2023 at 05:23 PM"}}, {"type": "Feature", "geometry": {"coordinates": [[-87.712298, 42.019106], [-87.711292, 42.019113], [-87.710729, 42.021634], [-87.711074, 42.024506], [-87.710925, 42.033689], [-87.699305, 42.033882], [-87.699196, 42.038951]], "type": "LineString"}, "properties": {"timestamp": "2023-02-14T17:42:38", "type": "transition"}}, {"type": "Feature", "geometry": {"coordinates": [[-87.699196, 42.038951], [-87.699305, 42.033882], [-87.68996, 42.034032], [-87.689893, 41.997738], [-87.692332, 41.997691], [-87.69231, 41.996985]], "type": "LineString"}, "properties": {"timestamp": "2023-02-14T17:42:38", "type": "ride", "rideType": "UberX", "pickupAddress": "Dodge Ave, Evanston, IL 60202, US", "dropoffAddress": "N Campbell Ave, Chicago, IL 60659-2810, US", "basePay": "5.19", "surge": "0.00", "tip": "3.00", "earnings": "8.19", "duration": "842", "distance": "2.60", "rideStartTime": "February 14, 2023 at 05:42 PM", "rideEndTime": "February 14, 2023 at 05:56 PM"}}, {"type": "Feature", "geometry": {"coordinates": [[-87.69231, 41.996985], [-87.692105, 41.990495], [-87.749944, 41.990038], [-87.753543, 41.991161], [-87.779748, 42.003394]], "type": "LineString"}, "properties": {"timestamp": "2023-02-14T17:55:55", "type": "transition"}}, {"type": "Feature", "geometry": {"coordinates": [[-87.779748, 42.003394], [-87.753476, 41.991079], [-87.746835, 41.980228], [-87.747223, 41.966563], [-87.745232, 41.962358], [-87.719592, 41.947613], [-87.715306, 41.94215], [-87.670146, 41.917654], [-87.66137, 41.906646], [-87.659246, 41.897685], [-87.646315, 41.886261], [-87.644363, 41.857367], [-87.644333, 41.849097], [-87.641933, 41.846546], [-87.616851, 41.847976], [-87.612314, 41.847086], [-87.607188, 41.832576], [-87.58209, 41.803885], [-87.574954, 41.781232], [-87.584175, 41.780203], [-87.586376, 41.776085], [-87.586341, 41.775177], [-87.594524, 41.775074], [-87.59449, 41.773342]], "type": "LineString"}, "properties": {"timestamp": "2023-02-14T17:55:55", "type": "ride", "rideType": "UberX Share", "pickupAddress": "W Devon Ave, Chicago, IL 60659, US", "dropoffAddress": "S Kimbark Ave, Chicago, IL 60615-4010, US", "basePay": "35.88", "surge": "0.00", "tip": "4.24", "earnings": "40.12", "duration": "3720", "distance": "17.80", "rideStartTime": "February 14, 2023 at 05:55 PM", "rideEndTime": "February 14, 2023 at 06:57 PM"}}, {"type": "Feature", "geometry": {"coordinates": [[-87.59449, 41.773342], [-87.594488, 41.773258], [-87.596034, 41.773242], [-87.596645, 41.799453], [-87.594608, 41.799473]], "type": "LineString"}, "properties": {"timestamp": "2023-02-14T18:54:44", "type": "transition"}}, {"type": "Feature", "geometry": {"coordinates": [[-87.594608, 41.799473], [-87.596645, 41.799453], [-87.596544, 41.795104], [-87.607389, 41.794958], [-87.608538, 41.793792], [-87.610509, 41.793243], [-87.613098, 41.793704], [-87.61471, 41.79469], [-87.631804, 41.794538], [-87.631807, 41.793713], [-87.631289, 41.778978], [-87.626326, 41.772408], [-87.625104, 41.740605], [-87.625189, 41.740446], [-87.625442, 41.736214], [-87.622606, 41.73638], [-87.622508, 41.732726], [-87.6209, 41.732752], [-87.620927, 41.734084]], "type": "LineString"}, "properties": {"timestamp": "2023-02-14T18:54:44", "type": "ride", "rideType": "UberX", "pickupAddress": "E 53rd St, Chicago, IL 60615, US", "dropoffAddress": "S Michigan Ave, Chicago, IL 60619, US", "basePay": "12.99", "surge": "4.25", "tip": "0.00", "earnings": "17.24", "duration": "1473", "distance": "6.10", "rideStartTime": "February 14, 2023 at 06:54 PM", "rideEndTime": "February 14, 2023 at 07:19 PM"}}, {"type": "Feature", "geometry": {"coordinates": [[-87.620927, 41.734084], [-87.62099, 41.736405], [-87.627161, 41.736322], [-87.629778, 41.736039], [-87.633304, 41.735967], [-87.635792, 41.736188], [-87.643685, 41.736069], [-87.643582, 41.732551], [-87.644898, 41.732542]], "type": "LineString"}, "properties": {"timestamp": "2023-02-14T20:03:13", "type": "transition"}}, {"type": "Feature", "geometry": {"coordinates": [[-87.644898, 41.732542], [-87.645356, 41.732538], [-87.644701, 41.734312], [-87.645227, 41.734311], [-87.645849, 41.734255], [-87.645176, 41.736061], [-87.741059, 41.734532], [-87.741513, 41.754342], [-87.740425, 41.754344], [-87.739902, 41.754943], [-87.739891, 41.755063], [-87.740298, 41.755053], [-87.740309, 41.755332]], "type": "LineString"}, "properties": {"timestamp": "2023-02-14T20:03:13", "type": "ride", "rideType": "UberX", "pickupAddress": "W 89th St, Chicago, IL 60620-4982, US", "dropoffAddress": "7601 S Cicero Ave Ste 1240, Chicago, IL 60652, US", "basePay": "10.71", "surge": "2.25", "tip": "0.00", "earnings": "12.96", "duration": "795", "distance": "5.70", "rideStartTime": "February 14, 2023 at 08:03 PM", "rideEndTime": "February 14, 2023 at 08:16 PM"}}, {"type": "Feature", "geometry": {"coordinates": [[-87.740309, 41.755332], [-87.740298, 41.755053], [-87.739891, 41.755063], [-87.740425, 41.754344], [-87.741513, 41.754342], [-87.741355, 41.74916], [-87.673144, 41.750237], [-87.673342, 41.757706]], "type": "LineString"}, "properties": {"timestamp": "2023-02-14T20:30:23", "type": "transition"}}, {"type": "Feature", "geometry": {"coordinates": [[-87.673342, 41.757706], [-87.673394, 41.759326], [-87.638484, 41.759839], [-87.638448, 41.758018], [-87.636962, 41.758042], [-87.636956, 41.759733]], "type": "LineString"}, "properties": {"timestamp": "2023-02-14T20:30:23", "type": "ride", "rideType": "UberX Share", "pickupAddress": "S Western Ave, Chicago, IL 60620-5930, US", "dropoffAddress": "S Normal Blvd, Chicago, IL 60621-2536, US", "basePay": "7.00", "surge": "1.50", "tip": "0.00", "earnings": "8.50", "duration": "691", "distance": "3.80", "rideStartTime": "February 14, 2023 at 08:30 PM", "rideEndTime": "February 14, 2023 at 08:41 PM"}}, {"type": "Feature", "geometry": {"coordinates": [[-87.636956, 41.759733], [-87.636959, 41.759867], [-87.635745, 41.759889], [-87.635704, 41.758063], [-87.62475, 41.758109], [-87.624761, 41.75855], [-87.625189, 41.761615], [-87.625651, 41.769497], [-87.630747, 41.779495], [-87.630667, 41.838631], [-87.63193, 41.844225], [-87.642221, 41.847448], [-87.644991, 41.851145], [-87.646837, 41.887752], [-87.658396, 41.896733], [-87.661061, 41.906443], [-87.668818, 41.916712], [-87.690595, 41.929581], [-87.694091, 41.931942], [-87.717188, 41.931929], [-87.717101, 41.92898]], "type": "LineString"}, "properties": {"timestamp": "2023-02-18T09:44:05", "type": "transition"}}]}