{"type": "FeatureCollection", "features": [{"type": "Feature", "geometry": {"coordinates": [[-87.697261, 41.99401], [-87.69709, 41.994013], [-87.696964, 41.990463], [-87.67223, 41.990752], [-87.662456, 41.985105], [-87.653157, 41.984999], [-87.644611, 41.950978], [-87.632527, 41.93482], [-87.62421, 41.902733], [-87.619617, 41.900898], [-87.614345, 41.893094], [-87.619563, 41.865851], [-87.607689, 41.833588], [-87.602929, 41.827907]], "type": "LineString"}, "properties": {"timestamp": "2023-03-03T11:23:09", "type": "ride", "rideType": "UberX", "pickupAddress": "W Granville Ave, Chicago, IL 60660, US", "dropoffAddress": "S Dusable Lake Shore Dr, Chicago, IL 60637, US", "basePay": "14.04", "surge": "2.00", "tip": "6.18", "earnings": "22.22", "duration": "1327", "distance": "15.80", "rideStartTime": "March 03, 2023 at 11:23 AM", "rideEndTime": "March 03, 2023 at 11:45 AM"}}, {"type": "Feature", "geometry": {"coordinates": [[-87.602929, 41.827907], [-87.60211, 41.827252], [-87.600903, 41.82517], [-87.599849, 41.825435], [-87.607125, 41.833032], [-87.610426, 41.843509], [-87.612641, 41.848604], [-87.626818, 41.84732], [-87.631727, 41.847855], [-87.631351, 41.843118], [-87.631207, 41.779686], [-87.62615, 41.772555], [-87.624773, 41.727257], [-87.625042, 41.721653], [-87.623726, 41.721666], [-87.623313, 41.699867], [-87.622134, 41.699884], [-87.622129, 41.699763]], "type": "LineString"}, "properties": {"timestamp": "2023-03-03T11:50:54", "type": "transition"}}, {"type": "Feature", "geometry": {"coordinates": [[-87.622129, 41.699763], [-87.622068, 41.69807], [-87.623263, 41.698052], [-87.623313, 41.699867], [-87.640192, 41.69967], [-87.640147, 41.698382]], "type": "LineString"}, "properties": {"timestamp": "2023-03-03T11:50:54", "type": "ride", "rideType": "UberX Share", "pickupAddress": "S Wabash Ave, Chicago, IL 60637-4516, US", "dropoffAddress": "S Union Ave, Chicago, IL 60620-2401, US", "basePay": "4.19", "surge": "1.75", "tip": "0.00", "earnings": "5.94", "duration": "354", "distance": "1.40", "rideStartTime": "March 03, 2023 at 11:50 AM", "rideEndTime": "March 03, 2023 at 11:56 AM"}}, {"type": "Feature", "geometry": {"coordinates": [[-87.640147, 41.698382], [-87.640128, 41.697848], [-87.642484, 41.697816], [-87.643506, 41.734318], [-87.645227, 41.734311], [-87.655722, 41.734076], [-87.6557, 41.733273]], "type": "LineString"}, "properties": {"timestamp": "2023-03-03T12:09:43", "type": "transition"}}, {"type": "Feature", "geometry": {"coordinates": [[-87.6557, 41.733273], [-87.655676, 41.732368], [-87.662967, 41.732183], [-87.662994, 41.735789], [-87.68253, 41.735578], [-87.682848, 41.750108], [-87.683262, 41.750163]], "type": "LineString"}, "properties": {"timestamp": "2023-03-03T12:09:43", "type": "ride", "rideType": "UberXL", "pickupAddress": "S Throop St, Chicago, IL 60620-3831, US", "dropoffAddress": "W 79th St, Chicago, IL 60620, US", "basePay": "5.84", "surge": "0.00", "tip": "0.00", "earnings": "5.84", "duration": "282", "distance": "0.60", "rideStartTime": "March 03, 2023 at 12:09 PM", "rideEndTime": "March 03, 2023 at 12:14 PM"}}, {"type": "Feature", "geometry": {"coordinates": [[-87.683262, 41.750163], [-87.683349, 41.750162], [-87.683335, 41.750319], [-87.682853, 41.750327], [-87.682848, 41.750108], [-87.673144, 41.750237], [-87.673394, 41.759326], [-87.65397, 41.7596], [-87.654065, 41.763238], [-87.652858, 41.763257], [-87.652811, 41.761517]], "type": "LineString"}, "properties": {"timestamp": "2023-03-03T12:23:31", "type": "transition"}}, {"type": "Feature", "geometry": {"coordinates": [[-87.652811, 41.761517], [-87.65281, 41.761449], [-87.654018, 41.761432], [-87.654113, 41.765061], [-87.624899, 41.765368], [-87.624908, 41.765772], [-87.62543, 41.769557], [-87.626008, 41.77431], [-87.630526, 41.779578], [-87.630393, 41.837743], [-87.631347, 41.844144], [-87.642036, 41.847354], [-87.644829, 41.85074], [-87.644517, 41.867845], [-87.644628, 41.873521], [-87.645646, 41.875725], [-87.649223, 41.875863], [-87.662425, 41.876121], [-87.666742, 41.876354], [-87.666531, 41.869262], [-87.670488, 41.8692]], "type": "LineString"}, "properties": {"timestamp": "2023-03-03T12:23:31", "type": "ride", "rideType": "UberX", "pickupAddress": "S May St, Chicago, IL 60621-1038, US", "dropoffAddress": "W Taylor St, Chicago, IL 60612-4320, US", "basePay": "13.92", "surge": "0.00", "tip": "0.00", "earnings": "13.92", "duration": "1202", "distance": "11.10", "rideStartTime": "March 03, 2023 at 12:23 PM", "rideEndTime": "March 03, 2023 at 12:43 PM"}}, {"type": "Feature", "geometry": {"coordinates": [[-87.670488, 41.8692], [-87.676363, 41.86911], [-87.675765, 41.849401]], "type": "LineString"}, "properties": {"timestamp": "2023-03-03T13:16:38", "type": "transition"}}, {"type": "Feature", "geometry": {"coordinates": [[-87.675765, 41.849401], [-87.675739, 41.848542], [-87.666089, 41.852334], [-87.6512, 41.852585], [-87.643758, 41.855904], [-87.643778, 41.857758], [-87.645735, 41.885306], [-87.651689, 41.891702], [-87.65868, 41.896836], [-87.66137, 41.906646], [-87.670146, 41.917654], [-87.715306, 41.94215], [-87.719592, 41.947613], [-87.746287, 41.963594], [-87.746614, 41.980044], [-87.751348, 41.987222], [-87.749057, 42.009149], [-87.766135, 42.021915], [-87.768599, 42.026582], [-87.768152, 42.034093], [-87.76276, 42.041316], [-87.802205, 42.040911]], "type": "LineString"}, "properties": {"timestamp": "2023-03-03T13:16:38", "type": "ride", "rideType": "UberX", "pickupAddress": "S Damen Ave, Chicago, IL 60612, US", "dropoffAddress": "W Dempster St, Park Ridge, IL 60068, US", "basePay": "18.42", "surge": "0.00", "tip": "8.18", "earnings": "26.60", "duration": "2274", "distance": "24.40", "rideStartTime": "March 03, 2023 at 01:16 PM", "rideEndTime": "March 03, 2023 at 01:54 PM"}}, {"type": "Feature", "geometry": {"coordinates": [[-87.802205, 42.040911], [-87.806281, 42.040897], [-87.807233, 41.952116]], "type": "LineString"}, "properties": {"timestamp": "2023-03-03T14:25:51", "type": "transition"}}, {"type": "Feature", "geometry": {"coordinates": [[-87.807233, 41.952116], [-87.807255, 41.952771], [-87.654549, 41.954492], [-87.654643, 41.958427], [-87.652, 41.958463]], "type": "LineString"}, "properties": {"timestamp": "2023-03-03T14:25:51", "type": "ride", "rideType": "UberX", "pickupAddress": "N Harlem Ave, Chicago, IL 60631-3913, US", "dropoffAddress": "W Buena Ave, Chicago, IL 60613-1611, US", "basePay": "11.64", "surge": "0.00", "tip": "0.00", "earnings": "11.64", "duration": "1704", "distance": "10.60", "rideStartTime": "March 03, 2023 at 02:25 PM", "rideEndTime": "March 03, 2023 at 02:54 PM"}}, {"type": "Feature", "geometry": {"coordinates": [[-87.652, 41.958463], [-87.654643, 41.958427], [-87.654549, 41.954492], [-87.727612, 41.95365], [-87.727395, 41.946377], [-87.739921, 41.946215]], "type": "LineString"}, "properties": {"timestamp": "2023-03-03T15:15:50", "type": "transition"}}, {"type": "Feature", "geometry": {"coordinates": [[-87.739921, 41.946215], [-87.732228, 41.94631], [-87.732533, 41.955298], [-87.742619, 41.960998], [-87.746732, 41.965012], [-87.746614, 41.980044], [-87.751348, 41.987222], [-87.748745, 42.001173], [-87.749189, 42.009518], [-87.752849, 42.014015], [-87.765343, 42.021217], [-87.768358, 42.025543], [-87.768407, 42.033299], [-87.764702, 42.038593], [-87.760652, 42.040729], [-87.756567, 42.040788], [-87.744606, 42.05153], [-87.746974, 42.051674], [-87.746992, 42.049895]], "type": "LineString"}, "properties": {"timestamp": "2023-03-03T15:15:50", "type": "ride", "rideType": "UberX", "pickupAddress": "W Addison St, Chicago, IL 60613, US", "dropoffAddress": "Skokie Blvd, Skokie, IL 60077-1025, US", "basePay": "13.34", "surge": "0.00", "tip": "0.00", "earnings": "13.34", "duration": "1711", "distance": "13.20", "rideStartTime": "March 03, 2023 at 03:15 PM", "rideEndTime": "March 03, 2023 at 03:44 PM"}}, {"type": "Feature", "geometry": {"coordinates": [[-87.746992, 42.049895], [-87.746988, 42.049713], [-87.747955, 42.048918]], "type": "LineString"}, "properties": {"timestamp": "2023-03-03T15:46:03", "type": "transition"}}, {"type": "Feature", "geometry": {"coordinates": [[-87.747955, 42.048918], [-87.74731, 42.049466], [-87.747502, 42.02807], [-87.745785, 42.024211], [-87.747579, 42.021029], [-87.747721, 42.018306], [-87.729129, 42.0037], [-87.699239, 41.985538], [-87.69911, 41.981302], [-87.702753, 41.981284]], "type": "LineString"}, "properties": {"timestamp": "2023-03-03T15:46:03", "type": "ride", "rideType": "UberX", "pickupAddress": "Gross Point Rd, Skokie, IL 60076-1214, US", "dropoffAddress": "W Catalpa Ave, Chicago, IL 60625-1266, US", "basePay": "9.40", "surge": "0.00", "tip": "3.00", "earnings": "12.40", "duration": "1316", "distance": "7.10", "rideStartTime": "March 03, 2023 at 03:46 PM", "rideEndTime": "March 03, 2023 at 04:07 PM"}}, {"type": "Feature", "geometry": {"coordinates": [[-87.702753, 41.981284], [-87.69911, 41.981302], [-87.699412, 41.990446], [-87.689669, 41.99044], [-87.67223, 41.990752], [-87.670085, 41.989706], [-87.669796, 41.987608], [-87.669769, 41.987519]], "type": "LineString"}, "properties": {"timestamp": "2023-03-03T16:56:19", "type": "transition"}}, {"type": "Feature", "geometry": {"coordinates": [[-87.669769, 41.987519], [-87.669343, 41.985953], [-87.669821, 41.985945], [-87.6699, 41.989705], [-87.672385, 41.990845], [-87.749135, 41.989946], [-87.753543, 41.991161], [-87.766713, 41.99731], [-87.787876, 41.997348], [-87.787492, 41.996914], [-87.788044, 41.964947], [-87.786909, 41.962988], [-87.786816, 41.960205], [-87.794287, 41.960061], [-87.825325, 41.945086], [-87.829056, 41.944969], [-87.829127, 41.946778], [-87.830116, 41.946751]], "type": "LineString"}, "properties": {"timestamp": "2023-03-03T16:56:19", "type": "ride", "rideType": "UberX Share", "pickupAddress": "N Clark St, Chicago, IL 60626-4001, US", "dropoffAddress": "W Waveland Ave, Chicago, IL 60634-2663, US", "basePay": "17.03", "surge": "1.50", "tip": "0.00", "earnings": "18.53", "duration": "2683", "distance": "9.40", "rideStartTime": "March 03, 2023 at 04:56 PM", "rideEndTime": "March 03, 2023 at 05:41 PM"}}, {"type": "Feature", "geometry": {"coordinates": [[-87.830116, 41.946751], [-87.827898, 41.94681], [-87.827822, 41.945006], [-87.735605, 41.946271], [-87.727246, 41.941155], [-87.726988, 41.931796], [-87.722071, 41.93186], [-87.721999, 41.929231]], "type": "LineString"}, "properties": {"timestamp": "2023-03-03T17:57:30", "type": "transition"}}, {"type": "Feature", "geometry": {"coordinates": [[-87.721999, 41.929231], [-87.721971, 41.928206], [-87.71708, 41.928261], [-87.717392, 41.939221], [-87.712487, 41.939288], [-87.712571, 41.941642], [-87.715981, 41.943044], [-87.719618, 41.947985], [-87.742619, 41.960998], [-87.745149, 41.962671], [-87.749707, 41.964295], [-87.759996, 41.97041], [-87.766074, 41.972489], [-87.783994, 41.982348], [-87.812691, 41.982443], [-87.826001, 41.984517], [-87.831845, 41.984836], [-87.833634, 41.984991], [-87.834971, 41.98621], [-87.854946, 41.9888], [-87.864606, 41.992912]], "type": "LineString"}, "properties": {"timestamp": "2023-03-03T17:57:30", "type": "ride", "rideType": "UberX", "pickupAddress": "N Hamlin Ave, Chicago, IL 60618-6606, US", "dropoffAddress": "Mannheim Rd, Des Plaines, IL 60018, US", "basePay": "13.70", "surge": "0.00", "tip": "0.00", "earnings": "13.70", "duration": "1575", "distance": "10.90", "rideStartTime": "March 03, 2023 at 05:57 PM", "rideEndTime": "March 03, 2023 at 06:23 PM"}}, {"type": "Feature", "geometry": {"coordinates": [[-87.864606, 41.992912], [-87.865715, 41.993233], [-87.865115, 41.995701], [-87.855355, 41.995909], [-87.854807, 42.000456], [-87.85523, 42.02498], [-87.84069, 42.025469], [-87.840494, 42.039982], [-87.830561, 42.040191], [-87.80166, 42.040761], [-87.802205, 42.040911]], "type": "LineString"}, "properties": {"timestamp": "2023-03-03T19:13:37", "type": "transition"}}, {"type": "Feature", "geometry": {"coordinates": [[-87.802205, 42.040911], [-87.802901, 42.040907], [-87.799784, 42.040773], [-87.799222, 42.040408], [-87.799016, 42.035212], [-87.798562, 42.034367], [-87.796154, 42.032082], [-87.795611, 42.02786], [-87.791914, 42.025176], [-87.791131, 42.024274], [-87.790933, 42.015449], [-87.790183, 42.013775], [-87.788728, 42.012002], [-87.77782, 42.011989]], "type": "LineString"}, "properties": {"timestamp": "2023-03-03T19:13:37", "type": "ride", "rideType": "UberX", "pickupAddress": "Dempster St, Morton Grove, IL 60053, US", "dropoffAddress": "W Touhy Ave, Niles, IL 60714, US", "basePay": "5.66", "surge": "0.00", "tip": "0.00", "earnings": "5.66", "duration": "765", "distance": "3.90", "rideStartTime": "March 03, 2023 at 07:13 PM", "rideEndTime": "March 03, 2023 at 07:26 PM"}}, {"type": "Feature", "geometry": {"coordinates": [[-87.77782, 42.011989], [-87.773348, 42.011959], [-87.765439, 41.996715], [-87.764218, 41.996143], [-87.765841, 41.991751], [-87.76627, 41.989416], [-87.768264, 41.987213], [-87.76831, 41.984771], [-87.771936, 41.984746], [-87.771954, 41.983903]], "type": "LineString"}, "properties": {"timestamp": "2023-03-03T19:33:57", "type": "transition"}}, {"type": "Feature", "geometry": {"coordinates": [[-87.771954, 41.983903], [-87.771936, 41.984746], [-87.76831, 41.984771], [-87.768264, 41.987213], [-87.76627, 41.989416], [-87.763816, 41.997275], [-87.711691, 41.997354], [-87.711447, 42.011826], [-87.682444, 42.012621], [-87.676853, 42.012606]], "type": "LineString"}, "properties": {"timestamp": "2023-03-03T19:33:57", "type": "ride", "rideType": "UberX", "pickupAddress": "N Mango Ave, Chicago, IL 60646-6308, US", "dropoffAddress": "W Touhy Ave, Chicago, IL 60626-2321, US", "basePay": "11.21", "surge": "0.00", "tip": "0.00", "earnings": "11.21", "duration": "1281", "distance": "6.60", "rideStartTime": "March 03, 2023 at 07:33 PM", "rideEndTime": "March 03, 2023 at 07:55 PM"}}, {"type": "Feature", "geometry": {"coordinates": [[-87.676853, 42.012606], [-87.678178, 42.012585], [-87.677921, 42.005256], [-87.680175, 42.005209], [-87.679672, 42.004103], [-87.680339, 42.004091], [-87.68034, 42.004141]], "type": "LineString"}, "properties": {"timestamp": "2023-03-03T20:02:41", "type": "transition"}}, {"type": "Feature", "geometry": {"coordinates": [[-87.68034, 42.004141], [-87.680123, 41.997903], [-87.689893, 41.997738], [-87.689151, 41.975899], [-87.708696, 41.975749], [-87.708631, 41.973924], [-87.706438, 41.973943]], "type": "LineString"}, "properties": {"timestamp": "2023-03-03T20:02:41", "type": "ride", "rideType": "UberX", "pickupAddress": "N Damen Ave, Chicago, IL 60645-5101, US", "dropoffAddress": "W Carmen Ave, Chicago, IL 60625-4218, US", "basePay": "5.26", "surge": "3.00", "tip": "0.00", "earnings": "8.26", "duration": "832", "distance": "3.60", "rideStartTime": "March 03, 2023 at 08:02 PM", "rideEndTime": "March 03, 2023 at 08:16 PM"}}, {"type": "Feature", "geometry": {"coordinates": [[-87.706438, 41.973943], [-87.706198, 41.973946], [-87.706131, 41.97211], [-87.708573, 41.972097], [-87.708696, 41.975749], [-87.689151, 41.975899], [-87.689265, 41.97886], [-87.688009, 41.978881], [-87.688015, 41.97923], [-87.686941, 41.979267], [-87.685725, 41.979722], [-87.68536, 41.980287], [-87.685301, 41.981238], [-87.685604, 41.982307], [-87.68541, 41.982385], [-87.685624, 41.982725], [-87.685638, 41.986037], [-87.682929, 41.986051], [-87.682777, 41.986635], [-87.682197, 41.986935], [-87.681454, 41.987045]], "type": "LineString"}, "properties": {"timestamp": "2023-03-03T20:25:24", "type": "transition"}}, {"type": "Feature", "geometry": {"coordinates": [[-87.681454, 41.987045], [-87.682858, 41.98656], [-87.683199, 41.985105], [-87.685612, 41.985047], [-87.685604, 41.982307], [-87.685439, 41.981706], [-87.68536, 41.980287], [-87.685908, 41.979583], [-87.688015, 41.97923], [-87.688009, 41.978881], [-87.689265, 41.97886], [-87.688686, 41.961319], [-87.698474, 41.961247], [-87.698335, 41.956867]], "type": "LineString"}, "properties": {"timestamp": "2023-03-03T20:25:24", "type": "ride", "rideType": "UberX Share", "pickupAddress": "N Western Ave, Chicago, IL 60625, US", "dropoffAddress": "N California Ave, Chicago, IL 60659, US", "basePay": "4.15", "surge": "0.00", "tip": "3.00", "earnings": "7.15", "duration": "456", "distance": "1.80", "rideStartTime": "March 03, 2023 at 08:25 PM", "rideEndTime": "March 03, 2023 at 08:33 PM"}}, {"type": "Feature", "geometry": {"coordinates": [[-87.698335, 41.956867], [-87.698474, 41.961247], [-87.708251, 41.961195], [-87.708877, 41.983076], [-87.711304, 41.983049], [-87.711334, 41.983951], [-87.710311, 41.983964]], "type": "LineString"}, "properties": {"timestamp": "2023-03-03T20:38:29", "type": "transition"}}, {"type": "Feature", "geometry": {"coordinates": [[-87.710311, 41.983964], [-87.709161, 41.984059], [-87.711022, 41.990371], [-87.689669, 41.99044], [-87.689937, 41.999547], [-87.681418, 41.99968], [-87.681434, 42.000225]], "type": "LineString"}, "properties": {"timestamp": "2023-03-03T20:38:29", "type": "ride", "rideType": "UberX", "pickupAddress": "W Olive Ave, Chicago, IL 60659, US", "dropoffAddress": "N Seeley Ave, Chicago, IL 60645, US", "basePay": "4.55", "surge": "0.00", "tip": "0.00", "earnings": "4.55", "duration": "633", "distance": "2.80", "rideStartTime": "March 03, 2023 at 08:38 PM", "rideEndTime": "March 03, 2023 at 08:49 PM"}}, {"type": "Feature", "geometry": {"coordinates": [[-87.681434, 42.000225], [-87.681375, 41.997881], [-87.67684, 41.99796], [-87.675425, 41.994982], [-87.675256, 41.990703], [-87.674711, 41.990712], [-87.674682, 41.98969]], "type": "LineString"}, "properties": {"timestamp": "2023-03-03T20:52:31", "type": "transition"}}, {"type": "Feature", "geometry": {"coordinates": [[-87.674682, 41.98969], [-87.674711, 41.990712], [-87.67223, 41.990752], [-87.662456, 41.985105], [-87.654178, 41.985586], [-87.653157, 41.984999], [-87.652706, 41.981232], [-87.648822, 41.972134], [-87.644905, 41.955203], [-87.644611, 41.950978], [-87.638957, 41.941067], [-87.632637, 41.935041], [-87.631858, 41.927741], [-87.631853, 41.926001], [-87.648766, 41.925453], [-87.648495, 41.91731]], "type": "LineString"}, "properties": {"timestamp": "2023-03-03T20:52:31", "type": "ride", "rideType": "UberX", "pickupAddress": "W Devon Ave, Chicago, IL 60660, US", "dropoffAddress": "N Halsted St, Chicago, IL 60657, US", "basePay": "7.22", "surge": "0.00", "tip": "5.00", "earnings": "12.22", "duration": "1080", "distance": "4.90", "rideStartTime": "March 03, 2023 at 08:52 PM", "rideEndTime": "March 03, 2023 at 09:10 PM"}}, {"type": "Feature", "geometry": {"coordinates": [[-87.648495, 41.91731], [-87.649434, 41.945447], [-87.646252, 41.945467], [-87.642375, 41.946785], [-87.641989, 41.946112], [-87.644042, 41.945418]], "type": "LineString"}, "properties": {"timestamp": "2023-03-03T21:15:23", "type": "transition"}}, {"type": "Feature", "geometry": {"coordinates": [[-87.644042, 41.945418], [-87.645737, 41.944845], [-87.645309, 41.944139], [-87.641287, 41.944825], [-87.639574, 41.941203], [-87.638606, 41.939931], [-87.634194, 41.936955], [-87.632527, 41.93482], [-87.632048, 41.928427], [-87.627538, 41.915117], [-87.627206, 41.913042], [-87.628067, 41.912346], [-87.631428, 41.913459], [-87.633196, 41.912907], [-87.632901, 41.900546], [-87.63435, 41.90053], [-87.634293, 41.898867]], "type": "LineString"}, "properties": {"timestamp": "2023-03-03T21:15:23", "type": "ride", "rideType": "UberX", "pickupAddress": "W Stratford Pl, Chicago, IL 60657-2631, US", "dropoffAddress": "N Wells St, Chicago, IL 60610, US", "basePay": "4.67", "surge": "0.00", "tip": "0.00", "earnings": "4.67", "duration": "522", "distance": "3.30", "rideStartTime": "March 03, 2023 at 09:15 PM", "rideEndTime": "March 03, 2023 at 09:24 PM"}}, {"type": "Feature", "geometry": {"coordinates": [[-87.634293, 41.898867], [-87.63435, 41.90053], [-87.628335, 41.9006], [-87.62834, 41.900747], [-87.624042, 41.900824], [-87.623664, 41.902709], [-87.62589, 41.912141], [-87.628743, 41.918036], [-87.631851, 41.928415], [-87.632152, 41.934381], [-87.633661, 41.936704], [-87.638833, 41.941219], [-87.644376, 41.950931], [-87.647541, 41.967723], [-87.647273, 41.969474], [-87.656225, 41.96907], [-87.656365, 41.974712]], "type": "LineString"}, "properties": {"timestamp": "2023-03-12T13:35:56", "type": "transition"}}]}