{"type": "FeatureCollection", "features": [{"type": "Feature", "geometry": {"coordinates": [[-87.703717, 41.915612], [-87.703717, 41.915612]], "type": "LineString"}, "properties": {"timestamp": "2023-12-12T08:53:28", "type": "ride"}}, {"type": "Feature", "geometry": {"coordinates": [[-87.703717, 41.915612], [-87.702035, 41.915629], [-87.702347, 41.925969], [-87.701488, 41.925445], [-87.70114, 41.925798]], "type": "LineString"}, "properties": {"timestamp": "2023-12-12T09:22:13", "type": "transition"}}, {"type": "Feature", "geometry": {"coordinates": [[-87.70114, 41.925798], [-87.701488, 41.925445], [-87.700436, 41.924799], [-87.789403, 41.92364], [-87.806251, 41.924003], [-87.806613, 41.934519], [-87.820654, 41.93424], [-87.82067, 41.934634]], "type": "LineString"}, "properties": {"timestamp": "2023-12-12T09:22:13", "type": "ride"}}, {"type": "Feature", "geometry": {"coordinates": [[-87.82067, 41.934634], [-87.820654, 41.93424], [-87.821275, 41.934229], [-87.821404, 41.937842], [-87.786046, 41.938315], [-87.786299, 41.945676], [-87.708842, 41.946623], [-87.705317, 41.944219], [-87.705281, 41.943085]], "type": "LineString"}, "properties": {"timestamp": "2023-12-12T09:31:36", "type": "transition"}}, {"type": "Feature", "geometry": {"coordinates": [[-87.705281, 41.943085], [-87.705182, 41.939366], [-87.712487, 41.939288], [-87.712571, 41.941642], [-87.714459, 41.942133], [-87.715981, 41.943044], [-87.718472, 41.946973], [-87.719618, 41.947985], [-87.738838, 41.958569], [-87.741371, 41.960451], [-87.74187, 41.960845], [-87.75449, 41.960636], [-87.757803, 41.964478]], "type": "LineString"}, "properties": {"timestamp": "2023-12-12T09:31:36", "type": "ride"}}, {"type": "Feature", "geometry": {"coordinates": [[-87.757803, 41.964478], [-87.756072, 41.962474], [-87.7673, 41.96235], [-87.767242, 41.960484], [-87.794287, 41.960061], [-87.822074, 41.946631], [-87.821706, 41.946138], [-87.821404, 41.937842], [-87.820185, 41.937866], [-87.820102, 41.936076], [-87.820727, 41.936062], [-87.82067, 41.934634]], "type": "LineString"}, "properties": {"timestamp": "2023-12-12T09:44:19", "type": "transition"}}, {"type": "Feature", "geometry": {"coordinates": [[-87.82067, 41.934634], [-87.820654, 41.93424], [-87.81151, 41.934421], [-87.811185, 41.924776], [-87.803157, 41.923552], [-87.789403, 41.92364], [-87.781551, 41.921645], [-87.753381, 41.916843], [-87.735426, 41.909728], [-87.677494, 41.910469], [-87.677385, 41.907145], [-87.67857, 41.907124]], "type": "LineString"}, "properties": {"timestamp": "2023-12-12T09:44:19", "type": "ride"}}, {"type": "Feature", "geometry": {"coordinates": [[-87.67857, 41.907124], [-87.677385, 41.907145], [-87.677276, 41.903184], [-87.701605, 41.902888]], "type": "LineString"}, "properties": {"timestamp": "2023-12-12T09:56:04", "type": "transition"}}, {"type": "Feature", "geometry": {"coordinates": [[-87.701605, 41.902888], [-87.702278, 41.902886], [-87.702431, 41.897899], [-87.701974, 41.891131], [-87.701479, 41.889426], [-87.701237, 41.881942], [-87.696313, 41.881992], [-87.696261, 41.880169], [-87.695733, 41.880173]], "type": "LineString"}, "properties": {"timestamp": "2023-12-12T09:56:04", "type": "ride"}}, {"type": "Feature", "geometry": {"coordinates": [[-87.695733, 41.880173], [-87.696261, 41.880169], [-87.696127, 41.874902], [-87.695509, 41.874908], [-87.690201, 41.875125], [-87.620619, 41.875815], [-87.620697, 41.878331], [-87.617182, 41.878364], [-87.616996, 41.882205], [-87.613645, 41.884762], [-87.614041, 41.892878], [-87.619441, 41.900921], [-87.623983, 41.902767], [-87.631799, 41.928213], [-87.632273, 41.934701], [-87.638833, 41.941219], [-87.644376, 41.950931], [-87.648738, 41.973046], [-87.652765, 41.984866], [-87.662456, 41.985105], [-87.665884, 41.987189], [-87.669585, 41.987146], [-87.669707, 41.988054], [-87.669796, 41.987608], [-87.669769, 41.987519]], "type": "LineString"}, "properties": {"timestamp": "2023-12-12T10:49:18", "type": "transition"}}, {"type": "Feature", "geometry": {"coordinates": [[-87.669769, 41.987519], [-87.669181, 41.985433], [-87.663294, 41.985603], [-87.662456, 41.985105], [-87.653157, 41.984999], [-87.648822, 41.972134], [-87.64469, 41.951193], [-87.638957, 41.941067], [-87.632527, 41.93482], [-87.632048, 41.928427], [-87.624861, 41.904908], [-87.624179, 41.901978], [-87.624316, 41.893335], [-87.629681, 41.893255], [-87.629727, 41.894584]], "type": "LineString"}, "properties": {"timestamp": "2023-12-12T10:49:18", "type": "ride"}}, {"type": "Feature", "geometry": {"coordinates": [[-87.629727, 41.894584], [-87.62978, 41.896655], [-87.654734, 41.896269], [-87.655808, 41.89501], [-87.657675, 41.89596], [-87.65932, 41.898217], [-87.660805, 41.901753], [-87.661253, 41.906799], [-87.669547, 41.91737], [-87.704001, 41.937344], [-87.710036, 41.940632], [-87.715161, 41.942387], [-87.71887, 41.947406], [-87.723791, 41.950079], [-87.727575, 41.952511], [-87.727612, 41.95365], [-87.719156, 41.953712], [-87.718284, 41.953111]], "type": "LineString"}, "properties": {"timestamp": "2023-12-12T16:13:10", "type": "transition"}}, {"type": "Feature", "geometry": {"coordinates": [[-87.718284, 41.953111], [-87.712782, 41.949329], [-87.712526, 41.940478], [-87.709442, 41.939977], [-87.669746, 41.917124], [-87.664752, 41.909975], [-87.661559, 41.906635], [-87.661057, 41.901306], [-87.658834, 41.896667], [-87.6483, 41.889096], [-87.646108, 41.885119], [-87.646413, 41.883144], [-87.641266, 41.883178], [-87.639745, 41.883185], [-87.639932, 41.887293]], "type": "LineString"}, "properties": {"timestamp": "2023-12-12T16:13:10", "type": "ride"}}, {"type": "Feature", "geometry": {"coordinates": [[-87.639932, 41.887293], [-87.639932, 41.887293]], "type": "LineString"}, "properties": {"timestamp": "2023-12-12T16:35:02", "type": "transition"}}, {"type": "Feature", "geometry": {"coordinates": [[-87.639932, 41.887293], [-87.64001, 41.889064], [-87.629579, 41.889242], [-87.629616, 41.89084], [-87.62265, 41.890954], [-87.622757, 41.894164], [-87.62188, 41.894176]], "type": "LineString"}, "properties": {"timestamp": "2023-12-12T16:35:02", "type": "ride"}}, {"type": "Feature", "geometry": {"coordinates": [[-87.62188, 41.894176], [-87.620307, 41.894214], [-87.620211, 41.890916], [-87.620755, 41.888052], [-87.620897, 41.881329], [-87.620625, 41.876287], [-87.621081, 41.875931], [-87.623122, 41.875906], [-87.62435, 41.875724], [-87.631738, 41.875684], [-87.631731, 41.875522], [-87.631448, 41.875518]], "type": "LineString"}, "properties": {"timestamp": "2023-12-12T16:44:08", "type": "transition"}}, {"type": "Feature", "geometry": {"coordinates": [[-87.631448, 41.875518], [-87.630714, 41.875521], [-87.630686, 41.874518], [-87.633036, 41.874483], [-87.633082, 41.875667], [-87.64257, 41.875632], [-87.645648, 41.877134], [-87.646594, 41.887382], [-87.658396, 41.896733], [-87.661061, 41.906443], [-87.668818, 41.916712], [-87.708002, 41.939496], [-87.712586, 41.942429], [-87.712782, 41.949329], [-87.714033, 41.950201], [-87.714413, 41.962942], [-87.713522, 41.962954]], "type": "LineString"}, "properties": {"timestamp": "2023-12-12T16:44:08", "type": "ride"}}, {"type": "Feature", "geometry": {"coordinates": [[-87.713522, 41.962954], [-87.713199, 41.962957], [-87.712908, 41.953809], [-87.66911, 41.954302], [-87.669013, 41.950641], [-87.669671, 41.950633]], "type": "LineString"}, "properties": {"timestamp": "2023-12-12T17:55:44", "type": "transition"}}, {"type": "Feature", "geometry": {"coordinates": [[-87.669671, 41.950633], [-87.669013, 41.950641], [-87.6688, 41.94243], [-87.663884, 41.942498], [-87.663758, 41.938211]], "type": "LineString"}, "properties": {"timestamp": "2023-12-12T17:55:44", "type": "ride"}}, {"type": "Feature", "geometry": {"coordinates": [[-87.663758, 41.938211], [-87.663682, 41.936111], [-87.653741, 41.929016], [-87.647955, 41.929095]], "type": "LineString"}, "properties": {"timestamp": "2023-12-12T18:06:17", "type": "transition"}}, {"type": "Feature", "geometry": {"coordinates": [[-87.647955, 41.929095], [-87.648892, 41.929091], [-87.649275, 41.939973], [-87.638088, 41.940568], [-87.644496, 41.951253], [-87.644596, 41.954749], [-87.648738, 41.973046], [-87.652251, 41.981039], [-87.652803, 41.984951], [-87.654178, 41.985586], [-87.662456, 41.985105], [-87.665884, 41.987189], [-87.669585, 41.987146], [-87.669707, 41.988054], [-87.669796, 41.987608], [-87.669769, 41.987519]], "type": "LineString"}, "properties": {"timestamp": "2023-12-12T18:06:17", "type": "ride"}}, {"type": "Feature", "geometry": {"coordinates": [[-87.669769, 41.987519], [-87.669181, 41.985433], [-87.663294, 41.985603], [-87.660074, 41.983631], [-87.659798, 41.973967]], "type": "LineString"}, "properties": {"timestamp": "2023-12-12T18:20:28", "type": "transition"}}, {"type": "Feature", "geometry": {"coordinates": [[-87.659798, 41.973967], [-87.659862, 41.975789], [-87.659864, 41.976324], [-87.651813, 41.976453], [-87.648822, 41.972134], [-87.644611, 41.950978], [-87.638957, 41.941067], [-87.632527, 41.93482], [-87.632048, 41.928427], [-87.62428, 41.902892], [-87.619617, 41.900898], [-87.614447, 41.893292], [-87.614132, 41.886779], [-87.614444, 41.884515], [-87.646033, 41.884406]], "type": "LineString"}, "properties": {"timestamp": "2023-12-12T18:20:28", "type": "ride"}}, {"type": "Feature", "geometry": {"coordinates": [[-87.646033, 41.884406], [-87.647438, 41.884415], [-87.647482, 41.885665], [-87.646258, 41.885682], [-87.644363, 41.857367], [-87.645245, 41.851247], [-87.642429, 41.847384], [-87.634652, 41.845323], [-87.63091, 41.84209], [-87.631289, 41.79178], [-87.631289, 41.778978], [-87.626564, 41.773198], [-87.626239, 41.768925], [-87.626556, 41.766175], [-87.626545, 41.7655], [-87.644417, 41.765212], [-87.644436, 41.766001]], "type": "LineString"}, "properties": {"timestamp": "2023-12-12T18:57:49", "type": "transition"}}, {"type": "Feature", "geometry": {"coordinates": [[-87.644436, 41.766001], [-87.644417, 41.765212], [-87.624899, 41.765368], [-87.624908, 41.765772], [-87.62543, 41.769557], [-87.630526, 41.779578], [-87.630393, 41.837743], [-87.631001, 41.844069], [-87.630081, 41.846653], [-87.616851, 41.847976], [-87.612168, 41.84938], [-87.619244, 41.8661], [-87.614003, 41.89273], [-87.619441, 41.900921], [-87.624048, 41.902893], [-87.632152, 41.934381], [-87.644376, 41.950931], [-87.647541, 41.967723], [-87.647273, 41.969474], [-87.649644, 41.969172], [-87.649907, 41.970105], [-87.654418, 41.970035]], "type": "LineString"}, "properties": {"timestamp": "2023-12-12T18:57:49", "type": "ride"}}, {"type": "Feature", "geometry": {"coordinates": [[-87.654418, 41.970035], [-87.654855, 41.970029], [-87.654833, 41.969091], [-87.688893, 41.968612], [-87.688686, 41.961319], [-87.714367, 41.961119], [-87.714413, 41.962942], [-87.713522, 41.962954]], "type": "LineString"}, "properties": {"timestamp": "2023-12-12T19:29:06", "type": "transition"}}, {"type": "Feature", "geometry": {"coordinates": [[-87.713522, 41.962954], [-87.713199, 41.962957], [-87.713315, 41.966593], [-87.716128, 41.966563]], "type": "LineString"}, "properties": {"timestamp": "2023-12-12T19:29:06", "type": "ride"}}, {"type": "Feature", "geometry": {"coordinates": [[-87.716128, 41.966563], [-87.716976, 41.966554], [-87.717028, 41.968371], [-87.74016, 41.968116], [-87.747761, 41.972794], [-87.747223, 41.966563], [-87.745961, 41.963113], [-87.742125, 41.960129], [-87.719592, 41.947613], [-87.715306, 41.94215], [-87.710219, 41.940524], [-87.698173, 41.933659], [-87.687291, 41.927358], [-87.684125, 41.925223], [-87.685228, 41.924938], [-87.685139, 41.922653], [-87.685551, 41.922647], [-87.685495, 41.920647], [-87.684471, 41.920667]], "type": "LineString"}, "properties": {"timestamp": "2023-12-13T09:08:12", "type": "transition"}}]}