{"type": "FeatureCollection", "features": [{"type": "Feature", "geometry": {"coordinates": [[-87.730649, 41.883568], [-87.730641, 41.883305], [-87.725734, 41.883366], [-87.726081, 41.89537], [-87.706541, 41.89556], [-87.707229, 41.924722], [-87.700436, 41.924799], [-87.701488, 41.925445], [-87.70114, 41.925798]], "type": "LineString"}, "properties": {"timestamp": "2023-10-25T09:38:33", "type": "ride", "rideType": "UberX", "pickupAddress": "N Keeler Ave, Chicago, IL 60651-1870, US", "dropoffAddress": "N Richmond St, Chicago, IL 60647, US", "basePay": "7.09", "surge": "3.75", "tip": "0.00", "earnings": "10.84", "duration": "914", "distance": "2.20", "rideStartTime": "October 25, 2023 at 09:38 AM", "rideEndTime": "October 25, 2023 at 09:53 AM"}}, {"type": "Feature", "geometry": {"coordinates": [[-87.70114, 41.925798], [-87.701194, 41.928437], [-87.697517, 41.928471], [-87.698335, 41.956867]], "type": "LineString"}, "properties": {"timestamp": "2023-10-25T09:53:28", "type": "transition"}}, {"type": "Feature", "geometry": {"coordinates": [[-87.698335, 41.956867], [-87.698254, 41.953982], [-87.645235, 41.954634], [-87.644611, 41.950978], [-87.639315, 41.941594], [-87.632453, 41.934639], [-87.632048, 41.928427], [-87.629189, 41.918735], [-87.62605, 41.911998], [-87.62421, 41.902733], [-87.62264, 41.901491], [-87.619743, 41.900996], [-87.61878, 41.899659], [-87.617065, 41.89684], [-87.620387, 41.896781], [-87.620313, 41.894445]], "type": "LineString"}, "properties": {"timestamp": "2023-10-25T09:53:28", "type": "ride", "rideType": "Comfort", "pickupAddress": "N California Ave, Chicago, IL 60647-3902, US", "dropoffAddress": "W Erie St, Chicago, IL 60654-5726, US", "basePay": "12.23", "surge": "2.25", "tip": "0.00", "earnings": "14.48", "duration": "1220", "distance": "4.90", "rideStartTime": "October 25, 2023 at 09:53 AM", "rideEndTime": "October 25, 2023 at 10:13 AM"}}, {"type": "Feature", "geometry": {"coordinates": [[-87.620313, 41.894445], [-87.620387, 41.896781], [-87.632635, 41.896613], [-87.632844, 41.90389], [-87.639563, 41.903768], [-87.6404, 41.904375], [-87.64022, 41.904515], [-87.639718, 41.904149]], "type": "LineString"}, "properties": {"timestamp": "2023-10-25T10:25:03", "type": "transition"}}, {"type": "Feature", "geometry": {"coordinates": [[-87.639718, 41.904149], [-87.64022, 41.904515], [-87.6404, 41.904375], [-87.639563, 41.903768], [-87.633004, 41.903886], [-87.632527, 41.884474], [-87.635401, 41.884465], [-87.635439, 41.886768], [-87.634232, 41.886821]], "type": "LineString"}, "properties": {"timestamp": "2023-10-25T10:25:03", "type": "ride", "rideType": "UberX", "pickupAddress": "W Chicago Ave, Chicago, IL 60642-5410, US", "dropoffAddress": "N Wacker Dr, Chicago, IL 60606-2850, US", "basePay": "6.16", "surge": "0.00", "tip": "0.00", "earnings": "6.16", "duration": "699", "distance": "1.90", "rideStartTime": "October 25, 2023 at 10:25 AM", "rideEndTime": "October 25, 2023 at 10:36 AM"}}, {"type": "Feature", "geometry": {"coordinates": [[-87.634232, 41.886821], [-87.633975, 41.886821], [-87.633684, 41.87567], [-87.65167, 41.875726], [-87.657603, 41.876197], [-87.688313, 41.875763], [-87.692409, 41.875862], [-87.701067, 41.875937], [-87.701479, 41.889426], [-87.701974, 41.891131], [-87.702222, 41.896575], [-87.706651, 41.898325], [-87.706735, 41.901143]], "type": "LineString"}, "properties": {"timestamp": "2023-10-25T11:02:43", "type": "transition"}}, {"type": "Feature", "geometry": {"coordinates": [[-87.706735, 41.901143], [-87.706651, 41.898325], [-87.702222, 41.896575], [-87.701974, 41.891131], [-87.701479, 41.889426], [-87.701237, 41.881942], [-87.696313, 41.881992], [-87.696127, 41.874902], [-87.695509, 41.874908], [-87.690201, 41.875125], [-87.659837, 41.87561], [-87.650308, 41.875329], [-87.647601, 41.875302], [-87.645452, 41.874563], [-87.644482, 41.875077], [-87.64458, 41.876036], [-87.645364, 41.877863], [-87.645275, 41.880374], [-87.645355, 41.881847], [-87.645393, 41.882198], [-87.645396, 41.883308], [-87.645241, 41.884407], [-87.646033, 41.884406]], "type": "LineString"}, "properties": {"timestamp": "2023-10-25T11:02:43", "type": "ride", "rideType": "UberX", "pickupAddress": "N Kedzie Ave, Chicago, IL 60647-4912, US", "dropoffAddress": "W Randolph, Chicago, IL 60607, US", "basePay": "10.92", "surge": "2.00", "tip": "0.00", "earnings": "12.92", "duration": "1195", "distance": "5.00", "rideStartTime": "October 25, 2023 at 11:02 AM", "rideEndTime": "October 25, 2023 at 11:22 AM"}}, {"type": "Feature", "geometry": {"coordinates": [[-87.646033, 41.884406], [-87.646033, 41.884406]], "type": "LineString"}, "properties": {"timestamp": "2023-10-25T11:28:06", "type": "transition"}}, {"type": "Feature", "geometry": {"coordinates": [[-87.646033, 41.884406], [-87.647438, 41.884415], [-87.647407, 41.88314], [-87.641266, 41.883178], [-87.639745, 41.883185], [-87.624233, 41.883257], [-87.624484, 41.887965], [-87.624038, 41.889922], [-87.624094, 41.891505]], "type": "LineString"}, "properties": {"timestamp": "2023-10-25T11:28:06", "type": "ride", "rideType": "Comfort", "pickupAddress": "W Randolph St, Chicago, IL 60607, US", "dropoffAddress": "N Michigan Ave, Chicago, IL 60611, US", "basePay": "7.27", "surge": "0.00", "tip": "5.00", "earnings": "12.27", "duration": "762", "distance": "2.00", "rideStartTime": "October 25, 2023 at 11:28 AM", "rideEndTime": "October 25, 2023 at 11:40 AM"}}, {"type": "Feature", "geometry": {"coordinates": [[-87.624094, 41.891505], [-87.624197, 41.895748], [-87.622402, 41.895768]], "type": "LineString"}, "properties": {"timestamp": "2023-10-25T11:44:08", "type": "transition"}}, {"type": "Feature", "geometry": {"coordinates": [[-87.622402, 41.895768], [-87.620354, 41.895808], [-87.620387, 41.896781], [-87.616735, 41.89691], [-87.619536, 41.901011], [-87.622727, 41.90171], [-87.624048, 41.902893], [-87.62589, 41.912141], [-87.628743, 41.918036], [-87.631799, 41.928213], [-87.632273, 41.934701], [-87.638962, 41.941399], [-87.644376, 41.950931], [-87.644572, 41.952992], [-87.644162, 41.954667], [-87.645235, 41.954634], [-87.644996, 41.953061], [-87.650165, 41.952741]], "type": "LineString"}, "properties": {"timestamp": "2023-10-25T11:44:08", "type": "ride", "rideType": "Comfort", "pickupAddress": "E Superior St, Chicago, IL 60611-2913, US", "dropoffAddress": "W Sheridan Rd, Chicago, IL 60613-3216, US", "basePay": "9.09", "surge": "0.00", "tip": "3.00", "earnings": "12.09", "duration": "641", "distance": "5.00", "rideStartTime": "October 25, 2023 at 11:44 AM", "rideEndTime": "October 25, 2023 at 11:54 AM"}}, {"type": "Feature", "geometry": {"coordinates": [[-87.650165, 41.952741], [-87.654491, 41.952678], [-87.654549, 41.954492], [-87.688469, 41.954086], [-87.687695, 41.926423], [-87.686245, 41.926336]], "type": "LineString"}, "properties": {"timestamp": "2023-10-25T16:27:09", "type": "transition"}}, {"type": "Feature", "geometry": {"coordinates": [[-87.686245, 41.926336], [-87.68527, 41.925624], [-87.685228, 41.924938], [-87.682301, 41.924978], [-87.685177, 41.926707], [-87.708002, 41.939496], [-87.712586, 41.942429], [-87.713022, 41.957384]], "type": "LineString"}, "properties": {"timestamp": "2023-10-25T16:27:09", "type": "ride", "rideType": "UberX", "pickupAddress": "W Altgeld St, Chicago, IL 60647-2508, US", "dropoffAddress": "N Kimball Ave, Chicago, IL 60647, US", "basePay": "5.30", "surge": "0.00", "tip": "5.00", "earnings": "10.30", "duration": "357", "distance": "1.20", "rideStartTime": "October 25, 2023 at 04:27 PM", "rideEndTime": "October 25, 2023 at 04:33 PM"}}, {"type": "Feature", "geometry": {"coordinates": [[-87.713022, 41.957384], [-87.712908, 41.953809], [-87.709244, 41.953867], [-87.709052, 41.946779], [-87.707815, 41.945936], [-87.707505, 41.930261], [-87.707814, 41.929332], [-87.707541, 41.929168], [-87.706735, 41.901143]], "type": "LineString"}, "properties": {"timestamp": "2023-10-25T16:37:55", "type": "transition"}}, {"type": "Feature", "geometry": {"coordinates": [[-87.706735, 41.901143], [-87.706907, 41.910104], [-87.687207, 41.910324], [-87.687645, 41.924902], [-87.682301, 41.924978], [-87.685177, 41.926707], [-87.709664, 41.940439], [-87.715161, 41.942387], [-87.719618, 41.947985], [-87.742619, 41.960998], [-87.752403, 41.966033], [-87.75503, 41.967937], [-87.757623, 41.967938], [-87.758399, 41.968431]], "type": "LineString"}, "properties": {"timestamp": "2023-10-25T16:37:55", "type": "ride", "rideType": "UberX", "pickupAddress": "N Kedzie Ave, Chicago, IL 60647-4908, US", "dropoffAddress": "W North Ave, Chicago, IL 60622-1316, US", "basePay": "5.45", "surge": "0.00", "tip": "0.00", "earnings": "5.45", "duration": "484", "distance": "1.60", "rideStartTime": "October 25, 2023 at 04:37 PM", "rideEndTime": "October 25, 2023 at 04:45 PM"}}, {"type": "Feature", "geometry": {"coordinates": [[-87.758399, 41.968431], [-87.757622, 41.967875], [-87.747723, 41.968033], [-87.747918, 41.972896], [-87.747761, 41.972794], [-87.747223, 41.966563], [-87.745961, 41.963113], [-87.742125, 41.960129], [-87.719592, 41.947613], [-87.715306, 41.94215], [-87.710219, 41.940524], [-87.698173, 41.933659], [-87.673831, 41.919706], [-87.671882, 41.918264], [-87.671887, 41.917859], [-87.677621, 41.91776], [-87.677009, 41.894261]], "type": "LineString"}, "properties": {"timestamp": "2023-10-25T16:52:02", "type": "transition"}}, {"type": "Feature", "geometry": {"coordinates": [[-87.677009, 41.894261], [-87.677893, 41.925026], [-87.681912, 41.924981], [-87.685177, 41.926707], [-87.709664, 41.940439], [-87.714861, 41.942208], [-87.719618, 41.947985], [-87.738838, 41.958569], [-87.741371, 41.960451], [-87.74187, 41.960845], [-87.794287, 41.960061], [-87.822074, 41.946631], [-87.821404, 41.937842], [-87.820185, 41.937866], [-87.820102, 41.936076], [-87.820727, 41.936062], [-87.82067, 41.934634]], "type": "LineString"}, "properties": {"timestamp": "2023-10-25T16:52:02", "type": "ride", "rideType": "UberX", "pickupAddress": "N Damen Ave, Chicago, IL 60622, US", "dropoffAddress": "N Milwaukee Ave, Chicago, IL 60647-2662, US", "basePay": "5.32", "surge": "0.00", "tip": "0.00", "earnings": "5.32", "duration": "987", "distance": "2.00", "rideStartTime": "October 25, 2023 at 04:52 PM", "rideEndTime": "October 25, 2023 at 05:08 PM"}}, {"type": "Feature", "geometry": {"coordinates": [[-87.82067, 41.934634], [-87.82067, 41.934634]], "type": "LineString"}, "properties": {"timestamp": "2023-10-25T17:11:09", "type": "transition"}}, {"type": "Feature", "geometry": {"coordinates": [[-87.82067, 41.934634], [-87.820654, 41.93424], [-87.821275, 41.934229], [-87.821404, 41.937842], [-87.727187, 41.939096], [-87.727167, 41.938375]], "type": "LineString"}, "properties": {"timestamp": "2023-10-25T17:11:09", "type": "ride", "rideType": "UberX", "pickupAddress": "N Milwaukee Ave, Chicago, IL 60647, US", "dropoffAddress": "N Pulaski Rd, Chicago, IL 60641-4025, US", "basePay": "5.07", "surge": "0.00", "tip": "0.00", "earnings": "5.07", "duration": "700", "distance": "1.80", "rideStartTime": "October 25, 2023 at 05:11 PM", "rideEndTime": "October 25, 2023 at 05:22 PM"}}, {"type": "Feature", "geometry": {"coordinates": [[-87.727167, 41.938375], [-87.727187, 41.939096], [-87.712487, 41.939288], [-87.712526, 41.940478], [-87.711309, 41.94053], [-87.709442, 41.939977], [-87.693566, 41.930594], [-87.689917, 41.928847], [-87.673831, 41.919706], [-87.671882, 41.918264], [-87.671723, 41.918151], [-87.671089, 41.917871], [-87.670404, 41.917216], [-87.670273, 41.916081], [-87.669062, 41.916107], [-87.668983, 41.913123]], "type": "LineString"}, "properties": {"timestamp": "2023-10-25T17:55:59", "type": "transition"}}, {"type": "Feature", "geometry": {"coordinates": [[-87.668983, 41.913123], [-87.668915, 41.910614], [-87.664445, 41.910674], [-87.670574, 41.91815], [-87.709664, 41.940439], [-87.714861, 41.942208], [-87.719618, 41.947985], [-87.742619, 41.960998], [-87.746732, 41.965012], [-87.746614, 41.980044], [-87.751348, 41.987222], [-87.748745, 42.001173], [-87.749189, 42.009518], [-87.752849, 42.014015], [-87.765343, 42.021217], [-87.768599, 42.026582], [-87.768152, 42.034093], [-87.762218, 42.042872], [-87.761543, 42.052877], [-87.755714, 42.060438], [-87.754815, 42.061803], [-87.74874, 42.062415]], "type": "LineString"}, "properties": {"timestamp": "2023-10-25T17:55:59", "type": "ride", "rideType": "UberX", "pickupAddress": "N Marshfield Ave, Chicago, IL 60657-2123, US", "dropoffAddress": "Old Orchard Rd, Skokie, IL 60077-1019, US", "basePay": "20.49", "surge": "0.00", "tip": "0.00", "earnings": "20.49", "duration": "2697", "distance": "12.30", "rideStartTime": "October 25, 2023 at 05:55 PM", "rideEndTime": "October 25, 2023 at 06:40 PM"}}, {"type": "Feature", "geometry": {"coordinates": [[-87.74874, 42.062415], [-87.74874, 42.062415]], "type": "LineString"}, "properties": {"timestamp": "2023-10-25T18:52:58", "type": "transition"}}, {"type": "Feature", "geometry": {"coordinates": [[-87.74874, 42.062415], [-87.727436, 42.062482], [-87.727537, 42.055257], [-87.715818, 42.055334], [-87.709349, 42.052539], [-87.706397, 42.05196], [-87.688763, 42.052194], [-87.688069, 42.051448], [-87.688792, 42.048527], [-87.688374, 42.041263], [-87.683076, 42.012318], [-87.682444, 42.012621], [-87.676853, 42.012606]], "type": "LineString"}, "properties": {"timestamp": "2023-10-25T18:52:58", "type": "ride", "rideType": "UberX", "pickupAddress": "Old Orchard Rd, Skokie, IL 60077-1021, US", "dropoffAddress": "W Touhy Ave, Skokie, IL 60076-6217, US", "basePay": "10.03", "surge": "0.00", "tip": "0.00", "earnings": "10.03", "duration": "1276", "distance": "6.80", "rideStartTime": "October 25, 2023 at 06:52 PM", "rideEndTime": "October 25, 2023 at 07:14 PM"}}, {"type": "Feature", "geometry": {"coordinates": [[-87.676853, 42.012606], [-87.682294, 42.012511], [-87.682444, 42.012621], [-87.683076, 42.012318], [-87.684163, 42.015501], [-87.685845, 42.029894], [-87.688374, 42.041263], [-87.688587, 42.049394]], "type": "LineString"}, "properties": {"timestamp": "2023-10-25T19:31:28", "type": "transition"}}, {"type": "Feature", "geometry": {"coordinates": [[-87.688587, 42.049394], [-87.687935, 42.051264], [-87.688577, 42.052175], [-87.740001, 42.055271], [-87.756258, 42.041109], [-87.763691, 42.040938], [-87.768504, 42.03371], [-87.768822, 42.026512], [-87.765749, 42.021309], [-87.749252, 42.009007], [-87.751521, 41.987219], [-87.746835, 41.980228], [-87.747223, 41.966563], [-87.745232, 41.962358], [-87.719592, 41.947613], [-87.715306, 41.94215], [-87.670146, 41.917654], [-87.66137, 41.906646], [-87.659246, 41.897685], [-87.646473, 41.886676], [-87.644538, 41.861936], [-87.644794, 41.857575], [-87.646633, 41.857542], [-87.646649, 41.858102], [-87.657651, 41.857936], [-87.657612, 41.856527]], "type": "LineString"}, "properties": {"timestamp": "2023-10-25T19:31:28", "type": "ride", "rideType": "UberX", "pickupAddress": "Ridge Ave, Evanston, IL 60201-3654, US", "dropoffAddress": "S Allport St, Chicago, IL 60608, US", "basePay": "26.32", "surge": "0.00", "tip": "8.49", "earnings": "34.81", "duration": "2888", "distance": "18.90", "rideStartTime": "October 25, 2023 at 07:31 PM", "rideEndTime": "October 25, 2023 at 08:19 PM"}}, {"type": "Feature", "geometry": {"coordinates": [[-87.657612, 41.856527], [-87.657651, 41.857936], [-87.66163, 41.857876]], "type": "LineString"}, "properties": {"timestamp": "2023-10-25T20:24:40", "type": "transition"}}, {"type": "Feature", "geometry": {"coordinates": [[-87.66163, 41.857876], [-87.661146, 41.857883], [-87.653364, 41.867014], [-87.646914, 41.86712], [-87.646884, 41.869551], [-87.644443, 41.869691], [-87.644854, 41.873493], [-87.644167, 41.87559], [-87.645364, 41.877863], [-87.645275, 41.880374], [-87.645355, 41.881847], [-87.645393, 41.882198], [-87.645396, 41.883308], [-87.645365, 41.885689], [-87.642764, 41.885711], [-87.642815, 41.887871]], "type": "LineString"}, "properties": {"timestamp": "2023-10-25T20:24:40", "type": "ride", "rideType": "UberX", "pickupAddress": "W 18th St, Chicago, IL 60608, US", "dropoffAddress": "N Jefferson St, Chicago, IL 60661, US", "basePay": "5.58", "surge": "0.00", "tip": "2.00", "earnings": "7.58", "duration": "769", "distance": "2.50", "rideStartTime": "October 25, 2023 at 08:24 PM", "rideEndTime": "October 25, 2023 at 08:37 PM"}}, {"type": "Feature", "geometry": {"coordinates": [[-87.642815, 41.887871], [-87.642815, 41.887871]], "type": "LineString"}, "properties": {"timestamp": "2023-10-25T20:33:41", "type": "transition"}}, {"type": "Feature", "geometry": {"coordinates": [[-87.642815, 41.887871], [-87.642802, 41.886807], [-87.641353, 41.886808], [-87.641367, 41.889059], [-87.629579, 41.889242], [-87.629616, 41.89084], [-87.62021, 41.891016], [-87.620263, 41.892588], [-87.614597, 41.892685], [-87.61463, 41.893135], [-87.618028, 41.89823]], "type": "LineString"}, "properties": {"timestamp": "2023-10-25T20:33:41", "type": "ride", "rideType": "UberX", "pickupAddress": "N Jefferson St, Chicago, IL 60661-1222, US", "dropoffAddress": "N Lake Shore Dr, Chicago, IL 60611-1029, US", "basePay": "6.13", "surge": "0.00", "tip": "0.00", "earnings": "6.13", "duration": "865", "distance": "1.90", "rideStartTime": "October 25, 2023 at 08:33 PM", "rideEndTime": "October 25, 2023 at 08:48 PM"}}, {"type": "Feature", "geometry": {"coordinates": [[-87.618028, 41.89823], [-87.617065, 41.89684], [-87.624345, 41.896737], [-87.624316, 41.893335], [-87.628116, 41.893279], [-87.628109, 41.893025]], "type": "LineString"}, "properties": {"timestamp": "2023-10-25T20:56:07", "type": "transition"}}, {"type": "Feature", "geometry": {"coordinates": [[-87.628109, 41.893025], [-87.628048, 41.890871], [-87.62021, 41.891016], [-87.620777, 41.887355], [-87.620589, 41.873218], [-87.624296, 41.873163], [-87.624264, 41.871878], [-87.624764, 41.87187]], "type": "LineString"}, "properties": {"timestamp": "2023-10-25T20:56:07", "type": "ride", "rideType": "UberX", "pickupAddress": "N State St, Chicago, IL 60610, US", "dropoffAddress": "E 8th St, Chicago, IL 60605-2123, US", "basePay": "6.64", "surge": "0.00", "tip": "0.00", "earnings": "6.64", "duration": "723", "distance": "2.50", "rideStartTime": "October 25, 2023 at 08:56 PM", "rideEndTime": "October 25, 2023 at 09:08 PM"}}, {"type": "Feature", "geometry": {"coordinates": [[-87.624764, 41.87187], [-87.627611, 41.871819], [-87.627592, 41.870591], [-87.62853, 41.870574], [-87.628609, 41.870542], [-87.62857, 41.869756]], "type": "LineString"}, "properties": {"timestamp": "2023-10-25T21:05:25", "type": "transition"}}, {"type": "Feature", "geometry": {"coordinates": [[-87.62857, 41.869756], [-87.628609, 41.870542], [-87.627449, 41.870533], [-87.627634, 41.875711], [-87.64257, 41.875632], [-87.644772, 41.875942], [-87.645648, 41.877134], [-87.645685, 41.885013], [-87.646594, 41.887382], [-87.64861, 41.889615], [-87.658396, 41.896733], [-87.66062, 41.90111], [-87.66087, 41.905872], [-87.662226, 41.907951], [-87.664445, 41.910674], [-87.66216, 41.910715], [-87.666413, 41.916455], [-87.658201, 41.917264], [-87.658464, 41.925291], [-87.656039, 41.925333], [-87.656071, 41.9263], [-87.655572, 41.926313]], "type": "LineString"}, "properties": {"timestamp": "2023-10-25T21:05:25", "type": "ride", "rideType": "UberX", "pickupAddress": "S Plymouth Ct, Chicago, IL 60604-3907, US", "dropoffAddress": "W Montana St, Chicago, IL 60614-2221, US", "basePay": "10.03", "surge": "0.00", "tip": "4.19", "earnings": "14.22", "duration": "1138", "distance": "5.60", "rideStartTime": "October 25, 2023 at 09:05 PM", "rideEndTime": "October 25, 2023 at 09:24 PM"}}, {"type": "Feature", "geometry": {"coordinates": [[-87.655572, 41.926313], [-87.656071, 41.9263], [-87.656039, 41.925333], [-87.681912, 41.924981], [-87.685177, 41.926707], [-87.690595, 41.929581], [-87.694091, 41.931942], [-87.722071, 41.93186], [-87.721999, 41.929231]], "type": "LineString"}, "properties": {"timestamp": "2023-10-26T15:50:44", "type": "transition"}}]}