{"type": "FeatureCollection", "features": [{"type": "Feature", "geometry": {"coordinates": [[-87.705675, 41.988514], [-87.706678, 41.988414], [-87.705071, 41.983097], [-87.708877, 41.983076], [-87.708014, 41.953885], [-87.698254, 41.953982], [-87.697848, 41.940244], [-87.695246, 41.940262], [-87.69448, 41.940229], [-87.694671, 41.940836]], "type": "LineString"}, "properties": {"timestamp": "2023-03-22T12:13:41", "type": "ride"}}, {"type": "Feature", "geometry": {"coordinates": [[-87.694671, 41.940836], [-87.694511, 41.940307], [-87.695246, 41.940262], [-87.695268, 41.939421], [-87.697818, 41.939404], [-87.698037, 41.946686], [-87.702918, 41.946663], [-87.702922, 41.946815]], "type": "LineString"}, "properties": {"timestamp": "2023-03-22T12:31:32", "type": "transition"}}, {"type": "Feature", "geometry": {"coordinates": [[-87.702922, 41.946815], [-87.702918, 41.946663], [-87.688245, 41.946744], [-87.688146, 41.939587], [-87.678134, 41.932278], [-87.668327, 41.932402], [-87.668361, 41.933311], [-87.668473, 41.932963]], "type": "LineString"}, "properties": {"timestamp": "2023-03-22T12:31:32", "type": "ride"}}, {"type": "Feature", "geometry": {"coordinates": [[-87.668473, 41.932963], [-87.668452, 41.9324], [-87.678134, 41.932278], [-87.680618, 41.934082], [-87.679395, 41.934095], [-87.679421, 41.934926]], "type": "LineString"}, "properties": {"timestamp": "2023-03-22T12:48:10", "type": "transition"}}, {"type": "Feature", "geometry": {"coordinates": [[-87.679421, 41.934926], [-87.679395, 41.934095], [-87.680618, 41.934082], [-87.678134, 41.932278], [-87.677765, 41.92139], [-87.677255, 41.921395], [-87.671115, 41.918139], [-87.668499, 41.915851], [-87.664752, 41.909975], [-87.661559, 41.906635], [-87.661057, 41.901306], [-87.658834, 41.896667], [-87.6483, 41.889096], [-87.646108, 41.885119], [-87.646413, 41.883144], [-87.641266, 41.883178], [-87.639745, 41.883185], [-87.631699, 41.883246], [-87.630932, 41.883184], [-87.63088, 41.882086]], "type": "LineString"}, "properties": {"timestamp": "2023-03-22T12:48:10", "type": "ride"}}, {"type": "Feature", "geometry": {"coordinates": [[-87.63088, 41.882086], [-87.630875, 41.881984], [-87.634523, 41.881936], [-87.635345, 41.881988], [-87.63544, 41.886906], [-87.636958, 41.888875], [-87.637178, 41.896556], [-87.642947, 41.896481], [-87.643252, 41.904839], [-87.642207, 41.904537]], "type": "LineString"}, "properties": {"timestamp": "2023-03-22T13:05:51", "type": "transition"}}, {"type": "Feature", "geometry": {"coordinates": [[-87.642207, 41.904537], [-87.641159, 41.904225], [-87.64113, 41.903744], [-87.633004, 41.903886], [-87.632362, 41.881953]], "type": "LineString"}, "properties": {"timestamp": "2023-03-22T13:05:51", "type": "ride"}}, {"type": "Feature", "geometry": {"coordinates": [[-87.632362, 41.881953], [-87.64573, 41.881801], [-87.646594, 41.887382], [-87.651689, 41.891702], [-87.65868, 41.896836], [-87.66137, 41.906646], [-87.670146, 41.917654], [-87.709927, 41.940372], [-87.715306, 41.94215], [-87.719592, 41.947613], [-87.741635, 41.95982], [-87.746287, 41.963594], [-87.746614, 41.980044], [-87.750967, 41.985896], [-87.751131, 41.99049], [-87.749995, 41.991278], [-87.750346, 41.990201], [-87.753543, 41.991161], [-87.781781, 42.004365], [-87.788728, 42.012002], [-87.791526, 42.011941], [-87.792814, 42.011321], [-87.790686, 42.007928], [-87.790597, 42.007947]], "type": "LineString"}, "properties": {"timestamp": "2023-03-22T14:30:32", "type": "transition"}}, {"type": "Feature", "geometry": {"coordinates": [[-87.790597, 42.007947], [-87.790686, 42.007928], [-87.791147, 42.009869], [-87.792814, 42.011321], [-87.791526, 42.011941], [-87.798054, 42.012556], [-87.802541, 42.011742], [-87.819985, 42.011394], [-87.819988, 42.011217]], "type": "LineString"}, "properties": {"timestamp": "2023-03-22T14:30:32", "type": "ride"}}, {"type": "Feature", "geometry": {"coordinates": [[-87.819988, 42.011217], [-87.819985, 42.011394], [-87.821252, 42.011364], [-87.821319, 42.007488], [-87.822363, 42.006708], [-87.820047, 42.00525], [-87.821382, 42.003958], [-87.821427, 41.99685], [-87.822112, 41.993364], [-87.815784, 41.990138], [-87.816411, 41.98938], [-87.816601, 41.986862], [-87.816154, 41.986501], [-87.815188, 41.986476], [-87.814509, 41.987059]], "type": "LineString"}, "properties": {"timestamp": "2023-03-22T14:46:52", "type": "transition"}}, {"type": "Feature", "geometry": {"coordinates": [[-87.814509, 41.987059], [-87.814911, 41.986647], [-87.813931, 41.986342], [-87.81351, 41.986827], [-87.812216, 41.987261], [-87.811968, 41.98822], [-87.806905, 41.985866], [-87.807176, 41.968273], [-87.797737, 41.968342], [-87.797692, 41.961087], [-87.795107, 41.961066], [-87.794106, 41.960158], [-87.790021, 41.961934], [-87.788685, 41.962023]], "type": "LineString"}, "properties": {"timestamp": "2023-03-22T14:46:52", "type": "ride"}}, {"type": "Feature", "geometry": {"coordinates": [[-87.788685, 41.962023], [-87.756072, 41.962474], [-87.757803, 41.964478]], "type": "LineString"}, "properties": {"timestamp": "2023-03-22T15:08:18", "type": "transition"}}, {"type": "Feature", "geometry": {"coordinates": [[-87.757803, 41.964478], [-87.758052, 41.964761], [-87.757599, 41.964985], [-87.757708, 41.967874], [-87.747723, 41.968033], [-87.747918, 41.972896], [-87.747761, 41.972794], [-87.747223, 41.966563], [-87.745961, 41.963113], [-87.742125, 41.960129], [-87.719592, 41.947613], [-87.715306, 41.94215], [-87.710219, 41.940524], [-87.698173, 41.933659], [-87.673831, 41.919706], [-87.671882, 41.918264], [-87.671723, 41.918151], [-87.667505, 41.91793], [-87.666413, 41.916455], [-87.663815, 41.917067], [-87.658378, 41.917139], [-87.658214, 41.918041], [-87.647123, 41.918199]], "type": "LineString"}, "properties": {"timestamp": "2023-03-22T15:08:18", "type": "ride"}}, {"type": "Feature", "geometry": {"coordinates": [[-87.647123, 41.918199], [-87.658214, 41.918041], [-87.658378, 41.917139], [-87.663815, 41.917067], [-87.66782, 41.916129], [-87.66776, 41.910633], [-87.749173, 41.90959], [-87.815528, 41.908729], [-87.815951, 41.921716]], "type": "LineString"}, "properties": {"timestamp": "2023-03-22T16:42:33", "type": "transition"}}, {"type": "Feature", "geometry": {"coordinates": [[-87.815951, 41.921716], [-87.816002, 41.92334], [-87.80921, 41.923464], [-87.809152, 41.924454], [-87.806251, 41.924003], [-87.806735, 41.938002], [-87.786046, 41.938315], [-87.786061, 41.938679]], "type": "LineString"}, "properties": {"timestamp": "2023-03-22T16:42:33", "type": "ride"}}, {"type": "Feature", "geometry": {"coordinates": [[-87.786061, 41.938679], [-87.786061, 41.938679]], "type": "LineString"}, "properties": {"timestamp": "2023-03-22T17:06:08", "type": "transition"}}, {"type": "Feature", "geometry": {"coordinates": [[-87.786061, 41.938679], [-87.785433, 41.923671], [-87.707229, 41.924722], [-87.70705, 41.9174], [-87.702438, 41.917446], [-87.702427, 41.917063]], "type": "LineString"}, "properties": {"timestamp": "2023-03-22T17:06:08", "type": "ride"}}, {"type": "Feature", "geometry": {"coordinates": [[-87.702427, 41.917063], [-87.702385, 41.915625], [-87.706867, 41.915578], [-87.707229, 41.924722], [-87.710137, 41.924691], [-87.710152, 41.925193], [-87.709312, 41.925198], [-87.709305, 41.925019]], "type": "LineString"}, "properties": {"timestamp": "2023-03-22T17:27:49", "type": "transition"}}, {"type": "Feature", "geometry": {"coordinates": [[-87.709305, 41.925019], [-87.709292, 41.9247], [-87.683686, 41.924962], [-87.683325, 41.924765], [-87.671496, 41.918378], [-87.668499, 41.915851], [-87.664752, 41.909975], [-87.661559, 41.906635], [-87.661131, 41.901587], [-87.659049, 41.896968], [-87.647531, 41.888343], [-87.646219, 41.885929], [-87.645999, 41.881827], [-87.646134, 41.880956], [-87.646145, 41.879569], [-87.646166, 41.878121], [-87.646107, 41.877218], [-87.646733, 41.875649], [-87.646076, 41.875057], [-87.631448, 41.875518]], "type": "LineString"}, "properties": {"timestamp": "2023-03-22T17:27:49", "type": "ride"}}, {"type": "Feature", "geometry": {"coordinates": [[-87.631448, 41.875518], [-87.630714, 41.875521], [-87.630686, 41.874518], [-87.63498, 41.874459], [-87.635036, 41.874529], [-87.635439, 41.886768], [-87.634232, 41.886821]], "type": "LineString"}, "properties": {"timestamp": "2023-03-22T17:54:44", "type": "transition"}}, {"type": "Feature", "geometry": {"coordinates": [[-87.634232, 41.886821], [-87.633975, 41.886821], [-87.633684, 41.87567], [-87.697235, 41.875658], [-87.70915, 41.874284], [-87.732948, 41.873967], [-87.740374, 41.87187], [-87.768271, 41.871004], [-87.810299, 41.874235], [-87.832523, 41.871501], [-87.887193, 41.869778], [-87.903102, 41.873868], [-87.911886, 41.874428], [-87.91705, 41.876389], [-87.919569, 41.878895], [-87.920355, 41.901573], [-87.923856, 41.906807], [-87.922942, 41.907498], [-87.927686, 41.906534]], "type": "LineString"}, "properties": {"timestamp": "2023-03-22T17:54:44", "type": "ride"}}, {"type": "Feature", "geometry": {"coordinates": [[-87.927686, 41.906534], [-87.922696, 41.906531], [-87.919193, 41.906433], [-87.919016, 41.903572], [-87.918476, 41.933523], [-87.913207, 41.937129], [-87.891671, 41.940957], [-87.886057, 41.944143], [-87.869309, 41.97281], [-87.869432, 41.978438], [-87.868435, 41.980974], [-87.867087, 41.985041], [-87.863672, 41.987182], [-87.858979, 41.985708], [-87.851179, 41.983807], [-87.829807, 41.984449], [-87.812646, 41.982178], [-87.792871, 41.982345], [-87.788361, 41.982061], [-87.787747, 41.982061], [-87.787472, 41.997353], [-87.766713, 41.99731], [-87.753476, 41.991079], [-87.748818, 41.989843], [-87.67223, 41.990752], [-87.662456, 41.985105], [-87.660132, 41.985467], [-87.66019, 41.987272], [-87.655312, 41.987366], [-87.655324, 41.987812]], "type": "LineString"}, "properties": {"timestamp": "2023-03-24T08:58:39", "type": "transition"}}]}