{"type": "FeatureCollection", "features": [{"type": "Feature", "geometry": {"coordinates": [[-87.665002, 41.989936], [-87.665145, 41.989946], [-87.665051, 41.986679], [-87.662456, 41.985105], [-87.654178, 41.985586], [-87.653157, 41.984999], [-87.652706, 41.981232], [-87.648822, 41.972134], [-87.644905, 41.955203], [-87.644611, 41.950978], [-87.638957, 41.941067], [-87.632637, 41.935041], [-87.631858, 41.927741], [-87.631853, 41.926001], [-87.648766, 41.925453], [-87.648495, 41.91731]], "type": "LineString"}, "properties": {}}, {"type": "Feature", "geometry": {"coordinates": [[-87.648495, 41.91731], [-87.648702, 41.923644], [-87.639373, 41.923783], [-87.641881, 41.927956]], "type": "LineString"}, "properties": {}}, {"type": "Feature", "geometry": {"coordinates": [[-87.641881, 41.927956], [-87.640463, 41.92558], [-87.631853, 41.926001], [-87.626142, 41.912297], [-87.62421, 41.902733], [-87.619617, 41.900898], [-87.614229, 41.892716], [-87.614184, 41.884726], [-87.617484, 41.881642], [-87.617261, 41.869765], [-87.619588, 41.866208], [-87.618646, 41.862252], [-87.607188, 41.832576], [-87.600839, 41.825932], [-87.593977, 41.815295], [-87.581876, 41.803502], [-87.57922, 41.796009], [-87.58022, 41.791662], [-87.57482, 41.780894], [-87.575197, 41.775384], [-87.570388, 41.775494], [-87.566817, 41.773554], [-87.566445, 41.766335], [-87.561822, 41.765287], [-87.561564, 41.765418]], "type": "LineString"}, "properties": {}}, {"type": "Feature", "geometry": {"coordinates": [[-87.561564, 41.765418], [-87.561822, 41.765287], [-87.560603, 41.764063], [-87.563303, 41.762708], [-87.566443, 41.76262], [-87.566086, 41.740831], [-87.568506, 41.740793], [-87.568493, 41.739812]], "type": "LineString"}, "properties": {}}, {"type": "Feature", "geometry": {"coordinates": [[-87.568493, 41.739812], [-87.568493, 41.739812]], "type": "LineString"}, "properties": {}}, {"type": "Feature", "geometry": {"coordinates": [[-87.568493, 41.739812], [-87.568897, 41.739513], [-87.585674, 41.751611], [-87.586148, 41.775171], [-87.594524, 41.775074], [-87.59449, 41.773342]], "type": "LineString"}, "properties": {}}, {"type": "Feature", "geometry": {"coordinates": [[-87.59449, 41.773342], [-87.594488, 41.773258], [-87.605763, 41.773146], [-87.606674, 41.814999], [-87.610128, 41.814934]], "type": "LineString"}, "properties": {}}, {"type": "Feature", "geometry": {"coordinates": [[-87.610128, 41.814934], [-87.616736, 41.814833], [-87.616898, 41.820238], [-87.619892, 41.820195], [-87.619964, 41.822908]], "type": "LineString"}, "properties": {}}, {"type": "Feature", "geometry": {"coordinates": [[-87.619964, 41.822908], [-87.619991, 41.823804], [-87.631351, 41.823664], [-87.631372, 41.823339], [-87.630703, 41.812695], [-87.63223, 41.807383], [-87.631289, 41.778978], [-87.626564, 41.773198], [-87.626239, 41.768925], [-87.626556, 41.766175], [-87.626545, 41.7655], [-87.660579, 41.764966], [-87.660572, 41.764679]], "type": "LineString"}, "properties": {}}, {"type": "Feature", "geometry": {"coordinates": [[-87.660572, 41.764679], [-87.660556, 41.764053], [-87.663697, 41.764], [-87.664811, 41.80498], [-87.658814, 41.805046], [-87.658816, 41.805124]], "type": "LineString"}, "properties": {}}, {"type": "Feature", "geometry": {"coordinates": [[-87.658816, 41.805124], [-87.658893, 41.808697], [-87.645541, 41.808882], [-87.64535, 41.801593], [-87.634343, 41.801794], [-87.634404, 41.803621]], "type": "LineString"}, "properties": {}}, {"type": "Feature", "geometry": {"coordinates": [[-87.634404, 41.803621], [-87.634585, 41.809065], [-87.6649, 41.808607], [-87.665079, 41.815874], [-87.684051, 41.815705], [-87.684058, 41.815975]], "type": "LineString"}, "properties": {}}, {"type": "Feature", "geometry": {"coordinates": [[-87.684058, 41.815975], [-87.684139, 41.819343], [-87.684228, 41.822995], [-87.684356, 41.823066], [-87.684754, 41.823066], [-87.684898, 41.825937], [-87.686829, 41.824772], [-87.689787, 41.824713], [-87.689813, 41.825624], [-87.692244, 41.82558], [-87.692261, 41.826156]], "type": "LineString"}, "properties": {}}, {"type": "Feature", "geometry": {"coordinates": [[-87.692261, 41.826156], [-87.692217, 41.824665], [-87.686829, 41.824772], [-87.68435, 41.826276], [-87.684228, 41.822995], [-87.67635, 41.823089]], "type": "LineString"}, "properties": {}}, {"type": "Feature", "geometry": {"coordinates": [[-87.67635, 41.823089], [-87.675088, 41.823104], [-87.675892, 41.854015], [-87.676501, 41.854007]], "type": "LineString"}, "properties": {}}, {"type": "Feature", "geometry": {"coordinates": [[-87.676501, 41.854007], [-87.675892, 41.854015], [-87.675532, 41.837577], [-87.66757, 41.837403], [-87.651867, 41.844887], [-87.642765, 41.847012], [-87.616851, 41.847976], [-87.613392, 41.848153], [-87.612168, 41.84938], [-87.619244, 41.8661], [-87.617003, 41.869799], [-87.617167, 41.881825], [-87.613645, 41.884762], [-87.614003, 41.89273], [-87.619441, 41.900921], [-87.624048, 41.902893], [-87.631851, 41.928415], [-87.632152, 41.934381], [-87.63676, 41.939073], [-87.638088, 41.940568], [-87.639537, 41.940119], [-87.639435, 41.936919]], "type": "LineString"}, "properties": {}}]}