{"type": "FeatureCollection", "features": [{"type": "Feature", "geometry": {"coordinates": [[-87.653827, 41.931569], [-87.653601, 41.925374], [-87.658464, 41.925291], [-87.658201, 41.917264], [-87.663815, 41.917067], [-87.66782, 41.916129], [-87.667205, 41.890972], [-87.679339, 41.890782], [-87.67936, 41.891505], [-87.67804, 41.891528]], "type": "LineString"}, "properties": {"timestamp": "2023-06-03T00:41:31", "type": "ride"}}, {"type": "Feature", "geometry": {"coordinates": [[-87.67804, 41.891528], [-87.676926, 41.891547], [-87.677009, 41.894261]], "type": "LineString"}, "properties": {"timestamp": "2023-06-03T00:54:38", "type": "transition"}}, {"type": "Feature", "geometry": {"coordinates": [[-87.677009, 41.894261], [-87.676904, 41.890825], [-87.647627, 41.891194], [-87.644337, 41.889054], [-87.644184, 41.884425], [-87.646033, 41.884406]], "type": "LineString"}, "properties": {"timestamp": "2023-06-03T00:54:38", "type": "ride"}}, {"type": "Feature", "geometry": {"coordinates": [[-87.646033, 41.884406], [-87.647438, 41.884415], [-87.652104, 41.884333], [-87.652212, 41.888087]], "type": "LineString"}, "properties": {"timestamp": "2023-06-03T01:09:53", "type": "transition"}}, {"type": "Feature", "geometry": {"coordinates": [[-87.652212, 41.888087], [-87.652288, 41.891135], [-87.676904, 41.890825], [-87.677244, 41.902253], [-87.681164, 41.902193]], "type": "LineString"}, "properties": {"timestamp": "2023-06-03T01:09:53", "type": "ride"}}, {"type": "Feature", "geometry": {"coordinates": [[-87.681164, 41.902193], [-87.682123, 41.902178], [-87.682046, 41.899461], [-87.686926, 41.899379], [-87.686835, 41.89575], [-87.701213, 41.895606]], "type": "LineString"}, "properties": {"timestamp": "2023-06-03T01:28:05", "type": "transition"}}, {"type": "Feature", "geometry": {"coordinates": [[-87.701213, 41.895606], [-87.699899, 41.895625], [-87.686683, 41.890646], [-87.686045, 41.866615], [-87.676349, 41.866694], [-87.675765, 41.849401]], "type": "LineString"}, "properties": {"timestamp": "2023-06-03T01:28:05", "type": "ride"}}, {"type": "Feature", "geometry": {"coordinates": [[-87.675765, 41.849401], [-87.675766, 41.849449], [-87.678356, 41.848455], [-87.678723, 41.848508], [-87.683089, 41.848443], [-87.683078, 41.848053], [-87.682791, 41.848058]], "type": "LineString"}, "properties": {"timestamp": "2023-06-03T01:45:25", "type": "transition"}}, {"type": "Feature", "geometry": {"coordinates": [[-87.682791, 41.848058], [-87.683078, 41.848053], [-87.683089, 41.848443], [-87.685521, 41.848405], [-87.686165, 41.876094], [-87.701067, 41.875937], [-87.702222, 41.896575], [-87.711412, 41.900181], [-87.711856, 41.908233], [-87.714298, 41.90821], [-87.714329, 41.909112], [-87.712229, 41.909136]], "type": "LineString"}, "properties": {"timestamp": "2023-06-03T01:45:25", "type": "ride"}}, {"type": "Feature", "geometry": {"coordinates": [[-87.712229, 41.909136], [-87.711885, 41.90914], [-87.711884, 41.910045], [-87.735652, 41.909821], [-87.753381, 41.916843], [-87.782959, 41.921914], [-87.788528, 41.923648], [-87.803157, 41.923552], [-87.806251, 41.924003], [-87.806613, 41.934519], [-87.820654, 41.93424], [-87.82067, 41.934634]], "type": "LineString"}, "properties": {"timestamp": "2023-06-09T22:20:54", "type": "transition"}}]}