{"type": "FeatureCollection", "features": [{"type": "Feature", "geometry": {"coordinates": [[-87.714251, 41.942233], [-87.712582, 41.942239], [-87.712526, 41.940478], [-87.709442, 41.939977], [-87.668499, 41.915851], [-87.661559, 41.906635], [-87.658834, 41.896667], [-87.646614, 41.886973], [-87.64461, 41.864445], [-87.645245, 41.851247], [-87.642429, 41.847384], [-87.634652, 41.845323], [-87.630941, 41.842341], [-87.630439, 41.815532], [-87.632226, 41.807984], [-87.631696, 41.798939], [-87.631804, 41.794538], [-87.645164, 41.794327], [-87.645154, 41.793936], [-87.643932, 41.793958], [-87.643921, 41.793492]], "type": "LineString"}, "properties": {"timestamp": "2024-09-24T16:50:31", "type": "ride"}}, {"type": "Feature", "geometry": {"coordinates": [[-87.643921, 41.793492], [-87.645141, 41.793472], [-87.646102, 41.830751], [-87.663497, 41.830518]], "type": "LineString"}, "properties": {"timestamp": "2024-09-24T17:27:17", "type": "transition"}}, {"type": "Feature", "geometry": {"coordinates": [[-87.663497, 41.830518], [-87.67772, 41.830354], [-87.68435, 41.826276], [-87.684228, 41.822995], [-87.684095, 41.817516], [-87.684059, 41.816038], [-87.684046, 41.815484], [-87.684007, 41.813884], [-87.683875, 41.808416], [-87.694195, 41.808287], [-87.693989, 41.800992], [-87.697667, 41.800934], [-87.69753, 41.795955]], "type": "LineString"}, "properties": {"timestamp": "2024-09-24T17:27:17", "type": "ride"}}, {"type": "Feature", "geometry": {"coordinates": [[-87.69753, 41.795955], [-87.697466, 41.793641], [-87.693791, 41.793706], [-87.693599, 41.786407], [-87.692374, 41.786426], [-87.692418, 41.788027]], "type": "LineString"}, "properties": {"timestamp": "2024-09-24T18:02:26", "type": "transition"}}, {"type": "Feature", "geometry": {"coordinates": [[-87.692418, 41.788027], [-87.692424, 41.788258], [-87.683894, 41.788363], [-87.684045, 41.79341], [-87.631803, 41.794175], [-87.631807, 41.793713], [-87.631289, 41.778978], [-87.630364, 41.777358], [-87.627804, 41.775353], [-87.621556, 41.774902], [-87.619425, 41.774072], [-87.566915, 41.73564], [-87.560639, 41.731668], [-87.557314, 41.728885], [-87.561078, 41.731606], [-87.559874, 41.733008], [-87.560189, 41.733234], [-87.552728, 41.733716], [-87.552822, 41.737222]], "type": "LineString"}, "properties": {"timestamp": "2024-09-24T18:02:26", "type": "ride"}}, {"type": "Feature", "geometry": {"coordinates": [[-87.552822, 41.737222], [-87.552826, 41.737365], [-87.551438, 41.737384], [-87.55122, 41.728259], [-87.55535, 41.728206], [-87.62345, 41.775045], [-87.630747, 41.779495], [-87.630667, 41.838631], [-87.631001, 41.844069], [-87.630081, 41.846653], [-87.616851, 41.847976], [-87.612168, 41.84938], [-87.619244, 41.8661], [-87.614003, 41.89273], [-87.619441, 41.900921], [-87.624048, 41.902893], [-87.632273, 41.934701], [-87.644496, 41.951253], [-87.649207, 41.974381], [-87.649649, 41.976812], [-87.674411, 41.976102], [-87.6744, 41.978844], [-87.674163, 41.978847]], "type": "LineString"}, "properties": {"timestamp": "2024-09-25T12:21:39", "type": "transition"}}]}