{"type": "FeatureCollection", "features": [{"type": "Feature", "geometry": {"coordinates": [[-87.816641, 41.941072], [-87.816524, 41.93794], [-87.806735, 41.938002], [-87.804598, 41.873618], [-87.769061, 41.87064], [-87.739969, 41.871594], [-87.733001, 41.87362], [-87.708909, 41.873948], [-87.69832, 41.875168], [-87.650308, 41.875329], [-87.648052, 41.875215], [-87.64633, 41.874142], [-87.645367, 41.869682], [-87.645128, 41.867138], [-87.642187, 41.867183], [-87.642168, 41.866585]], "type": "LineString"}, "properties": {"timestamp": "2024-09-14T16:23:28", "type": "ride", "rideType": "UberX", "pickupAddress": "W North Ave, Chicago, IL 60642, US", "dropoffAddress": "S Jefferson St, Chicago, IL 60607, US", "basePay": "7.23", "surge": "0.00", "tip": "3.00", "earnings": "10.23", "duration": "808", "distance": "3.40", "rideStartTime": "September 14, 2024 at 04:23 PM", "rideEndTime": "September 14, 2024 at 04:36 PM"}}, {"type": "Feature", "geometry": {"coordinates": [[-87.642168, 41.866585], [-87.64219, 41.867285], [-87.645153, 41.867243], [-87.644894, 41.859734]], "type": "LineString"}, "properties": {"timestamp": "2024-09-14T16:38:43", "type": "transition"}}, {"type": "Feature", "geometry": {"coordinates": [[-87.644894, 41.859734], [-87.644764, 41.856748], [-87.645083, 41.855528], [-87.64655, 41.854689], [-87.6512, 41.852585], [-87.661159, 41.852429], [-87.661241, 41.85515], [-87.675913, 41.854928], [-87.675934, 41.855831], [-87.677704, 41.855815]], "type": "LineString"}, "properties": {"timestamp": "2024-09-14T16:38:43", "type": "ride", "rideType": "UberX", "pickupAddress": "S Union Ave, Chicago, IL 60607, US", "dropoffAddress": "W 19th St, Chicago, IL 60608, US", "basePay": "5.60", "surge": "0.00", "tip": "3.00", "earnings": "8.60", "duration": "614", "distance": "2.00", "rideStartTime": "September 14, 2024 at 04:38 PM", "rideEndTime": "September 14, 2024 at 04:48 PM"}}, {"type": "Feature", "geometry": {"coordinates": [[-87.677704, 41.855815], [-87.677704, 41.855815]], "type": "LineString"}, "properties": {"timestamp": "2024-09-14T16:49:34", "type": "transition"}}, {"type": "Feature", "geometry": {"coordinates": [[-87.677704, 41.855815], [-87.675934, 41.855831], [-87.675328, 41.831825], [-87.68435, 41.826276], [-87.684228, 41.822995], [-87.684095, 41.817516], [-87.684059, 41.816038], [-87.684046, 41.815484], [-87.684007, 41.813884], [-87.683684, 41.801133], [-87.684252, 41.801155], [-87.683094, 41.759103], [-87.702412, 41.750499], [-87.702162, 41.731792]], "type": "LineString"}, "properties": {"timestamp": "2024-09-14T16:49:34", "type": "ride", "rideType": "UberX", "pickupAddress": "W 19th St, Chicago, IL 60608-2606, US", "dropoffAddress": "S Kedzie Ave, Chicago, IL 60632-2828, US", "basePay": "6.49", "surge": "1.75", "tip": "0.00", "earnings": "8.24", "duration": "688", "distance": "3.90", "rideStartTime": "September 14, 2024 at 04:49 PM", "rideEndTime": "September 14, 2024 at 05:01 PM"}}, {"type": "Feature", "geometry": {"coordinates": [[-87.702162, 41.731792], [-87.702412, 41.750499], [-87.683094, 41.759103], [-87.684632, 41.815701], [-87.689529, 41.815627], [-87.689613, 41.818578], [-87.692071, 41.819401]], "type": "LineString"}, "properties": {"timestamp": "2024-09-14T17:02:55", "type": "transition"}}, {"type": "Feature", "geometry": {"coordinates": [[-87.692071, 41.819401], [-87.693423, 41.820748], [-87.689949, 41.822877], [-87.684228, 41.822995], [-87.684095, 41.817516], [-87.684059, 41.816038], [-87.684046, 41.815484], [-87.684007, 41.813884], [-87.683437, 41.793567], [-87.674289, 41.793547], [-87.674097, 41.786625], [-87.670467, 41.786674], [-87.670418, 41.784856], [-87.671634, 41.784839], [-87.671669, 41.786209]], "type": "LineString"}, "properties": {"timestamp": "2024-09-14T17:02:55", "type": "ride", "rideType": "UberX", "pickupAddress": "S Montgomery Ave, Chicago, IL 60632-1145, US", "dropoffAddress": "S Wolcott Ave, Chicago, IL 60609-2013, US", "basePay": "5.16", "surge": "0.00", "tip": "0.00", "earnings": "5.16", "duration": "471", "distance": "1.40", "rideStartTime": "September 14, 2024 at 05:02 PM", "rideEndTime": "September 14, 2024 at 05:10 PM"}}, {"type": "Feature", "geometry": {"coordinates": [[-87.671669, 41.786209], [-87.67168, 41.786658], [-87.68385, 41.78654], [-87.684444, 41.808423], [-87.694195, 41.808287], [-87.694432, 41.815738]], "type": "LineString"}, "properties": {"timestamp": "2024-09-14T17:17:23", "type": "transition"}}, {"type": "Feature", "geometry": {"coordinates": [[-87.694432, 41.815738], [-87.694565, 41.820049], [-87.684898, 41.825937], [-87.684513, 41.835142], [-87.685375, 41.844874], [-87.666089, 41.852334], [-87.661159, 41.852429], [-87.66131, 41.857881], [-87.66163, 41.857876]], "type": "LineString"}, "properties": {"timestamp": "2024-09-14T17:17:23", "type": "ride", "rideType": "UberX", "pickupAddress": "S California Ave, Chicago, IL 60632-1817, US", "dropoffAddress": "W 18th St, Chicago, IL 60608-1816, US", "basePay": "6.85", "surge": "0.00", "tip": "0.00", "earnings": "6.85", "duration": "821", "distance": "3.70", "rideStartTime": "September 14, 2024 at 05:17 PM", "rideEndTime": "September 14, 2024 at 05:31 PM"}}, {"type": "Feature", "geometry": {"coordinates": [[-87.66163, 41.857876], [-87.66131, 41.857881], [-87.661305, 41.857734], [-87.664137, 41.854193], [-87.666112, 41.854154], [-87.664826, 41.800728]], "type": "LineString"}, "properties": {"timestamp": "2024-09-14T18:05:07", "type": "transition"}}, {"type": "Feature", "geometry": {"coordinates": [[-87.664826, 41.800728], [-87.664663, 41.793659], [-87.630499, 41.794196], [-87.630536, 41.795184], [-87.63142, 41.807989], [-87.6297, 41.812339], [-87.630064, 41.823852], [-87.629907, 41.834623], [-87.626674, 41.834684], [-87.626661, 41.833703]], "type": "LineString"}, "properties": {"timestamp": "2024-09-14T18:05:07", "type": "ride", "rideType": "Share", "pickupAddress": "S Ashland Ave, Chicago, IL 60608, US", "dropoffAddress": "S State St, Chicago, IL 60616, US", "basePay": "7.67", "surge": "0.00", "tip": "0.00", "earnings": "7.67", "duration": "681", "distance": "2.90", "rideStartTime": "September 14, 2024 at 06:05 PM", "rideEndTime": "September 14, 2024 at 06:16 PM"}}, {"type": "Feature", "geometry": {"coordinates": [[-87.626661, 41.833703], [-87.62663, 41.831006], [-87.623244, 41.831047], [-87.623001, 41.815421]], "type": "LineString"}, "properties": {"timestamp": "2024-09-14T18:12:21", "type": "transition"}}, {"type": "Feature", "geometry": {"coordinates": [[-87.623001, 41.815421], [-87.622988, 41.814738], [-87.626222, 41.814689], [-87.6254, 41.779128]], "type": "LineString"}, "properties": {"timestamp": "2024-09-14T18:12:21", "type": "ride", "rideType": "UberX", "pickupAddress": "S Michigan Ave, Chicago, IL 60616-1706, US", "dropoffAddress": "S State St, Chicago, IL 60616-2823, US", "basePay": "3.57", "surge": "0.00", "tip": "0.00", "earnings": "3.57", "duration": "223", "distance": "1.00", "rideStartTime": "September 14, 2024 at 06:12 PM", "rideEndTime": "September 14, 2024 at 06:16 PM"}}, {"type": "Feature", "geometry": {"coordinates": [[-87.6254, 41.779128], [-87.625218, 41.772818], [-87.62998, 41.772715], [-87.630149, 41.780433], [-87.63142, 41.807989], [-87.629665, 41.812785], [-87.630393, 41.837743], [-87.631001, 41.844069], [-87.630369, 41.850141], [-87.631144, 41.852935], [-87.632035, 41.852919], [-87.632001, 41.851747]], "type": "LineString"}, "properties": {"timestamp": "2024-09-14T18:27:34", "type": "transition"}}, {"type": "Feature", "geometry": {"coordinates": [[-87.632001, 41.851747], [-87.632035, 41.852919], [-87.638539, 41.852796], [-87.63887, 41.855696], [-87.639085, 41.862465], [-87.64203, 41.86242], [-87.642168, 41.866585]], "type": "LineString"}, "properties": {"timestamp": "2024-09-14T18:27:34", "type": "ride", "rideType": "UberX", "pickupAddress": "S Wentworth Ave, Chicago, IL 60616-2202, US", "dropoffAddress": "S Jefferson St, Chicago, IL 60616, US", "basePay": "3.95", "surge": "0.00", "tip": "0.00", "earnings": "3.95", "duration": "245", "distance": "0.80", "rideStartTime": "September 14, 2024 at 06:27 PM", "rideEndTime": "September 14, 2024 at 06:31 PM"}}, {"type": "Feature", "geometry": {"coordinates": [[-87.642168, 41.866585], [-87.64219, 41.867285], [-87.645153, 41.867243], [-87.645098, 41.866852], [-87.644998, 41.850609], [-87.642186, 41.847255], [-87.634652, 41.845323], [-87.63091, 41.84209], [-87.631289, 41.79178], [-87.631289, 41.778978], [-87.626564, 41.773198], [-87.626239, 41.768925], [-87.626556, 41.766175], [-87.626545, 41.7655], [-87.644417, 41.765212], [-87.644436, 41.766001]], "type": "LineString"}, "properties": {"timestamp": "2024-09-14T18:33:56", "type": "transition"}}, {"type": "Feature", "geometry": {"coordinates": [[-87.644436, 41.766001], [-87.644417, 41.765212], [-87.624899, 41.765368], [-87.624908, 41.765772], [-87.62543, 41.769557], [-87.630526, 41.779578], [-87.630393, 41.837743], [-87.631001, 41.844069], [-87.630081, 41.846653], [-87.616851, 41.847976], [-87.612168, 41.84938], [-87.619244, 41.8661], [-87.614003, 41.89273], [-87.619441, 41.900921], [-87.624048, 41.902893], [-87.632152, 41.934381], [-87.63676, 41.939073], [-87.638088, 41.940568], [-87.638796, 41.940268], [-87.636832, 41.936481]], "type": "LineString"}, "properties": {"timestamp": "2024-09-14T18:33:56", "type": "ride", "rideType": "UberX", "pickupAddress": "S Halsted St, Chicago, IL 60608, US", "dropoffAddress": "N Lake Shore Dr, Chicago, IL 60657, US", "basePay": "13.46", "surge": "0.00", "tip": "0.00", "earnings": "13.46", "duration": "1269", "distance": "9.80", "rideStartTime": "September 14, 2024 at 06:33 PM", "rideEndTime": "September 14, 2024 at 06:55 PM"}}, {"type": "Feature", "geometry": {"coordinates": [[-87.636832, 41.936481], [-87.636768, 41.935621], [-87.647101, 41.935537], [-87.650679, 41.939965], [-87.673369, 41.939644]], "type": "LineString"}, "properties": {"timestamp": "2024-09-14T18:58:58", "type": "transition"}}, {"type": "Feature", "geometry": {"coordinates": [[-87.673369, 41.939644], [-87.678349, 41.939586], [-87.678308, 41.929922], [-87.677765, 41.92139], [-87.677255, 41.921395], [-87.674531, 41.920141], [-87.670155, 41.917456], [-87.668247, 41.915543], [-87.666712, 41.913088], [-87.665325, 41.910236], [-87.665207, 41.90885], [-87.666429, 41.908834], [-87.666435, 41.909028]], "type": "LineString"}, "properties": {"timestamp": "2024-09-14T18:58:58", "type": "ride", "rideType": "UberX", "pickupAddress": "W Belmont Ave, Chicago, IL 60657-4745, US", "dropoffAddress": "N Bosworth Ave, Chicago, IL 60642-2348, US", "basePay": "11.33", "surge": "0.00", "tip": "3.00", "earnings": "14.33", "duration": "1539", "distance": "3.70", "rideStartTime": "September 14, 2024 at 06:58 PM", "rideEndTime": "September 14, 2024 at 07:24 PM"}}, {"type": "Feature", "geometry": {"coordinates": [[-87.666435, 41.909028], [-87.666509, 41.910658], [-87.673806, 41.910536], [-87.673782, 41.90961], [-87.673955, 41.909456]], "type": "LineString"}, "properties": {"timestamp": "2024-09-14T20:59:22", "type": "transition"}}, {"type": "Feature", "geometry": {"coordinates": [[-87.673955, 41.909456], [-87.673806, 41.910536], [-87.665662, 41.910672], [-87.665325, 41.910236], [-87.662271, 41.907574], [-87.661439, 41.906386], [-87.661131, 41.901587], [-87.659383, 41.897534], [-87.657479, 41.894931], [-87.657374, 41.891076], [-87.648776, 41.891179], [-87.648752, 41.889662]], "type": "LineString"}, "properties": {"timestamp": "2024-09-14T20:59:22", "type": "ride", "rideType": "UberX", "pickupAddress": "N Honore St, Chicago, IL 60622-2028, US", "dropoffAddress": "N Green St, Chicago, IL 60607, US", "basePay": "13.47", "surge": "0.00", "tip": "0.00", "earnings": "13.47", "duration": "1807", "distance": "5.40", "rideStartTime": "September 14, 2024 at 08:59 PM", "rideEndTime": "September 14, 2024 at 09:29 PM"}}, {"type": "Feature", "geometry": {"coordinates": [[-87.648752, 41.889662], [-87.648718, 41.889017], [-87.644337, 41.889054], [-87.644184, 41.884425], [-87.646033, 41.884406]], "type": "LineString"}, "properties": {"timestamp": "2024-09-14T21:29:22", "type": "transition"}}, {"type": "Feature", "geometry": {"coordinates": [[-87.646033, 41.884406], [-87.647438, 41.884415], [-87.647675, 41.896405], [-87.632635, 41.896613], [-87.632751, 41.900548], [-87.628335, 41.9006], [-87.62834, 41.900747], [-87.624042, 41.900824], [-87.62589, 41.912141], [-87.631851, 41.928415], [-87.632273, 41.934701], [-87.638833, 41.941219], [-87.644376, 41.950931], [-87.648738, 41.973046], [-87.652803, 41.984951], [-87.658072, 41.985487], [-87.658038, 41.984272]], "type": "LineString"}, "properties": {"timestamp": "2024-09-14T21:29:22", "type": "ride", "rideType": "UberX", "pickupAddress": "W Randolph St, Chicago, IL 60607, US", "dropoffAddress": "N Winthrop Ave, Chicago, IL 60640-1410, US", "basePay": "13.69", "surge": "0.00", "tip": "0.00", "earnings": "13.69", "duration": "1265", "distance": "10.00", "rideStartTime": "September 14, 2024 at 09:29 PM", "rideEndTime": "September 14, 2024 at 09:50 PM"}}, {"type": "Feature", "geometry": {"coordinates": [[-87.658038, 41.984272], [-87.658021, 41.983669], [-87.660074, 41.983631], [-87.660929, 42.005557], [-87.666816, 42.021956], [-87.665345, 42.023288], [-87.667277, 42.026585], [-87.670647, 42.027188], [-87.670554, 42.033741], [-87.671915, 42.033884], [-87.672063, 42.04031], [-87.674958, 42.040336], [-87.674669, 42.044876], [-87.683456, 42.047037], [-87.685699, 42.047071]], "type": "LineString"}, "properties": {"timestamp": "2024-09-14T22:52:22", "type": "transition"}}, {"type": "Feature", "geometry": {"coordinates": [[-87.685699, 42.047071], [-87.68872, 42.047097], [-87.684163, 42.015501], [-87.67684, 41.99796], [-87.67067, 41.998083], [-87.670227, 41.993523], [-87.665432, 41.993579]], "type": "LineString"}, "properties": {"timestamp": "2024-09-14T22:52:22", "type": "ride", "rideType": "UberX", "pickupAddress": "Davis St, Evanston, IL 60201, US", "dropoffAddress": "W Hood Ave, Chicago, IL 60660-2507, US", "basePay": "12.37", "surge": "0.00", "tip": "4.00", "earnings": "16.37", "duration": "1107", "distance": "4.10", "rideStartTime": "September 14, 2024 at 10:52 PM", "rideEndTime": "September 14, 2024 at 11:10 PM"}}, {"type": "Feature", "geometry": {"coordinates": [[-87.665432, 41.993579], [-87.660394, 41.993637], [-87.659673, 41.968906], [-87.656894, 41.964503]], "type": "LineString"}, "properties": {"timestamp": "2024-09-14T23:16:38", "type": "transition"}}, {"type": "Feature", "geometry": {"coordinates": [[-87.656894, 41.964503], [-87.655148, 41.961772], [-87.646878, 41.961908], [-87.644507, 41.950757], [-87.638957, 41.941067], [-87.632453, 41.934639], [-87.632048, 41.928427], [-87.62421, 41.902733], [-87.619617, 41.900898], [-87.614264, 41.892868], [-87.614184, 41.884726], [-87.617484, 41.881642], [-87.617261, 41.869765], [-87.619588, 41.866208], [-87.618646, 41.862252], [-87.607384, 41.832923], [-87.591653, 41.813342], [-87.58976, 41.810561], [-87.608731, 41.809498]], "type": "LineString"}, "properties": {"timestamp": "2024-09-14T23:16:38", "type": "ride", "rideType": "Comfort", "pickupAddress": "N Broadway, Chicago, IL 60640-1405, US", "dropoffAddress": "E 47th St, Chicago, IL 60653-4503, US", "basePay": "38.42", "surge": "2.00", "tip": "0.00", "earnings": "40.42", "duration": "3216", "distance": "16.10", "rideStartTime": "September 14, 2024 at 11:16 PM", "rideEndTime": "September 15, 2024 at 12:10 AM"}}, {"type": "Feature", "geometry": {"coordinates": [[-87.608731, 41.809498], [-87.591839, 41.809693], [-87.588944, 41.810893], [-87.607125, 41.833032], [-87.613467, 41.852437], [-87.618159, 41.861647], [-87.619249, 41.866344], [-87.617003, 41.869799], [-87.617218, 41.881566], [-87.613645, 41.884762], [-87.613978, 41.892577], [-87.619441, 41.900921], [-87.623907, 41.902638], [-87.625717, 41.909833], [-87.626017, 41.913347], [-87.627835, 41.912344], [-87.632438, 41.913334], [-87.633223, 41.911171], [-87.648286, 41.910927], [-87.648495, 41.91731]], "type": "LineString"}, "properties": {"timestamp": "2024-09-15T01:29:49", "type": "transition"}}, {"type": "Feature", "geometry": {"coordinates": [[-87.648495, 41.91731], [-87.648766, 41.925453], [-87.63067, 41.926223], [-87.631851, 41.928415], [-87.632612, 41.935386], [-87.638833, 41.941219], [-87.644437, 41.951086], [-87.644596, 41.954749], [-87.648738, 41.973046], [-87.652251, 41.981039], [-87.652803, 41.984951], [-87.654178, 41.985586], [-87.662456, 41.985105], [-87.665884, 41.987189], [-87.669585, 41.987146], [-87.669707, 41.988054], [-87.669796, 41.987608], [-87.669769, 41.987519]], "type": "LineString"}, "properties": {"timestamp": "2024-09-15T01:29:49", "type": "ride", "rideType": "UberX", "pickupAddress": "N Halsted St, Chicago, IL 60657-5117, US", "dropoffAddress": "N Clark St, Chicago, IL 60626, US", "basePay": "14.39", "surge": "0.00", "tip": "0.00", "earnings": "14.39", "duration": "1652", "distance": "7.40", "rideStartTime": "September 15, 2024 at 01:29 AM", "rideEndTime": "September 15, 2024 at 01:57 AM"}}, {"type": "Feature", "geometry": {"coordinates": [[-87.669769, 41.987519], [-87.669769, 41.987519]], "type": "LineString"}, "properties": {"timestamp": "2024-09-15T01:55:20", "type": "transition"}}, {"type": "Feature", "geometry": {"coordinates": [[-87.669769, 41.987519], [-87.669181, 41.985433], [-87.663294, 41.985603], [-87.662456, 41.985105], [-87.653157, 41.984999], [-87.648822, 41.972134], [-87.644611, 41.950978], [-87.638957, 41.941067], [-87.632527, 41.93482], [-87.632048, 41.928427], [-87.62421, 41.902733], [-87.619617, 41.900898], [-87.614374, 41.893163], [-87.614127, 41.884928], [-87.617321, 41.882167], [-87.617442, 41.878363], [-87.620697, 41.878331], [-87.620625, 41.876287], [-87.673066, 41.8759], [-87.676512, 41.876215], [-87.676638, 41.881323], [-87.679085, 41.881324], [-87.678236, 41.88126]], "type": "LineString"}, "properties": {"timestamp": "2024-09-15T01:55:20", "type": "ride", "rideType": "UberX", "pickupAddress": "N Clark St, Chicago, IL 60626, US", "dropoffAddress": "W Madison St, Chicago, IL 60607-2601, US", "basePay": "14.79", "surge": "0.00", "tip": "4.98", "earnings": "19.77", "duration": "2078", "distance": "9.50", "rideStartTime": "September 15, 2024 at 01:55 AM", "rideEndTime": "September 15, 2024 at 02:29 AM"}}, {"type": "Feature", "geometry": {"coordinates": [[-87.678236, 41.88126], [-87.676638, 41.881323], [-87.676555, 41.875016], [-87.676128, 41.875021], [-87.673504, 41.875431], [-87.6605, 41.875604], [-87.650308, 41.875329], [-87.648052, 41.875215], [-87.646345, 41.874508], [-87.645538, 41.872825], [-87.644752, 41.867365], [-87.644538, 41.861936], [-87.645083, 41.855528], [-87.64655, 41.854689], [-87.646443, 41.844914], [-87.646255, 41.844758]], "type": "LineString"}, "properties": {"timestamp": "2024-09-15T02:29:01", "type": "transition"}}, {"type": "Feature", "geometry": {"coordinates": [[-87.646255, 41.844758], [-87.646335, 41.844917], [-87.646443, 41.844914], [-87.646499, 41.852666], [-87.64473, 41.852672], [-87.643738, 41.855471], [-87.643778, 41.857758], [-87.646101, 41.886419], [-87.6586, 41.897003], [-87.661061, 41.906443], [-87.667973, 41.915739], [-87.66968, 41.917898], [-87.667964, 41.917936], [-87.668113, 41.926065], [-87.665781, 41.926085], [-87.66581, 41.927], [-87.664639, 41.927018], [-87.664634, 41.926889]], "type": "LineString"}, "properties": {"timestamp": "2024-09-15T02:29:01", "type": "ride", "rideType": "UberX", "pickupAddress": "N Halsted St, Chicago, IL 60661, US", "dropoffAddress": "N Janssen Ave, Chicago, IL 60657-1322, US", "basePay": "11.93", "surge": "8.50", "tip": "0.00", "earnings": "20.43", "duration": "1592", "distance": "6.60", "rideStartTime": "September 15, 2024 at 02:29 AM", "rideEndTime": "September 15, 2024 at 02:55 AM"}}, {"type": "Feature", "geometry": {"coordinates": [[-87.664634, 41.926889], [-87.664567, 41.925197], [-87.66815, 41.925151], [-87.668644, 41.921138], [-87.667771, 41.917197], [-87.667457, 41.899711], [-87.674089, 41.899597], [-87.67412, 41.90052]], "type": "LineString"}, "properties": {"timestamp": "2024-09-15T18:25:10", "type": "transition"}}]}