{"type": "FeatureCollection", "features": [{"type": "Feature", "geometry": {"coordinates": [[-87.696046, 41.878346], [-87.696214, 41.878344], [-87.696151, 41.875983], [-87.701496, 41.875935], [-87.740938, 41.87185], [-87.771005, 41.871077], [-87.810299, 41.874235], [-87.887193, 41.869778], [-87.903102, 41.873868], [-87.918965, 41.868556], [-87.929548, 41.857187], [-87.946695, 41.845298], [-87.978457, 41.84403], [-88.015984, 41.832098], [-88.021676, 41.827558], [-88.028569, 41.813668], [-88.034292, 41.810006], [-88.073498, 41.810084], [-88.087614, 41.805662], [-88.159381, 41.806483], [-88.164816, 41.807737], [-88.166633, 41.808158], [-88.17093, 41.842049], [-88.160935, 41.856978], [-88.176889, 41.857012], [-88.192877, 41.861458], [-88.19473, 41.863763], [-88.194407, 41.885083], [-88.204904, 41.884636]], "type": "LineString"}, "properties": {}}, {"type": "Feature", "geometry": {"coordinates": [[-88.204904, 41.884636], [-88.151092, 41.888137], [-88.150531, 41.907621], [-88.102946, 41.902084], [-88.037137, 41.904083], [-88.037235, 41.947209], [-88.026829, 41.958023], [-88.023332, 41.979277], [-88.023633, 41.993285], [-88.030784, 42.017964], [-88.029844, 42.045111], [-88.028387, 42.052731], [-88.024448, 42.056683], [-88.012455, 42.05373], [-87.97554, 42.03647], [-87.954188, 42.021115], [-87.898161, 42.007134], [-87.87696, 41.997457], [-87.864082, 41.988327], [-87.850425, 41.983769], [-87.784218, 41.98215], [-87.73715, 41.957103], [-87.732489, 41.954216], [-87.732464, 41.953606], [-87.733959, 41.953587], [-87.733745, 41.946293], [-87.739921, 41.946215]], "type": "LineString"}, "properties": {}}, {"type": "Feature", "geometry": {"coordinates": [[-87.739921, 41.946215], [-87.71959, 41.946484], [-87.718156, 41.944989], [-87.715518, 41.942115], [-87.710267, 41.940414], [-87.693566, 41.930594], [-87.687291, 41.927358], [-87.683686, 41.924962], [-87.669348, 41.925139], [-87.664379, 41.921608], [-87.659737, 41.921657]], "type": "LineString"}, "properties": {}}, {"type": "Feature", "geometry": {"coordinates": [[-87.659737, 41.921657], [-87.664379, 41.921608], [-87.664499, 41.921692]], "type": "LineString"}, "properties": {}}, {"type": "Feature", "geometry": {"coordinates": [[-87.664499, 41.921692], [-87.664379, 41.921608], [-87.677765, 41.92139], [-87.677621, 41.91776], [-87.705789, 41.917413]], "type": "LineString"}, "properties": {}}, {"type": "Feature", "geometry": {"coordinates": [[-87.705789, 41.917413], [-87.687413, 41.917587], [-87.687645, 41.924902], [-87.63436, 41.925687], [-87.63067, 41.926223], [-87.631851, 41.928415], [-87.632612, 41.935386], [-87.638833, 41.941219], [-87.644437, 41.951086], [-87.644596, 41.954749], [-87.648738, 41.973046], [-87.652251, 41.981039], [-87.652803, 41.984951], [-87.653847, 41.985569], [-87.658072, 41.985487], [-87.658038, 41.984272]], "type": "LineString"}, "properties": {}}]}