{"type": "FeatureCollection", "features": [{"type": "Feature", "geometry": {"coordinates": [[-87.663308, 41.996357], [-87.660482, 41.996386], [-87.659771, 41.972678], [-87.660107, 41.972674]], "type": "LineString"}, "properties": {"timestamp": "2024-04-08T10:10:37", "type": "ride", "rideType": "UberX", "pickupAddress": "W Rosemont Ave, Chicago, IL 60660-1320, US", "dropoffAddress": "W Argyle St, Chicago, IL 60640-3715, US", "basePay": "5.02", "surge": "0.00", "tip": "0.00", "earnings": "5.02", "duration": "641", "distance": "2.40", "rideStartTime": "April 08, 2024 at 10:10 AM", "rideEndTime": "April 08, 2024 at 10:21 AM"}}, {"type": "Feature", "geometry": {"coordinates": [[-87.660107, 41.972674], [-87.664692, 41.972606], [-87.664676, 41.973425], [-87.667898, 41.973375], [-87.669592, 41.973436], [-87.677814, 41.973279], [-87.677853, 41.974722], [-87.676798, 41.97474]], "type": "LineString"}, "properties": {"timestamp": "2024-04-08T10:18:42", "type": "transition"}}, {"type": "Feature", "geometry": {"coordinates": [[-87.676798, 41.97474], [-87.676368, 41.974747], [-87.676325, 41.973309], [-87.669592, 41.973436], [-87.669477, 41.968876], [-87.648824, 41.969276], [-87.64734, 41.965793], [-87.644611, 41.950978], [-87.638957, 41.941067], [-87.632637, 41.935041], [-87.631858, 41.927741], [-87.631853, 41.926001], [-87.648766, 41.925453], [-87.648495, 41.91731]], "type": "LineString"}, "properties": {"timestamp": "2024-04-08T10:18:42", "type": "ride", "rideType": "UberX", "pickupAddress": "W Winona St, Chicago, IL 60640-3228, US", "dropoffAddress": "N Halsted St, Chicago, IL 60657-5120, US", "basePay": "5.25", "surge": "0.00", "tip": "5.00", "earnings": "10.25", "duration": "626", "distance": "3.50", "rideStartTime": "April 08, 2024 at 10:18 AM", "rideEndTime": "April 08, 2024 at 10:29 AM"}}, {"type": "Feature", "geometry": {"coordinates": [[-87.648495, 41.91731], [-87.648495, 41.91731]], "type": "LineString"}, "properties": {"timestamp": "2024-04-08T10:28:43", "type": "transition"}}, {"type": "Feature", "geometry": {"coordinates": [[-87.648495, 41.91731], [-87.648257, 41.910013], [-87.643295, 41.906457], [-87.642947, 41.896481], [-87.641559, 41.896492], [-87.641445, 41.893453], [-87.639878, 41.891506], [-87.637019, 41.891543], [-87.636943, 41.888771], [-87.63637, 41.887983], [-87.638308, 41.888006], [-87.637518, 41.887943]], "type": "LineString"}, "properties": {"timestamp": "2024-04-08T10:28:43", "type": "ride", "rideType": "UberX Share", "pickupAddress": "N Halsted St, Chicago, IL 60657-5120, US", "dropoffAddress": "W Wolf Point Plz, Chicago, IL 60606, US", "basePay": "14.39", "surge": "0.00", "tip": "3.00", "earnings": "17.39", "duration": "1601", "distance": "5.60", "rideStartTime": "April 08, 2024 at 10:28 AM", "rideEndTime": "April 08, 2024 at 10:55 AM"}}, {"type": "Feature", "geometry": {"coordinates": [[-87.637518, 41.887943], [-87.63637, 41.887983], [-87.636943, 41.888771], [-87.637019, 41.891543], [-87.640016, 41.891501], [-87.643004, 41.891239], [-87.663894, 41.891011], [-87.664011, 41.895209], [-87.662558, 41.895231]], "type": "LineString"}, "properties": {"timestamp": "2024-04-08T11:06:45", "type": "transition"}}, {"type": "Feature", "geometry": {"coordinates": [[-87.662558, 41.895231], [-87.662372, 41.895233], [-87.66251, 41.899796], [-87.660982, 41.899842], [-87.660843, 41.899711], [-87.658005, 41.895752], [-87.648602, 41.889352], [-87.646473, 41.886676], [-87.644538, 41.861936], [-87.644794, 41.857575], [-87.646633, 41.857542], [-87.646649, 41.858102], [-87.66163, 41.857876]], "type": "LineString"}, "properties": {"timestamp": "2024-04-08T11:06:45", "type": "ride", "rideType": "UberX", "pickupAddress": "W Superior St, Chicago, IL 60654-3416, US", "dropoffAddress": "W 18th St, Chicago, IL 60608-2803, US", "basePay": "6.61", "surge": "0.00", "tip": "3.00", "earnings": "9.61", "duration": "950", "distance": "4.60", "rideStartTime": "April 08, 2024 at 11:06 AM", "rideEndTime": "April 08, 2024 at 11:22 AM"}}, {"type": "Feature", "geometry": {"coordinates": [[-87.66163, 41.857876], [-87.66163, 41.857876]], "type": "LineString"}, "properties": {"timestamp": "2024-04-08T11:24:38", "type": "transition"}}, {"type": "Feature", "geometry": {"coordinates": [[-87.66163, 41.857876], [-87.646649, 41.858102], [-87.646633, 41.857542], [-87.643769, 41.857593], [-87.643778, 41.857758], [-87.64489, 41.873955], [-87.645711, 41.877665], [-87.645735, 41.885306], [-87.647404, 41.888483], [-87.650048, 41.890597], [-87.651108, 41.891699], [-87.650775, 41.89225], [-87.65007, 41.892434], [-87.624121, 41.892541], [-87.624162, 41.894143], [-87.62188, 41.894176]], "type": "LineString"}, "properties": {"timestamp": "2024-04-08T11:24:38", "type": "ride", "rideType": "UberX", "pickupAddress": "W 18th St, Chicago, IL 60608-3148, US", "dropoffAddress": "E Erie St, Chicago, IL 60611-3195, US", "basePay": "7.62", "surge": "0.00", "tip": "0.00", "earnings": "7.62", "duration": "932", "distance": "4.50", "rideStartTime": "April 08, 2024 at 11:24 AM", "rideEndTime": "April 08, 2024 at 11:40 AM"}}, {"type": "Feature", "geometry": {"coordinates": [[-87.62188, 41.894176], [-87.620307, 41.894214], [-87.620211, 41.890916], [-87.620395, 41.889573], [-87.621589, 41.889608], [-87.621608, 41.890134], [-87.621641, 41.89098], [-87.621726, 41.891083], [-87.621905, 41.891081], [-87.621986, 41.890981], [-87.624074, 41.890948], [-87.624094, 41.891505]], "type": "LineString"}, "properties": {"timestamp": "2024-04-08T11:40:29", "type": "transition"}}, {"type": "Feature", "geometry": {"coordinates": [[-87.624094, 41.891505], [-87.624121, 41.892541], [-87.620263, 41.892588], [-87.620762, 41.887855], [-87.615811, 41.887462], [-87.614014, 41.887175], [-87.61394, 41.885118], [-87.617453, 41.881821], [-87.617261, 41.869765], [-87.619589, 41.866068], [-87.614728, 41.853242], [-87.613506, 41.849799], [-87.614444, 41.848506], [-87.623443, 41.848101], [-87.626818, 41.84732], [-87.630758, 41.848155], [-87.631727, 41.847855], [-87.631351, 41.843118], [-87.630789, 41.819121], [-87.631192, 41.816682], [-87.631192, 41.816426], [-87.623022, 41.816544], [-87.623001, 41.815421]], "type": "LineString"}, "properties": {"timestamp": "2024-04-08T11:40:29", "type": "ride", "rideType": "UberX", "pickupAddress": "Michigan Ave, Chicago, IL 60611, US", "dropoffAddress": "S Michigan Ave, Chicago, IL 60603, US", "basePay": "4.06", "surge": "0.00", "tip": "0.00", "earnings": "4.06", "duration": "554", "distance": "1.60", "rideStartTime": "April 08, 2024 at 11:40 AM", "rideEndTime": "April 08, 2024 at 11:49 AM"}}, {"type": "Feature", "geometry": {"coordinates": [[-87.623001, 41.815421], [-87.622988, 41.814738], [-87.626222, 41.814689], [-87.626265, 41.816493], [-87.629441, 41.816448], [-87.629444, 41.816639], [-87.630393, 41.837743], [-87.630317, 41.842376], [-87.631347, 41.844144], [-87.633465, 41.84523], [-87.642036, 41.847354], [-87.644829, 41.85074], [-87.645167, 41.852863], [-87.64416, 41.857015], [-87.644517, 41.867845], [-87.644628, 41.873521], [-87.643707, 41.875312], [-87.635788, 41.875572], [-87.634246, 41.875312], [-87.634438, 41.874721], [-87.635124, 41.874834], [-87.635957, 41.875828], [-87.636629, 41.876812], [-87.636803, 41.876812]], "type": "LineString"}, "properties": {"timestamp": "2024-04-08T11:57:13", "type": "transition"}}, {"type": "Feature", "geometry": {"coordinates": [[-87.636803, 41.876812], [-87.639817, 41.876769], [-87.639823, 41.875803], [-87.641651, 41.875644], [-87.646562, 41.876207], [-87.645662, 41.872433], [-87.644363, 41.857367], [-87.645793, 41.852447], [-87.644333, 41.849097], [-87.643039, 41.847022], [-87.641933, 41.846546], [-87.638623, 41.847063], [-87.634629, 41.84669], [-87.632091, 41.847362], [-87.628234, 41.846918], [-87.623841, 41.847827], [-87.616851, 41.847976], [-87.613703, 41.847877], [-87.612314, 41.847086], [-87.608419, 41.838015], [-87.607384, 41.832923], [-87.602929, 41.827907]], "type": "LineString"}, "properties": {"timestamp": "2024-04-08T11:57:13", "type": "ride", "rideType": "UberX", "pickupAddress": "S Wacker Dr, Chicago, IL 60606, US", "dropoffAddress": "S Dusable Lake Shore Dr, Chicago, IL 60605, US", "basePay": "8.04", "surge": "0.00", "tip": "3.00", "earnings": "11.04", "duration": "914", "distance": "2.30", "rideStartTime": "April 08, 2024 at 11:57 AM", "rideEndTime": "April 08, 2024 at 12:12 PM"}}, {"type": "Feature", "geometry": {"coordinates": [[-87.602929, 41.827907], [-87.60211, 41.827252], [-87.600903, 41.82517], [-87.599849, 41.825435], [-87.607125, 41.833032], [-87.619224, 41.865968], [-87.617003, 41.869799], [-87.617167, 41.881825], [-87.613645, 41.884762], [-87.614041, 41.892878], [-87.619441, 41.900921], [-87.624048, 41.902893], [-87.631851, 41.928415], [-87.632152, 41.934381], [-87.63676, 41.939073], [-87.638088, 41.940568], [-87.64439, 41.940035], [-87.644362, 41.939151]], "type": "LineString"}, "properties": {"timestamp": "2024-04-08T12:33:01", "type": "transition"}}, {"type": "Feature", "geometry": {"coordinates": [[-87.644362, 41.939151], [-87.64439, 41.940035], [-87.638796, 41.940268], [-87.638606, 41.939931], [-87.634194, 41.936955], [-87.632453, 41.934639], [-87.632048, 41.928427], [-87.629189, 41.918735], [-87.62605, 41.911998], [-87.62421, 41.902733], [-87.62264, 41.901491], [-87.619617, 41.900898], [-87.614304, 41.892985], [-87.614127, 41.884928], [-87.617321, 41.882167], [-87.617442, 41.878363], [-87.620697, 41.878331], [-87.620625, 41.876287], [-87.626887, 41.875674], [-87.657603, 41.876197], [-87.688313, 41.875763], [-87.692409, 41.875862], [-87.695752, 41.875985]], "type": "LineString"}, "properties": {"timestamp": "2024-04-08T12:33:01", "type": "ride", "rideType": "UberX", "pickupAddress": "W Briar Pl, Chicago, IL 60657-4618, US", "dropoffAddress": "W Van Buren St, Chicago, IL 60607-3520, US", "basePay": "10.80", "surge": "0.00", "tip": "0.00", "earnings": "10.80", "duration": "1152", "distance": "7.10", "rideStartTime": "April 08, 2024 at 12:33 PM", "rideEndTime": "April 08, 2024 at 12:52 PM"}}, {"type": "Feature", "geometry": {"coordinates": [[-87.695752, 41.875985], [-87.696151, 41.875983], [-87.69636, 41.884255], [-87.662599, 41.885414], [-87.661497, 41.887468], [-87.659834, 41.889971], [-87.653442, 41.890032], [-87.653444, 41.890128]], "type": "LineString"}, "properties": {"timestamp": "2024-04-08T12:54:00", "type": "transition"}}, {"type": "Feature", "geometry": {"coordinates": [[-87.653444, 41.890128], [-87.653442, 41.890032], [-87.647611, 41.890088], [-87.647482, 41.885665], [-87.646258, 41.885682], [-87.644363, 41.857367], [-87.645245, 41.851247], [-87.642429, 41.847384], [-87.634652, 41.845323], [-87.632305, 41.843952], [-87.631511, 41.841797], [-87.631593, 41.834597], [-87.628886, 41.834642], [-87.628847, 41.833673]], "type": "LineString"}, "properties": {"timestamp": "2024-04-08T12:54:00", "type": "ride", "rideType": "UberX", "pickupAddress": "N Carpenter St, Chicago, IL 60607-1206, US", "dropoffAddress": "S Dearborn St, Chicago, IL 60603-2397, US", "basePay": "6.08", "surge": "0.00", "tip": "0.00", "earnings": "6.08", "duration": "748", "distance": "1.80", "rideStartTime": "April 08, 2024 at 12:54 PM", "rideEndTime": "April 08, 2024 at 01:06 PM"}}, {"type": "Feature", "geometry": {"coordinates": [[-87.628847, 41.833673], [-87.628886, 41.834642], [-87.629907, 41.834623], [-87.6301, 41.841613], [-87.631814, 41.844491], [-87.642036, 41.847354], [-87.644829, 41.85074], [-87.645167, 41.852863], [-87.644156, 41.857362], [-87.644854, 41.873493], [-87.644167, 41.87559], [-87.645364, 41.877863], [-87.645275, 41.880374], [-87.64518, 41.881808], [-87.644106, 41.881817], [-87.644087, 41.880532], [-87.639693, 41.880598], [-87.639706, 41.881889], [-87.640505, 41.881877]], "type": "LineString"}, "properties": {"timestamp": "2024-04-08T13:08:43", "type": "transition"}}, {"type": "Feature", "geometry": {"coordinates": [[-87.640505, 41.881877], [-87.642638, 41.881847], [-87.642677, 41.883172], [-87.641266, 41.883178], [-87.639745, 41.883185], [-87.624233, 41.883257], [-87.624344, 41.884366], [-87.623414, 41.884372], [-87.620237, 41.884324], [-87.617593, 41.884399], [-87.617389, 41.884538], [-87.615772, 41.884596], [-87.615811, 41.886931], [-87.61618, 41.886949]], "type": "LineString"}, "properties": {"timestamp": "2024-04-08T13:08:43", "type": "ride", "rideType": "UberX", "pickupAddress": "W Madison St, Chicago, IL 60602-4601, US", "dropoffAddress": "E Waterside Dr, Chicago, IL 60601-4736, US", "basePay": "3.78", "surge": "0.00", "tip": "0.00", "earnings": "3.78", "duration": "471", "distance": "1.20", "rideStartTime": "April 08, 2024 at 01:08 PM", "rideEndTime": "April 08, 2024 at 01:16 PM"}}, {"type": "Feature", "geometry": {"coordinates": [[-87.61618, 41.886949], [-87.617235, 41.886944], [-87.61744, 41.887001], [-87.617384, 41.887122], [-87.617443, 41.887718], [-87.617531, 41.887767], [-87.61954, 41.887866], [-87.620783, 41.887992], [-87.620789, 41.886861], [-87.624639, 41.886812], [-87.624571, 41.884489], [-87.624344, 41.884366], [-87.623414, 41.884372], [-87.622907, 41.884293], [-87.621085, 41.884319]], "type": "LineString"}, "properties": {"timestamp": "2024-04-08T13:21:41", "type": "transition"}}, {"type": "Feature", "geometry": {"coordinates": [[-87.621085, 41.884319], [-87.620576, 41.884316], [-87.620586, 41.884503], [-87.627902, 41.884489], [-87.627799, 41.882046], [-87.630875, 41.881984], [-87.630743, 41.876886], [-87.636803, 41.876812]], "type": "LineString"}, "properties": {"timestamp": "2024-04-08T13:21:41", "type": "ride", "rideType": "UberX", "pickupAddress": "E Randolph St, Chicago, IL 60601-7314, US", "dropoffAddress": "S Wacker Dr, Chicago, IL 60606, US", "basePay": "4.51", "surge": "0.00", "tip": "5.00", "earnings": "9.51", "duration": "566", "distance": "1.30", "rideStartTime": "April 08, 2024 at 01:21 PM", "rideEndTime": "April 08, 2024 at 01:31 PM"}}, {"type": "Feature", "geometry": {"coordinates": [[-87.636803, 41.876812], [-87.636629, 41.876812], [-87.636785, 41.881915], [-87.639706, 41.881889], [-87.639866, 41.885734], [-87.641353, 41.886808], [-87.641357, 41.887052]], "type": "LineString"}, "properties": {"timestamp": "2024-04-08T13:33:16", "type": "transition"}}, {"type": "Feature", "geometry": {"coordinates": [[-87.641357, 41.887052], [-87.641346, 41.885723], [-87.645903, 41.885686], [-87.645999, 41.881827], [-87.646134, 41.880956], [-87.646145, 41.879569], [-87.646166, 41.878121], [-87.646107, 41.877218], [-87.646063, 41.876551], [-87.646733, 41.875649], [-87.646541, 41.875257], [-87.645999, 41.87505], [-87.644423, 41.875457], [-87.630576, 41.875517], [-87.62435, 41.875724], [-87.624157, 41.867506], [-87.624039, 41.868888]], "type": "LineString"}, "properties": {"timestamp": "2024-04-08T13:33:16", "type": "ride", "rideType": "UberX", "pickupAddress": "N Clinton St, Chicago, IL 60661, US", "dropoffAddress": "N Michigan Ave, Chicago, IL 60602-4896, US", "basePay": "4.75", "surge": "0.00", "tip": "3.00", "earnings": "7.75", "duration": "325", "distance": "0.80", "rideStartTime": "April 08, 2024 at 01:33 PM", "rideEndTime": "April 08, 2024 at 01:38 PM"}}, {"type": "Feature", "geometry": {"coordinates": [[-87.624039, 41.868888], [-87.624138, 41.873158], [-87.617066, 41.873249], [-87.617167, 41.881825], [-87.613613, 41.884932], [-87.614041, 41.892878], [-87.619441, 41.900921], [-87.624048, 41.902893], [-87.631799, 41.928213], [-87.632273, 41.934701], [-87.638962, 41.941399], [-87.644572, 41.952992], [-87.644162, 41.954667], [-87.686036, 41.954119], [-87.686052, 41.954591]], "type": "LineString"}, "properties": {"timestamp": "2024-04-08T16:12:49", "type": "transition"}}, {"type": "Feature", "geometry": {"coordinates": [[-87.686052, 41.954591], [-87.686096, 41.955884], [-87.68488, 41.9559], [-87.684822, 41.954135], [-87.688469, 41.954086], [-87.687986, 41.932176], [-87.696547, 41.932116], [-87.671115, 41.918139], [-87.668499, 41.915851], [-87.666712, 41.913088], [-87.665662, 41.910672], [-87.66216, 41.910715], [-87.660908, 41.908679]], "type": "LineString"}, "properties": {"timestamp": "2024-04-08T16:12:49", "type": "ride", "rideType": "UberX", "pickupAddress": "N Oakley Ave, Chicago, IL 60618-4810, US", "dropoffAddress": "N Elston Ave, Chicago, IL 60642, US", "basePay": "8.67", "surge": "0.00", "tip": "0.00", "earnings": "8.67", "duration": "684", "distance": "3.00", "rideStartTime": "April 08, 2024 at 04:12 PM", "rideEndTime": "April 08, 2024 at 04:24 PM"}}, {"type": "Feature", "geometry": {"coordinates": [[-87.660908, 41.908679], [-87.660908, 41.908679]], "type": "LineString"}, "properties": {"timestamp": "2024-04-08T16:31:19", "type": "transition"}}, {"type": "Feature", "geometry": {"coordinates": [[-87.660908, 41.908679], [-87.658892, 41.903997], [-87.658875, 41.90348], [-87.661667, 41.903435], [-87.658563, 41.896333], [-87.648602, 41.889352], [-87.646473, 41.886676], [-87.644538, 41.861936], [-87.644791, 41.856515], [-87.645911, 41.852672], [-87.632031, 41.852788], [-87.632001, 41.851747]], "type": "LineString"}, "properties": {"timestamp": "2024-04-08T16:31:19", "type": "ride", "rideType": "UberX", "pickupAddress": "N Elston Ave, Chicago, IL 60642-1532, US", "dropoffAddress": "S Wentworth Ave, Chicago, IL 60616-2201, US", "basePay": "7.83", "surge": "0.00", "tip": "0.00", "earnings": "7.83", "duration": "1242", "distance": "7.00", "rideStartTime": "April 08, 2024 at 04:31 PM", "rideEndTime": "April 08, 2024 at 04:52 PM"}}, {"type": "Feature", "geometry": {"coordinates": [[-87.632001, 41.851747], [-87.632031, 41.852788], [-87.631057, 41.852781]], "type": "LineString"}, "properties": {"timestamp": "2024-04-08T16:53:44", "type": "transition"}}, {"type": "Feature", "geometry": {"coordinates": [[-87.631057, 41.852781], [-87.631144, 41.852935], [-87.636734, 41.852891], [-87.638539, 41.852796], [-87.638568, 41.85401], [-87.63887, 41.855696], [-87.638953, 41.858209]], "type": "LineString"}, "properties": {"timestamp": "2024-04-08T16:53:44", "type": "ride", "rideType": "UberX Share", "pickupAddress": "W Cermak Rd, Chicago, IL 60616, US", "dropoffAddress": "S Canal St, Chicago, IL 60607, US", "basePay": "3.37", "surge": "0.00", "tip": "0.00", "earnings": "3.37", "duration": "664", "distance": "1.40", "rideStartTime": "April 08, 2024 at 04:53 PM", "rideEndTime": "April 08, 2024 at 05:04 PM"}}, {"type": "Feature", "geometry": {"coordinates": [[-87.638953, 41.858209], [-87.639228, 41.86722], [-87.618739, 41.867474], [-87.617003, 41.869799], [-87.617167, 41.881825], [-87.613613, 41.884932], [-87.614041, 41.892878], [-87.619441, 41.900921], [-87.624048, 41.902893], [-87.631851, 41.928415], [-87.632152, 41.934381], [-87.638833, 41.941219], [-87.644376, 41.950931], [-87.648738, 41.973046], [-87.652803, 41.984951], [-87.655253, 41.985556], [-87.655634, 41.997803], [-87.659646, 41.998196], [-87.666335, 42.020264], [-87.665065, 42.02087], [-87.664971, 42.020625]], "type": "LineString"}, "properties": {"timestamp": "2024-04-09T09:33:09", "type": "transition"}}]}