{"type": "FeatureCollection", "features": [{"type": "Feature", "geometry": {"coordinates": [[-87.656894, 41.964503], [-87.654742, 41.961156], [-87.654549, 41.954492], [-87.66911, 41.954302], [-87.668473, 41.932963]], "type": "LineString"}, "properties": {"timestamp": "2024-09-17T10:05:39", "type": "ride", "rideType": "UberX", "pickupAddress": "N Broadway St, Chicago, IL 60660, US", "dropoffAddress": "N Ashland Ave, Chicago, IL 60657, US", "basePay": "10.86", "surge": "0.00", "tip": "5.00", "earnings": "15.86", "duration": "1039", "distance": "4.00", "rideStartTime": "September 17, 2024 at 10:05 AM", "rideEndTime": "September 17, 2024 at 10:22 AM"}}, {"type": "Feature", "geometry": {"coordinates": [[-87.668473, 41.932963], [-87.668452, 41.9324], [-87.66355, 41.932479], [-87.663616, 41.934302], [-87.664529, 41.934287]], "type": "LineString"}, "properties": {"timestamp": "2024-09-17T10:22:59", "type": "transition"}}, {"type": "Feature", "geometry": {"coordinates": [[-87.664529, 41.934287], [-87.666043, 41.934262], [-87.665979, 41.93244], [-87.63931, 41.932914], [-87.636987, 41.930951], [-87.633621, 41.925745], [-87.631853, 41.926001], [-87.626142, 41.912297], [-87.62421, 41.902733], [-87.62264, 41.901491], [-87.619617, 41.900898], [-87.614907, 41.893955], [-87.614335, 41.8919], [-87.614196, 41.891128], [-87.61158, 41.891141], [-87.611597, 41.891968], [-87.612627, 41.891945]], "type": "LineString"}, "properties": {"timestamp": "2024-09-17T10:22:59", "type": "ride", "rideType": "UberX", "pickupAddress": "W George St, Chicago, IL 60657-4006, US", "dropoffAddress": "E Grand Ave, Chicago, IL 60611-0900, US", "basePay": "11.13", "surge": "0.00", "tip": "0.00", "earnings": "11.13", "duration": "1314", "distance": "5.80", "rideStartTime": "September 17, 2024 at 10:22 AM", "rideEndTime": "September 17, 2024 at 10:44 AM"}}, {"type": "Feature", "geometry": {"coordinates": [[-87.612627, 41.891945], [-87.620235, 41.891803], [-87.620283, 41.893412], [-87.621935, 41.893376]], "type": "LineString"}, "properties": {"timestamp": "2024-09-17T10:59:25", "type": "transition"}}, {"type": "Feature", "geometry": {"coordinates": [[-87.621935, 41.893376], [-87.632534, 41.893212], [-87.632844, 41.90389], [-87.639563, 41.903768], [-87.643295, 41.906457], [-87.643385, 41.909507]], "type": "LineString"}, "properties": {"timestamp": "2024-09-17T10:59:25", "type": "ride", "rideType": "Comfort", "pickupAddress": "E Ontario St, Chicago, IL 60611-3022, US", "dropoffAddress": "N Larrabee St, Chicago, IL 60610, US", "basePay": "7.42", "surge": "0.00", "tip": "0.00", "earnings": "7.42", "duration": "841", "distance": "2.10", "rideStartTime": "September 17, 2024 at 10:59 AM", "rideEndTime": "September 17, 2024 at 11:13 AM"}}, {"type": "Feature", "geometry": {"coordinates": [[-87.643385, 41.909507], [-87.643446, 41.911054], [-87.664445, 41.910674], [-87.668091, 41.915886], [-87.670574, 41.91815], [-87.690595, 41.929581], [-87.694122, 41.932133], [-87.687832, 41.932179], [-87.688345, 41.949742]], "type": "LineString"}, "properties": {"timestamp": "2024-09-17T13:49:25", "type": "transition"}}, {"type": "Feature", "geometry": {"coordinates": [[-87.688345, 41.949742], [-87.688146, 41.939587], [-87.678134, 41.932278], [-87.677765, 41.92139], [-87.677255, 41.921395], [-87.668918, 41.916326], [-87.661559, 41.906635], [-87.658834, 41.896667], [-87.646614, 41.886973], [-87.645245, 41.851247], [-87.642429, 41.847384], [-87.634652, 41.845323], [-87.63091, 41.84209], [-87.631289, 41.79178], [-87.631532, 41.783322], [-87.631838, 41.7799], [-87.604644, 41.780425], [-87.604614, 41.776542]], "type": "LineString"}, "properties": {"timestamp": "2024-09-17T13:49:25", "type": "ride", "rideType": "UberX", "pickupAddress": "N Western Ave, Chicago, IL 60622-1734, US", "dropoffAddress": "S Maryland Ave, Chicago, IL 60637, US", "basePay": "13.91", "surge": "0.00", "tip": "5.00", "earnings": "18.91", "duration": "1637", "distance": "11.40", "rideStartTime": "September 17, 2024 at 01:49 PM", "rideEndTime": "September 17, 2024 at 02:16 PM"}}, {"type": "Feature", "geometry": {"coordinates": [[-87.604614, 41.776542], [-87.604614, 41.776542]], "type": "LineString"}, "properties": {"timestamp": "2024-09-17T14:20:37", "type": "transition"}}, {"type": "Feature", "geometry": {"coordinates": [[-87.604614, 41.776542], [-87.604581, 41.774977], [-87.615497, 41.774792], [-87.615455, 41.772974], [-87.626772, 41.772796], [-87.626748, 41.772361], [-87.626239, 41.768925], [-87.624773, 41.727257], [-87.625044, 41.721768], [-87.706715, 41.720728], [-87.70467, 41.720631]], "type": "LineString"}, "properties": {"timestamp": "2024-09-17T14:20:37", "type": "ride", "rideType": "UberX", "pickupAddress": "S Maryland Ave, Chicago, IL 60637-1462, US", "dropoffAddress": "W 95th St, Evergreen Pk, IL 60805, US", "basePay": "12.19", "surge": "1.75", "tip": "0.00", "earnings": "13.94", "duration": "1790", "distance": "9.40", "rideStartTime": "September 17, 2024 at 02:20 PM", "rideEndTime": "September 17, 2024 at 02:50 PM"}}, {"type": "Feature", "geometry": {"coordinates": [[-87.70467, 41.720631], [-87.701844, 41.720668], [-87.702205, 41.734809], [-87.701759, 41.735136], [-87.682526, 41.735465], [-87.682885, 41.751616]], "type": "LineString"}, "properties": {"timestamp": "2024-09-17T14:53:53", "type": "transition"}}, {"type": "Feature", "geometry": {"coordinates": [[-87.682885, 41.751616], [-87.682848, 41.750108], [-87.624557, 41.750945], [-87.624584, 41.751463], [-87.624864, 41.754305], [-87.625651, 41.769497], [-87.626234, 41.77398], [-87.630747, 41.779495], [-87.630667, 41.838631], [-87.631001, 41.844069], [-87.630081, 41.846653], [-87.616851, 41.847976], [-87.612314, 41.847086], [-87.607188, 41.832576], [-87.591653, 41.813342], [-87.58976, 41.810561], [-87.592448, 41.809686], [-87.595833, 41.812777]], "type": "LineString"}, "properties": {"timestamp": "2024-09-17T14:53:53", "type": "ride", "rideType": "Share", "pickupAddress": "S Western Ave, Evergreen Park, IL 60805-2899, US", "dropoffAddress": "S Lake Park Ave, Chicago, IL 60653-2554, US", "basePay": "25.76", "surge": "0.00", "tip": "0.00", "earnings": "25.76", "duration": "3058", "distance": "12.40", "rideStartTime": "September 17, 2024 at 02:53 PM", "rideEndTime": "September 17, 2024 at 03:44 PM"}}, {"type": "Feature", "geometry": {"coordinates": [[-87.595833, 41.812777], [-87.598884, 41.816913], [-87.643297, 41.816227], [-87.643312, 41.816675], [-87.642841, 41.816684]], "type": "LineString"}, "properties": {"timestamp": "2024-09-17T15:52:55", "type": "transition"}}, {"type": "Feature", "geometry": {"coordinates": [[-87.642841, 41.816684], [-87.642091, 41.816698], [-87.64208, 41.816246], [-87.629441, 41.816448], [-87.629444, 41.816639], [-87.630393, 41.837743], [-87.630317, 41.842376], [-87.631347, 41.844144], [-87.633465, 41.84523], [-87.642036, 41.847354], [-87.644903, 41.850908], [-87.644156, 41.857362], [-87.644854, 41.873493], [-87.644167, 41.87559], [-87.645364, 41.877863], [-87.645275, 41.880374], [-87.645355, 41.881847], [-87.645213, 41.883151], [-87.641266, 41.883178], [-87.639745, 41.883185], [-87.635376, 41.883239], [-87.63544, 41.886906], [-87.63637, 41.887983], [-87.63527, 41.888]], "type": "LineString"}, "properties": {"timestamp": "2024-09-17T15:52:55", "type": "ride", "rideType": "UberX", "pickupAddress": "E 43rd St, Chicago, IL 60653-2919, US", "dropoffAddress": "N Wells St, Chicago, IL 60654, US", "basePay": "10.19", "surge": "0.00", "tip": "0.00", "earnings": "10.19", "duration": "1377", "distance": "6.90", "rideStartTime": "September 17, 2024 at 03:52 PM", "rideEndTime": "September 17, 2024 at 04:15 PM"}}, {"type": "Feature", "geometry": {"coordinates": [[-87.63527, 41.888], [-87.63637, 41.887983], [-87.636943, 41.888771], [-87.637019, 41.891543], [-87.659133, 41.891059], [-87.662788, 41.885409], [-87.68163, 41.884802], [-87.681603, 41.883978], [-87.682085, 41.88397]], "type": "LineString"}, "properties": {"timestamp": "2024-09-18T14:51:13", "type": "transition"}}]}