{"type": "FeatureCollection", "features": [{"type": "Feature", "geometry": {"coordinates": [[-87.779748, 42.003394], [-87.753476, 41.991079], [-87.746835, 41.980228], [-87.747223, 41.966563], [-87.745961, 41.963113], [-87.742125, 41.960129], [-87.719592, 41.947613], [-87.715306, 41.94215], [-87.698173, 41.933659], [-87.687291, 41.927358], [-87.683686, 41.924962], [-87.640463, 41.92558], [-87.638269, 41.921963], [-87.635731, 41.922], [-87.635682, 41.921147]], "type": "LineString"}, "properties": {"timestamp": "2024-06-06T15:58:41", "type": "ride"}}, {"type": "Feature", "geometry": {"coordinates": [[-87.635682, 41.921147], [-87.635731, 41.922], [-87.638941, 41.921954], [-87.638523, 41.909248], [-87.639739, 41.909234], [-87.6397, 41.907866]], "type": "LineString"}, "properties": {"timestamp": "2024-06-06T16:29:04", "type": "transition"}}, {"type": "Feature", "geometry": {"coordinates": [[-87.6397, 41.907866], [-87.639662, 41.906506], [-87.638435, 41.906523], [-87.638583, 41.911164], [-87.664445, 41.910674], [-87.668091, 41.915886], [-87.670574, 41.91815], [-87.709664, 41.940439], [-87.715161, 41.942387], [-87.71887, 41.947406], [-87.723791, 41.950079], [-87.729201, 41.953522], [-87.729313, 41.957291], [-87.730944, 41.95727], [-87.730961, 41.957707]], "type": "LineString"}, "properties": {"timestamp": "2024-06-06T16:29:04", "type": "ride"}}, {"type": "Feature", "geometry": {"coordinates": [[-87.730961, 41.957707], [-87.730896, 41.955442], [-87.727666, 41.955476], [-87.727612, 41.95365], [-87.723082, 41.953649], [-87.712908, 41.953809], [-87.713022, 41.957384]], "type": "LineString"}, "properties": {"timestamp": "2024-06-06T17:36:58", "type": "transition"}}, {"type": "Feature", "geometry": {"coordinates": [[-87.713022, 41.957384], [-87.712911, 41.953916], [-87.727612, 41.95365], [-87.726455, 41.92266], [-87.72708, 41.92265], [-87.726341, 41.90987], [-87.728974, 41.90984], [-87.728962, 41.909346]], "type": "LineString"}, "properties": {"timestamp": "2024-06-06T17:36:58", "type": "ride"}}, {"type": "Feature", "geometry": {"coordinates": [[-87.728962, 41.909346], [-87.728898, 41.907146], [-87.712809, 41.900762], [-87.711889, 41.900057], [-87.711243, 41.900143], [-87.699899, 41.895625], [-87.691761, 41.895706], [-87.691808, 41.897514], [-87.690593, 41.897528], [-87.690571, 41.896716]], "type": "LineString"}, "properties": {"timestamp": "2024-06-06T18:19:58", "type": "transition"}}, {"type": "Feature", "geometry": {"coordinates": [[-87.690571, 41.896716], [-87.690545, 41.895717], [-87.686835, 41.89575], [-87.687645, 41.924902], [-87.682301, 41.924978], [-87.685177, 41.926707], [-87.709664, 41.940439], [-87.714861, 41.942208], [-87.719618, 41.947985], [-87.738838, 41.958569], [-87.741371, 41.960451], [-87.735661, 41.96087], [-87.73571, 41.965066], [-87.734999, 41.964579], [-87.733321, 41.965914], [-87.732862, 41.965601], [-87.732105, 41.966201]], "type": "LineString"}, "properties": {"timestamp": "2024-06-06T18:19:58", "type": "ride"}}, {"type": "Feature", "geometry": {"coordinates": [[-87.732105, 41.966201], [-87.732862, 41.965601], [-87.731974, 41.964976], [-87.733633, 41.963642], [-87.731967, 41.962499], [-87.732765, 41.961837], [-87.732715, 41.960903], [-87.75449, 41.960636], [-87.757803, 41.964478]], "type": "LineString"}, "properties": {"timestamp": "2024-06-06T18:59:52", "type": "transition"}}, {"type": "Feature", "geometry": {"coordinates": [[-87.757803, 41.964478], [-87.756072, 41.962474], [-87.75745, 41.962461], [-87.757157, 41.953293], [-87.779217, 41.953011], [-87.779191, 41.952353]], "type": "LineString"}, "properties": {"timestamp": "2024-06-06T18:59:52", "type": "ride"}}, {"type": "Feature", "geometry": {"coordinates": [[-87.779191, 41.952353], [-87.779147, 41.951191], [-87.776701, 41.95122], [-87.776769, 41.953044], [-87.751028, 41.953371], [-87.751098, 41.955209], [-87.747356, 41.955256], [-87.747538, 41.960724], [-87.745086, 41.960757]], "type": "LineString"}, "properties": {"timestamp": "2024-06-06T19:45:00", "type": "transition"}}, {"type": "Feature", "geometry": {"coordinates": [[-87.745086, 41.960757], [-87.743848, 41.960723], [-87.71984, 41.947583], [-87.718837, 41.94665], [-87.716727, 41.94319], [-87.715518, 41.942115], [-87.710267, 41.940414], [-87.693566, 41.930594], [-87.687291, 41.927358], [-87.683686, 41.924962], [-87.66815, 41.925151], [-87.668463, 41.936057], [-87.663682, 41.936111], [-87.663758, 41.938211]], "type": "LineString"}, "properties": {"timestamp": "2024-06-06T19:45:00", "type": "ride"}}, {"type": "Feature", "geometry": {"coordinates": [[-87.663758, 41.938211], [-87.663682, 41.936111], [-87.661195, 41.934332], [-87.65635, 41.934416], [-87.656389, 41.935584]], "type": "LineString"}, "properties": {"timestamp": "2024-06-06T20:03:57", "type": "transition"}}, {"type": "Feature", "geometry": {"coordinates": [[-87.656389, 41.935584], [-87.65654, 41.939878], [-87.638796, 41.940268], [-87.638606, 41.939931], [-87.634194, 41.936955], [-87.632527, 41.93482], [-87.632114, 41.933155], [-87.632048, 41.928427], [-87.629189, 41.918735], [-87.627538, 41.915117], [-87.627004, 41.91244], [-87.626017, 41.913347], [-87.628668, 41.917847], [-87.631417, 41.926949]], "type": "LineString"}, "properties": {"timestamp": "2024-06-06T20:03:57", "type": "ride"}}, {"type": "Feature", "geometry": {"coordinates": [[-87.631417, 41.926949], [-87.632273, 41.934701], [-87.633661, 41.936704], [-87.63676, 41.939073], [-87.638088, 41.940568], [-87.638796, 41.940268], [-87.638606, 41.939931], [-87.634194, 41.936955], [-87.632453, 41.934639], [-87.632048, 41.928427], [-87.629189, 41.918735], [-87.62605, 41.911998], [-87.624861, 41.904908], [-87.624179, 41.901978], [-87.624224, 41.899218], [-87.623008, 41.89923]], "type": "LineString"}, "properties": {"timestamp": "2024-06-06T20:22:19", "type": "transition"}}, {"type": "Feature", "geometry": {"coordinates": [[-87.623008, 41.89923], [-87.621885, 41.899246], [-87.621902, 41.900045], [-87.631337, 41.899794], [-87.631127, 41.891621], [-87.639878, 41.891506], [-87.644384, 41.891225], [-87.644337, 41.889054], [-87.648718, 41.889017], [-87.648695, 41.887378], [-87.649864, 41.887364], [-87.649838, 41.886778], [-87.649954, 41.886776]], "type": "LineString"}, "properties": {"timestamp": "2024-06-06T20:22:19", "type": "ride"}}, {"type": "Feature", "geometry": {"coordinates": [[-87.649954, 41.886776], [-87.651006, 41.88676], [-87.650961, 41.885607], [-87.671854, 41.885152], [-87.671906, 41.886852], [-87.673532, 41.886827]], "type": "LineString"}, "properties": {"timestamp": "2024-06-06T20:41:25", "type": "transition"}}, {"type": "Feature", "geometry": {"coordinates": [[-87.673532, 41.886827], [-87.676791, 41.886776], [-87.676555, 41.875016], [-87.676128, 41.875021], [-87.673504, 41.875431], [-87.666185, 41.875506]], "type": "LineString"}, "properties": {"timestamp": "2024-06-06T20:41:25", "type": "ride"}}, {"type": "Feature", "geometry": {"coordinates": [[-87.666185, 41.875506], [-87.662068, 41.875578], [-87.658543, 41.875322], [-87.657056, 41.875346], [-87.656921, 41.874321], [-87.666668, 41.874248], [-87.666531, 41.869262], [-87.670488, 41.8692]], "type": "LineString"}, "properties": {"timestamp": "2024-06-06T20:54:19", "type": "transition"}}, {"type": "Feature", "geometry": {"coordinates": [[-87.670488, 41.8692], [-87.68604, 41.869001], [-87.686432, 41.881166], [-87.688489, 41.881145], [-87.688508, 41.88207], [-87.688351, 41.882072]], "type": "LineString"}, "properties": {"timestamp": "2024-06-06T20:54:19", "type": "ride"}}, {"type": "Feature", "geometry": {"coordinates": [[-87.688351, 41.882072], [-87.686454, 41.882091], [-87.686532, 41.884621], [-87.66685, 41.88533], [-87.667771, 41.917197], [-87.66862, 41.92163], [-87.668361, 41.933311], [-87.668473, 41.932963]], "type": "LineString"}, "properties": {"timestamp": "2024-06-07T16:25:59", "type": "transition"}}]}