{"type": "FeatureCollection", "features": [{"type": "Feature", "geometry": {"coordinates": [[-87.724532, 41.93209], [-87.724523, 41.931828], [-87.696547, 41.932116], [-87.687291, 41.927358], [-87.683686, 41.924962], [-87.669348, 41.925139], [-87.664379, 41.921608], [-87.659737, 41.921657]], "type": "LineString"}, "properties": {"timestamp": "2024-01-06T10:30:48", "type": "ride", "rideType": "UberX", "pickupAddress": "N Springfield Ave, Chicago, IL 60647-3432, US", "dropoffAddress": "W Webster Ave, Chicago, IL 60614, US", "basePay": "6.48", "surge": "0.00", "tip": "0.00", "earnings": "6.48", "duration": "747", "distance": "3.30", "rideStartTime": "January 06, 2024 at 10:30 AM", "rideEndTime": "January 06, 2024 at 10:43 AM"}}, {"type": "Feature", "geometry": {"coordinates": [[-87.659737, 41.921657], [-87.65834, 41.921676], [-87.658558, 41.928024], [-87.657193, 41.92805]], "type": "LineString"}, "properties": {"timestamp": "2024-01-06T10:50:48", "type": "transition"}}, {"type": "Feature", "geometry": {"coordinates": [[-87.657193, 41.92805], [-87.658558, 41.928024], [-87.658201, 41.917264], [-87.666413, 41.916455], [-87.66216, 41.910715], [-87.665662, 41.910672], [-87.665325, 41.910236], [-87.661439, 41.906386], [-87.661057, 41.901306], [-87.658834, 41.896667], [-87.6483, 41.889096], [-87.646108, 41.885119], [-87.646413, 41.883144], [-87.641266, 41.883178], [-87.639745, 41.883185], [-87.636818, 41.883223], [-87.636645, 41.88597], [-87.634232, 41.886821]], "type": "LineString"}, "properties": {"timestamp": "2024-01-06T10:50:48", "type": "ride", "rideType": "UberX", "pickupAddress": "W Lill Ave, Chicago, IL 60614-2310, US", "dropoffAddress": "N Wacker Dr, Chicago, IL 60606, US", "basePay": "8.78", "surge": "0.00", "tip": "3.00", "earnings": "11.78", "duration": "950", "distance": "3.80", "rideStartTime": "January 06, 2024 at 10:50 AM", "rideEndTime": "January 06, 2024 at 11:06 AM"}}, {"type": "Feature", "geometry": {"coordinates": [[-87.634232, 41.886821], [-87.627383, 41.886809], [-87.624469, 41.888194], [-87.624042, 41.900824], [-87.623664, 41.902709], [-87.62589, 41.912141], [-87.628743, 41.918036], [-87.631851, 41.928415], [-87.632152, 41.934381], [-87.633661, 41.936704], [-87.63676, 41.939073], [-87.638088, 41.940568], [-87.639537, 41.940119], [-87.658974, 41.939838], [-87.659024, 41.941664], [-87.657794, 41.941681], [-87.657753, 41.940121]], "type": "LineString"}, "properties": {"timestamp": "2024-01-06T12:55:23", "type": "transition"}}, {"type": "Feature", "geometry": {"coordinates": [[-87.657753, 41.940121], [-87.657746, 41.939858], [-87.658974, 41.939838], [-87.658713, 41.932557], [-87.648766, 41.925453], [-87.648495, 41.91731]], "type": "LineString"}, "properties": {"timestamp": "2024-01-06T12:55:23", "type": "ride", "rideType": "UberX", "pickupAddress": "N Clifton Ave, Chicago, IL 60657-3315, US", "dropoffAddress": "N Halsted St, Chicago, IL 60657, US", "basePay": "3.98", "surge": "0.00", "tip": "1.00", "earnings": "4.98", "duration": "349", "distance": "1.00", "rideStartTime": "January 06, 2024 at 12:55 PM", "rideEndTime": "January 06, 2024 at 01:01 PM"}}, {"type": "Feature", "geometry": {"coordinates": [[-87.648495, 41.91731], [-87.648766, 41.925453], [-87.663682, 41.936111], [-87.663953, 41.945247], [-87.664502, 41.945239]], "type": "LineString"}, "properties": {"timestamp": "2024-01-06T13:04:49", "type": "transition"}}, {"type": "Feature", "geometry": {"coordinates": [[-87.664502, 41.945239], [-87.663953, 41.945247], [-87.664217, 41.954357], [-87.649713, 41.954561], [-87.649905, 41.961373]], "type": "LineString"}, "properties": {"timestamp": "2024-01-06T13:04:49", "type": "ride", "rideType": "UberX", "pickupAddress": "W Cornelia Ave, Chicago, IL 60657-1796, US", "dropoffAddress": "N Clarendon Ave, Chicago, IL 60640, US", "basePay": "5.86", "surge": "0.00", "tip": "0.00", "earnings": "5.86", "duration": "529", "distance": "1.50", "rideStartTime": "January 06, 2024 at 01:04 PM", "rideEndTime": "January 06, 2024 at 01:13 PM"}}, {"type": "Feature", "geometry": {"coordinates": [[-87.649905, 41.961373], [-87.649824, 41.958494], [-87.656021, 41.958406], [-87.656048, 41.958318], [-87.656157, 41.958251], [-87.656867, 41.95822], [-87.656894, 41.958194]], "type": "LineString"}, "properties": {"timestamp": "2024-01-06T13:18:39", "type": "transition"}}, {"type": "Feature", "geometry": {"coordinates": [[-87.656894, 41.958194], [-87.656767, 41.95446], [-87.645235, 41.954634], [-87.644611, 41.950978], [-87.639315, 41.941594], [-87.632527, 41.93482], [-87.632048, 41.928427], [-87.629189, 41.918735], [-87.62605, 41.911998], [-87.624861, 41.904908], [-87.624179, 41.901978], [-87.624293, 41.892538], [-87.621881, 41.892574]], "type": "LineString"}, "properties": {"timestamp": "2024-01-06T13:18:39", "type": "ride", "rideType": "UberX", "pickupAddress": "W Irving Park Rd, Chicago, IL 60613, US", "dropoffAddress": "E Ohio St, Chicago, IL 60611, US", "basePay": "9.21", "surge": "0.00", "tip": "1.00", "earnings": "10.21", "duration": "694", "distance": "5.10", "rideStartTime": "January 06, 2024 at 01:18 PM", "rideEndTime": "January 06, 2024 at 01:30 PM"}}, {"type": "Feature", "geometry": {"coordinates": [[-87.621881, 41.892574], [-87.621881, 41.892574]], "type": "LineString"}, "properties": {"timestamp": "2024-01-06T13:34:51", "type": "transition"}}, {"type": "Feature", "geometry": {"coordinates": [[-87.621881, 41.892574], [-87.620263, 41.892588], [-87.620232, 41.890695], [-87.620761, 41.887957], [-87.620718, 41.884519], [-87.627902, 41.884489], [-87.627799, 41.882046], [-87.630875, 41.881984], [-87.630743, 41.876886], [-87.636803, 41.876812]], "type": "LineString"}, "properties": {"timestamp": "2024-01-06T13:34:51", "type": "ride", "rideType": "UberX", "pickupAddress": "E Ohio St, Chicago, IL 60611-3307, US", "dropoffAddress": "S Wacker Dr, Chicago, IL 60606, US", "basePay": "6.99", "surge": "0.00", "tip": "0.00", "earnings": "6.99", "duration": "653", "distance": "2.00", "rideStartTime": "January 06, 2024 at 01:34 PM", "rideEndTime": "January 06, 2024 at 01:45 PM"}}, {"type": "Feature", "geometry": {"coordinates": [[-87.636803, 41.876812], [-87.636629, 41.876812], [-87.636785, 41.881915], [-87.640505, 41.881877]], "type": "LineString"}, "properties": {"timestamp": "2024-01-06T13:48:38", "type": "transition"}}, {"type": "Feature", "geometry": {"coordinates": [[-87.640505, 41.881877], [-87.645827, 41.8818], [-87.644363, 41.857367], [-87.645793, 41.852447], [-87.644333, 41.849097], [-87.643039, 41.847022], [-87.641933, 41.846546], [-87.638623, 41.847063], [-87.634629, 41.84669], [-87.632091, 41.847362], [-87.628234, 41.846918], [-87.623841, 41.847827], [-87.616851, 41.847976], [-87.613703, 41.847877], [-87.612314, 41.847086], [-87.608419, 41.838015], [-87.607384, 41.832923], [-87.602929, 41.827907]], "type": "LineString"}, "properties": {"timestamp": "2024-01-06T13:48:38", "type": "ride", "rideType": "UberX", "pickupAddress": "W Madison St, Chicago, IL 60661-3520, US", "dropoffAddress": "S Dusable Lake Shore Dr, Chicago, IL 60605, US", "basePay": "12.03", "surge": "0.00", "tip": "0.00", "earnings": "12.03", "duration": "962", "distance": "6.30", "rideStartTime": "January 06, 2024 at 01:48 PM", "rideEndTime": "January 06, 2024 at 02:04 PM"}}, {"type": "Feature", "geometry": {"coordinates": [[-87.602929, 41.827907], [-87.602929, 41.827907]], "type": "LineString"}, "properties": {"timestamp": "2024-01-06T14:08:23", "type": "transition"}}, {"type": "Feature", "geometry": {"coordinates": [[-87.602929, 41.827907], [-87.60211, 41.827252], [-87.600903, 41.82517], [-87.599849, 41.825435], [-87.604294, 41.829367], [-87.607125, 41.833032], [-87.608141, 41.838145], [-87.613467, 41.852437], [-87.618329, 41.862131], [-87.619249, 41.866344], [-87.617003, 41.869799], [-87.617244, 41.880924], [-87.620794, 41.880871], [-87.620609, 41.884517], [-87.629468, 41.884483], [-87.629598, 41.890042], [-87.631091, 41.890022], [-87.631072, 41.889473]], "type": "LineString"}, "properties": {"timestamp": "2024-01-06T14:08:23", "type": "ride", "rideType": "UberX", "pickupAddress": "S Dusable Lake Shore Dr, Chicago, IL 60605, US", "dropoffAddress": "N Clark St, Chicago, IL 60654-3279, US", "basePay": "6.15", "surge": "0.00", "tip": "5.00", "earnings": "11.15", "duration": "856", "distance": "3.20", "rideStartTime": "January 06, 2024 at 02:08 PM", "rideEndTime": "January 06, 2024 at 02:22 PM"}}, {"type": "Feature", "geometry": {"coordinates": [[-87.631072, 41.889473], [-87.631015, 41.886949], [-87.632499, 41.886947], [-87.632569, 41.886743], [-87.632527, 41.884474], [-87.635401, 41.884465], [-87.635439, 41.886768], [-87.635158, 41.886821], [-87.634232, 41.886821]], "type": "LineString"}, "properties": {"timestamp": "2024-01-06T14:19:04", "type": "transition"}}, {"type": "Feature", "geometry": {"coordinates": [[-87.634232, 41.886821], [-87.633975, 41.886821], [-87.633916, 41.884468], [-87.645482, 41.884408], [-87.645288, 41.851399], [-87.642429, 41.847384], [-87.634652, 41.845323], [-87.63091, 41.84209], [-87.631289, 41.79178], [-87.631289, 41.778978], [-87.626564, 41.773198], [-87.626239, 41.768925], [-87.626556, 41.766175], [-87.626545, 41.7655], [-87.700374, 41.764421], [-87.700272, 41.760784], [-87.701487, 41.760765], [-87.701512, 41.761634]], "type": "LineString"}, "properties": {"timestamp": "2024-01-06T14:19:04", "type": "ride", "rideType": "UberX", "pickupAddress": "W Upper Wacker Dr, Chicago, IL 60601, US", "dropoffAddress": "S Troy St, Chicago, IL 60629-2419, US", "basePay": "15.17", "surge": "0.00", "tip": "4.19", "earnings": "19.36", "duration": "1597", "distance": "9.80", "rideStartTime": "January 06, 2024 at 02:19 PM", "rideEndTime": "January 06, 2024 at 02:45 PM"}}, {"type": "Feature", "geometry": {"coordinates": [[-87.701512, 41.761634], [-87.701539, 41.76258], [-87.702751, 41.762561], [-87.703674, 41.797178], [-87.70061, 41.797229], [-87.700636, 41.798046]], "type": "LineString"}, "properties": {"timestamp": "2024-01-06T14:52:46", "type": "transition"}}, {"type": "Feature", "geometry": {"coordinates": [[-87.700636, 41.798046], [-87.700636, 41.798046]], "type": "LineString"}, "properties": {"timestamp": "2024-01-06T14:52:46", "type": "ride", "rideType": "UberX Share", "pickupAddress": "5232 S Whipple St, Chicago, IL 60632-2118, US", "dropoffAddress": "5232 S Whipple St, Chicago, IL 60632-2118, US", "basePay": "0.00", "surge": "0.00", "tip": "0.00", "earnings": "0.00", "duration": "0", "distance": "0.00", "rideStartTime": "January 06, 2024 at 02:52 PM", "rideEndTime": "January 06, 2024 at 02:52 PM"}}, {"type": "Feature", "geometry": {"coordinates": [[-87.700636, 41.798046], [-87.700668, 41.799055], [-87.701263, 41.799044], [-87.701315, 41.800876], [-87.674511, 41.801244], [-87.674422, 41.798037], [-87.678647, 41.797986]], "type": "LineString"}, "properties": {"timestamp": "2024-01-06T14:59:43", "type": "transition"}}, {"type": "Feature", "geometry": {"coordinates": [[-87.678647, 41.797986], [-87.674422, 41.798037], [-87.674511, 41.801244], [-87.683684, 41.801133], [-87.684021, 41.81444], [-87.684053, 41.815784], [-87.684058, 41.815975]], "type": "LineString"}, "properties": {"timestamp": "2024-01-06T14:59:43", "type": "ride", "rideType": "UberX", "pickupAddress": "S Damen Ave, Chicago, IL 60609-5647, US", "dropoffAddress": "S Western Blvd, Chicago, IL 60609, US", "basePay": "4.15", "surge": "0.00", "tip": "0.00", "earnings": "4.15", "duration": "254", "distance": "1.20", "rideStartTime": "January 06, 2024 at 02:59 PM", "rideEndTime": "January 06, 2024 at 03:03 PM"}}, {"type": "Feature", "geometry": {"coordinates": [[-87.684058, 41.815975], [-87.684139, 41.819343], [-87.684228, 41.822995], [-87.684754, 41.823066], [-87.685095, 41.832477], [-87.684513, 41.835142], [-87.68523, 41.839081], [-87.686881, 41.897571], [-87.684007, 41.897617]], "type": "LineString"}, "properties": {"timestamp": "2024-01-06T15:31:31", "type": "transition"}}, {"type": "Feature", "geometry": {"coordinates": [[-87.684007, 41.897617], [-87.681995, 41.897649], [-87.681969, 41.896746], [-87.686858, 41.896666], [-87.687018, 41.903025], [-87.701605, 41.902888]], "type": "LineString"}, "properties": {"timestamp": "2024-01-06T15:31:31", "type": "ride", "rideType": "UberX", "pickupAddress": "W Iowa St, Chicago, IL 60622-4607, US", "dropoffAddress": "W Division St, Chicago, IL 60622, US", "basePay": "4.37", "surge": "0.00", "tip": "0.00", "earnings": "4.37", "duration": "238", "distance": "0.80", "rideStartTime": "January 06, 2024 at 03:31 PM", "rideEndTime": "January 06, 2024 at 03:35 PM"}}, {"type": "Feature", "geometry": {"coordinates": [[-87.701605, 41.902888], [-87.677276, 41.903184], [-87.677161, 41.899544], [-87.67107, 41.899648], [-87.671103, 41.900741]], "type": "LineString"}, "properties": {"timestamp": "2024-01-06T15:41:50", "type": "transition"}}, {"type": "Feature", "geometry": {"coordinates": [[-87.671103, 41.900741], [-87.67118, 41.903289], [-87.666488, 41.903364], [-87.660843, 41.899711], [-87.658834, 41.896667], [-87.657719, 41.895493], [-87.649448, 41.889964], [-87.647794, 41.888636], [-87.646614, 41.886973], [-87.646108, 41.885119], [-87.646413, 41.883144], [-87.641266, 41.883178], [-87.639745, 41.883185], [-87.639953, 41.887994], [-87.640199, 41.88801]], "type": "LineString"}, "properties": {"timestamp": "2024-01-06T15:41:50", "type": "ride", "rideType": "UberX", "pickupAddress": "N Hermitage Ave, Chicago, IL 60622-5003, US", "dropoffAddress": "S Canal St, Chicago, IL 60606, US", "basePay": "6.72", "surge": "0.00", "tip": "3.00", "earnings": "9.72", "duration": "741", "distance": "2.90", "rideStartTime": "January 06, 2024 at 03:41 PM", "rideEndTime": "January 06, 2024 at 03:54 PM"}}, {"type": "Feature", "geometry": {"coordinates": [[-87.640199, 41.88801], [-87.639953, 41.887994], [-87.64001, 41.889064], [-87.641432, 41.889102], [-87.640765, 41.868867]], "type": "LineString"}, "properties": {"timestamp": "2024-01-06T15:56:32", "type": "transition"}}, {"type": "Feature", "geometry": {"coordinates": [[-87.640765, 41.868867], [-87.640721, 41.867205], [-87.624158, 41.867398], [-87.624484, 41.887965], [-87.624094, 41.891505]], "type": "LineString"}, "properties": {"timestamp": "2024-01-06T15:56:32", "type": "ride", "rideType": "UberX", "pickupAddress": "S Clinton St, Chicago, IL 60661, US", "dropoffAddress": "N Michigan Ave, Chicago, IL 60611, us", "basePay": "6.36", "surge": "0.00", "tip": "0.00", "earnings": "6.36", "duration": "853", "distance": "1.70", "rideStartTime": "January 06, 2024 at 03:56 PM", "rideEndTime": "January 06, 2024 at 04:10 PM"}}, {"type": "Feature", "geometry": {"coordinates": [[-87.624094, 41.891505], [-87.624162, 41.894143], [-87.62188, 41.894176]], "type": "LineString"}, "properties": {"timestamp": "2024-01-06T16:10:09", "type": "transition"}}, {"type": "Feature", "geometry": {"coordinates": [[-87.62188, 41.894176], [-87.620307, 41.894214], [-87.620212, 41.890902], [-87.620761, 41.887957], [-87.625188, 41.888311], [-87.62718, 41.886918], [-87.635761, 41.886721], [-87.636719, 41.886077], [-87.636963, 41.885505], [-87.636895, 41.878024], [-87.636543, 41.876121], [-87.635908, 41.875927], [-87.634264, 41.876336], [-87.634064, 41.87588], [-87.643841, 41.875615], [-87.651991, 41.875736], [-87.657603, 41.876197], [-87.688313, 41.875763], [-87.692409, 41.875862], [-87.696151, 41.875983], [-87.696261, 41.880169], [-87.695733, 41.880173]], "type": "LineString"}, "properties": {"timestamp": "2024-01-06T16:10:09", "type": "ride", "rideType": "UberX", "pickupAddress": "E Erie St, Chicago, IL 60611-3154, US", "dropoffAddress": "W Monroe St, Chicago, IL 60603, US", "basePay": "5.27", "surge": "0.00", "tip": "3.00", "earnings": "8.27", "duration": "618", "distance": "1.50", "rideStartTime": "January 06, 2024 at 04:10 PM", "rideEndTime": "January 06, 2024 at 04:20 PM"}}, {"type": "Feature", "geometry": {"coordinates": [[-87.695733, 41.880173], [-87.696261, 41.880169], [-87.696127, 41.874902], [-87.695509, 41.874908], [-87.690201, 41.875125], [-87.659837, 41.87561], [-87.650308, 41.875329], [-87.647601, 41.875302], [-87.645452, 41.874563], [-87.644482, 41.875077], [-87.64458, 41.876036], [-87.645364, 41.877863], [-87.645275, 41.880374], [-87.645355, 41.881847], [-87.645213, 41.883151], [-87.641266, 41.883178], [-87.639745, 41.883185], [-87.633501, 41.883243]], "type": "LineString"}, "properties": {"timestamp": "2024-01-06T16:29:44", "type": "transition"}}, {"type": "Feature", "geometry": {"coordinates": [[-87.633501, 41.883243], [-87.632417, 41.883243], [-87.632796, 41.913071], [-87.634358, 41.915623], [-87.634849, 41.915479], [-87.658713, 41.932557], [-87.65822, 41.932567]], "type": "LineString"}, "properties": {"timestamp": "2024-01-06T16:29:44", "type": "ride", "rideType": "UberX", "pickupAddress": "W Washington St, Chicago, IL 60602, US", "dropoffAddress": "W Diversey Pkwy, Chicago, IL 60614-1201, US", "basePay": "11.38", "surge": "0.00", "tip": "5.00", "earnings": "16.38", "duration": "1492", "distance": "5.40", "rideStartTime": "January 06, 2024 at 04:29 PM", "rideEndTime": "January 06, 2024 at 04:54 PM"}}, {"type": "Feature", "geometry": {"coordinates": [[-87.65822, 41.932567], [-87.658713, 41.932557], [-87.663682, 41.936111], [-87.663758, 41.938211]], "type": "LineString"}, "properties": {"timestamp": "2024-01-06T16:58:39", "type": "transition"}}, {"type": "Feature", "geometry": {"coordinates": [[-87.663758, 41.938211], [-87.66355, 41.932479], [-87.678134, 41.932278], [-87.677893, 41.925026], [-87.79707, 41.923585], [-87.797058, 41.923215]], "type": "LineString"}, "properties": {"timestamp": "2024-01-06T16:58:39", "type": "ride", "rideType": "UberX", "pickupAddress": "N Southport Ave, Chicago, IL 60614, US", "dropoffAddress": "W Fullerton Ave, Chicago, IL 60647, US", "basePay": "7.11", "surge": "0.00", "tip": "0.00", "earnings": "7.11", "duration": "913", "distance": "1.70", "rideStartTime": "January 06, 2024 at 04:58 PM", "rideEndTime": "January 06, 2024 at 05:13 PM"}}, {"type": "Feature", "geometry": {"coordinates": [[-87.797058, 41.923215], [-87.79707, 41.923585], [-87.789403, 41.92364], [-87.66815, 41.925151], [-87.668463, 41.936057], [-87.663682, 41.936111], [-87.663758, 41.938211]], "type": "LineString"}, "properties": {"timestamp": "2024-01-06T18:10:56", "type": "transition"}}, {"type": "Feature", "geometry": {"coordinates": [[-87.663758, 41.938211], [-87.663649, 41.93521], [-87.668549, 41.935144], [-87.668644, 41.921138], [-87.667771, 41.917197], [-87.667053, 41.886129], [-87.667085, 41.885323], [-87.676739, 41.88498], [-87.676638, 41.881323], [-87.679085, 41.881324], [-87.678236, 41.88126]], "type": "LineString"}, "properties": {"timestamp": "2024-01-06T18:10:56", "type": "ride", "rideType": "UberX", "pickupAddress": "N Southport Ave, Chicago, IL 60614-2123, US", "dropoffAddress": "W Madison St, Chicago, IL 60607, US", "basePay": "11.72", "surge": "0.00", "tip": "0.00", "earnings": "11.72", "duration": "1283", "distance": "4.10", "rideStartTime": "January 06, 2024 at 06:10 PM", "rideEndTime": "January 06, 2024 at 06:32 PM"}}, {"type": "Feature", "geometry": {"coordinates": [[-87.678236, 41.88126], [-87.678236, 41.88126]], "type": "LineString"}, "properties": {"timestamp": "2024-01-06T18:30:55", "type": "transition"}}, {"type": "Feature", "geometry": {"coordinates": [[-87.678236, 41.88126], [-87.676638, 41.881323], [-87.677161, 41.899544], [-87.674089, 41.899597], [-87.67412, 41.90052]], "type": "LineString"}, "properties": {"timestamp": "2024-01-06T18:30:55", "type": "ride", "rideType": "UberX", "pickupAddress": "W Madison St, Chicago, IL 60607-2007, US", "dropoffAddress": "N Milwaukee Ave, Chicago, IL 60622, US", "basePay": "7.64", "surge": "0.00", "tip": "0.00", "earnings": "7.64", "duration": "553", "distance": "2.50", "rideStartTime": "January 06, 2024 at 06:30 PM", "rideEndTime": "January 06, 2024 at 06:40 PM"}}, {"type": "Feature", "geometry": {"coordinates": [[-87.67412, 41.90052], [-87.67415, 41.901415], [-87.672337, 41.901438], [-87.67239, 41.903268], [-87.665045, 41.903374], [-87.665061, 41.903929]], "type": "LineString"}, "properties": {"timestamp": "2024-01-06T18:44:41", "type": "transition"}}, {"type": "Feature", "geometry": {"coordinates": [[-87.665061, 41.903929], [-87.665099, 41.90517], [-87.663885, 41.905187], [-87.663823, 41.903391], [-87.661667, 41.903435], [-87.658563, 41.896333], [-87.648602, 41.889352], [-87.646315, 41.886261], [-87.644363, 41.857367], [-87.645793, 41.852447], [-87.644333, 41.849097], [-87.644894, 41.846776], [-87.652275, 41.845121], [-87.669478, 41.837422], [-87.674176, 41.837483], [-87.675521, 41.836888], [-87.675328, 41.831825], [-87.68435, 41.826276], [-87.684228, 41.822995], [-87.684139, 41.819343], [-87.682902, 41.819316], [-87.682872, 41.819191]], "type": "LineString"}, "properties": {"timestamp": "2024-01-06T18:44:41", "type": "ride", "rideType": "UberX", "pickupAddress": "N Greenview Ave, Chicago, IL 60642-2343, US", "dropoffAddress": "S Oakley Ave, Chicago, IL 60608, US", "basePay": "12.36", "surge": "0.00", "tip": "0.00", "earnings": "12.36", "duration": "1044", "distance": "4.80", "rideStartTime": "January 06, 2024 at 06:44 PM", "rideEndTime": "January 06, 2024 at 07:02 PM"}}, {"type": "Feature", "geometry": {"coordinates": [[-87.682872, 41.819191], [-87.682902, 41.819316], [-87.684139, 41.819343], [-87.684413, 41.830623], [-87.685309, 41.838241], [-87.68599, 41.838663], [-87.687114, 41.838261], [-87.689299, 41.838169], [-87.691315, 41.837489], [-87.709699, 41.837151], [-87.709955, 41.846282], [-87.709696, 41.846285]], "type": "LineString"}, "properties": {"timestamp": "2024-01-06T19:07:02", "type": "transition"}}, {"type": "Feature", "geometry": {"coordinates": [[-87.709696, 41.846285], [-87.709955, 41.846282], [-87.710116, 41.851717], [-87.710877, 41.851661], [-87.711165, 41.851938], [-87.724764, 41.851642], [-87.72708, 41.92265], [-87.726455, 41.92266], [-87.727137, 41.93727], [-87.72492, 41.93668], [-87.724596, 41.936972]], "type": "LineString"}, "properties": {"timestamp": "2024-01-06T19:07:02", "type": "ride", "rideType": "UberX", "pickupAddress": "W 25th St, Chicago, IL 60623-4119, US", "dropoffAddress": "N Davlin Ct, Chicago, IL 60618-6507, US", "basePay": "14.94", "surge": "0.00", "tip": "0.00", "earnings": "14.94", "duration": "1849", "distance": "7.60", "rideStartTime": "January 06, 2024 at 07:07 PM", "rideEndTime": "January 06, 2024 at 07:37 PM"}}, {"type": "Feature", "geometry": {"coordinates": [[-87.724596, 41.936972], [-87.723275, 41.938161], [-87.724127, 41.938682]], "type": "LineString"}, "properties": {"timestamp": "2024-01-06T19:38:18", "type": "transition"}}, {"type": "Feature", "geometry": {"coordinates": [[-87.724127, 41.938682], [-87.724728, 41.938668], [-87.724742, 41.939128], [-87.817738, 41.937915], [-87.817616, 41.934301], [-87.820654, 41.93424], [-87.82067, 41.934634]], "type": "LineString"}, "properties": {"timestamp": "2024-01-06T19:38:18", "type": "ride", "rideType": "UberX", "pickupAddress": "3198 N Milwaukee Ave, Chicago, IL 60618, US", "dropoffAddress": "N Milwaukee Ave, Chicago, IL 60647, US", "basePay": "4.13", "surge": "0.00", "tip": "0.00", "earnings": "4.13", "duration": "346", "distance": "1.40", "rideStartTime": "January 06, 2024 at 07:38 PM", "rideEndTime": "January 06, 2024 at 07:44 PM"}}, {"type": "Feature", "geometry": {"coordinates": [[-87.82067, 41.934634], [-87.820654, 41.93424], [-87.806613, 41.934519], [-87.804598, 41.873618], [-87.769061, 41.87064], [-87.739969, 41.871594], [-87.733001, 41.87362], [-87.708909, 41.873948], [-87.699066, 41.875134], [-87.680246, 41.875358], [-87.676418, 41.875016], [-87.677112, 41.897728], [-87.675884, 41.897747], [-87.67594, 41.899493]], "type": "LineString"}, "properties": {"timestamp": "2024-01-06T21:31:34", "type": "transition"}}, {"type": "Feature", "geometry": {"coordinates": [[-87.67594, 41.899493], [-87.675943, 41.899565], [-87.677161, 41.899544], [-87.677893, 41.925026], [-87.66815, 41.925151], [-87.66875, 41.945181], [-87.664502, 41.945239]], "type": "LineString"}, "properties": {"timestamp": "2024-01-06T21:31:34", "type": "ride", "rideType": "UberX", "pickupAddress": "N Winchester Ave, Chicago, IL 60622-1002, US", "dropoffAddress": "W Cornelia Ave, Chicago, IL 60657-1505, US", "basePay": "7.59", "surge": "0.00", "tip": "5.00", "earnings": "12.59", "duration": "903", "distance": "3.30", "rideStartTime": "January 06, 2024 at 09:31 PM", "rideEndTime": "January 06, 2024 at 09:46 PM"}}, {"type": "Feature", "geometry": {"coordinates": [[-87.664502, 41.945239], [-87.663953, 41.945247], [-87.663682, 41.936111], [-87.658713, 41.932557], [-87.653863, 41.932636], [-87.653827, 41.931569]], "type": "LineString"}, "properties": {"timestamp": "2024-01-06T21:50:58", "type": "transition"}}, {"type": "Feature", "geometry": {"coordinates": [[-87.653827, 41.931569], [-87.654016, 41.937175], [-87.653552, 41.937186], [-87.65355, 41.937074]], "type": "LineString"}, "properties": {"timestamp": "2024-01-06T21:50:58", "type": "ride", "rideType": "UberX", "pickupAddress": "N Sheffield Ave, Chicago, IL 60657, US", "dropoffAddress": "N Clark St, Chicago, IL 60657, US", "basePay": "3.00", "surge": "0.00", "tip": "0.00", "earnings": "3.00", "duration": "212", "distance": "0.70", "rideStartTime": "January 06, 2024 at 09:50 PM", "rideEndTime": "January 06, 2024 at 09:54 PM"}}, {"type": "Feature", "geometry": {"coordinates": [[-87.65355, 41.937074], [-87.653552, 41.937186], [-87.654016, 41.937175], [-87.653987, 41.936284], [-87.661245, 41.936154], [-87.661241, 41.936537]], "type": "LineString"}, "properties": {"timestamp": "2024-01-06T21:57:36", "type": "transition"}}, {"type": "Feature", "geometry": {"coordinates": [[-87.661241, 41.936537], [-87.661134, 41.932518], [-87.678134, 41.932278], [-87.677893, 41.925026], [-87.681912, 41.924981], [-87.685177, 41.926707], [-87.709664, 41.940439], [-87.714861, 41.942208], [-87.719618, 41.947985], [-87.738838, 41.958569], [-87.741371, 41.960451], [-87.74187, 41.960845], [-87.794161, 41.960081], [-87.816945, 41.949144], [-87.816641, 41.941072]], "type": "LineString"}, "properties": {"timestamp": "2024-01-06T21:57:36", "type": "ride", "rideType": "UberX", "pickupAddress": "N Lakewood Ave, Chicago, IL 60657-1408, US", "dropoffAddress": "W North Ave, Chicago, IL 60622, US", "basePay": "6.83", "surge": "0.00", "tip": "0.00", "earnings": "6.83", "duration": "509", "distance": "2.60", "rideStartTime": "January 06, 2024 at 09:57 PM", "rideEndTime": "January 06, 2024 at 10:06 PM"}}, {"type": "Feature", "geometry": {"coordinates": [[-87.816641, 41.941072], [-87.816587, 41.939617], [-87.817797, 41.939594], [-87.818384, 41.948419], [-87.797713, 41.958438], [-87.797737, 41.968342], [-87.778289, 41.96853], [-87.77728, 41.967665], [-87.747723, 41.968033], [-87.747918, 41.972896], [-87.747761, 41.972794], [-87.747223, 41.966563], [-87.745961, 41.963113], [-87.742125, 41.960129], [-87.719592, 41.947613], [-87.715306, 41.94215], [-87.710219, 41.940524], [-87.698173, 41.933659], [-87.673831, 41.919706], [-87.671882, 41.918264], [-87.671887, 41.917859], [-87.675204, 41.917803], [-87.675032, 41.910862], [-87.675379, 41.910856]], "type": "LineString"}, "properties": {"timestamp": "2024-01-06T22:04:30", "type": "transition"}}, {"type": "Feature", "geometry": {"coordinates": [[-87.675379, 41.910856], [-87.676261, 41.910843], [-87.676282, 41.912324], [-87.677521, 41.912304], [-87.677621, 41.91776], [-87.684968, 41.91763], [-87.684989, 41.918313]], "type": "LineString"}, "properties": {"timestamp": "2024-01-06T22:04:30", "type": "ride", "rideType": "Comfort", "pickupAddress": "1904 W North Ave, Chicago, IL 60622, US", "dropoffAddress": "N Oakley Ave, Chicago, IL 60647-3263, US", "basePay": "5.51", "surge": "0.00", "tip": "3.00", "earnings": "8.51", "duration": "459", "distance": "1.30", "rideStartTime": "January 06, 2024 at 10:04 PM", "rideEndTime": "January 06, 2024 at 10:12 PM"}}, {"type": "Feature", "geometry": {"coordinates": [[-87.684989, 41.918313], [-87.684991, 41.918381], [-87.687437, 41.918337], [-87.687645, 41.924902], [-87.69252, 41.924857], [-87.692584, 41.926673], [-87.691381, 41.926684], [-87.691379, 41.926611]], "type": "LineString"}, "properties": {"timestamp": "2024-01-06T22:19:50", "type": "transition"}}, {"type": "Feature", "geometry": {"coordinates": [[-87.691379, 41.926611], [-87.691319, 41.924867], [-87.682301, 41.924978], [-87.685177, 41.926707], [-87.709664, 41.940439], [-87.714861, 41.942208], [-87.719618, 41.947985], [-87.738838, 41.958569], [-87.741371, 41.960451], [-87.74187, 41.960845], [-87.794287, 41.960061], [-87.822074, 41.946631], [-87.821404, 41.937842], [-87.820185, 41.937866], [-87.820102, 41.936076], [-87.820727, 41.936062], [-87.82067, 41.934634]], "type": "LineString"}, "properties": {"timestamp": "2024-01-06T22:19:50", "type": "ride", "rideType": "UberX", "pickupAddress": "N Maplewood Ave, Chicago, IL 60647-1915, US", "dropoffAddress": "N Milwaukee Ave, Chicago, IL 60647, US", "basePay": "3.36", "surge": "0.00", "tip": "10.00", "earnings": "13.36", "duration": "281", "distance": "0.80", "rideStartTime": "January 06, 2024 at 10:19 PM", "rideEndTime": "January 06, 2024 at 10:24 PM"}}, {"type": "Feature", "geometry": {"coordinates": [[-87.82067, 41.934634], [-87.82067, 41.934634]], "type": "LineString"}, "properties": {"timestamp": "2024-01-06T22:26:55", "type": "transition"}}, {"type": "Feature", "geometry": {"coordinates": [[-87.82067, 41.934634], [-87.820654, 41.93424], [-87.806613, 41.934519], [-87.804598, 41.873618], [-87.769061, 41.87064], [-87.739969, 41.871594], [-87.733001, 41.87362], [-87.708909, 41.873948], [-87.699066, 41.875134], [-87.680246, 41.875358], [-87.673671, 41.875065], [-87.664612, 41.882852], [-87.663613, 41.88287]], "type": "LineString"}, "properties": {"timestamp": "2024-01-06T22:26:55", "type": "ride", "rideType": "UberX", "pickupAddress": "N Milwaukee Ave, Chicago, IL 60647, US", "dropoffAddress": "W Washington Blvd, Chicago, IL 60661-2172, US", "basePay": "7.19", "surge": "0.00", "tip": "0.00", "earnings": "7.19", "duration": "549", "distance": "4.60", "rideStartTime": "January 06, 2024 at 10:26 PM", "rideEndTime": "January 06, 2024 at 10:36 PM"}}, {"type": "Feature", "geometry": {"coordinates": [[-87.663613, 41.88287], [-87.656698, 41.882992], [-87.656689, 41.88163], [-87.645827, 41.8818], [-87.645988, 41.877697], [-87.644752, 41.867365], [-87.644538, 41.861936], [-87.645083, 41.855528], [-87.64655, 41.854689], [-87.646443, 41.844914], [-87.646255, 41.844758]], "type": "LineString"}, "properties": {"timestamp": "2024-01-06T22:38:18", "type": "transition"}}, {"type": "Feature", "geometry": {"coordinates": [[-87.646255, 41.844758], [-87.646335, 41.844917], [-87.646443, 41.844914], [-87.646499, 41.852666], [-87.64473, 41.852672], [-87.643738, 41.855471], [-87.643778, 41.857758], [-87.644517, 41.867845], [-87.644628, 41.873521], [-87.644827, 41.874907], [-87.645646, 41.875725], [-87.646533, 41.875961], [-87.649223, 41.875863], [-87.651853, 41.87589], [-87.651812, 41.874411], [-87.661786, 41.874248], [-87.661763, 41.87336], [-87.663339, 41.873338]], "type": "LineString"}, "properties": {"timestamp": "2024-01-06T22:38:18", "type": "ride", "rideType": "UberX", "pickupAddress": "N Halsted St, Chicago, IL 60661, US", "dropoffAddress": "W Flournoy St, Chicago, IL 60607-3313, US", "basePay": "4.06", "surge": "0.00", "tip": "1.00", "earnings": "5.06", "duration": "435", "distance": "1.50", "rideStartTime": "January 06, 2024 at 10:38 PM", "rideEndTime": "January 06, 2024 at 10:45 PM"}}, {"type": "Feature", "geometry": {"coordinates": [[-87.663339, 41.873338], [-87.661763, 41.87336], [-87.661848, 41.876439], [-87.664278, 41.876401], [-87.66442, 41.881502], [-87.660565, 41.881565], [-87.66057, 41.881752]], "type": "LineString"}, "properties": {"timestamp": "2024-01-06T22:52:19", "type": "transition"}}, {"type": "Feature", "geometry": {"coordinates": [[-87.66057, 41.881752], [-87.66082, 41.887939], [-87.660981, 41.888286], [-87.659834, 41.889971], [-87.654527, 41.896273], [-87.63421, 41.896586], [-87.634293, 41.898867]], "type": "LineString"}, "properties": {"timestamp": "2024-01-06T22:52:19", "type": "ride", "rideType": "UberX", "pickupAddress": "1326 West Madison Street, Chicago, IL 60607, US", "dropoffAddress": "N Wells, Chicago, IL 60614, US", "basePay": "8.64", "surge": "0.00", "tip": "0.00", "earnings": "8.64", "duration": "784", "distance": "3.30", "rideStartTime": "January 06, 2024 at 10:52 PM", "rideEndTime": "January 06, 2024 at 11:05 PM"}}, {"type": "Feature", "geometry": {"coordinates": [[-87.634293, 41.898867], [-87.634474, 41.903857], [-87.639563, 41.903768], [-87.648257, 41.910013], [-87.648495, 41.91731]], "type": "LineString"}, "properties": {"timestamp": "2024-01-06T23:19:14", "type": "transition"}}, {"type": "Feature", "geometry": {"coordinates": [[-87.648495, 41.91731], [-87.648766, 41.925453], [-87.666175, 41.937916], [-87.666233, 41.939729], [-87.673369, 41.939644]], "type": "LineString"}, "properties": {"timestamp": "2024-01-06T23:19:14", "type": "ride", "rideType": "UberX", "pickupAddress": "N Halsted St, Chicago, IL 60614, US", "dropoffAddress": "W Belmont Ave, Chicago, IL 60657-3018, US", "basePay": "5.76", "surge": "0.00", "tip": "0.00", "earnings": "5.76", "duration": "604", "distance": "2.00", "rideStartTime": "January 06, 2024 at 11:19 PM", "rideEndTime": "January 06, 2024 at 11:29 PM"}}, {"type": "Feature", "geometry": {"coordinates": [[-87.673369, 41.939644], [-87.668727, 41.939696], [-87.668473, 41.932963]], "type": "LineString"}, "properties": {"timestamp": "2024-01-06T23:30:17", "type": "transition"}}, {"type": "Feature", "geometry": {"coordinates": [[-87.668473, 41.932963], [-87.668452, 41.9324], [-87.668609, 41.939697], [-87.639537, 41.940119], [-87.638088, 41.940568], [-87.644496, 41.951253], [-87.644596, 41.954749], [-87.648738, 41.973046], [-87.652251, 41.981039], [-87.652803, 41.984951], [-87.653995, 41.985582], [-87.660132, 41.985467], [-87.660278, 41.990006], [-87.665002, 41.989936]], "type": "LineString"}, "properties": {"timestamp": "2024-01-06T23:30:17", "type": "ride", "rideType": "UberX", "pickupAddress": "N Ashland Ave, Chicago, IL 60657, US", "dropoffAddress": "W Thorndale Ave, Chicago, IL 60660-3205, US", "basePay": "7.78", "surge": "0.00", "tip": "0.00", "earnings": "7.78", "duration": "780", "distance": "3.50", "rideStartTime": "January 06, 2024 at 11:30 PM", "rideEndTime": "January 06, 2024 at 11:43 PM"}}, {"type": "Feature", "geometry": {"coordinates": [[-87.665002, 41.989936], [-87.665145, 41.989946], [-87.665374, 41.997321], [-87.665408, 41.998048], [-87.665513, 41.998206], [-87.665572, 41.999968], [-87.667137, 41.999957]], "type": "LineString"}, "properties": {"timestamp": "2024-01-06T23:51:51", "type": "transition"}}, {"type": "Feature", "geometry": {"coordinates": [[-87.667137, 41.999957], [-87.66922, 41.999939], [-87.669168, 41.998103], [-87.655748, 41.998011], [-87.655253, 41.985556], [-87.653157, 41.984999], [-87.649079, 41.973006], [-87.644611, 41.950978], [-87.638957, 41.941067], [-87.632527, 41.93482], [-87.632048, 41.928427], [-87.627538, 41.915117], [-87.627206, 41.913042], [-87.633196, 41.912907], [-87.632901, 41.900546], [-87.63435, 41.90053], [-87.634293, 41.898867]], "type": "LineString"}, "properties": {"timestamp": "2024-01-06T23:51:51", "type": "ride", "rideType": "UberX", "pickupAddress": "W Arthur Ave, Chicago, IL 60626-5016, US", "dropoffAddress": "N Wells St, Chicago, IL 60610, US", "basePay": "11.07", "surge": "0.00", "tip": "0.00", "earnings": "11.07", "duration": "944", "distance": "7.70", "rideStartTime": "January 06, 2024 at 11:51 PM", "rideEndTime": "January 07, 2024 at 12:07 AM"}}, {"type": "Feature", "geometry": {"coordinates": [[-87.634293, 41.898867], [-87.634293, 41.898867]], "type": "LineString"}, "properties": {"timestamp": "2024-01-07T00:12:25", "type": "transition"}}, {"type": "Feature", "geometry": {"coordinates": [[-87.634293, 41.898867], [-87.63421, 41.896586], [-87.65541, 41.896254], [-87.660982, 41.899842], [-87.686926, 41.899379], [-87.687018, 41.903025], [-87.701605, 41.902888]], "type": "LineString"}, "properties": {"timestamp": "2024-01-07T00:12:25", "type": "ride", "rideType": "UberX", "pickupAddress": "N Wells St, Chicago, IL 60610, US", "dropoffAddress": "W Division St, Chicago, IL 60610, US", "basePay": "2.94", "surge": "0.00", "tip": "0.00", "earnings": "2.94", "duration": "303", "distance": "0.60", "rideStartTime": "January 07, 2024 at 12:12 AM", "rideEndTime": "January 07, 2024 at 12:17 AM"}}, {"type": "Feature", "geometry": {"coordinates": [[-87.701605, 41.902888], [-87.666488, 41.903364], [-87.660843, 41.899711], [-87.658834, 41.896667], [-87.657114, 41.895018], [-87.655657, 41.89377], [-87.654831, 41.89226], [-87.653963, 41.891931], [-87.651034, 41.892554], [-87.632511, 41.892423], [-87.632605, 41.895614], [-87.625488, 41.895727], [-87.625513, 41.89638]], "type": "LineString"}, "properties": {"timestamp": "2024-01-07T00:16:49", "type": "transition"}}, {"type": "Feature", "geometry": {"coordinates": [[-87.625513, 41.89638], [-87.625592, 41.896714], [-87.616893, 41.896844], [-87.614264, 41.892868], [-87.614081, 41.885247], [-87.617453, 41.881821], [-87.617261, 41.869765], [-87.619588, 41.866208], [-87.618646, 41.862252], [-87.607188, 41.832576], [-87.600839, 41.825932], [-87.593977, 41.815295], [-87.58209, 41.803885], [-87.579597, 41.794428], [-87.580573, 41.792571], [-87.585251, 41.792193], [-87.58578, 41.787765], [-87.596362, 41.787226], [-87.59632, 41.78543]], "type": "LineString"}, "properties": {"timestamp": "2024-01-07T00:16:49", "type": "ride", "rideType": "UberX", "pickupAddress": "N Rush St, Chicago, IL 60611, US", "dropoffAddress": "S Woodlawn Ave, Chicago, IL 60637, US", "basePay": "12.12", "surge": "0.00", "tip": "4.98", "earnings": "17.10", "duration": "1215", "distance": "10.00", "rideStartTime": "January 07, 2024 at 12:16 AM", "rideEndTime": "January 07, 2024 at 12:37 AM"}}, {"type": "Feature", "geometry": {"coordinates": [[-87.59632, 41.78543], [-87.596345, 41.786507], [-87.586567, 41.786383], [-87.586575, 41.787644], [-87.585076, 41.788306], [-87.585122, 41.79231], [-87.580163, 41.792433], [-87.579065, 41.795899], [-87.581975, 41.803976], [-87.593676, 41.815381], [-87.600955, 41.826403], [-87.606909, 41.832668], [-87.610426, 41.843509], [-87.612641, 41.848604], [-87.630973, 41.847424], [-87.641219, 41.847736], [-87.644555, 41.850742], [-87.644517, 41.867845], [-87.644628, 41.873521], [-87.645646, 41.875725], [-87.649223, 41.875863], [-87.688313, 41.875763], [-87.692409, 41.875862], [-87.701067, 41.875937], [-87.702035, 41.915629], [-87.703717, 41.915612]], "type": "LineString"}, "properties": {"timestamp": "2024-01-07T01:19:09", "type": "transition"}}, {"type": "Feature", "geometry": {"coordinates": [[-87.703717, 41.915612], [-87.702035, 41.915629], [-87.702101, 41.91745], [-87.687413, 41.917587], [-87.687706, 41.928661], [-87.684147, 41.931491], [-87.683979, 41.932222], [-87.642737, 41.932848], [-87.64278, 41.934284], [-87.641783, 41.934301], [-87.64182, 41.935387]], "type": "LineString"}, "properties": {"timestamp": "2024-01-07T01:19:09", "type": "ride", "rideType": "UberX", "pickupAddress": "W Cortland St, Chicago, IL 60622, US", "dropoffAddress": "N Pine Grove Ave, Chicago, IL 60657-6110, US", "basePay": "6.37", "surge": "0.00", "tip": "0.00", "earnings": "6.37", "duration": "720", "distance": "3.50", "rideStartTime": "January 07, 2024 at 01:19 AM", "rideEndTime": "January 07, 2024 at 01:31 AM"}}, {"type": "Feature", "geometry": {"coordinates": [[-87.64182, 41.935387], [-87.641783, 41.934301], [-87.639351, 41.934344], [-87.63931, 41.932914], [-87.638681, 41.932293], [-87.638993, 41.931592], [-87.638762, 41.930111], [-87.638765, 41.927795], [-87.63794, 41.926736], [-87.636833, 41.926079], [-87.636155, 41.925892], [-87.636058, 41.925673], [-87.636586, 41.925658], [-87.63646, 41.92199], [-87.638941, 41.921954], [-87.638808, 41.918322], [-87.638503, 41.918106]], "type": "LineString"}, "properties": {"timestamp": "2024-01-07T01:33:03", "type": "transition"}}, {"type": "Feature", "geometry": {"coordinates": [[-87.638503, 41.918106], [-87.668425, 41.939512], [-87.679402, 41.955092], [-87.682665, 41.95505]], "type": "LineString"}, "properties": {"timestamp": "2024-01-07T01:33:03", "type": "ride", "rideType": "UberX", "pickupAddress": "N Lincoln Ave, Chicago, IL 60614, US", "dropoffAddress": "W Cuyler Ave, Chicago, IL 60618-3308, US", "basePay": "9.01", "surge": "0.00", "tip": "0.00", "earnings": "9.01", "duration": "885", "distance": "4.10", "rideStartTime": "January 07, 2024 at 01:33 AM", "rideEndTime": "January 07, 2024 at 01:47 AM"}}, {"type": "Feature", "geometry": {"coordinates": [[-87.682665, 41.95505], [-87.683641, 41.955036], [-87.683613, 41.954151], [-87.688469, 41.954086], [-87.687986, 41.932176], [-87.707434, 41.932039], [-87.707505, 41.930261], [-87.707814, 41.929332], [-87.707541, 41.929168], [-87.70705, 41.9174], [-87.710267, 41.917363], [-87.710199, 41.914054]], "type": "LineString"}, "properties": {"timestamp": "2024-01-07T01:53:28", "type": "transition"}}, {"type": "Feature", "geometry": {"coordinates": [[-87.710199, 41.914054], [-87.710192, 41.913804], [-87.71013, 41.911905], [-87.706862, 41.911946], [-87.706651, 41.898325], [-87.687437, 41.890657], [-87.667205, 41.890972], [-87.667053, 41.886129], [-87.666996, 41.885325], [-87.654782, 41.885544]], "type": "LineString"}, "properties": {"timestamp": "2024-01-07T01:53:28", "type": "ride", "rideType": "UberX", "pickupAddress": "N Spaulding Ave, Chicago, IL 60618-1214, US", "dropoffAddress": "W Lake St, Chicago, IL 60607, US", "basePay": "14.94", "surge": "0.00", "tip": "0.00", "earnings": "14.94", "duration": "1683", "distance": "10.90", "rideStartTime": "January 07, 2024 at 01:53 AM", "rideEndTime": "January 07, 2024 at 02:21 AM"}}, {"type": "Feature", "geometry": {"coordinates": [[-87.654782, 41.885544], [-87.653297, 41.885568], [-87.653361, 41.887743], [-87.652203, 41.887755], [-87.652212, 41.888087]], "type": "LineString"}, "properties": {"timestamp": "2024-01-07T02:24:50", "type": "transition"}}, {"type": "Feature", "geometry": {"coordinates": [[-87.652212, 41.888087], [-87.652288, 41.891135], [-87.676904, 41.890825], [-87.677416, 41.908257], [-87.678238, 41.908243]], "type": "LineString"}, "properties": {"timestamp": "2024-01-07T02:24:50", "type": "ride", "rideType": "UberX", "pickupAddress": "N Morgan St, Chicago, IL 60607, US", "dropoffAddress": "W Le Moyne St, Chicago, IL 60622-2239, US", "basePay": "7.15", "surge": "0.00", "tip": "0.00", "earnings": "7.15", "duration": "513", "distance": "3.30", "rideStartTime": "January 07, 2024 at 02:24 AM", "rideEndTime": "January 07, 2024 at 02:33 AM"}}, {"type": "Feature", "geometry": {"coordinates": [[-87.678238, 41.908243], [-87.679848, 41.908215], [-87.679912, 41.910446], [-87.677494, 41.910469], [-87.676073, 41.909501]], "type": "LineString"}, "properties": {"timestamp": "2024-01-07T02:35:07", "type": "transition"}}, {"type": "Feature", "geometry": {"coordinates": [[-87.676073, 41.909501], [-87.679212, 41.911499], [-87.68002, 41.911241], [-87.679992, 41.910445], [-87.729987, 41.909828], [-87.729996, 41.910403]], "type": "LineString"}, "properties": {"timestamp": "2024-01-07T02:35:07", "type": "ride", "rideType": "UberX", "pickupAddress": "1540 N Milwaukee Ave, Chicago, IL 60622, Chicago, IL 60622, US", "dropoffAddress": "N Kedvale Ave, Chicago, IL 60639-4927, US", "basePay": "8.79", "surge": "0.00", "tip": "0.00", "earnings": "8.79", "duration": "742", "distance": "3.50", "rideStartTime": "January 07, 2024 at 02:35 AM", "rideEndTime": "January 07, 2024 at 02:47 AM"}}, {"type": "Feature", "geometry": {"coordinates": [[-87.729996, 41.910403], [-87.730221, 41.917126], [-87.711906, 41.917345], [-87.712582, 41.942239], [-87.714433, 41.942252], [-87.715459, 41.942862]], "type": "LineString"}, "properties": {"timestamp": "2024-01-07T02:52:38", "type": "transition"}}, {"type": "Feature", "geometry": {"coordinates": [[-87.715459, 41.942862], [-87.714433, 41.942252], [-87.712582, 41.942239], [-87.712526, 41.940478], [-87.711309, 41.94053], [-87.709442, 41.939977], [-87.693566, 41.930594], [-87.687291, 41.927358], [-87.683686, 41.924962], [-87.648766, 41.925453], [-87.648892, 41.929091], [-87.647955, 41.929095]], "type": "LineString"}, "properties": {"timestamp": "2024-01-07T02:52:38", "type": "ride", "rideType": "UberX", "pickupAddress": "N Drake Ave, Chicago, IL 60647-2413, US", "dropoffAddress": "N Ashland Ave, Chicago, IL 60622-2221, US", "basePay": "9.89", "surge": "0.00", "tip": "5.00", "earnings": "14.89", "duration": "642", "distance": "4.20", "rideStartTime": "January 07, 2024 at 02:52 AM", "rideEndTime": "January 07, 2024 at 03:03 AM"}}, {"type": "Feature", "geometry": {"coordinates": [[-87.647955, 41.929095], [-87.648892, 41.929091], [-87.648766, 41.925453], [-87.687645, 41.924902], [-87.687413, 41.917587], [-87.702101, 41.91745], [-87.702035, 41.915629], [-87.703717, 41.915612]], "type": "LineString"}, "properties": {"timestamp": "2024-01-07T13:46:58", "type": "transition"}}]}