{"type": "FeatureCollection", "features": [{"type": "Feature", "geometry": {"coordinates": [[-87.697564, 42.007603], [-87.690134, 42.00775], [-87.689674, 41.990567], [-87.689876, 41.990509], [-87.67223, 41.990752], [-87.662456, 41.985105], [-87.654178, 41.985586], [-87.653157, 41.984999], [-87.652706, 41.981232], [-87.648822, 41.972134], [-87.644905, 41.955203], [-87.64469, 41.951193], [-87.639566, 41.942042], [-87.638796, 41.940268], [-87.639537, 41.940119], [-87.63931, 41.932914], [-87.639319, 41.931369], [-87.64343, 41.93001], [-87.642943, 41.929694], [-87.647955, 41.929095]], "type": "LineString"}, "properties": {"timestamp": "2024-05-22T15:05:18", "type": "ride"}}, {"type": "Feature", "geometry": {"coordinates": [[-87.647955, 41.929095], [-87.648892, 41.929091], [-87.64957, 41.950114], [-87.650789, 41.950097]], "type": "LineString"}, "properties": {"timestamp": "2024-05-22T15:36:10", "type": "transition"}}, {"type": "Feature", "geometry": {"coordinates": [[-87.650789, 41.950097], [-87.651978, 41.950079], [-87.651901, 41.947284], [-87.654325, 41.947246], [-87.654106, 41.939918], [-87.688141, 41.939467], [-87.687986, 41.932176], [-87.707434, 41.932039], [-87.707505, 41.930261], [-87.707814, 41.929332], [-87.707541, 41.929168], [-87.707825, 41.928361], [-87.710862, 41.928329], [-87.710817, 41.926502], [-87.709358, 41.926518], [-87.709305, 41.925019]], "type": "LineString"}, "properties": {"timestamp": "2024-05-22T15:36:10", "type": "ride"}}, {"type": "Feature", "geometry": {"coordinates": [[-87.709305, 41.925019], [-87.709292, 41.9247], [-87.795245, 41.923598], [-87.806251, 41.924003], [-87.806433, 41.929342], [-87.810376, 41.929262]], "type": "LineString"}, "properties": {"timestamp": "2024-05-22T15:57:52", "type": "transition"}}, {"type": "Feature", "geometry": {"coordinates": [[-87.810376, 41.929262], [-87.806433, 41.929342], [-87.806735, 41.938002], [-87.786046, 41.938315], [-87.786554, 41.95292], [-87.731304, 41.953617], [-87.719717, 41.947499], [-87.715518, 41.942115], [-87.709442, 41.939977], [-87.673831, 41.919706], [-87.671882, 41.918264], [-87.671723, 41.918151], [-87.667505, 41.91793], [-87.666413, 41.916455], [-87.663815, 41.917067], [-87.658378, 41.917139], [-87.658214, 41.918041], [-87.648523, 41.918178], [-87.648495, 41.91731]], "type": "LineString"}, "properties": {"timestamp": "2024-05-22T15:57:52", "type": "ride"}}, {"type": "Feature", "geometry": {"coordinates": [[-87.648495, 41.91731], [-87.648766, 41.925453], [-87.63067, 41.926223], [-87.631851, 41.928415], [-87.632612, 41.935386], [-87.638833, 41.941219], [-87.644376, 41.950931], [-87.646094, 41.960253], [-87.645534, 41.962086], [-87.655148, 41.961772], [-87.656894, 41.964503]], "type": "LineString"}, "properties": {"timestamp": "2024-05-22T16:32:33", "type": "transition"}}, {"type": "Feature", "geometry": {"coordinates": [[-87.656894, 41.964503], [-87.656894, 41.964503]], "type": "LineString"}, "properties": {"timestamp": "2024-05-22T16:32:33", "type": "ride"}}, {"type": "Feature", "geometry": {"coordinates": [[-87.656894, 41.964503], [-87.649662, 41.953239], [-87.64961, 41.95119], [-87.648365, 41.949175], [-87.646666, 41.94974], [-87.64615, 41.948891], [-87.647031, 41.948585]], "type": "LineString"}, "properties": {"timestamp": "2024-05-22T16:57:08", "type": "transition"}}, {"type": "Feature", "geometry": {"coordinates": [[-87.647031, 41.948585], [-87.647842, 41.948303], [-87.647275, 41.947355], [-87.64345, 41.948638], [-87.639574, 41.941203], [-87.638606, 41.939931], [-87.632453, 41.934639], [-87.632048, 41.928427], [-87.62421, 41.902733], [-87.619617, 41.900898], [-87.614264, 41.892868], [-87.614127, 41.884928], [-87.617453, 41.881821], [-87.617261, 41.869765], [-87.619588, 41.866208], [-87.614728, 41.853242], [-87.614444, 41.848506], [-87.626818, 41.84732], [-87.631727, 41.847855], [-87.631351, 41.843118], [-87.631163, 41.834246], [-87.631513, 41.830937], [-87.626457, 41.831008], [-87.626475, 41.83283], [-87.625023, 41.832863]], "type": "LineString"}, "properties": {"timestamp": "2024-05-22T16:57:08", "type": "ride"}}, {"type": "Feature", "geometry": {"coordinates": [[-87.625023, 41.832863], [-87.626475, 41.83283], [-87.626499, 41.834676], [-87.62663, 41.831006], [-87.631513, 41.830937], [-87.631416, 41.827182], [-87.632226, 41.807984], [-87.631154, 41.779333], [-87.626113, 41.772231], [-87.624621, 41.72052], [-87.621065, 41.713653], [-87.600337, 41.713191], [-87.592948, 41.708673], [-87.592406, 41.703483], [-87.601798, 41.685512], [-87.601728, 41.676933], [-87.589096, 41.660202], [-87.59119, 41.659512], [-87.560717, 41.658851], [-87.555878, 41.656176], [-87.555649, 41.65737], [-87.553811, 41.65736], [-87.553812, 41.656889]], "type": "LineString"}, "properties": {"timestamp": "2024-05-22T17:23:58", "type": "transition"}}, {"type": "Feature", "geometry": {"coordinates": [[-87.553812, 41.656889], [-87.553811, 41.65736], [-87.557102, 41.657281], [-87.585314, 41.660149], [-87.590822, 41.662478], [-87.601403, 41.675885], [-87.601563, 41.685726], [-87.594329, 41.69908], [-87.591535, 41.705863], [-87.595707, 41.711823], [-87.618809, 41.713575], [-87.62372, 41.717096], [-87.625651, 41.769497], [-87.630747, 41.779495], [-87.630667, 41.838631], [-87.631001, 41.844069], [-87.630081, 41.846653], [-87.616851, 41.847976], [-87.612168, 41.84938], [-87.619244, 41.8661], [-87.614003, 41.89273], [-87.619441, 41.900921], [-87.623983, 41.902767], [-87.630534, 41.924159], [-87.63067, 41.926223], [-87.640463, 41.92558], [-87.641881, 41.927956]], "type": "LineString"}, "properties": {"timestamp": "2024-05-22T17:23:58", "type": "ride"}}, {"type": "Feature", "geometry": {"coordinates": [[-87.641881, 41.927956], [-87.642875, 41.92963], [-87.643564, 41.93012], [-87.644577, 41.931849], [-87.645015, 41.932979], [-87.649228, 41.938193], [-87.654046, 41.938097], [-87.654016, 41.937175], [-87.653552, 41.937186], [-87.65355, 41.937074]], "type": "LineString"}, "properties": {"timestamp": "2024-05-22T18:39:37", "type": "transition"}}, {"type": "Feature", "geometry": {"coordinates": [[-87.65355, 41.937074], [-87.653552, 41.937186], [-87.654016, 41.937175], [-87.654106, 41.939918], [-87.639537, 41.940119], [-87.638088, 41.940568], [-87.644496, 41.951253], [-87.644596, 41.954749], [-87.648738, 41.973046], [-87.652251, 41.981039], [-87.652803, 41.984951], [-87.654178, 41.985586], [-87.662456, 41.985105], [-87.670217, 41.989895], [-87.67531, 41.992132], [-87.675425, 41.994982], [-87.681159, 42.007344], [-87.682735, 42.007313]], "type": "LineString"}, "properties": {"timestamp": "2024-05-22T18:39:37", "type": "ride"}}, {"type": "Feature", "geometry": {"coordinates": [[-87.682735, 42.007313], [-87.683904, 42.00729], [-87.683963, 42.008875], [-87.682033, 42.008959], [-87.681855, 42.008899], [-87.683956, 42.014829]], "type": "LineString"}, "properties": {"timestamp": "2024-05-22T19:13:15", "type": "transition"}}, {"type": "Feature", "geometry": {"coordinates": [[-87.683956, 42.014829], [-87.675425, 41.994982], [-87.67531, 41.992132], [-87.669778, 41.989576], [-87.660074, 41.983631], [-87.659673, 41.968906], [-87.656894, 41.964503]], "type": "LineString"}, "properties": {"timestamp": "2024-05-22T19:13:15", "type": "ride"}}, {"type": "Feature", "geometry": {"coordinates": [[-87.656894, 41.964503], [-87.655148, 41.961772], [-87.714367, 41.961119], [-87.714413, 41.962942], [-87.713522, 41.962954]], "type": "LineString"}, "properties": {"timestamp": "2024-05-23T11:56:36", "type": "transition"}}]}