{"type": "FeatureCollection", "features": [{"type": "Feature", "geometry": {"coordinates": [[-87.72019, 41.910899], [-87.719019, 41.910908], [-87.71898, 41.90996], [-87.687207, 41.910324], [-87.688003, 41.939468], [-87.663815, 41.939759], [-87.663907, 41.943419], [-87.665475, 41.943396]], "type": "LineString"}, "properties": {"timestamp": "2024-06-22T19:18:22", "type": "ride", "rideType": "UberX", "pickupAddress": "W Concord Pl, Chicago, IL 60647-5406, US", "dropoffAddress": "W Roscoe St, Chicago, IL 60657-2304, US", "basePay": "9.24", "surge": "0.00", "tip": "0.00", "earnings": "9.24", "duration": "1218", "distance": "3.90", "rideStartTime": "June 22, 2024 at 07:18 PM", "rideEndTime": "June 22, 2024 at 07:38 PM"}}, {"type": "Feature", "geometry": {"coordinates": [[-87.665475, 41.943396], [-87.666342, 41.943383], [-87.66644, 41.947045], [-87.649493, 41.947315], [-87.649434, 41.945447], [-87.650648, 41.945453], [-87.65068, 41.94643]], "type": "LineString"}, "properties": {"timestamp": "2024-06-22T19:42:31", "type": "transition"}}, {"type": "Feature", "geometry": {"coordinates": [[-87.65068, 41.94643], [-87.650709, 41.947303], [-87.656521, 41.947205], [-87.662225, 41.95438], [-87.738067, 41.953535], [-87.738204, 41.957068], [-87.738806, 41.957146], [-87.740053, 41.957989]], "type": "LineString"}, "properties": {"timestamp": "2024-06-22T19:42:31", "type": "ride", "rideType": "UberX", "pickupAddress": "N Reta Ave, Chicago, IL 60657-1711, US", "dropoffAddress": "W Irving Park Rd, Chicago, IL 60641, US", "basePay": "18.44", "surge": "1.75", "tip": "0.00", "earnings": "20.19", "duration": "1187", "distance": "4.60", "rideStartTime": "June 22, 2024 at 07:42 PM", "rideEndTime": "June 22, 2024 at 08:02 PM"}}, {"type": "Feature", "geometry": {"coordinates": [[-87.740053, 41.957989], [-87.740053, 41.957989]], "type": "LineString"}, "properties": {"timestamp": "2024-06-22T19:53:56", "type": "transition"}}, {"type": "Feature", "geometry": {"coordinates": [[-87.740053, 41.957989], [-87.738806, 41.957146], [-87.738204, 41.957068], [-87.738067, 41.953535], [-87.731304, 41.953617], [-87.719717, 41.947499], [-87.715518, 41.942115], [-87.709442, 41.939977], [-87.671115, 41.918139], [-87.668499, 41.915851], [-87.666712, 41.913088], [-87.665662, 41.910672], [-87.654084, 41.910826], [-87.649323, 41.905133]], "type": "LineString"}, "properties": {"timestamp": "2024-06-22T19:53:56", "type": "ride", "rideType": "UberX", "pickupAddress": "W Irving Park Rd, Chicago, IL 60641-2719, US", "dropoffAddress": "N Kingsbury St, Chicago, IL 60610-7430, US", "basePay": "9.72", "surge": "0.00", "tip": "4.38", "earnings": "14.10", "duration": "1170", "distance": "7.20", "rideStartTime": "June 22, 2024 at 07:53 PM", "rideEndTime": "June 22, 2024 at 08:13 PM"}}, {"type": "Feature", "geometry": {"coordinates": [[-87.649323, 41.905133], [-87.649202, 41.905042], [-87.648124, 41.905038], [-87.648086, 41.903643], [-87.637466, 41.903798], [-87.63739, 41.902067], [-87.635771, 41.902081]], "type": "LineString"}, "properties": {"timestamp": "2024-06-22T20:38:20", "type": "transition"}}, {"type": "Feature", "geometry": {"coordinates": [[-87.635771, 41.902081], [-87.63739, 41.902067], [-87.637178, 41.896556], [-87.641559, 41.896492], [-87.641445, 41.893453], [-87.638577, 41.889918], [-87.638119, 41.889119], [-87.641432, 41.889102], [-87.641353, 41.886808], [-87.639904, 41.886819], [-87.639932, 41.887293]], "type": "LineString"}, "properties": {"timestamp": "2024-06-22T20:38:20", "type": "ride", "rideType": "UberX", "pickupAddress": "W Hill St, Chicago, IL 60610-2506, US", "dropoffAddress": "N Canal St, Chicago, IL 60606, US", "basePay": "6.64", "surge": "0.00", "tip": "0.00", "earnings": "6.64", "duration": "448", "distance": "1.40", "rideStartTime": "June 22, 2024 at 08:38 PM", "rideEndTime": "June 22, 2024 at 08:45 PM"}}, {"type": "Feature", "geometry": {"coordinates": [[-87.639932, 41.887293], [-87.64001, 41.889064], [-87.641432, 41.889102], [-87.641385, 41.888757], [-87.641353, 41.886808], [-87.642802, 41.886807], [-87.642815, 41.887871]], "type": "LineString"}, "properties": {"timestamp": "2024-06-22T20:44:08", "type": "transition"}}, {"type": "Feature", "geometry": {"coordinates": [[-87.642815, 41.887871], [-87.642802, 41.886807], [-87.641353, 41.886808], [-87.641367, 41.889059], [-87.629579, 41.889242], [-87.629616, 41.89084], [-87.62265, 41.890954], [-87.62271, 41.892566], [-87.621881, 41.892574]], "type": "LineString"}, "properties": {"timestamp": "2024-06-22T20:44:08", "type": "ride", "rideType": "UberX", "pickupAddress": "N Jefferson St, Chicago, IL 60661-1222, US", "dropoffAddress": "E Ohio St, Chicago, IL 60611, US", "basePay": "4.87", "surge": "0.00", "tip": "3.00", "earnings": "7.87", "duration": "436", "distance": "1.00", "rideStartTime": "June 22, 2024 at 08:44 PM", "rideEndTime": "June 22, 2024 at 08:51 PM"}}, {"type": "Feature", "geometry": {"coordinates": [[-87.621881, 41.892574], [-87.621881, 41.892574]], "type": "LineString"}, "properties": {"timestamp": "2024-06-22T20:54:27", "type": "transition"}}, {"type": "Feature", "geometry": {"coordinates": [[-87.621881, 41.892574], [-87.620263, 41.892588], [-87.620235, 41.891803], [-87.639878, 41.891506], [-87.643004, 41.891239], [-87.652288, 41.891135], [-87.652153, 41.885993], [-87.651801, 41.886001]], "type": "LineString"}, "properties": {"timestamp": "2024-06-22T20:54:27", "type": "ride", "rideType": "UberX", "pickupAddress": "E Ohio St, Chicago, IL 60611-2707, US", "dropoffAddress": "950 W Lake St, Chicago, 60607, US", "basePay": "7.02", "surge": "1.25", "tip": "1.00", "earnings": "9.27", "duration": "825", "distance": "1.80", "rideStartTime": "June 22, 2024 at 08:54 PM", "rideEndTime": "June 22, 2024 at 09:08 PM"}}, {"type": "Feature", "geometry": {"coordinates": [[-87.651801, 41.886001], [-87.652153, 41.885993], [-87.652141, 41.885588], [-87.662788, 41.885409], [-87.663487, 41.883985], [-87.666061, 41.881475], [-87.679085, 41.881324], [-87.678236, 41.88126]], "type": "LineString"}, "properties": {"timestamp": "2024-06-22T21:14:44", "type": "transition"}}, {"type": "Feature", "geometry": {"coordinates": [[-87.678236, 41.88126], [-87.666061, 41.881475], [-87.663241, 41.884284], [-87.659834, 41.889971], [-87.654527, 41.896273], [-87.647675, 41.896405], [-87.648523, 41.918178], [-87.647123, 41.918199]], "type": "LineString"}, "properties": {"timestamp": "2024-06-22T21:14:44", "type": "ride", "rideType": "UberX", "pickupAddress": "W Madison St, Chicago, IL 60607-2007, US", "dropoffAddress": "W Armitage Ave, Chicago, IL 60614, US", "basePay": "9.43", "surge": "0.00", "tip": "0.00", "earnings": "9.43", "duration": "787", "distance": "3.30", "rideStartTime": "June 22, 2024 at 09:14 PM", "rideEndTime": "June 22, 2024 at 09:27 PM"}}, {"type": "Feature", "geometry": {"coordinates": [[-87.647123, 41.918199], [-87.638808, 41.918322], [-87.638503, 41.918106]], "type": "LineString"}, "properties": {"timestamp": "2024-06-22T21:28:32", "type": "transition"}}, {"type": "Feature", "geometry": {"coordinates": [[-87.638503, 41.918106], [-87.638808, 41.918322], [-87.643665, 41.91825], [-87.643529, 41.913908], [-87.649577, 41.913806], [-87.649617, 41.914943]], "type": "LineString"}, "properties": {"timestamp": "2024-06-22T21:28:32", "type": "ride", "rideType": "UberX", "pickupAddress": "N Lincoln Ave, Chicago, IL 60614-5403, US", "dropoffAddress": "N Dayton St, Chicago, IL 60642, US", "basePay": "4.14", "surge": "0.00", "tip": "1.00", "earnings": "5.14", "duration": "253", "distance": "1.20", "rideStartTime": "June 22, 2024 at 09:28 PM", "rideEndTime": "June 22, 2024 at 09:32 PM"}}, {"type": "Feature", "geometry": {"coordinates": [[-87.649617, 41.914943], [-87.649729, 41.918159], [-87.658214, 41.918041], [-87.658201, 41.917264], [-87.658378, 41.917139], [-87.663815, 41.917067], [-87.666413, 41.916455], [-87.662368, 41.911013], [-87.660908, 41.908679]], "type": "LineString"}, "properties": {"timestamp": "2024-06-22T22:14:04", "type": "transition"}}, {"type": "Feature", "geometry": {"coordinates": [[-87.660908, 41.908679], [-87.659943, 41.907139], [-87.659508, 41.904817], [-87.658892, 41.903997], [-87.658708, 41.903661], [-87.658875, 41.90348], [-87.661667, 41.903435], [-87.661131, 41.901131], [-87.659243, 41.897272], [-87.658255, 41.896], [-87.657114, 41.895018], [-87.655657, 41.89377], [-87.654831, 41.89226], [-87.653963, 41.891931], [-87.651034, 41.892554], [-87.648079, 41.892372], [-87.631145, 41.892439], [-87.631063, 41.889218], [-87.628704, 41.889251]], "type": "LineString"}, "properties": {"timestamp": "2024-06-22T22:14:04", "type": "ride", "rideType": "UberX", "pickupAddress": "N Elston Ave, Chicago, IL 60642, US", "dropoffAddress": "W Kinzie St, Chicago, IL 60654, US", "basePay": "6.26", "surge": "3.00", "tip": "3.14", "earnings": "12.40", "duration": "564", "distance": "2.30", "rideStartTime": "June 22, 2024 at 10:14 PM", "rideEndTime": "June 22, 2024 at 10:23 PM"}}, {"type": "Feature", "geometry": {"coordinates": [[-87.628704, 41.889251], [-87.631063, 41.889218], [-87.630715, 41.875701], [-87.631738, 41.875684], [-87.631731, 41.875522], [-87.631448, 41.875518]], "type": "LineString"}, "properties": {"timestamp": "2024-06-22T22:24:30", "type": "transition"}}, {"type": "Feature", "geometry": {"coordinates": [[-87.631448, 41.875518], [-87.629223, 41.875546], [-87.629401, 41.881987], [-87.631509, 41.881974], [-87.632365, 41.882009], [-87.632751, 41.900548], [-87.632884, 41.899913]], "type": "LineString"}, "properties": {"timestamp": "2024-06-22T22:24:30", "type": "ride", "rideType": "UberX", "pickupAddress": "N La Salle Dr, Chicago, IL 60654, US", "dropoffAddress": "N La Salle Dr, Chicago, IL 60610-1301, US", "basePay": "5.95", "surge": "0.00", "tip": "0.00", "earnings": "5.95", "duration": "445", "distance": "1.50", "rideStartTime": "June 22, 2024 at 10:24 PM", "rideEndTime": "June 22, 2024 at 10:31 PM"}}, {"type": "Feature", "geometry": {"coordinates": [[-87.632884, 41.899913], [-87.632793, 41.89661], [-87.63421, 41.896586], [-87.634293, 41.898867]], "type": "LineString"}, "properties": {"timestamp": "2024-06-22T22:38:34", "type": "transition"}}, {"type": "Feature", "geometry": {"coordinates": [[-87.634293, 41.898867], [-87.634474, 41.903857], [-87.639563, 41.903768], [-87.648257, 41.910013], [-87.649119, 41.935467], [-87.65295, 41.935378]], "type": "LineString"}, "properties": {"timestamp": "2024-06-22T22:38:34", "type": "ride", "rideType": "UberX", "pickupAddress": "N Wells St, Chicago, IL 60610, US", "dropoffAddress": "W Oakdale Ave, Chicago, IL 60657-4118, US", "basePay": "6.92", "surge": "0.00", "tip": "0.00", "earnings": "6.92", "duration": "834", "distance": "2.90", "rideStartTime": "June 22, 2024 at 10:38 PM", "rideEndTime": "June 22, 2024 at 10:52 PM"}}, {"type": "Feature", "geometry": {"coordinates": [[-87.65295, 41.935378], [-87.661231, 41.935239], [-87.661195, 41.934332], [-87.663209, 41.935776]], "type": "LineString"}, "properties": {"timestamp": "2024-06-22T22:53:38", "type": "transition"}}, {"type": "Feature", "geometry": {"coordinates": [[-87.663209, 41.935776], [-87.663682, 41.936111], [-87.66355, 41.932479], [-87.707434, 41.932039], [-87.707505, 41.930261], [-87.707814, 41.929332], [-87.707541, 41.929168], [-87.707818, 41.928286], [-87.707297, 41.927157], [-87.706062, 41.92716], [-87.704697, 41.926354]], "type": "LineString"}, "properties": {"timestamp": "2024-06-22T22:53:38", "type": "ride", "rideType": "UberX", "pickupAddress": "N Lincoln Ave, Chicago, IL 60657-4208, US", "dropoffAddress": "N Linden Pl, Chicago, IL 60647-2626, US", "basePay": "9.74", "surge": "0.00", "tip": "3.29", "earnings": "13.03", "duration": "885", "distance": "3.00", "rideStartTime": "June 22, 2024 at 10:53 PM", "rideEndTime": "June 22, 2024 at 11:08 PM"}}, {"type": "Feature", "geometry": {"coordinates": [[-87.704697, 41.926354], [-87.70234, 41.925726], [-87.702313, 41.924778], [-87.789403, 41.92364], [-87.806251, 41.924003], [-87.806613, 41.934519], [-87.820654, 41.93424], [-87.82067, 41.934634]], "type": "LineString"}, "properties": {"timestamp": "2024-06-22T23:12:26", "type": "transition"}}, {"type": "Feature", "geometry": {"coordinates": [[-87.82067, 41.934634], [-87.820654, 41.93424], [-87.821275, 41.934229], [-87.821404, 41.937842], [-87.822616, 41.937819], [-87.82292, 41.945136], [-87.824627, 41.945095], [-87.794287, 41.960061], [-87.747538, 41.960724], [-87.746911, 41.962975], [-87.747627, 41.96438], [-87.745977, 41.964394], [-87.747015, 41.96725], [-87.747318, 41.972024], [-87.746614, 41.980044], [-87.751348, 41.987222], [-87.750649, 41.995203], [-87.748787, 42.000788], [-87.748589, 42.006167], [-87.748759, 42.00958], [-87.748003, 42.010101], [-87.747943, 42.011715], [-87.711668, 42.011822], [-87.682444, 42.012621], [-87.670195, 42.012718], [-87.670148, 42.011246]], "type": "LineString"}, "properties": {"timestamp": "2024-06-22T23:12:26", "type": "ride", "rideType": "UberX", "pickupAddress": "N Milwaukee Ave, Chicago, IL 60647-2924, US", "dropoffAddress": "N Ashland Blvd, Chicago, IL 60626-3312, US", "basePay": "16.84", "surge": "0.00", "tip": "0.00", "earnings": "16.84", "duration": "1655", "distance": "12.00", "rideStartTime": "June 22, 2024 at 11:12 PM", "rideEndTime": "June 22, 2024 at 11:40 PM"}}, {"type": "Feature", "geometry": {"coordinates": [[-87.670148, 42.011246], [-87.669957, 42.005389], [-87.665823, 42.005466], [-87.665673, 42.003627], [-87.666051, 42.00362]], "type": "LineString"}, "properties": {"timestamp": "2024-06-22T23:38:36", "type": "transition"}}, {"type": "Feature", "geometry": {"coordinates": [[-87.666051, 42.00362], [-87.668125, 42.003585], [-87.668185, 42.005422], [-87.690071, 42.005024], [-87.690179, 42.019532], [-87.712298, 42.019106]], "type": "LineString"}, "properties": {"timestamp": "2024-06-22T23:38:36", "type": "ride", "rideType": "UberX", "pickupAddress": "W North Shore Ave, Chicago, IL 60626-4009, US", "dropoffAddress": "Howard St, Evanston, IL 60202-3651, US", "basePay": "5.93", "surge": "1.00", "tip": "0.00", "earnings": "6.93", "duration": "487", "distance": "2.20", "rideStartTime": "June 22, 2024 at 11:38 PM", "rideEndTime": "June 22, 2024 at 11:46 PM"}}, {"type": "Feature", "geometry": {"coordinates": [[-87.712298, 42.019106], [-87.711292, 42.019113], [-87.711691, 41.997354], [-87.709354, 41.997394], [-87.709257, 41.993858], [-87.703173, 41.99394], [-87.703168, 41.993781]], "type": "LineString"}, "properties": {"timestamp": "2024-06-22T23:45:15", "type": "transition"}}, {"type": "Feature", "geometry": {"coordinates": [[-87.703168, 41.993781], [-87.703049, 41.990427], [-87.748329, 41.989958], [-87.747984, 41.975339], [-87.74954, 41.975314]], "type": "LineString"}, "properties": {"timestamp": "2024-06-22T23:45:15", "type": "ride", "rideType": "UberX", "pickupAddress": "N Richmond St, Chicago, IL 60645-4202, US", "dropoffAddress": "W Foster Ave, Chicago, IL 60625-4154, US", "basePay": "6.67", "surge": "0.00", "tip": "0.00", "earnings": "6.67", "duration": "578", "distance": "2.10", "rideStartTime": "June 22, 2024 at 11:45 PM", "rideEndTime": "June 22, 2024 at 11:54 PM"}}, {"type": "Feature", "geometry": {"coordinates": [[-87.74954, 41.975314], [-87.747984, 41.975339], [-87.748329, 41.989843], [-87.669967, 41.9908], [-87.670138, 41.99639], [-87.670543, 41.998086], [-87.667905, 41.998118], [-87.668176, 42.005122]], "type": "LineString"}, "properties": {"timestamp": "2024-06-24T15:04:45", "type": "transition"}}]}