{"type": "FeatureCollection", "features": [{"type": "Feature", "geometry": {"coordinates": [[-87.66518, 41.991183], [-87.665197, 41.99177], [-87.670157, 41.991712], [-87.669796, 41.987608], [-87.66911, 41.954302], [-87.688469, 41.954086], [-87.687862, 41.928591], [-87.693879, 41.928496], [-87.693886, 41.928751], [-87.69452, 41.928744]], "type": "LineString"}, "properties": {"timestamp": "2024-09-20T16:12:11", "type": "ride"}}, {"type": "Feature", "geometry": {"coordinates": [[-87.69452, 41.928744], [-87.695111, 41.928738], [-87.695104, 41.928487], [-87.688267, 41.928472], [-87.687794, 41.927294], [-87.686926, 41.899379], [-87.684486, 41.89942], [-87.684464, 41.89851], [-87.685574, 41.898492]], "type": "LineString"}, "properties": {"timestamp": "2024-09-20T16:52:40", "type": "transition"}}, {"type": "Feature", "geometry": {"coordinates": [[-87.685574, 41.898492], [-87.686903, 41.89847], [-87.686358, 41.874997], [-87.683366, 41.87496], [-87.6605, 41.875604], [-87.650308, 41.875329], [-87.648052, 41.875215], [-87.646014, 41.874037], [-87.644983, 41.869485], [-87.644357, 41.857055], [-87.645374, 41.852823], [-87.644998, 41.850609], [-87.642186, 41.847255], [-87.634652, 41.845323], [-87.632773, 41.844384], [-87.63164, 41.842858], [-87.631163, 41.834246], [-87.631513, 41.830937], [-87.626457, 41.831008], [-87.626475, 41.83283], [-87.625023, 41.832863]], "type": "LineString"}, "properties": {"timestamp": "2024-09-20T16:52:40", "type": "ride"}}, {"type": "Feature", "geometry": {"coordinates": [[-87.625023, 41.832863], [-87.626475, 41.83283], [-87.626578, 41.838297], [-87.630021, 41.838265], [-87.6301, 41.841613], [-87.631814, 41.844491], [-87.642036, 41.847354], [-87.644903, 41.850908], [-87.644156, 41.857362], [-87.645685, 41.885013], [-87.647091, 41.888098], [-87.650048, 41.890597], [-87.651108, 41.891699], [-87.65026, 41.89242], [-87.63704, 41.892368], [-87.637178, 41.896556], [-87.631243, 41.896633], [-87.631235, 41.896314]], "type": "LineString"}, "properties": {"timestamp": "2024-09-20T17:24:14", "type": "transition"}}, {"type": "Feature", "geometry": {"coordinates": [[-87.631235, 41.896314], [-87.631127, 41.891621], [-87.644384, 41.891225], [-87.644242, 41.885699], [-87.645903, 41.885686], [-87.644357, 41.857055], [-87.645288, 41.851399], [-87.642429, 41.847384], [-87.634652, 41.845323], [-87.632773, 41.844384], [-87.63164, 41.842858], [-87.631163, 41.834246], [-87.631513, 41.830937], [-87.644879, 41.830767], [-87.644817, 41.828147]], "type": "LineString"}, "properties": {"timestamp": "2024-09-20T17:24:14", "type": "ride"}}, {"type": "Feature", "geometry": {"coordinates": [[-87.644817, 41.828147], [-87.644792, 41.827124], [-87.646015, 41.827108], [-87.645979, 41.825559], [-87.650828, 41.82549], [-87.650868, 41.827034], [-87.654694, 41.826987]], "type": "LineString"}, "properties": {"timestamp": "2024-09-20T17:49:53", "type": "transition"}}, {"type": "Feature", "geometry": {"coordinates": [[-87.654694, 41.826987], [-87.655622, 41.826979], [-87.655749, 41.830619], [-87.685034, 41.830288], [-87.685076, 41.832698], [-87.684513, 41.835142], [-87.68523, 41.839081], [-87.685988, 41.86479], [-87.694461, 41.861781], [-87.694519, 41.862438]], "type": "LineString"}, "properties": {"timestamp": "2024-09-20T17:49:53", "type": "ride"}}, {"type": "Feature", "geometry": {"coordinates": [[-87.694519, 41.862438], [-87.694617, 41.865627], [-87.695885, 41.865612], [-87.696151, 41.875983], [-87.701496, 41.875935], [-87.704533, 41.874828], [-87.708542, 41.874316], [-87.733365, 41.873929], [-87.740374, 41.87187], [-87.766962, 41.871028], [-87.799298, 41.873251], [-87.804441, 41.87368], [-87.806613, 41.934519], [-87.820654, 41.93424], [-87.82067, 41.934634]], "type": "LineString"}, "properties": {"timestamp": "2024-09-20T19:05:23", "type": "transition"}}, {"type": "Feature", "geometry": {"coordinates": [[-87.82067, 41.934634], [-87.820654, 41.93424], [-87.806613, 41.934519], [-87.804598, 41.873618], [-87.769061, 41.87064], [-87.739969, 41.871594], [-87.733001, 41.87362], [-87.69832, 41.875168], [-87.621098, 41.875622], [-87.619968, 41.865835], [-87.619558, 41.864987], [-87.613948, 41.865039], [-87.613754, 41.866115], [-87.610134, 41.866162], [-87.609222, 41.862992]], "type": "LineString"}, "properties": {"timestamp": "2024-09-20T19:05:23", "type": "ride"}}, {"type": "Feature", "geometry": {"coordinates": [[-87.609222, 41.862992], [-87.609077, 41.864785], [-87.610138, 41.866469], [-87.614013, 41.866369], [-87.614089, 41.86504], [-87.619403, 41.864977], [-87.62045, 41.867696], [-87.620619, 41.875815], [-87.643841, 41.875615], [-87.657603, 41.876197], [-87.688313, 41.875763], [-87.692409, 41.875862], [-87.701067, 41.875937], [-87.702431, 41.897899], [-87.701241, 41.907558], [-87.702035, 41.915629], [-87.703717, 41.915612]], "type": "LineString"}, "properties": {"timestamp": "2024-09-20T20:12:34", "type": "transition"}}, {"type": "Feature", "geometry": {"coordinates": [[-87.703717, 41.915612], [-87.702035, 41.915629], [-87.702101, 41.91745], [-87.671089, 41.917871], [-87.670404, 41.917216], [-87.66811, 41.915355], [-87.664752, 41.909975], [-87.661559, 41.906635], [-87.661057, 41.901306], [-87.658834, 41.896667], [-87.648602, 41.889352], [-87.646473, 41.886676], [-87.644363, 41.857367], [-87.645793, 41.852447], [-87.644333, 41.849097], [-87.643039, 41.847022], [-87.641933, 41.846546], [-87.638623, 41.847063], [-87.634629, 41.84669], [-87.632091, 41.847362], [-87.628234, 41.846918], [-87.623841, 41.847827], [-87.616851, 41.847976], [-87.613392, 41.848153], [-87.61216, 41.849538], [-87.617619, 41.860334], [-87.613838, 41.86038], [-87.614847, 41.862568], [-87.613754, 41.866115], [-87.610134, 41.866162], [-87.609077, 41.864785], [-87.609222, 41.862992]], "type": "LineString"}, "properties": {"timestamp": "2024-09-20T20:12:34", "type": "ride"}}, {"type": "Feature", "geometry": {"coordinates": [[-87.609222, 41.862992], [-87.610138, 41.866469], [-87.614013, 41.866369], [-87.614089, 41.86504], [-87.619403, 41.864977], [-87.614728, 41.853242], [-87.614444, 41.848506], [-87.626818, 41.84732], [-87.631727, 41.847855], [-87.631351, 41.843118], [-87.631289, 41.79178], [-87.631532, 41.783322], [-87.631838, 41.7799], [-87.625367, 41.78006], [-87.6254, 41.779128]], "type": "LineString"}, "properties": {"timestamp": "2024-09-20T20:51:54", "type": "transition"}}, {"type": "Feature", "geometry": {"coordinates": [[-87.6254, 41.779128], [-87.625218, 41.772818], [-87.62998, 41.772715], [-87.630149, 41.780433], [-87.63142, 41.807989], [-87.629665, 41.812785], [-87.630393, 41.837743], [-87.631347, 41.844144], [-87.642036, 41.847354], [-87.644829, 41.85074], [-87.644517, 41.867845], [-87.644628, 41.873521], [-87.645646, 41.875725], [-87.649223, 41.875863], [-87.673066, 41.8759], [-87.676512, 41.876215], [-87.676638, 41.881323], [-87.679085, 41.881324], [-87.678236, 41.88126]], "type": "LineString"}, "properties": {"timestamp": "2024-09-20T20:51:54", "type": "ride"}}, {"type": "Feature", "geometry": {"coordinates": [[-87.678236, 41.88126], [-87.676638, 41.881323], [-87.676904, 41.890825], [-87.687437, 41.890657], [-87.706651, 41.898325], [-87.707297, 41.927157], [-87.706995, 41.927162], [-87.707002, 41.927535], [-87.706559, 41.927537]], "type": "LineString"}, "properties": {"timestamp": "2024-09-21T16:59:38", "type": "transition"}}]}