{"type": "FeatureCollection", "features": [{"type": "Feature", "geometry": {"coordinates": [[-87.660107, 41.972674], [-87.659771, 41.972678], [-87.659673, 41.969021], [-87.669477, 41.968876], [-87.66911, 41.954302], [-87.688469, 41.954086], [-87.687207, 41.910324], [-87.701875, 41.910165], [-87.701241, 41.907558], [-87.702311, 41.902777], [-87.702191, 41.895594], [-87.701213, 41.895606]], "type": "LineString"}, "properties": {"timestamp": "2024-08-24T13:17:47", "type": "ride", "rideType": "UberX", "pickupAddress": "W Argyle St, Chicago, IL 60640-3305, US", "dropoffAddress": "W Chicago Ave, Chicago, IL 60622, US", "basePay": "16.46", "surge": "0.00", "tip": "0.00", "earnings": "16.46", "duration": "1908", "distance": "6.00", "rideStartTime": "August 24, 2024 at 01:17 PM", "rideEndTime": "August 24, 2024 at 01:49 PM"}}, {"type": "Feature", "geometry": {"coordinates": [[-87.701213, 41.895606], [-87.677057, 41.895912], [-87.677276, 41.903184], [-87.676231, 41.903202]], "type": "LineString"}, "properties": {"timestamp": "2024-08-24T13:55:54", "type": "transition"}}, {"type": "Feature", "geometry": {"coordinates": [[-87.676231, 41.903202], [-87.677276, 41.903184], [-87.677923, 41.925839], [-87.69781, 41.939039], [-87.698335, 41.956867]], "type": "LineString"}, "properties": {"timestamp": "2024-08-24T13:55:54", "type": "ride", "rideType": "Uber Pet", "pickupAddress": "1932 W Division St, Chicago, IL 60622, US", "dropoffAddress": "N California Ave, Chicago, IL 60647-3901, US", "basePay": "12.44", "surge": "0.00", "tip": "0.00", "earnings": "12.44", "duration": "615", "distance": "2.20", "rideStartTime": "August 24, 2024 at 01:55 PM", "rideEndTime": "August 24, 2024 at 02:06 PM"}}, {"type": "Feature", "geometry": {"coordinates": [[-87.698335, 41.956867], [-87.697302, 41.921208], [-87.694257, 41.919347], [-87.694965, 41.918735]], "type": "LineString"}, "properties": {"timestamp": "2024-08-24T14:03:56", "type": "transition"}}, {"type": "Feature", "geometry": {"coordinates": [[-87.694965, 41.918735], [-87.695371, 41.918384], [-87.694174, 41.91752], [-87.697194, 41.917494], [-87.697351, 41.922902], [-87.712293, 41.932003], [-87.712351, 41.934031], [-87.711981, 41.934379]], "type": "LineString"}, "properties": {"timestamp": "2024-08-24T14:03:56", "type": "ride", "rideType": "UberX", "pickupAddress": "W Francis Pl, Chicago, IL 60647, US", "dropoffAddress": "N Dawson Ave, Chicago, IL 60618-7549, US", "basePay": "4.30", "surge": "0.00", "tip": "0.00", "earnings": "4.30", "duration": "575", "distance": "1.50", "rideStartTime": "August 24, 2024 at 02:03 PM", "rideEndTime": "August 24, 2024 at 02:13 PM"}}, {"type": "Feature", "geometry": {"coordinates": [[-87.711981, 41.934379], [-87.710651, 41.935677], [-87.712341, 41.935654], [-87.712392, 41.935735], [-87.712442, 41.937474], [-87.712967, 41.937466], [-87.714412, 41.936135]], "type": "LineString"}, "properties": {"timestamp": "2024-08-24T14:14:22", "type": "transition"}}, {"type": "Feature", "geometry": {"coordinates": [[-87.714412, 41.936135], [-87.716242, 41.934451], [-87.715323, 41.933888], [-87.712419, 41.936607], [-87.712704, 41.946565], [-87.698037, 41.946686], [-87.698254, 41.953982], [-87.644162, 41.954667], [-87.64569, 41.95795], [-87.646094, 41.960253], [-87.645534, 41.962086], [-87.639779, 41.962798], [-87.638571, 41.963606]], "type": "LineString"}, "properties": {"timestamp": "2024-08-24T14:14:22", "type": "ride", "rideType": "UberX", "pickupAddress": "N Gresham Ave, Chicago, IL 60618-6707, US", "dropoffAddress": "W Montrose Ave, Chicago, IL 60613-1021, US", "basePay": "8.01", "surge": "0.00", "tip": "5.00", "earnings": "13.01", "duration": "1143", "distance": "3.90", "rideStartTime": "August 24, 2024 at 02:14 PM", "rideEndTime": "August 24, 2024 at 02:33 PM"}}, {"type": "Feature", "geometry": {"coordinates": [[-87.638571, 41.963606], [-87.638723, 41.963341], [-87.639059, 41.963055], [-87.639836, 41.962786], [-87.646878, 41.961908], [-87.646746, 41.959711], [-87.646481, 41.958545], [-87.652, 41.958463]], "type": "LineString"}, "properties": {"timestamp": "2024-08-24T14:57:11", "type": "transition"}}, {"type": "Feature", "geometry": {"coordinates": [[-87.652, 41.958463], [-87.646481, 41.958545], [-87.646878, 41.961908], [-87.644905, 41.955203], [-87.644611, 41.950978], [-87.639566, 41.942042], [-87.638796, 41.940268], [-87.639537, 41.940119], [-87.639435, 41.936919]], "type": "LineString"}, "properties": {"timestamp": "2024-08-24T14:57:11", "type": "ride", "rideType": "UberX", "pickupAddress": "W Buena Ave, Chicago, IL 60613-1611, US", "dropoffAddress": "N Sheridan Rd, Chicago, IL 60640-5022, US", "basePay": "5.46", "surge": "0.00", "tip": "0.00", "earnings": "5.46", "duration": "339", "distance": "0.80", "rideStartTime": "August 24, 2024 at 02:57 PM", "rideEndTime": "August 24, 2024 at 03:02 PM"}}, {"type": "Feature", "geometry": {"coordinates": [[-87.639435, 41.936919], [-87.639435, 41.936919]], "type": "LineString"}, "properties": {"timestamp": "2024-08-24T15:14:13", "type": "transition"}}, {"type": "Feature", "geometry": {"coordinates": [[-87.639435, 41.936919], [-87.639537, 41.940119], [-87.638088, 41.940568], [-87.639469, 41.942275], [-87.644376, 41.950931], [-87.644581, 41.951655], [-87.644572, 41.952992], [-87.644162, 41.954667], [-87.673794, 41.95429], [-87.673756, 41.952396], [-87.673469, 41.952401]], "type": "LineString"}, "properties": {"timestamp": "2024-08-24T15:14:13", "type": "ride", "rideType": "UberX", "pickupAddress": "N Sheridan Rd, Chicago, IL 60640, US", "dropoffAddress": "N Ravenswood Ave, Chicago, IL 60613, US", "basePay": "5.40", "surge": "0.00", "tip": "1.00", "earnings": "6.40", "duration": "794", "distance": "2.60", "rideStartTime": "August 24, 2024 at 03:14 PM", "rideEndTime": "August 24, 2024 at 03:27 PM"}}, {"type": "Feature", "geometry": {"coordinates": [[-87.673469, 41.952401], [-87.673756, 41.952396], [-87.67359, 41.946929], [-87.673726, 41.946928], [-87.668729, 41.939809], [-87.663682, 41.936111], [-87.663383, 41.927039], [-87.664639, 41.927018], [-87.664634, 41.926889]], "type": "LineString"}, "properties": {"timestamp": "2024-08-24T15:39:19", "type": "transition"}}, {"type": "Feature", "geometry": {"coordinates": [[-87.664634, 41.926889], [-87.664567, 41.925197], [-87.669348, 41.925139], [-87.672465, 41.927377], [-87.678134, 41.932278], [-87.688003, 41.939468], [-87.695268, 41.939421], [-87.695246, 41.940262], [-87.69448, 41.940229], [-87.694671, 41.940836]], "type": "LineString"}, "properties": {"timestamp": "2024-08-24T15:39:19", "type": "ride", "rideType": "UberX", "pickupAddress": "N Janssen Ave, Chicago, IL 60657-1324, US", "dropoffAddress": "W Addison St, Chicago, IL 60618, US", "basePay": "5.04", "surge": "0.00", "tip": "3.00", "earnings": "8.04", "duration": "631", "distance": "1.60", "rideStartTime": "August 24, 2024 at 03:39 PM", "rideEndTime": "August 24, 2024 at 03:49 PM"}}, {"type": "Feature", "geometry": {"coordinates": [[-87.694671, 41.940836], [-87.694511, 41.940307], [-87.695246, 41.940262], [-87.695268, 41.939421], [-87.688003, 41.939468], [-87.688598, 41.958583], [-87.693909, 41.958553], [-87.694067, 41.958567]], "type": "LineString"}, "properties": {"timestamp": "2024-08-24T15:57:14", "type": "transition"}}, {"type": "Feature", "geometry": {"coordinates": [[-87.694067, 41.958567], [-87.69172, 41.958571], [-87.691746, 41.959467], [-87.688628, 41.959498], [-87.688512, 41.955627], [-87.687645, 41.924902], [-87.690086, 41.924878], [-87.690094, 41.925214]], "type": "LineString"}, "properties": {"timestamp": "2024-08-24T15:57:14", "type": "ride", "rideType": "UberX", "pickupAddress": "N California Ave, Chicago, IL 60618, US", "dropoffAddress": "N Campbell Ave, Chicago, IL 60647-1922, US", "basePay": "3.06", "surge": "0.00", "tip": "3.00", "earnings": "6.06", "duration": "364", "distance": "1.00", "rideStartTime": "August 24, 2024 at 03:57 PM", "rideEndTime": "August 24, 2024 at 04:03 PM"}}, {"type": "Feature", "geometry": {"coordinates": [[-87.690094, 41.925214], [-87.690149, 41.926696], [-87.687704, 41.926718], [-87.687672, 41.926885], [-87.687339, 41.927019], [-87.686023, 41.926403], [-87.683686, 41.924962], [-87.669348, 41.925139], [-87.664499, 41.921692]], "type": "LineString"}, "properties": {"timestamp": "2024-08-24T15:58:33", "type": "transition"}}, {"type": "Feature", "geometry": {"coordinates": [[-87.664499, 41.921692], [-87.672465, 41.927377], [-87.678134, 41.932278], [-87.688003, 41.939468], [-87.688345, 41.949742]], "type": "LineString"}, "properties": {"timestamp": "2024-08-24T15:58:33", "type": "ride", "rideType": "UberX", "pickupAddress": "N Clybourn Ave, Chicago, IL 60614, US", "dropoffAddress": "N Western Ave, Chicago, IL 60647, US", "basePay": "4.91", "surge": "0.00", "tip": "0.00", "earnings": "4.91", "duration": "470", "distance": "0.80", "rideStartTime": "August 24, 2024 at 03:58 PM", "rideEndTime": "August 24, 2024 at 04:06 PM"}}, {"type": "Feature", "geometry": {"coordinates": [[-87.688345, 41.949742], [-87.687413, 41.917587], [-87.697194, 41.917494], [-87.697059, 41.912372], [-87.698734, 41.912356]], "type": "LineString"}, "properties": {"timestamp": "2024-08-24T18:27:47", "type": "transition"}}, {"type": "Feature", "geometry": {"coordinates": [[-87.698734, 41.912356], [-87.697059, 41.912372], [-87.697029, 41.910223], [-87.665662, 41.910672], [-87.665325, 41.910236], [-87.662271, 41.907574], [-87.661439, 41.906386], [-87.661057, 41.901306], [-87.658834, 41.896667], [-87.657114, 41.895018], [-87.6483, 41.889096], [-87.646614, 41.886973], [-87.646108, 41.885119], [-87.646413, 41.883144], [-87.641266, 41.883178], [-87.639745, 41.883185], [-87.624233, 41.883257], [-87.624344, 41.884366], [-87.623414, 41.884372], [-87.621085, 41.884319]], "type": "LineString"}, "properties": {"timestamp": "2024-08-24T18:27:47", "type": "ride", "rideType": "UberX", "pickupAddress": "W Wabansia Ave, Chicago, IL 60647-4743, US", "dropoffAddress": "E Randolph St, Chicago, IL 60601, US", "basePay": "16.80", "surge": "1.25", "tip": "0.00", "earnings": "18.05", "duration": "2018", "distance": "6.20", "rideStartTime": "August 24, 2024 at 06:27 PM", "rideEndTime": "August 24, 2024 at 07:01 PM"}}, {"type": "Feature", "geometry": {"coordinates": [[-87.621085, 41.884319], [-87.621085, 41.884319]], "type": "LineString"}, "properties": {"timestamp": "2024-08-24T19:08:40", "type": "transition"}}, {"type": "Feature", "geometry": {"coordinates": [[-87.621085, 41.884319], [-87.620576, 41.884316], [-87.627902, 41.884489], [-87.627799, 41.882046], [-87.64573, 41.881801], [-87.645735, 41.885306], [-87.647091, 41.888098], [-87.658063, 41.896345], [-87.66062, 41.90111], [-87.661536, 41.907216], [-87.664439, 41.910145], [-87.668818, 41.916712], [-87.675191, 41.920831], [-87.677815, 41.922669], [-87.677854, 41.923896], [-87.675932, 41.922689]], "type": "LineString"}, "properties": {"timestamp": "2024-08-24T19:08:40", "type": "ride", "rideType": "Comfort", "pickupAddress": "E Randolph St, Chicago, IL 60601, US", "dropoffAddress": "N Lister Ave, Chicago, IL 60614-2914, US", "basePay": "14.92", "surge": "1.00", "tip": "0.00", "earnings": "15.92", "duration": "1121", "distance": "4.90", "rideStartTime": "August 24, 2024 at 07:08 PM", "rideEndTime": "August 24, 2024 at 07:27 PM"}}, {"type": "Feature", "geometry": {"coordinates": [[-87.675932, 41.922689], [-87.677854, 41.923896], [-87.678134, 41.932278], [-87.688003, 41.939468], [-87.688345, 41.949742]], "type": "LineString"}, "properties": {"timestamp": "2024-08-24T19:29:29", "type": "transition"}}, {"type": "Feature", "geometry": {"coordinates": [[-87.688345, 41.949742], [-87.688146, 41.939587], [-87.678134, 41.932278], [-87.677765, 41.92139], [-87.677255, 41.921395], [-87.671115, 41.918139], [-87.668247, 41.915543], [-87.664752, 41.909975], [-87.661559, 41.906635], [-87.661131, 41.901587], [-87.659049, 41.896968], [-87.647531, 41.888343], [-87.646219, 41.885929], [-87.645999, 41.881827], [-87.646134, 41.880956], [-87.64632, 41.87924], [-87.648452, 41.879202], [-87.648435, 41.878629]], "type": "LineString"}, "properties": {"timestamp": "2024-08-24T19:29:29", "type": "ride", "rideType": "UberX", "pickupAddress": "N Western Ave, Chicago, IL 60647-3124, US", "dropoffAddress": "S Green St, Chicago, IL 60607, US", "basePay": "8.25", "surge": "1.00", "tip": "0.00", "earnings": "9.25", "duration": "924", "distance": "4.10", "rideStartTime": "August 24, 2024 at 07:29 PM", "rideEndTime": "August 24, 2024 at 07:44 PM"}}, {"type": "Feature", "geometry": {"coordinates": [[-87.648435, 41.878629], [-87.648413, 41.877929], [-87.645564, 41.877963], [-87.645275, 41.880374], [-87.645355, 41.881847], [-87.645393, 41.882198], [-87.64591, 41.885931], [-87.647404, 41.888483], [-87.658783, 41.897251], [-87.660805, 41.901753], [-87.661061, 41.906443], [-87.664439, 41.910145], [-87.668091, 41.915886], [-87.670574, 41.91815], [-87.678438, 41.922676], [-87.681513, 41.924733], [-87.687645, 41.924902], [-87.687594, 41.923301], [-87.687949, 41.923296]], "type": "LineString"}, "properties": {"timestamp": "2024-08-24T20:45:46", "type": "transition"}}, {"type": "Feature", "geometry": {"coordinates": [[-87.687949, 41.923296], [-87.691444, 41.923248], [-87.691485, 41.924866], [-87.716986, 41.924616], [-87.717101, 41.92898]], "type": "LineString"}, "properties": {"timestamp": "2024-08-24T20:45:46", "type": "ride", "rideType": "UberX", "pickupAddress": "2252 N Western Ave, Chicago, IL 60647, US", "dropoffAddress": "N Central Park Ave, Chicago, IL 60618-5306, US", "basePay": "8.85", "surge": "0.00", "tip": "0.00", "earnings": "8.85", "duration": "660", "distance": "2.90", "rideStartTime": "August 24, 2024 at 08:45 PM", "rideEndTime": "August 24, 2024 at 08:56 PM"}}, {"type": "Feature", "geometry": {"coordinates": [[-87.717101, 41.92898], [-87.717101, 41.92898]], "type": "LineString"}, "properties": {"timestamp": "2024-08-24T20:56:26", "type": "transition"}}, {"type": "Feature", "geometry": {"coordinates": [[-87.717101, 41.92898], [-87.716986, 41.924616], [-87.707229, 41.924722], [-87.706907, 41.910104], [-87.687207, 41.910324], [-87.687155, 41.9085], [-87.688401, 41.908488], [-87.688406, 41.908677]], "type": "LineString"}, "properties": {"timestamp": "2024-08-24T20:56:26", "type": "ride", "rideType": "Uber Pet", "pickupAddress": "N Central Park Ave, Chicago, IL 60618, US", "dropoffAddress": "N Artesian Ave, Chicago, IL 60622-2932, US", "basePay": "13.82", "surge": "0.00", "tip": "0.00", "earnings": "13.82", "duration": "947", "distance": "3.60", "rideStartTime": "August 24, 2024 at 08:56 PM", "rideEndTime": "August 24, 2024 at 09:12 PM"}}, {"type": "Feature", "geometry": {"coordinates": [[-87.688406, 41.908677], [-87.688449, 41.910319], [-87.687207, 41.910324], [-87.687645, 41.924902], [-87.690086, 41.924878], [-87.690094, 41.925214]], "type": "LineString"}, "properties": {"timestamp": "2024-08-24T21:18:12", "type": "transition"}}, {"type": "Feature", "geometry": {"coordinates": [[-87.690094, 41.925214], [-87.690149, 41.926696], [-87.687704, 41.926718], [-87.687413, 41.917587], [-87.697194, 41.917494], [-87.697059, 41.912372], [-87.698734, 41.912356]], "type": "LineString"}, "properties": {"timestamp": "2024-08-24T21:18:12", "type": "ride", "rideType": "UberX", "pickupAddress": "N Campbell Ave, Chicago, IL 60622-1752, US", "dropoffAddress": "W Wabansia Ave, Bucktown, IL 60622, US", "basePay": "5.16", "surge": "0.00", "tip": "3.00", "earnings": "8.16", "duration": "496", "distance": "1.30", "rideStartTime": "August 24, 2024 at 09:18 PM", "rideEndTime": "August 24, 2024 at 09:26 PM"}}, {"type": "Feature", "geometry": {"coordinates": [[-87.698734, 41.912356], [-87.697059, 41.912372], [-87.697029, 41.910223], [-87.687207, 41.910324], [-87.687018, 41.903025], [-87.674833, 41.903226], [-87.674795, 41.902204]], "type": "LineString"}, "properties": {"timestamp": "2024-08-24T21:29:17", "type": "transition"}}, {"type": "Feature", "geometry": {"coordinates": [[-87.674795, 41.902204], [-87.674763, 41.901404], [-87.673548, 41.901426], [-87.673606, 41.903247], [-87.667439, 41.903351], [-87.667641, 41.910635], [-87.664445, 41.910674], [-87.668091, 41.915886], [-87.670574, 41.91815], [-87.709664, 41.940439], [-87.715161, 41.942387], [-87.71887, 41.947406], [-87.723791, 41.950079], [-87.727575, 41.952511], [-87.727612, 41.95365], [-87.719156, 41.953712], [-87.718284, 41.953111]], "type": "LineString"}, "properties": {"timestamp": "2024-08-24T21:29:17", "type": "ride", "rideType": "UberX", "pickupAddress": "N Wolcott Ave, Chicago, IL 60622-1005, US", "dropoffAddress": "N Elston Ave, Chicago, IL 60647, US", "basePay": "4.06", "surge": "0.00", "tip": "5.00", "earnings": "9.06", "duration": "387", "distance": "1.30", "rideStartTime": "August 24, 2024 at 09:29 PM", "rideEndTime": "August 24, 2024 at 09:35 PM"}}, {"type": "Feature", "geometry": {"coordinates": [[-87.718284, 41.953111], [-87.719156, 41.953712], [-87.688469, 41.953985], [-87.688345, 41.949742]], "type": "LineString"}, "properties": {"timestamp": "2024-08-24T21:38:13", "type": "transition"}}, {"type": "Feature", "geometry": {"coordinates": [[-87.688345, 41.949742], [-87.687207, 41.910324], [-87.701875, 41.910165], [-87.70125, 41.907241], [-87.702278, 41.902886], [-87.701605, 41.902888]], "type": "LineString"}, "properties": {"timestamp": "2024-08-24T21:38:13", "type": "ride", "rideType": "UberX", "pickupAddress": "N Western Ave, Chicago, IL 60647, US", "dropoffAddress": "W Division St, Chicago, IL 60622, US", "basePay": "6.23", "surge": "0.00", "tip": "5.00", "earnings": "11.23", "duration": "564", "distance": "2.80", "rideStartTime": "August 24, 2024 at 09:38 PM", "rideEndTime": "August 24, 2024 at 09:47 PM"}}, {"type": "Feature", "geometry": {"coordinates": [[-87.701605, 41.902888], [-87.701605, 41.902888]], "type": "LineString"}, "properties": {"timestamp": "2024-08-24T21:51:08", "type": "transition"}}, {"type": "Feature", "geometry": {"coordinates": [[-87.701605, 41.902888], [-87.696883, 41.902928], [-87.696699, 41.895661], [-87.63421, 41.896586], [-87.634293, 41.898867]], "type": "LineString"}, "properties": {"timestamp": "2024-08-24T21:51:08", "type": "ride", "rideType": "UberX", "pickupAddress": "W Division St, Chicago, IL 60622, US", "dropoffAddress": "N Wells St, Chicago, IL 60610, US", "basePay": "5.71", "surge": "0.00", "tip": "0.00", "earnings": "5.71", "duration": "605", "distance": "2.10", "rideStartTime": "August 24, 2024 at 09:51 PM", "rideEndTime": "August 24, 2024 at 10:01 PM"}}, {"type": "Feature", "geometry": {"coordinates": [[-87.634293, 41.898867], [-87.63435, 41.90053], [-87.632901, 41.900546], [-87.632884, 41.899913]], "type": "LineString"}, "properties": {"timestamp": "2024-08-24T22:03:05", "type": "transition"}}, {"type": "Feature", "geometry": {"coordinates": [[-87.632884, 41.899913], [-87.632866, 41.899245], [-87.632844, 41.90389], [-87.639563, 41.903768], [-87.658278, 41.917207], [-87.65834, 41.921676], [-87.659737, 41.921657]], "type": "LineString"}, "properties": {"timestamp": "2024-08-24T22:03:05", "type": "ride", "rideType": "UberX", "pickupAddress": "N La Salle Dr, Chicago, IL 60610-1913, US", "dropoffAddress": "W Webster Ave, Chicago, IL 60614, US", "basePay": "6.20", "surge": "0.00", "tip": "0.00", "earnings": "6.20", "duration": "636", "distance": "2.10", "rideStartTime": "August 24, 2024 at 10:03 PM", "rideEndTime": "August 24, 2024 at 10:13 PM"}}, {"type": "Feature", "geometry": {"coordinates": [[-87.659737, 41.921657], [-87.659737, 41.921657]], "type": "LineString"}, "properties": {"timestamp": "2024-08-24T22:14:59", "type": "transition"}}, {"type": "Feature", "geometry": {"coordinates": [[-87.659737, 41.921657], [-87.6632, 41.921626], [-87.663583, 41.933389], [-87.663146, 41.933396]], "type": "LineString"}, "properties": {"timestamp": "2024-08-24T22:14:59", "type": "ride", "rideType": "UberX", "pickupAddress": "W Webster Ave, Chicago, IL 60614-3502, US", "dropoffAddress": "W Wolfram St, Chicago, IL 60657-4019, US", "basePay": "3.78", "surge": "0.00", "tip": "0.00", "earnings": "3.78", "duration": "412", "distance": "1.50", "rideStartTime": "August 24, 2024 at 10:14 PM", "rideEndTime": "August 24, 2024 at 10:21 PM"}}, {"type": "Feature", "geometry": {"coordinates": [[-87.663146, 41.933396], [-87.663583, 41.933389], [-87.663682, 41.936111], [-87.666175, 41.937916], [-87.669017, 41.937875]], "type": "LineString"}, "properties": {"timestamp": "2024-08-24T22:24:16", "type": "transition"}}, {"type": "Feature", "geometry": {"coordinates": [[-87.669017, 41.937875], [-87.671019, 41.937845], [-87.670818, 41.93237], [-87.678134, 41.932278], [-87.677893, 41.925026], [-87.681912, 41.924981], [-87.685177, 41.926707], [-87.709664, 41.940439], [-87.714861, 41.942208], [-87.719618, 41.947985], [-87.738838, 41.958569], [-87.741371, 41.960451], [-87.74187, 41.960845], [-87.794161, 41.960081], [-87.816945, 41.949144], [-87.816641, 41.941072]], "type": "LineString"}, "properties": {"timestamp": "2024-08-24T22:24:16", "type": "ride", "rideType": "UberX", "pickupAddress": "W Barry Ave, Chicago, IL 60657, US", "dropoffAddress": "W North Ave, Chicago, IL 60622, US", "basePay": "5.89", "surge": "0.00", "tip": "3.00", "earnings": "8.89", "duration": "611", "distance": "2.40", "rideStartTime": "August 24, 2024 at 10:24 PM", "rideEndTime": "August 24, 2024 at 10:34 PM"}}, {"type": "Feature", "geometry": {"coordinates": [[-87.816641, 41.941072], [-87.816587, 41.939617], [-87.817797, 41.939594], [-87.818384, 41.948419], [-87.797713, 41.958438], [-87.797737, 41.968342], [-87.778289, 41.96853], [-87.77728, 41.967665], [-87.747723, 41.968033], [-87.747918, 41.972896], [-87.747761, 41.972794], [-87.747223, 41.966563], [-87.745961, 41.963113], [-87.742125, 41.960129], [-87.719592, 41.947613], [-87.715306, 41.94215], [-87.710219, 41.940524], [-87.698173, 41.933659], [-87.673831, 41.919706], [-87.671882, 41.918264], [-87.671887, 41.917859], [-87.677621, 41.91776], [-87.677416, 41.908257], [-87.678238, 41.908243]], "type": "LineString"}, "properties": {"timestamp": "2024-08-24T22:35:28", "type": "transition"}}, {"type": "Feature", "geometry": {"coordinates": [[-87.678238, 41.908243], [-87.682288, 41.908173], [-87.68215, 41.903106], [-87.731211, 41.902599], [-87.731064, 41.897122], [-87.73476, 41.897055], [-87.734739, 41.896294]], "type": "LineString"}, "properties": {"timestamp": "2024-08-24T22:35:28", "type": "ride", "rideType": "UberX", "pickupAddress": "W Le Moyne St, Chicago, IL 60622-2133, US", "dropoffAddress": "N Kolin Ave, Chicago, IL 60651-1741, US", "basePay": "7.59", "surge": "0.00", "tip": "0.00", "earnings": "7.59", "duration": "931", "distance": "3.80", "rideStartTime": "August 24, 2024 at 10:35 PM", "rideEndTime": "August 24, 2024 at 10:50 PM"}}, {"type": "Feature", "geometry": {"coordinates": [[-87.734739, 41.896294], [-87.734711, 41.895208], [-87.740786, 41.895105], [-87.740706, 41.894697], [-87.73837, 41.893455], [-87.738104, 41.886183], [-87.730716, 41.885745], [-87.730649, 41.883568]], "type": "LineString"}, "properties": {"timestamp": "2024-08-24T22:48:07", "type": "transition"}}, {"type": "Feature", "geometry": {"coordinates": [[-87.730649, 41.883568], [-87.730641, 41.883305], [-87.725734, 41.883366], [-87.726081, 41.89537], [-87.72121, 41.895421], [-87.721646, 41.909928], [-87.718643, 41.909964]], "type": "LineString"}, "properties": {"timestamp": "2024-08-24T22:48:07", "type": "ride", "rideType": "UberX", "pickupAddress": "N Keeler Ave, Chicago, IL 60651-3509, US", "dropoffAddress": "W North Ave, Chicago, IL 60639, US", "basePay": "4.87", "surge": "0.00", "tip": "0.00", "earnings": "4.87", "duration": "372", "distance": "1.30", "rideStartTime": "August 24, 2024 at 10:48 PM", "rideEndTime": "August 24, 2024 at 10:54 PM"}}, {"type": "Feature", "geometry": {"coordinates": [[-87.718643, 41.909964], [-87.706907, 41.910104], [-87.706651, 41.898325], [-87.702222, 41.896575], [-87.701974, 41.891131], [-87.701479, 41.889426], [-87.70111, 41.877385], [-87.693785, 41.877461], [-87.693796, 41.878371], [-87.696046, 41.878346]], "type": "LineString"}, "properties": {"timestamp": "2024-08-25T16:11:48", "type": "transition"}}]}