{"type": "FeatureCollection", "features": [{"type": "Feature", "geometry": {"coordinates": [[-87.682085, 41.88397], [-87.682757, 41.88396], [-87.682784, 41.884759], [-87.701426, 41.884091], [-87.725794, 41.885478], [-87.733178, 41.885957], [-87.733205, 41.886911], [-87.732951, 41.886914]], "type": "LineString"}, "properties": {"timestamp": "2024-09-18T14:51:13", "type": "ride"}}, {"type": "Feature", "geometry": {"coordinates": [[-87.732951, 41.886914], [-87.730753, 41.886942], [-87.730716, 41.885745], [-87.720917, 41.885208], [-87.72037, 41.873515], [-87.719121, 41.873525], [-87.697594, 41.875189], [-87.650308, 41.875329], [-87.647601, 41.875302], [-87.645452, 41.874563], [-87.644482, 41.875077], [-87.64458, 41.876036], [-87.645275, 41.880374], [-87.645355, 41.881847], [-87.645213, 41.883151], [-87.645113, 41.883153], [-87.645091, 41.882485], [-87.644721, 41.882491]], "type": "LineString"}, "properties": {"timestamp": "2024-09-18T15:04:01", "type": "transition"}}, {"type": "Feature", "geometry": {"coordinates": [[-87.644721, 41.882491], [-87.644126, 41.882498], [-87.644106, 41.881817], [-87.64573, 41.881801], [-87.645735, 41.885306], [-87.647404, 41.888483], [-87.64861, 41.889615], [-87.657024, 41.895403], [-87.658783, 41.897251], [-87.660805, 41.901753], [-87.661061, 41.906443], [-87.664439, 41.910145], [-87.667973, 41.915739], [-87.66968, 41.917898], [-87.705789, 41.917413]], "type": "LineString"}, "properties": {"timestamp": "2024-09-18T15:04:01", "type": "ride"}}, {"type": "Feature", "geometry": {"coordinates": [[-87.705789, 41.917413], [-87.687413, 41.917587], [-87.687645, 41.924902], [-87.682301, 41.924978], [-87.685177, 41.926707], [-87.709664, 41.940439], [-87.715161, 41.942387], [-87.719618, 41.947985], [-87.742619, 41.960998], [-87.752403, 41.966033], [-87.75503, 41.967937], [-87.757623, 41.967938], [-87.758399, 41.968431]], "type": "LineString"}, "properties": {"timestamp": "2024-09-18T15:24:06", "type": "transition"}}, {"type": "Feature", "geometry": {"coordinates": [[-87.758399, 41.968431], [-87.757622, 41.967875], [-87.747723, 41.968033], [-87.747918, 41.972896], [-87.747761, 41.972794], [-87.747223, 41.966563], [-87.745961, 41.963113], [-87.742125, 41.960129], [-87.719592, 41.947613], [-87.715306, 41.94215], [-87.710219, 41.940524], [-87.698173, 41.933659], [-87.687291, 41.927358], [-87.684125, 41.925223], [-87.687645, 41.924902], [-87.687413, 41.917587], [-87.697194, 41.917494], [-87.697059, 41.912372], [-87.698734, 41.912356]], "type": "LineString"}, "properties": {"timestamp": "2024-09-18T15:24:06", "type": "ride"}}, {"type": "Feature", "geometry": {"coordinates": [[-87.698734, 41.912356], [-87.701498, 41.91233], [-87.701932, 41.912147], [-87.702223, 41.921502], [-87.707109, 41.921462], [-87.707229, 41.924722], [-87.710137, 41.924691], [-87.710152, 41.925193], [-87.709312, 41.925198], [-87.709305, 41.925019]], "type": "LineString"}, "properties": {"timestamp": "2024-09-18T16:09:49", "type": "transition"}}, {"type": "Feature", "geometry": {"coordinates": [[-87.709305, 41.925019], [-87.709292, 41.9247], [-87.712101, 41.92467], [-87.711704, 41.910607], [-87.711884, 41.910045], [-87.727547, 41.909857], [-87.727565, 41.910437]], "type": "LineString"}, "properties": {"timestamp": "2024-09-18T16:09:49", "type": "ride"}}, {"type": "Feature", "geometry": {"coordinates": [[-87.727565, 41.910437], [-87.727604, 41.911691], [-87.731879, 41.911632], [-87.731926, 41.913325], [-87.731325, 41.913331], [-87.731323, 41.913271]], "type": "LineString"}, "properties": {"timestamp": "2024-09-18T16:21:44", "type": "transition"}}, {"type": "Feature", "geometry": {"coordinates": [[-87.731323, 41.913271], [-87.731216, 41.909813], [-87.665662, 41.910672], [-87.665325, 41.910236], [-87.661559, 41.906635], [-87.660921, 41.900902], [-87.659049, 41.896968], [-87.657114, 41.895018], [-87.653963, 41.891931], [-87.651034, 41.892554], [-87.617714, 41.892632], [-87.617676, 41.891456]], "type": "LineString"}, "properties": {"timestamp": "2024-09-18T16:21:44", "type": "ride"}}, {"type": "Feature", "geometry": {"coordinates": [[-87.617676, 41.891456], [-87.617665, 41.891067], [-87.61158, 41.891141], [-87.611597, 41.891968], [-87.612627, 41.891945]], "type": "LineString"}, "properties": {"timestamp": "2024-09-18T16:52:22", "type": "transition"}}, {"type": "Feature", "geometry": {"coordinates": [[-87.612627, 41.891945], [-87.61336, 41.891928], [-87.619441, 41.900921], [-87.620113, 41.90131], [-87.622727, 41.90171], [-87.623983, 41.902767], [-87.625626, 41.908987], [-87.62589, 41.912141], [-87.628743, 41.918036], [-87.630534, 41.924159], [-87.63067, 41.926223], [-87.634084, 41.925697], [-87.646336, 41.925491], [-87.64637, 41.926694], [-87.642974, 41.926753]], "type": "LineString"}, "properties": {"timestamp": "2024-09-18T16:52:22", "type": "ride"}}, {"type": "Feature", "geometry": {"coordinates": [[-87.642974, 41.926753], [-87.642153, 41.926767], [-87.641326, 41.927017], [-87.638269, 41.921963], [-87.638941, 41.921954], [-87.638808, 41.918322], [-87.638503, 41.918106]], "type": "LineString"}, "properties": {"timestamp": "2024-09-18T17:24:09", "type": "transition"}}, {"type": "Feature", "geometry": {"coordinates": [[-87.638503, 41.918106], [-87.634849, 41.915479], [-87.634358, 41.915623], [-87.632856, 41.913169], [-87.633227, 41.912793], [-87.633232, 41.911528], [-87.632362, 41.881953], [-87.640505, 41.881877]], "type": "LineString"}, "properties": {"timestamp": "2024-09-18T17:24:09", "type": "ride"}}, {"type": "Feature", "geometry": {"coordinates": [[-87.640505, 41.881877], [-87.642638, 41.881847], [-87.642764, 41.885711], [-87.634774, 41.885732], [-87.63479, 41.886919], [-87.635269, 41.886908], [-87.635659, 41.886783], [-87.636719, 41.886077], [-87.636929, 41.885721], [-87.637036, 41.884351], [-87.636955, 41.88066], [-87.637038, 41.88066], [-87.637008, 41.879658], [-87.637232, 41.879656]], "type": "LineString"}, "properties": {"timestamp": "2024-09-18T17:53:04", "type": "transition"}}, {"type": "Feature", "geometry": {"coordinates": [[-87.637232, 41.879656], [-87.637008, 41.879658], [-87.636996, 41.879325], [-87.636915, 41.879326], [-87.636895, 41.878024], [-87.636543, 41.876121], [-87.635908, 41.875927], [-87.634264, 41.876336], [-87.634064, 41.87588], [-87.643841, 41.875615], [-87.651991, 41.875736], [-87.657603, 41.876197], [-87.688313, 41.875763], [-87.692409, 41.875862], [-87.701067, 41.875937], [-87.701479, 41.889426], [-87.701974, 41.891131], [-87.702191, 41.895594], [-87.701213, 41.895606]], "type": "LineString"}, "properties": {"timestamp": "2024-09-18T17:53:04", "type": "ride"}}, {"type": "Feature", "geometry": {"coordinates": [[-87.701213, 41.895606], [-87.677057, 41.895912], [-87.677276, 41.903184], [-87.67239, 41.903268], [-87.672395, 41.903498]], "type": "LineString"}, "properties": {"timestamp": "2024-09-18T18:13:30", "type": "transition"}}, {"type": "Feature", "geometry": {"coordinates": [[-87.672395, 41.903498], [-87.67239, 41.903268], [-87.667439, 41.903351], [-87.66782, 41.916129], [-87.663815, 41.917067], [-87.66003, 41.917114], [-87.660585, 41.917518], [-87.65947, 41.918398], [-87.65956, 41.921659], [-87.659737, 41.921657]], "type": "LineString"}, "properties": {"timestamp": "2024-09-18T18:13:30", "type": "ride"}}, {"type": "Feature", "geometry": {"coordinates": [[-87.659737, 41.921657], [-87.664379, 41.921608], [-87.672465, 41.927377], [-87.678134, 41.932278], [-87.688003, 41.939468], [-87.688345, 41.949742]], "type": "LineString"}, "properties": {"timestamp": "2024-09-19T13:49:16", "type": "transition"}}]}