{"type": "FeatureCollection", "features": [{"type": "Feature", "geometry": {"coordinates": [[-87.67412, 41.90052], [-87.67415, 41.901415], [-87.673548, 41.901426], [-87.673606, 41.903247], [-87.667439, 41.903351], [-87.667641, 41.910635], [-87.633071, 41.911172], [-87.633044, 41.912903], [-87.632269, 41.913237], [-87.628505, 41.912247], [-87.626923, 41.912475], [-87.626017, 41.913347], [-87.628743, 41.918036], [-87.631735, 41.927967], [-87.632273, 41.934701], [-87.633661, 41.936704], [-87.638833, 41.941219], [-87.644376, 41.950931], [-87.646094, 41.960253], [-87.645534, 41.962086], [-87.655148, 41.961772], [-87.656894, 41.964503]], "type": "LineString"}, "properties": {"timestamp": "2024-09-07T13:43:14", "type": "ride"}}, {"type": "Feature", "geometry": {"coordinates": [[-87.656894, 41.964503], [-87.655148, 41.961772], [-87.649918, 41.961843], [-87.649905, 41.961373]], "type": "LineString"}, "properties": {"timestamp": "2024-09-07T14:39:29", "type": "transition"}}, {"type": "Feature", "geometry": {"coordinates": [[-87.649905, 41.961373], [-87.649918, 41.961843], [-87.646878, 41.961908], [-87.644905, 41.955203], [-87.644611, 41.950978], [-87.639566, 41.942042], [-87.638796, 41.940268], [-87.639537, 41.940119], [-87.639435, 41.936919]], "type": "LineString"}, "properties": {"timestamp": "2024-09-07T14:39:29", "type": "ride"}}, {"type": "Feature", "geometry": {"coordinates": [[-87.639435, 41.936919], [-87.63931, 41.932914], [-87.653863, 41.932636], [-87.653741, 41.929016], [-87.65652, 41.928972]], "type": "LineString"}, "properties": {"timestamp": "2024-09-07T14:49:20", "type": "transition"}}, {"type": "Feature", "geometry": {"coordinates": [[-87.65652, 41.928972], [-87.658589, 41.928939], [-87.658824, 41.935883]], "type": "LineString"}, "properties": {"timestamp": "2024-09-07T14:49:20", "type": "ride"}}, {"type": "Feature", "geometry": {"coordinates": [[-87.658824, 41.935883], [-87.658974, 41.939838], [-87.666233, 41.939729], [-87.666378, 41.944708]], "type": "LineString"}, "properties": {"timestamp": "2024-09-07T15:03:25", "type": "transition"}}, {"type": "Feature", "geometry": {"coordinates": [[-87.666378, 41.944708], [-87.666475, 41.948859], [-87.667351, 41.948845]], "type": "LineString"}, "properties": {"timestamp": "2024-09-07T15:03:25", "type": "ride"}}, {"type": "Feature", "geometry": {"coordinates": [[-87.667351, 41.948845], [-87.664054, 41.948897], [-87.664217, 41.954357], [-87.645235, 41.954634], [-87.646692, 41.95936], [-87.649287, 41.959313]], "type": "LineString"}, "properties": {"timestamp": "2024-09-07T15:13:42", "type": "transition"}}, {"type": "Feature", "geometry": {"coordinates": [[-87.649287, 41.959313], [-87.649847, 41.959302], [-87.649713, 41.954561], [-87.698254, 41.953982], [-87.697932, 41.942795], [-87.701229, 41.942777]], "type": "LineString"}, "properties": {"timestamp": "2024-09-07T15:13:42", "type": "ride"}}, {"type": "Feature", "geometry": {"coordinates": [[-87.701229, 41.942777], [-87.703229, 41.942766], [-87.708842, 41.946623], [-87.712704, 41.946565], [-87.712582, 41.942239], [-87.714251, 41.942233]], "type": "LineString"}, "properties": {"timestamp": "2024-09-07T15:32:31", "type": "transition"}}, {"type": "Feature", "geometry": {"coordinates": [[-87.714251, 41.942233], [-87.712582, 41.942239], [-87.712526, 41.940478], [-87.668499, 41.915851], [-87.661559, 41.906635], [-87.658834, 41.896667], [-87.646614, 41.886973], [-87.645245, 41.851247], [-87.642429, 41.847384], [-87.634652, 41.845323], [-87.63091, 41.84209], [-87.631207, 41.779686], [-87.626113, 41.772231], [-87.624621, 41.72052], [-87.62925, 41.71536], [-87.652269, 41.712978], [-87.653382, 41.700924], [-87.65921, 41.695638], [-87.662318, 41.684066], [-87.662461, 41.677524], [-87.714872, 41.676752], [-87.715055, 41.680844], [-87.714366, 41.680858]], "type": "LineString"}, "properties": {"timestamp": "2024-09-07T15:32:31", "type": "ride"}}, {"type": "Feature", "geometry": {"coordinates": [[-87.714366, 41.680858], [-87.712596, 41.680894], [-87.71243, 41.676791], [-87.661368, 41.677536], [-87.661398, 41.67848], [-87.661551, 41.688215], [-87.658693, 41.695796], [-87.653084, 41.700714], [-87.652438, 41.712247], [-87.648322, 41.714432], [-87.632642, 41.714662], [-87.627057, 41.715693], [-87.624177, 41.719562], [-87.625651, 41.769497], [-87.630747, 41.779495], [-87.630667, 41.838631], [-87.631001, 41.844069], [-87.630081, 41.846653], [-87.616851, 41.847976], [-87.612168, 41.84938], [-87.619244, 41.8661], [-87.614003, 41.89273], [-87.619441, 41.900921], [-87.623983, 41.902767], [-87.630534, 41.924159], [-87.63067, 41.926223], [-87.640463, 41.92558], [-87.642943, 41.929694], [-87.647955, 41.929095]], "type": "LineString"}, "properties": {"timestamp": "2024-09-07T16:11:27", "type": "transition"}}, {"type": "Feature", "geometry": {"coordinates": [[-87.647955, 41.929095], [-87.653741, 41.929016], [-87.663682, 41.936111], [-87.663758, 41.938211]], "type": "LineString"}, "properties": {"timestamp": "2024-09-07T16:11:27", "type": "ride"}}, {"type": "Feature", "geometry": {"coordinates": [[-87.663758, 41.938211], [-87.663716, 41.937029], [-87.661261, 41.93707], [-87.661245, 41.936154], [-87.658837, 41.936197], [-87.658824, 41.935883]], "type": "LineString"}, "properties": {"timestamp": "2024-09-07T16:32:15", "type": "transition"}}, {"type": "Feature", "geometry": {"coordinates": [[-87.658824, 41.935883], [-87.658713, 41.932557], [-87.643784, 41.921883], [-87.6435, 41.912815], [-87.641129, 41.912841], [-87.641023, 41.911281]], "type": "LineString"}, "properties": {"timestamp": "2024-09-07T16:32:15", "type": "ride"}}, {"type": "Feature", "geometry": {"coordinates": [[-87.641023, 41.911281], [-87.641023, 41.911281]], "type": "LineString"}, "properties": {"timestamp": "2024-09-07T16:43:58", "type": "transition"}}, {"type": "Feature", "geometry": {"coordinates": [[-87.641023, 41.911281], [-87.641018, 41.911125], [-87.664445, 41.910674], [-87.669227, 41.917096], [-87.671196, 41.918549], [-87.678438, 41.922676], [-87.681912, 41.924981], [-87.6877, 41.928348], [-87.687706, 41.928661], [-87.689255, 41.928366], [-87.691432, 41.92852], [-87.691379, 41.926611]], "type": "LineString"}, "properties": {"timestamp": "2024-09-07T16:43:58", "type": "ride"}}, {"type": "Feature", "geometry": {"coordinates": [[-87.691379, 41.926611], [-87.691319, 41.924867], [-87.692841, 41.924854], [-87.692741, 41.920087], [-87.693662, 41.920649], [-87.693678, 41.921362]], "type": "LineString"}, "properties": {"timestamp": "2024-09-07T17:03:40", "type": "transition"}}, {"type": "Feature", "geometry": {"coordinates": [[-87.693678, 41.921362], [-87.693714, 41.922987], [-87.695564, 41.922971], [-87.695534, 41.921793], [-87.677494, 41.910469], [-87.677276, 41.903184], [-87.674833, 41.903226], [-87.674795, 41.902204]], "type": "LineString"}, "properties": {"timestamp": "2024-09-07T17:03:40", "type": "ride"}}, {"type": "Feature", "geometry": {"coordinates": [[-87.674795, 41.902204], [-87.674763, 41.901404], [-87.673548, 41.901426], [-87.673606, 41.903247], [-87.667439, 41.903351], [-87.667771, 41.917197], [-87.66862, 41.92163], [-87.668676, 41.942431], [-87.666314, 41.942462], [-87.666378, 41.944708]], "type": "LineString"}, "properties": {"timestamp": "2024-09-07T17:17:25", "type": "transition"}}, {"type": "Feature", "geometry": {"coordinates": [[-87.666378, 41.944708], [-87.666391, 41.945214], [-87.663953, 41.945247], [-87.663682, 41.936111], [-87.648766, 41.925453], [-87.648511, 41.91779]], "type": "LineString"}, "properties": {"timestamp": "2024-09-07T17:17:25", "type": "ride"}}, {"type": "Feature", "geometry": {"coordinates": [[-87.648511, 41.91779], [-87.648652, 41.921814], [-87.646223, 41.921849], [-87.646319, 41.92499]], "type": "LineString"}, "properties": {"timestamp": "2024-09-07T17:26:32", "type": "transition"}}, {"type": "Feature", "geometry": {"coordinates": [[-87.646319, 41.92499], [-87.646336, 41.925491], [-87.634154, 41.925694], [-87.631853, 41.926001], [-87.630603, 41.923776], [-87.628851, 41.917816], [-87.626142, 41.912297], [-87.62586, 41.909073], [-87.624861, 41.904908], [-87.624179, 41.901978], [-87.624376, 41.895747], [-87.622402, 41.895768]], "type": "LineString"}, "properties": {"timestamp": "2024-09-07T17:26:32", "type": "ride"}}, {"type": "Feature", "geometry": {"coordinates": [[-87.622402, 41.895768], [-87.622402, 41.895768]], "type": "LineString"}, "properties": {"timestamp": "2024-09-07T17:46:18", "type": "transition"}}, {"type": "Feature", "geometry": {"coordinates": [[-87.622402, 41.895768], [-87.620354, 41.895808], [-87.620387, 41.896781], [-87.616735, 41.89691], [-87.619536, 41.901011], [-87.624048, 41.902893], [-87.631799, 41.928213], [-87.632273, 41.934701], [-87.638833, 41.941219], [-87.644376, 41.950931], [-87.648738, 41.973046], [-87.652803, 41.984951], [-87.662456, 41.985105], [-87.67531, 41.992132], [-87.684163, 42.015501], [-87.686761, 42.034007], [-87.699305, 42.033882], [-87.69924, 42.037503], [-87.700193, 42.037482]], "type": "LineString"}, "properties": {"timestamp": "2024-09-07T17:46:18", "type": "ride"}}, {"type": "Feature", "geometry": {"coordinates": [[-87.700193, 42.037482], [-87.689891, 42.037667], [-87.68986, 42.039352], [-87.68995, 42.039451], [-87.685947, 42.039436], [-87.685958, 42.040173]], "type": "LineString"}, "properties": {"timestamp": "2024-09-07T18:29:28", "type": "transition"}}, {"type": "Feature", "geometry": {"coordinates": [[-87.685958, 42.040173], [-87.685973, 42.04124], [-87.763691, 42.040938], [-87.764624, 42.041577], [-87.763223, 42.042189], [-87.768504, 42.03371], [-87.768822, 42.026512], [-87.765749, 42.021309], [-87.752686, 42.013632], [-87.749252, 42.009007], [-87.748976, 42.001046], [-87.751521, 41.987219], [-87.746835, 41.980228], [-87.747223, 41.966563], [-87.745232, 41.962358], [-87.719592, 41.947613], [-87.715306, 41.94215], [-87.709927, 41.940372], [-87.670146, 41.917654], [-87.66137, 41.906646], [-87.659066, 41.897394], [-87.653065, 41.892534], [-87.63704, 41.892368], [-87.637178, 41.896556], [-87.63421, 41.896586], [-87.634293, 41.898867]], "type": "LineString"}, "properties": {"timestamp": "2024-09-07T18:29:28", "type": "ride"}}, {"type": "Feature", "geometry": {"coordinates": [[-87.634293, 41.898867], [-87.634474, 41.903857], [-87.638347, 41.903783], [-87.638583, 41.911164], [-87.641018, 41.911125], [-87.641023, 41.911281]], "type": "LineString"}, "properties": {"timestamp": "2024-09-07T19:06:38", "type": "transition"}}, {"type": "Feature", "geometry": {"coordinates": [[-87.641023, 41.911281], [-87.641018, 41.911125], [-87.664445, 41.910674], [-87.670574, 41.91815], [-87.709664, 41.940439], [-87.714861, 41.942208], [-87.719618, 41.947985], [-87.738838, 41.958569], [-87.741371, 41.960451], [-87.794287, 41.960061], [-87.822074, 41.946631], [-87.821404, 41.937842], [-87.820185, 41.937866], [-87.820102, 41.936076], [-87.820727, 41.936062], [-87.82067, 41.934634]], "type": "LineString"}, "properties": {"timestamp": "2024-09-07T19:06:38", "type": "ride"}}, {"type": "Feature", "geometry": {"coordinates": [[-87.701605, 41.902888], [-87.701605, 41.902888]], "type": "LineString"}, "properties": {"timestamp": "2024-09-07T21:22:04", "type": "transition"}}, {"type": "Feature", "geometry": {"coordinates": [[-87.701605, 41.902888], [-87.648086, 41.903643], [-87.648124, 41.905038], [-87.649202, 41.905042], [-87.649323, 41.905133]], "type": "LineString"}, "properties": {"timestamp": "2024-09-07T21:22:04", "type": "ride"}}, {"type": "Feature", "geometry": {"coordinates": [[-87.649323, 41.905133], [-87.649202, 41.905042], [-87.648124, 41.905038], [-87.648086, 41.903643], [-87.646585, 41.903664], [-87.643793, 41.900232], [-87.643303, 41.90041], [-87.63435, 41.90053], [-87.634269, 41.898205], [-87.634817, 41.898197]], "type": "LineString"}, "properties": {"timestamp": "2024-09-07T21:37:51", "type": "transition"}}, {"type": "Feature", "geometry": {"coordinates": [[-87.634817, 41.898197], [-87.634269, 41.898205], [-87.634054, 41.891576], [-87.644384, 41.891225], [-87.644242, 41.885699], [-87.645903, 41.885686], [-87.645288, 41.851399], [-87.642429, 41.847384], [-87.634652, 41.845323], [-87.631557, 41.842516], [-87.630789, 41.819121], [-87.631192, 41.816682], [-87.631192, 41.816426], [-87.623022, 41.816544], [-87.623001, 41.815421]], "type": "LineString"}, "properties": {"timestamp": "2024-09-07T21:37:51", "type": "ride"}}, {"type": "Feature", "geometry": {"coordinates": [[-87.623001, 41.815421], [-87.622988, 41.814738], [-87.626222, 41.814689], [-87.626265, 41.816493], [-87.631192, 41.816426], [-87.631174, 41.816105], [-87.632226, 41.807984], [-87.631154, 41.779333], [-87.626113, 41.772231], [-87.624621, 41.72052], [-87.624396, 41.716318], [-87.621065, 41.713653], [-87.600337, 41.713191], [-87.595871, 41.711572], [-87.592948, 41.708673], [-87.592406, 41.703483], [-87.601798, 41.685512], [-87.601728, 41.676933], [-87.600256, 41.67318], [-87.589096, 41.660202], [-87.589407, 41.659004], [-87.59119, 41.659512], [-87.5874, 41.660368], [-87.581596, 41.659223], [-87.560717, 41.658851], [-87.555878, 41.656176], [-87.555649, 41.65737], [-87.553811, 41.65736], [-87.553812, 41.656889]], "type": "LineString"}, "properties": {"timestamp": "2024-09-07T21:59:15", "type": "transition"}}, {"type": "Feature", "geometry": {"coordinates": [[-87.553812, 41.656889], [-87.553811, 41.65736], [-87.557102, 41.657281], [-87.585314, 41.660149], [-87.590822, 41.662478], [-87.601403, 41.675885], [-87.601563, 41.685726], [-87.594329, 41.69908], [-87.591535, 41.705863], [-87.595707, 41.711823], [-87.618809, 41.713575], [-87.62372, 41.717096], [-87.625651, 41.769497], [-87.630747, 41.779495], [-87.630667, 41.838631], [-87.63193, 41.844225], [-87.642036, 41.847354], [-87.644778, 41.850632], [-87.644517, 41.867845], [-87.644628, 41.873521], [-87.649223, 41.875863], [-87.651853, 41.87589], [-87.651907, 41.87787], [-87.64957, 41.877909], [-87.649583, 41.878315], [-87.649942, 41.878307]], "type": "LineString"}, "properties": {"timestamp": "2024-09-07T21:59:15", "type": "ride"}}, {"type": "Feature", "geometry": {"coordinates": [[-87.649942, 41.878307], [-87.649583, 41.878315], [-87.649775, 41.884284], [-87.648603, 41.884306], [-87.648651, 41.885876]], "type": "LineString"}, "properties": {"timestamp": "2024-09-07T22:13:09", "type": "transition"}}, {"type": "Feature", "geometry": {"coordinates": [[-87.648651, 41.885876], [-87.64876, 41.890082], [-87.647611, 41.890088], [-87.648124, 41.905038], [-87.649202, 41.905042], [-87.65826, 41.915829], [-87.65779, 41.916182], [-87.659108, 41.917121], [-87.66003, 41.917114], [-87.663134, 41.919363], [-87.663907, 41.943419], [-87.665475, 41.943396]], "type": "LineString"}, "properties": {"timestamp": "2024-09-07T22:13:09", "type": "ride"}}]}