{"type": "FeatureCollection", "features": [{"type": "Feature", "geometry": {"coordinates": [[-87.647955, 41.929095], [-87.648892, 41.929091], [-87.648766, 41.925453], [-87.658464, 41.925291], [-87.658201, 41.917264], [-87.663815, 41.917067], [-87.66782, 41.916129], [-87.667495, 41.901054], [-87.669888, 41.901009], [-87.669869, 41.900367]], "type": "LineString"}, "properties": {}}, {"type": "Feature", "geometry": {"coordinates": [[-87.669869, 41.900367], [-87.669955, 41.90331], [-87.667439, 41.903351], [-87.66782, 41.916129], [-87.663815, 41.917067], [-87.658201, 41.917264], [-87.658464, 41.925291], [-87.648766, 41.925453], [-87.648892, 41.929091], [-87.647955, 41.929095]], "type": "LineString"}, "properties": {}}, {"type": "Feature", "geometry": {"coordinates": [[-87.647955, 41.929095], [-87.648892, 41.929091], [-87.649275, 41.939973], [-87.638088, 41.940568], [-87.644496, 41.951253], [-87.648738, 41.973046], [-87.652803, 41.984951], [-87.662456, 41.985105], [-87.6699, 41.989705], [-87.670719, 41.998633], [-87.670603, 42.00538], [-87.669957, 42.005389], [-87.670148, 42.011246]], "type": "LineString"}, "properties": {}}, {"type": "Feature", "geometry": {"coordinates": [[-87.670148, 42.011246], [-87.670267, 42.014929], [-87.672443, 42.014891], [-87.672456, 42.015255]], "type": "LineString"}, "properties": {}}, {"type": "Feature", "geometry": {"coordinates": [[-87.672456, 42.015255], [-87.672527, 42.017329], [-87.666335, 42.020264], [-87.666815, 42.022251], [-87.665298, 42.023129], [-87.666752, 42.025973], [-87.668134, 42.027071], [-87.670647, 42.027188], [-87.670554, 42.033741], [-87.671915, 42.033884], [-87.672063, 42.04031], [-87.674958, 42.040336], [-87.674669, 42.044876], [-87.673955, 42.046067], [-87.674388, 42.050166], [-87.677291, 42.051106], [-87.677209, 42.053841], [-87.679721, 42.05387], [-87.679677, 42.057045]], "type": "LineString"}, "properties": {}}, {"type": "Feature", "geometry": {"coordinates": [[-87.679677, 42.057045], [-87.679721, 42.05387], [-87.677209, 42.053841], [-87.677291, 42.051106], [-87.680232, 42.045024], [-87.680541, 42.043378]], "type": "LineString"}, "properties": {}}, {"type": "Feature", "geometry": {"coordinates": [[-87.680541, 42.043378], [-87.680521, 42.044073], [-87.681904, 42.044102], [-87.68191, 42.043758]], "type": "LineString"}, "properties": {}}, {"type": "Feature", "geometry": {"coordinates": [[-87.68191, 42.043758], [-87.68191, 42.043758]], "type": "LineString"}, "properties": {}}, {"type": "Feature", "geometry": {"coordinates": [[-87.68191, 42.043758], [-87.681904, 42.044102], [-87.688534, 42.044191], [-87.688653, 42.049135], [-87.686917, 42.055784], [-87.683523, 42.064157], [-87.682885, 42.068711], [-87.685082, 42.068742]], "type": "LineString"}, "properties": {}}, {"type": "Feature", "geometry": {"coordinates": [[-87.685082, 42.068742], [-87.682885, 42.068711], [-87.682776, 42.072133], [-87.682932, 42.0741], [-87.6832, 42.074692], [-87.683704, 42.075034], [-87.684746, 42.075326], [-87.686557, 42.076328], [-87.687677, 42.076483], [-87.691676, 42.079007], [-87.690359, 42.08013], [-87.691513, 42.08087]], "type": "LineString"}, "properties": {}}, {"type": "Feature", "geometry": {"coordinates": [[-87.691513, 42.08087], [-87.692248, 42.08134], [-87.693542, 42.080209], [-87.697137, 42.082855], [-87.697336, 42.084451], [-87.700375, 42.087207], [-87.712265, 42.094198], [-87.713253, 42.093467], [-87.723868, 42.093611], [-87.729577, 42.100962], [-87.780974, 42.101657], [-87.78292, 42.102241], [-87.78689, 42.105208], [-87.799086, 42.105463], [-87.798827, 42.102607], [-87.798669, 42.10261]], "type": "LineString"}, "properties": {}}, {"type": "Feature", "geometry": {"coordinates": [[-87.798669, 42.10261], [-87.798871, 42.105336], [-87.769209, 42.101376], [-87.759119, 42.087684], [-87.758738, 42.073162], [-87.754905, 42.064039], [-87.761767, 42.05296], [-87.768822, 42.026512], [-87.765749, 42.021309], [-87.749252, 42.009007], [-87.751521, 41.987219], [-87.746835, 41.980228], [-87.747223, 41.966563], [-87.742125, 41.960129], [-87.698173, 41.933659], [-87.673831, 41.919706], [-87.671882, 41.918264], [-87.671723, 41.918151], [-87.667505, 41.91793], [-87.666413, 41.916455], [-87.658214, 41.918041], [-87.647123, 41.918199]], "type": "LineString"}, "properties": {}}, {"type": "Feature", "geometry": {"coordinates": [[-87.647123, 41.918199], [-87.636131, 41.918472], [-87.632796, 41.913071], [-87.628505, 41.912247], [-87.626932, 41.912316], [-87.624114, 41.90257], [-87.619617, 41.900898], [-87.614264, 41.892868], [-87.614127, 41.884928], [-87.617453, 41.881821], [-87.617261, 41.869765], [-87.619589, 41.866068], [-87.607689, 41.833588], [-87.593977, 41.815295], [-87.582734, 41.804634], [-87.581577, 41.802023], [-87.581667, 41.799815], [-87.583343, 41.799629], [-87.583332, 41.799151]], "type": "LineString"}, "properties": {}}, {"type": "Feature", "geometry": {"coordinates": [[-87.583332, 41.799151], [-87.58331, 41.798151], [-87.584013, 41.798145], [-87.583879, 41.792642], [-87.581581, 41.792649], [-87.580381, 41.792174], [-87.579609, 41.790678], [-87.578194, 41.78918], [-87.577204, 41.784971], [-87.574954, 41.781232], [-87.575656, 41.780713], [-87.579216, 41.779846], [-87.583071, 41.780496], [-87.584175, 41.780203], [-87.586376, 41.776085], [-87.586126, 41.75929], [-87.58574, 41.758767], [-87.584578, 41.758781], [-87.584566, 41.758332]], "type": "LineString"}, "properties": {}}, {"type": "Feature", "geometry": {"coordinates": [[-87.584566, 41.758332], [-87.584533, 41.756975], [-87.585691, 41.756963], [-87.585994, 41.771514], [-87.584175, 41.780203], [-87.574628, 41.780713], [-87.581975, 41.803976], [-87.606909, 41.832668], [-87.610426, 41.843509], [-87.612641, 41.848604], [-87.630973, 41.847424], [-87.641219, 41.847736], [-87.644555, 41.850742], [-87.646837, 41.887752], [-87.658396, 41.896733], [-87.661061, 41.906443], [-87.669227, 41.917096], [-87.704001, 41.937344], [-87.706845, 41.939348], [-87.706369, 41.93936], [-87.706177, 41.944803], [-87.705317, 41.944219], [-87.705281, 41.943085]], "type": "LineString"}, "properties": {}}, {"type": "Feature", "geometry": {"coordinates": [[-87.705281, 41.943085], [-87.705182, 41.939366], [-87.707702, 41.939339], [-87.707505, 41.930261], [-87.707584, 41.929485], [-87.707814, 41.929332], [-87.707541, 41.929168], [-87.707825, 41.928361], [-87.710862, 41.928329], [-87.710817, 41.926502], [-87.709358, 41.926518], [-87.709305, 41.925019]], "type": "LineString"}, "properties": {}}, {"type": "Feature", "geometry": {"coordinates": [[-87.709305, 41.925019], [-87.709292, 41.9247], [-87.66815, 41.925151], [-87.668361, 41.933311], [-87.663146, 41.933396]], "type": "LineString"}, "properties": {}}, {"type": "Feature", "geometry": {"coordinates": [[-87.663146, 41.933396], [-87.663583, 41.933389], [-87.663616, 41.934302], [-87.661195, 41.934332], [-87.656205, 41.930775], [-87.65616, 41.928978], [-87.65652, 41.928972]], "type": "LineString"}, "properties": {}}, {"type": "Feature", "geometry": {"coordinates": [[-87.65652, 41.928972], [-87.658589, 41.928939], [-87.658201, 41.917264], [-87.666413, 41.916455], [-87.66216, 41.910715], [-87.665662, 41.910672], [-87.665325, 41.910236], [-87.661559, 41.906635], [-87.661057, 41.901306], [-87.658563, 41.896333], [-87.647099, 41.887778], [-87.646219, 41.885929], [-87.645999, 41.881827], [-87.646134, 41.880956], [-87.646145, 41.879569], [-87.646166, 41.878121], [-87.646815, 41.876334], [-87.649135, 41.875728], [-87.657603, 41.876197], [-87.688313, 41.875763], [-87.692409, 41.875862], [-87.696151, 41.875983], [-87.696261, 41.880169], [-87.695733, 41.880173]], "type": "LineString"}, "properties": {}}, {"type": "Feature", "geometry": {"coordinates": [[-87.695733, 41.880173], [-87.696261, 41.880169], [-87.696127, 41.874902], [-87.695509, 41.874908], [-87.690201, 41.875125], [-87.659837, 41.87561], [-87.651569, 41.875318], [-87.630714, 41.875521], [-87.630071, 41.852946], [-87.631144, 41.852935], [-87.63081, 41.852781], [-87.630824, 41.851611]], "type": "LineString"}, "properties": {}}, {"type": "Feature", "geometry": {"coordinates": [[-87.630824, 41.851611], [-87.62704, 41.851072], [-87.626975, 41.846782], [-87.626258, 41.84692], [-87.616851, 41.847976], [-87.613392, 41.848153], [-87.612168, 41.84938], [-87.619244, 41.8661], [-87.617003, 41.869799], [-87.617167, 41.881825], [-87.613645, 41.884762], [-87.614003, 41.89273], [-87.619441, 41.900921], [-87.624048, 41.902893], [-87.631851, 41.928415], [-87.632152, 41.934381], [-87.63676, 41.939073], [-87.638088, 41.940568], [-87.650679, 41.939965], [-87.654273, 41.944458], [-87.653621, 41.944472], [-87.653635, 41.944902], [-87.653023, 41.944912]], "type": "LineString"}, "properties": {}}, {"type": "Feature", "geometry": {"coordinates": [[-87.653023, 41.944912], [-87.653635, 41.944902], [-87.653652, 41.945413], [-87.65429, 41.945405], [-87.654273, 41.944458], [-87.649228, 41.938193], [-87.64915, 41.936386], [-87.651561, 41.936331], [-87.651544, 41.935872], [-87.652867, 41.935843]], "type": "LineString"}, "properties": {}}, {"type": "Feature", "geometry": {"coordinates": [[-87.652867, 41.935843], [-87.651544, 41.935872], [-87.651561, 41.936331], [-87.64915, 41.936386], [-87.649275, 41.939973], [-87.638796, 41.940268], [-87.638606, 41.939931], [-87.632453, 41.934639], [-87.632048, 41.928427], [-87.62421, 41.902733], [-87.619617, 41.900898], [-87.614264, 41.892868], [-87.614127, 41.884928], [-87.617453, 41.881821], [-87.617261, 41.869765], [-87.619588, 41.866208], [-87.614728, 41.853242], [-87.614444, 41.848506], [-87.626818, 41.84732], [-87.631727, 41.847855], [-87.631351, 41.843118], [-87.630439, 41.815532], [-87.632226, 41.807984], [-87.631696, 41.798939], [-87.631804, 41.794538], [-87.659734, 41.794104], [-87.659592, 41.78864], [-87.663218, 41.788589], [-87.663222, 41.788775]], "type": "LineString"}, "properties": {}}, {"type": "Feature", "geometry": {"coordinates": [[-87.663222, 41.788775], [-87.663218, 41.788589], [-87.664378, 41.78857], [-87.6645, 41.79366], [-87.630499, 41.794196], [-87.630536, 41.795184], [-87.630393, 41.837743], [-87.631001, 41.844069], [-87.630081, 41.846653], [-87.616851, 41.847976], [-87.612168, 41.84938], [-87.619244, 41.8661], [-87.614003, 41.89273], [-87.619441, 41.900921], [-87.624048, 41.902893], [-87.632273, 41.934701], [-87.644496, 41.951253], [-87.649207, 41.974381], [-87.649649, 41.976812], [-87.659864, 41.976324], [-87.659822, 41.974627], [-87.663301, 41.974579]], "type": "LineString"}, "properties": {}}]}