{"type": "FeatureCollection", "features": [{"type": "Feature", "geometry": {"coordinates": [[-87.642168, 41.866585], [-87.64219, 41.867285], [-87.644095, 41.867254], [-87.644123, 41.867888], [-87.644628, 41.873521], [-87.644522, 41.874723], [-87.643707, 41.875312], [-87.635788, 41.875572], [-87.634246, 41.875312], [-87.634438, 41.874721], [-87.635124, 41.874834], [-87.635957, 41.875828], [-87.6367, 41.876925], [-87.636742, 41.885888], [-87.635334, 41.886831], [-87.630247, 41.886849], [-87.630207, 41.885746], [-87.626286, 41.88576], [-87.626374, 41.887032], [-87.627125, 41.888453], [-87.626665, 41.889909]], "type": "LineString"}, "properties": {"timestamp": "2024-04-23T18:36:00", "type": "ride", "rideType": "Comfort", "pickupAddress": "S Jefferson St, Chicago, IL 60607, US", "dropoffAddress": "N Wabash Ave, Chicago, IL 60611, US", "basePay": "13.08", "surge": "1.25", "tip": "0.00", "earnings": "14.33", "duration": "1067", "distance": "2.70", "rideStartTime": "April 23, 2024 at 06:36 PM", "rideEndTime": "April 23, 2024 at 06:53 PM"}}, {"type": "Feature", "geometry": {"coordinates": [[-87.626665, 41.889909], [-87.626657, 41.889438], [-87.627171, 41.888834], [-87.627249, 41.888509], [-87.627099, 41.888182], [-87.626565, 41.887314], [-87.626463, 41.887226], [-87.626741, 41.887064], [-87.627041, 41.886971], [-87.627895, 41.886946], [-87.628003, 41.889259], [-87.628704, 41.889251]], "type": "LineString"}, "properties": {"timestamp": "2024-04-23T18:56:13", "type": "transition"}}, {"type": "Feature", "geometry": {"coordinates": [[-87.628704, 41.889251], [-87.631063, 41.889218], [-87.630715, 41.875701], [-87.651339, 41.875719], [-87.657603, 41.876197], [-87.688313, 41.875763], [-87.692409, 41.875862], [-87.701067, 41.875937], [-87.701479, 41.889426], [-87.701974, 41.891131], [-87.702191, 41.895594], [-87.701213, 41.895606]], "type": "LineString"}, "properties": {"timestamp": "2024-04-23T18:56:13", "type": "ride", "rideType": "UberX", "pickupAddress": "W Kinzie St, Chicago, IL 60654, US", "dropoffAddress": "W Chicago Ave, Chicago, IL 60651-4107, US", "basePay": "11.95", "surge": "0.00", "tip": "0.00", "earnings": "11.95", "duration": "1576", "distance": "4.40", "rideStartTime": "April 23, 2024 at 06:56 PM", "rideEndTime": "April 23, 2024 at 07:22 PM"}}, {"type": "Feature", "geometry": {"coordinates": [[-87.701213, 41.895606], [-87.702191, 41.895594], [-87.702311, 41.902777], [-87.701241, 41.907558], [-87.701859, 41.909737], [-87.702101, 41.91745], [-87.691447, 41.917544], [-87.694101, 41.919252]], "type": "LineString"}, "properties": {"timestamp": "2024-04-23T20:15:10", "type": "transition"}}, {"type": "Feature", "geometry": {"coordinates": [[-87.694101, 41.919252], [-87.691447, 41.917544], [-87.671089, 41.917871], [-87.670404, 41.917216], [-87.66811, 41.915355], [-87.664752, 41.909975], [-87.661748, 41.90696], [-87.661171, 41.905495], [-87.661288, 41.902553], [-87.660921, 41.900902], [-87.659049, 41.896968], [-87.657114, 41.895018], [-87.655657, 41.89377], [-87.654831, 41.89226], [-87.653963, 41.891931], [-87.651034, 41.892554], [-87.63704, 41.892368], [-87.621881, 41.892574]], "type": "LineString"}, "properties": {"timestamp": "2024-04-23T20:15:10", "type": "ride", "rideType": "UberX", "pickupAddress": "N Stave St, Chicago, IL 60647-4051, US", "dropoffAddress": "E Ohio St, Chicago, IL 60611, US", "basePay": "8.12", "surge": "0.00", "tip": "0.00", "earnings": "8.12", "duration": "1112", "distance": "5.10", "rideStartTime": "April 23, 2024 at 08:15 PM", "rideEndTime": "April 23, 2024 at 08:33 PM"}}, {"type": "Feature", "geometry": {"coordinates": [[-87.621881, 41.892574], [-87.620562, 41.892586], [-87.620557, 41.892407], [-87.620902, 41.892402], [-87.620896, 41.892221]], "type": "LineString"}, "properties": {"timestamp": "2024-04-23T20:34:30", "type": "transition"}}, {"type": "Feature", "geometry": {"coordinates": [[-87.620896, 41.892221], [-87.620902, 41.892402], [-87.620557, 41.892407], [-87.620562, 41.892586], [-87.620263, 41.892588], [-87.620235, 41.891803], [-87.639878, 41.891506], [-87.643004, 41.891239], [-87.647627, 41.891194], [-87.650448, 41.893035]], "type": "LineString"}, "properties": {"timestamp": "2024-04-23T20:34:30", "type": "ride", "rideType": "UberX", "pickupAddress": "215 E. Ohio Street, Chicago, IL 60611, US", "dropoffAddress": "N Milwaukee Ave, Chicago, IL 60642, US", "basePay": "5.35", "surge": "0.00", "tip": "0.00", "earnings": "5.35", "duration": "797", "distance": "2.50", "rideStartTime": "April 23, 2024 at 08:34 PM", "rideEndTime": "April 23, 2024 at 08:47 PM"}}, {"type": "Feature", "geometry": {"coordinates": [[-87.650448, 41.893035], [-87.647627, 41.891194], [-87.643004, 41.891239], [-87.640016, 41.891501], [-87.637019, 41.891543], [-87.63704, 41.892368], [-87.628093, 41.892476], [-87.628071, 41.891667], [-87.628847, 41.891657]], "type": "LineString"}, "properties": {"timestamp": "2024-04-23T20:49:14", "type": "transition"}}, {"type": "Feature", "geometry": {"coordinates": [[-87.628847, 41.891657], [-87.629638, 41.891644], [-87.629839, 41.899126], [-87.621885, 41.899246], [-87.621902, 41.900045], [-87.622108, 41.900042]], "type": "LineString"}, "properties": {"timestamp": "2024-04-23T20:49:14", "type": "ride", "rideType": "UberX", "pickupAddress": "W Grand Ave, Chicago, IL 60642, US", "dropoffAddress": "E Walton Pl, Chicago, IL 60611, US", "basePay": "6.43", "surge": "0.00", "tip": "0.00", "earnings": "6.43", "duration": "674", "distance": "2.40", "rideStartTime": "April 23, 2024 at 08:49 PM", "rideEndTime": "April 23, 2024 at 09:00 PM"}}, {"type": "Feature", "geometry": {"coordinates": [[-87.622108, 41.900042], [-87.626209, 41.89998]], "type": "LineString"}, "properties": {"timestamp": "2024-04-23T21:05:16", "type": "transition"}}, {"type": "Feature", "geometry": {"coordinates": [[-87.626209, 41.89998], [-87.627142, 41.899963], [-87.627526, 41.900764], [-87.624042, 41.900824], [-87.623664, 41.902709], [-87.625557, 41.90867], [-87.62589, 41.912141], [-87.628743, 41.918036], [-87.631851, 41.928415], [-87.632152, 41.934381], [-87.633661, 41.936704], [-87.63676, 41.939073], [-87.638088, 41.940568], [-87.639537, 41.940119], [-87.639391, 41.935587], [-87.641825, 41.935562], [-87.64182, 41.935387]], "type": "LineString"}, "properties": {"timestamp": "2024-04-23T21:05:16", "type": "ride", "rideType": "UberX", "pickupAddress": "E Walton St, Chicago, IL 60611-1419, US", "dropoffAddress": "N Pine Grove Ave, Chicago, IL 60614-6110, US", "basePay": "4.67", "surge": "0.00", "tip": "0.00", "earnings": "4.67", "duration": "545", "distance": "3.00", "rideStartTime": "April 23, 2024 at 09:05 PM", "rideEndTime": "April 23, 2024 at 09:14 PM"}}, {"type": "Feature", "geometry": {"coordinates": [[-87.64182, 41.935387], [-87.641825, 41.935562], [-87.644112, 41.935528], [-87.644365, 41.93558], [-87.647101, 41.935537], [-87.649915, 41.939012], [-87.651855, 41.938982]], "type": "LineString"}, "properties": {"timestamp": "2024-04-23T21:22:51", "type": "transition"}}, {"type": "Feature", "geometry": {"coordinates": [[-87.651855, 41.938982], [-87.654074, 41.938945], [-87.654106, 41.939918], [-87.638796, 41.940268], [-87.638606, 41.939931], [-87.634194, 41.936955], [-87.632453, 41.934639], [-87.632048, 41.928427], [-87.629189, 41.918735], [-87.62605, 41.911998], [-87.62421, 41.902733], [-87.62264, 41.901491], [-87.619617, 41.900898], [-87.614304, 41.892985], [-87.614127, 41.884928], [-87.617321, 41.882167], [-87.617442, 41.878363], [-87.620697, 41.878331], [-87.620625, 41.876287], [-87.631738, 41.875684], [-87.631448, 41.875518]], "type": "LineString"}, "properties": {"timestamp": "2024-04-23T21:22:51", "type": "ride", "rideType": "UberX", "pickupAddress": "W Fletcher St, Chicago, IL 60657-4411, US", "dropoffAddress": "N La Salle Dr, Chicago, IL 60654-3723, US", "basePay": "7.32", "surge": "0.00", "tip": "0.00", "earnings": "7.32", "duration": "841", "distance": "4.60", "rideStartTime": "April 23, 2024 at 09:22 PM", "rideEndTime": "April 23, 2024 at 09:36 PM"}}, {"type": "Feature", "geometry": {"coordinates": [[-87.631448, 41.875518], [-87.630714, 41.875521], [-87.630686, 41.874518], [-87.63498, 41.874459], [-87.635036, 41.874529], [-87.63544, 41.886906], [-87.63637, 41.887983], [-87.63527, 41.888]], "type": "LineString"}, "properties": {"timestamp": "2024-04-23T21:35:49", "type": "transition"}}, {"type": "Feature", "geometry": {"coordinates": [[-87.63527, 41.888], [-87.63637, 41.887983], [-87.63704, 41.892368], [-87.624121, 41.892541], [-87.624042, 41.900824], [-87.62589, 41.912141], [-87.631851, 41.928415], [-87.632152, 41.934381], [-87.638833, 41.941219], [-87.644376, 41.950931], [-87.649207, 41.974381], [-87.649649, 41.976812], [-87.659864, 41.976324], [-87.659771, 41.972678], [-87.660107, 41.972674]], "type": "LineString"}, "properties": {"timestamp": "2024-04-23T21:35:49", "type": "ride", "rideType": "UberX", "pickupAddress": "N Wells St, Chicago, IL 60654-4705, US", "dropoffAddress": "W Argyle St, Chicago, IL 60640-3937, US", "basePay": "10.03", "surge": "0.00", "tip": "0.00", "earnings": "10.03", "duration": "906", "distance": "7.70", "rideStartTime": "April 23, 2024 at 09:35 PM", "rideEndTime": "April 23, 2024 at 09:50 PM"}}, {"type": "Feature", "geometry": {"coordinates": [[-87.660107, 41.972674], [-87.659771, 41.972678], [-87.659673, 41.969021], [-87.669477, 41.968876], [-87.668452, 41.9324], [-87.680713, 41.932257], [-87.680658, 41.932073]], "type": "LineString"}, "properties": {"timestamp": "2024-04-24T13:05:19", "type": "transition"}}]}