{"type": "FeatureCollection", "features": [{"type": "Feature", "geometry": {"coordinates": [[-87.654106, 41.939918], [-87.666233, 41.939729], [-87.666175, 41.937916], [-87.668655, 41.93788], [-87.66815, 41.925151], [-87.681912, 41.924981], [-87.685177, 41.926707], [-87.709664, 41.940439], [-87.714861, 41.942208], [-87.716273, 41.943331], [-87.718472, 41.946973], [-87.719618, 41.947985], [-87.738838, 41.958569], [-87.741371, 41.960451], [-87.741062, 41.960809]], "type": "LineString"}, "properties": {}}, {"type": "Feature", "geometry": {"coordinates": [[-87.741062, 41.960809], [-87.743853, 41.960812], [-87.740635, 41.958818], [-87.739456, 41.958438], [-87.73715, 41.957103], [-87.734704, 41.955492], [-87.731304, 41.953617], [-87.709456, 41.953865], [-87.709457, 41.953972], [-87.709947, 41.953965]], "type": "LineString"}, "properties": {}}, {"type": "Feature", "geometry": {"coordinates": [[-87.709947, 41.953965], [-87.710466, 41.953958], [-87.710301, 41.947636], [-87.707815, 41.945936], [-87.707705, 41.938646], [-87.673831, 41.919706], [-87.671882, 41.918264], [-87.671887, 41.917859], [-87.677621, 41.91776], [-87.677009, 41.894261]], "type": "LineString"}, "properties": {}}, {"type": "Feature", "geometry": {"coordinates": [[-87.677009, 41.894261], [-87.677057, 41.895912], [-87.701213, 41.895606]], "type": "LineString"}, "properties": {}}, {"type": "Feature", "geometry": {"coordinates": [[-87.701213, 41.895606], [-87.667222, 41.896071], [-87.667339, 41.899713], [-87.660982, 41.899842], [-87.660843, 41.899711], [-87.658834, 41.896667], [-87.657114, 41.895018], [-87.655657, 41.89377], [-87.654831, 41.89226], [-87.653963, 41.891931], [-87.651034, 41.892554], [-87.632701, 41.89242], [-87.632683, 41.890793], [-87.61861, 41.891051], [-87.61855, 41.889504], [-87.618129, 41.889507]], "type": "LineString"}, "properties": {}}, {"type": "Feature", "geometry": {"coordinates": [[-87.618129, 41.889507], [-87.621542, 41.889634], [-87.621612, 41.88971], [-87.621642, 41.890105], [-87.62195, 41.890126], [-87.62196, 41.890967], [-87.62021, 41.891016], [-87.620395, 41.889573], [-87.621589, 41.889608], [-87.621608, 41.890134], [-87.62164, 41.890945], [-87.621327, 41.890952]], "type": "LineString"}, "properties": {}}, {"type": "Feature", "geometry": {"coordinates": [[-87.621327, 41.890952], [-87.620784, 41.890997], [-87.621649, 41.891015], [-87.621842, 41.891098], [-87.621986, 41.890981], [-87.624246, 41.890945], [-87.624214, 41.88986], [-87.624581, 41.88832], [-87.62517, 41.888334], [-87.625491, 41.888239], [-87.626463, 41.887226], [-87.626741, 41.887064], [-87.627165, 41.886951], [-87.63544, 41.886906], [-87.63637, 41.887983], [-87.63527, 41.888]], "type": "LineString"}, "properties": {}}, {"type": "Feature", "geometry": {"coordinates": [[-87.63527, 41.888], [-87.63637, 41.887983], [-87.63704, 41.892368], [-87.624121, 41.892541], [-87.624042, 41.900824], [-87.623664, 41.902709], [-87.62589, 41.912141], [-87.628743, 41.918036], [-87.631851, 41.928415], [-87.632152, 41.934381], [-87.633661, 41.936704], [-87.63676, 41.939073], [-87.638088, 41.940568], [-87.639537, 41.940119], [-87.639435, 41.936919]], "type": "LineString"}, "properties": {}}, {"type": "Feature", "geometry": {"coordinates": [[-87.639435, 41.936919], [-87.639537, 41.940119], [-87.638796, 41.940268], [-87.638606, 41.939931], [-87.634194, 41.936955], [-87.632527, 41.93482], [-87.632048, 41.928427], [-87.627538, 41.915117], [-87.627206, 41.913042], [-87.628067, 41.912346], [-87.631428, 41.913459], [-87.633196, 41.912907], [-87.632793, 41.89661], [-87.654734, 41.896269], [-87.659133, 41.891059], [-87.674452, 41.890868], [-87.674428, 41.889765], [-87.676345, 41.889736], [-87.676333, 41.889431]], "type": "LineString"}, "properties": {}}, {"type": "Feature", "geometry": {"coordinates": [[-87.676333, 41.889431], [-87.676345, 41.889736], [-87.676872, 41.889728], [-87.676904, 41.890825], [-87.65893, 41.891061], [-87.654527, 41.896273], [-87.632635, 41.896613], [-87.632751, 41.900548], [-87.628335, 41.9006], [-87.62834, 41.900747], [-87.624042, 41.900824], [-87.62589, 41.912141], [-87.631851, 41.928415], [-87.632152, 41.934381], [-87.638833, 41.941219], [-87.644376, 41.950931], [-87.648738, 41.973046], [-87.652803, 41.984951], [-87.662456, 41.985105], [-87.672113, 41.990814], [-87.679826, 41.990727], [-87.679921, 41.993977]], "type": "LineString"}, "properties": {}}, {"type": "Feature", "geometry": {"coordinates": [[-87.679921, 41.993977], [-87.679826, 41.990727], [-87.689876, 41.990509], [-87.689669, 41.99044], [-87.688512, 41.955627], [-87.687207, 41.910324], [-87.701875, 41.910165], [-87.702278, 41.902886], [-87.701605, 41.902888]], "type": "LineString"}, "properties": {}}, {"type": "Feature", "geometry": {"coordinates": [[-87.701605, 41.902888], [-87.701605, 41.902888]], "type": "LineString"}, "properties": {}}, {"type": "Feature", "geometry": {"coordinates": [[-87.701605, 41.902888], [-87.696883, 41.902928], [-87.696699, 41.895661], [-87.677057, 41.895912], [-87.677009, 41.894261]], "type": "LineString"}, "properties": {}}, {"type": "Feature", "geometry": {"coordinates": [[-87.677009, 41.894261], [-87.677057, 41.895912], [-87.686835, 41.89575], [-87.687018, 41.903025], [-87.701605, 41.902888]], "type": "LineString"}, "properties": {}}, {"type": "Feature", "geometry": {"coordinates": [[-87.701605, 41.902888], [-87.696883, 41.902928], [-87.696699, 41.895661], [-87.63421, 41.896586], [-87.634293, 41.898867]], "type": "LineString"}, "properties": {}}, {"type": "Feature", "geometry": {"coordinates": [[-87.634293, 41.898867], [-87.634474, 41.903857], [-87.632844, 41.90389], [-87.633095, 41.912584], [-87.632796, 41.913071], [-87.636142, 41.918564], [-87.641881, 41.927956]], "type": "LineString"}, "properties": {}}, {"type": "Feature", "geometry": {"coordinates": [[-87.641881, 41.927956], [-87.640463, 41.92558], [-87.631853, 41.926001], [-87.626142, 41.912297], [-87.624861, 41.904908], [-87.624179, 41.901978], [-87.624571, 41.884489], [-87.623414, 41.884372], [-87.621085, 41.884319]], "type": "LineString"}, "properties": {}}, {"type": "Feature", "geometry": {"coordinates": [[-87.621085, 41.884319], [-87.620576, 41.884316], [-87.620586, 41.884503], [-87.624371, 41.884484], [-87.624484, 41.887965], [-87.624034, 41.889969], [-87.624121, 41.892541], [-87.621881, 41.892574]], "type": "LineString"}, "properties": {}}, {"type": "Feature", "geometry": {"coordinates": [[-87.621881, 41.892574], [-87.620263, 41.892588], [-87.620283, 41.893412], [-87.637063, 41.893148], [-87.64596, 41.892522], [-87.65028, 41.892674], [-87.653268, 41.892622], [-87.658404, 41.896481], [-87.660896, 41.901399], [-87.66137, 41.906646], [-87.670146, 41.917654], [-87.709927, 41.940372], [-87.715306, 41.94215], [-87.719592, 41.947613], [-87.741635, 41.95982], [-87.746287, 41.963594], [-87.747426, 41.975724], [-87.74607, 41.976396], [-87.745776, 41.975364], [-87.74954, 41.975314]], "type": "LineString"}, "properties": {}}, {"type": "Feature", "geometry": {"coordinates": [[-87.74954, 41.975314], [-87.749263, 41.975317], [-87.749213, 41.973672], [-87.74016, 41.968116], [-87.729684, 41.960937], [-87.689903, 41.961311], [-87.690002, 41.964343]], "type": "LineString"}, "properties": {}}]}