{"type": "FeatureCollection", "features": [{"type": "Feature", "geometry": {"coordinates": [[-87.668176, 42.005122], [-87.668185, 42.005422], [-87.690071, 42.005024], [-87.688512, 41.955627], [-87.688345, 41.949742]], "type": "LineString"}, "properties": {}}, {"type": "Feature", "geometry": {"coordinates": [[-87.688345, 41.949742], [-87.688345, 41.949742]], "type": "LineString"}, "properties": {}}, {"type": "Feature", "geometry": {"coordinates": [[-87.688345, 41.949742], [-87.688245, 41.946744], [-87.673726, 41.946928], [-87.668729, 41.939809], [-87.668655, 41.93788], [-87.669017, 41.937875]], "type": "LineString"}, "properties": {}}, {"type": "Feature", "geometry": {"coordinates": [[-87.669017, 41.937875], [-87.669017, 41.937875]], "type": "LineString"}, "properties": {}}, {"type": "Feature", "geometry": {"coordinates": [[-87.669017, 41.937875], [-87.671019, 41.937845], [-87.670818, 41.93237], [-87.678134, 41.932278], [-87.677765, 41.92139], [-87.677255, 41.921395], [-87.671115, 41.918139], [-87.668247, 41.915543], [-87.664752, 41.909975], [-87.661559, 41.906635], [-87.660921, 41.900902], [-87.659049, 41.896968], [-87.657114, 41.895018], [-87.653963, 41.891931], [-87.651034, 41.892554], [-87.62966, 41.892457], [-87.629727, 41.894584]], "type": "LineString"}, "properties": {}}, {"type": "Feature", "geometry": {"coordinates": [[-87.629727, 41.894584], [-87.629736, 41.89485], [-87.631201, 41.894831], [-87.63088, 41.882086]], "type": "LineString"}, "properties": {}}, {"type": "Feature", "geometry": {"coordinates": [[-87.63088, 41.882086], [-87.630838, 41.880701], [-87.617244, 41.880924], [-87.617167, 41.881825], [-87.616825, 41.882444], [-87.616282, 41.882876], [-87.614349, 41.883727], [-87.61381, 41.884344], [-87.613605, 41.885068], [-87.613972, 41.887886], [-87.614041, 41.892878], [-87.616735, 41.89691], [-87.617065, 41.89684], [-87.618191, 41.898469], [-87.622926, 41.898405]], "type": "LineString"}, "properties": {}}, {"type": "Feature", "geometry": {"coordinates": [[-87.622926, 41.898405], [-87.624042, 41.898389], [-87.624077, 41.900014], [-87.626209, 41.89998]], "type": "LineString"}, "properties": {}}, {"type": "Feature", "geometry": {"coordinates": [[-87.626209, 41.89998], [-87.627142, 41.899963], [-87.627526, 41.900764], [-87.624042, 41.900824], [-87.623664, 41.902709], [-87.625557, 41.90867], [-87.62589, 41.912141], [-87.628743, 41.918036], [-87.630534, 41.924159], [-87.63067, 41.926223], [-87.633621, 41.925745], [-87.636987, 41.930951], [-87.63931, 41.932914], [-87.658713, 41.932557], [-87.663209, 41.935776]], "type": "LineString"}, "properties": {}}, {"type": "Feature", "geometry": {"coordinates": [[-87.663209, 41.935776], [-87.663682, 41.936111], [-87.6632, 41.921626], [-87.664379, 41.921608], [-87.664499, 41.921692]], "type": "LineString"}, "properties": {}}, {"type": "Feature", "geometry": {"coordinates": [[-87.664499, 41.921692], [-87.664379, 41.921608], [-87.6632, 41.921626], [-87.66355, 41.932479], [-87.65822, 41.932567]], "type": "LineString"}, "properties": {}}, {"type": "Feature", "geometry": {"coordinates": [[-87.65822, 41.932567], [-87.65822, 41.932567]], "type": "LineString"}, "properties": {}}, {"type": "Feature", "geometry": {"coordinates": [[-87.65822, 41.932567], [-87.658713, 41.932557], [-87.668729, 41.939809], [-87.678771, 41.954216], [-87.696952, 41.953988], [-87.696956, 41.953469]], "type": "LineString"}, "properties": {}}, {"type": "Feature", "geometry": {"coordinates": [[-87.696956, 41.953469], [-87.696952, 41.953988], [-87.709947, 41.953965]], "type": "LineString"}, "properties": {}}, {"type": "Feature", "geometry": {"coordinates": [[-87.709947, 41.953965], [-87.78166, 41.952982], [-87.781561, 41.950253], [-87.783996, 41.950237], [-87.784034, 41.951138], [-87.783615, 41.951144], [-87.783623, 41.951302]], "type": "LineString"}, "properties": {}}, {"type": "Feature", "geometry": {"coordinates": [[-87.783623, 41.951302], [-87.783585, 41.952957], [-87.776769, 41.953044], [-87.77724, 41.966743], [-87.770356, 41.966836]], "type": "LineString"}, "properties": {}}, {"type": "Feature", "geometry": {"coordinates": [[-87.770356, 41.966836], [-87.767449, 41.966874], [-87.767572, 41.97033], [-87.778228, 41.973175], [-87.794387, 41.978397], [-87.801174, 41.979871], [-87.801134, 41.983212], [-87.808496, 41.986584]], "type": "LineString"}, "properties": {}}, {"type": "Feature", "geometry": {"coordinates": [[-87.808496, 41.986584], [-87.801134, 41.983212], [-87.801174, 41.979871], [-87.794587, 41.978452], [-87.786657, 41.975902], [-87.786704, 41.973364]], "type": "LineString"}, "properties": {}}, {"type": "Feature", "geometry": {"coordinates": [[-87.786704, 41.973364], [-87.786695, 41.973833], [-87.785496, 41.973842], [-87.785453, 41.97552], [-87.778228, 41.973175], [-87.770994, 41.971247], [-87.770965, 41.972341], [-87.768552, 41.971704], [-87.768475, 41.975215], [-87.76686, 41.974307], [-87.766285, 41.974042], [-87.765347, 41.973], [-87.765235, 41.973056], [-87.763848, 41.972273]], "type": "LineString"}, "properties": {}}, {"type": "Feature", "geometry": {"coordinates": [[-87.763848, 41.972273], [-87.765235, 41.973056], [-87.765347, 41.973], [-87.766589, 41.974381], [-87.800819, 41.993422], [-87.800236, 41.994]], "type": "LineString"}, "properties": {}}, {"type": "Feature", "geometry": {"coordinates": [[-87.800236, 41.994], [-87.800819, 41.993422], [-87.806806, 41.996984], [-87.806936, 41.943446], [-87.808144, 41.943422], [-87.808136, 41.943211]], "type": "LineString"}, "properties": {}}, {"type": "Feature", "geometry": {"coordinates": [[-87.808136, 41.943211], [-87.808075, 41.941524], [-87.805636, 41.941646], [-87.805777, 41.945287], [-87.739921, 41.946215]], "type": "LineString"}, "properties": {}}, {"type": "Feature", "geometry": {"coordinates": [[-87.739921, 41.946215], [-87.665227, 41.947064], [-87.665169, 41.94523], [-87.664502, 41.945239]], "type": "LineString"}, "properties": {}}, {"type": "Feature", "geometry": {"coordinates": [[-87.664502, 41.945239], [-87.663953, 41.945247], [-87.664292, 41.957682], [-87.665949, 41.961638], [-87.655148, 41.961772], [-87.656894, 41.964503]], "type": "LineString"}, "properties": {}}]}