{"type": "FeatureCollection", "features": [{"type": "Feature", "geometry": {"coordinates": [[-87.70425, 41.950433], [-87.704051, 41.94332], [-87.702467, 41.94223], [-87.702616, 41.935677], [-87.669746, 41.917124], [-87.664752, 41.909975], [-87.661559, 41.906635], [-87.660921, 41.900902], [-87.659049, 41.896968], [-87.657114, 41.895018], [-87.653963, 41.891931], [-87.651034, 41.892554], [-87.62966, 41.892457], [-87.629727, 41.894584]], "type": "LineString"}, "properties": {"timestamp": "2024-08-23T17:06:19", "type": "ride", "rideType": "UberX", "pickupAddress": "N Whipple St, Chicago, IL 60618-5613, US", "dropoffAddress": "N Dearborn St, Chicago, IL 60654, US", "basePay": "14.01", "surge": "0.00", "tip": "4.99", "earnings": "19.00", "duration": "1413", "distance": "6.30", "rideStartTime": "August 23, 2024 at 05:06 PM", "rideEndTime": "August 23, 2024 at 05:29 PM"}}, {"type": "Feature", "geometry": {"coordinates": [[-87.629727, 41.894584], [-87.629736, 41.89485], [-87.631201, 41.894831], [-87.631072, 41.889473]], "type": "LineString"}, "properties": {"timestamp": "2024-08-23T17:30:44", "type": "transition"}}, {"type": "Feature", "geometry": {"coordinates": [[-87.631072, 41.889473], [-87.631063, 41.889218], [-87.632434, 41.889186], [-87.633095, 41.912584], [-87.632796, 41.913071], [-87.636142, 41.918564], [-87.641881, 41.927956]], "type": "LineString"}, "properties": {"timestamp": "2024-08-23T17:30:44", "type": "ride", "rideType": "UberX", "pickupAddress": "N Clark St, Chicago, IL 60654, US", "dropoffAddress": "N Clark St, Chicago, IL 60613, US", "basePay": "12.65", "surge": "1.00", "tip": "10.00", "earnings": "23.65", "duration": "1440", "distance": "4.50", "rideStartTime": "August 23, 2024 at 05:30 PM", "rideEndTime": "August 23, 2024 at 05:54 PM"}}, {"type": "Feature", "geometry": {"coordinates": [[-87.641881, 41.927956], [-87.642875, 41.92963], [-87.643564, 41.93012], [-87.644577, 41.931849], [-87.645015, 41.932979], [-87.647811, 41.936435], [-87.658837, 41.936197], [-87.658824, 41.935883]], "type": "LineString"}, "properties": {"timestamp": "2024-08-23T17:56:49", "type": "transition"}}, {"type": "Feature", "geometry": {"coordinates": [[-87.658824, 41.935883], [-87.658713, 41.932557], [-87.668452, 41.9324], [-87.668616, 41.921563], [-87.677255, 41.921395], [-87.671115, 41.918139], [-87.668499, 41.915851], [-87.664752, 41.909975], [-87.661559, 41.906635], [-87.661057, 41.901306], [-87.658834, 41.896667], [-87.6483, 41.889096], [-87.646108, 41.885119], [-87.646413, 41.883144], [-87.641266, 41.883178], [-87.639745, 41.883185], [-87.639932, 41.887293]], "type": "LineString"}, "properties": {"timestamp": "2024-08-23T17:56:49", "type": "ride", "rideType": "UberX", "pickupAddress": "N Racine Ave, Chicago, IL 60613-3816, US", "dropoffAddress": "N Canal St, Chicago, IL 60606, US", "basePay": "12.52", "surge": "0.00", "tip": "4.98", "earnings": "17.50", "duration": "1835", "distance": "6.30", "rideStartTime": "August 23, 2024 at 05:56 PM", "rideEndTime": "August 23, 2024 at 06:27 PM"}}, {"type": "Feature", "geometry": {"coordinates": [[-87.639932, 41.887293], [-87.64001, 41.889064], [-87.641432, 41.889102], [-87.641385, 41.888757], [-87.641357, 41.887052]], "type": "LineString"}, "properties": {"timestamp": "2024-08-23T18:27:17", "type": "transition"}}, {"type": "Feature", "geometry": {"coordinates": [[-87.641357, 41.887052], [-87.641369, 41.889103], [-87.644337, 41.889054], [-87.647627, 41.891194], [-87.648124, 41.905038], [-87.649202, 41.905042], [-87.653203, 41.909772], [-87.653551, 41.923569], [-87.651547, 41.9236]], "type": "LineString"}, "properties": {"timestamp": "2024-08-23T18:27:17", "type": "ride", "rideType": "UberX", "pickupAddress": "N Clinton St, Chicago, IL 60661-1102, US", "dropoffAddress": "W Belden Ave, Chicago, IL 60614-3815, US", "basePay": "7.91", "surge": "0.00", "tip": "0.00", "earnings": "7.91", "duration": "1207", "distance": "3.20", "rideStartTime": "August 23, 2024 at 06:27 PM", "rideEndTime": "August 23, 2024 at 06:47 PM"}}, {"type": "Feature", "geometry": {"coordinates": [[-87.651547, 41.9236], [-87.646272, 41.923682], [-87.643784, 41.921883], [-87.63646, 41.92199], [-87.636391, 41.919706]], "type": "LineString"}, "properties": {"timestamp": "2024-08-23T18:48:42", "type": "transition"}}, {"type": "Feature", "geometry": {"coordinates": [[-87.636391, 41.919706], [-87.636415, 41.918803], [-87.636131, 41.918472], [-87.636542, 41.918356], [-87.658214, 41.918041], [-87.658278, 41.917207], [-87.664499, 41.921692]], "type": "LineString"}, "properties": {"timestamp": "2024-08-23T18:48:42", "type": "ride", "rideType": "UberX", "pickupAddress": "N Lincoln Park W, Chicago, IL 60614, US", "dropoffAddress": "N Clybourn Ave, Chicago, IL 60614, US", "basePay": "6.40", "surge": "0.00", "tip": "0.00", "earnings": "6.40", "duration": "688", "distance": "1.60", "rideStartTime": "August 23, 2024 at 06:48 PM", "rideEndTime": "August 23, 2024 at 07:00 PM"}}, {"type": "Feature", "geometry": {"coordinates": [[-87.664499, 41.921692], [-87.664499, 41.921692]], "type": "LineString"}, "properties": {"timestamp": "2024-08-23T19:04:08", "type": "transition"}}, {"type": "Feature", "geometry": {"coordinates": [[-87.664499, 41.921692], [-87.688003, 41.939468], [-87.688893, 41.968612], [-87.695017, 41.968567], [-87.695049, 41.969512]], "type": "LineString"}, "properties": {"timestamp": "2024-08-23T19:04:08", "type": "ride", "rideType": "UberX", "pickupAddress": "N Clybourn Ave, Chicago, IL 60614-4003, US", "dropoffAddress": "N Talman Ave, Chicago, IL 60625-2993, US", "basePay": "10.32", "surge": "0.00", "tip": "0.00", "earnings": "10.32", "duration": "1415", "distance": "4.30", "rideStartTime": "August 23, 2024 at 07:04 PM", "rideEndTime": "August 23, 2024 at 07:27 PM"}}, {"type": "Feature", "geometry": {"coordinates": [[-87.695049, 41.969512], [-87.695054, 41.969669], [-87.696271, 41.96966], [-87.696237, 41.968561], [-87.667495, 41.968905], [-87.665949, 41.961638], [-87.664497, 41.958026], [-87.662225, 41.95438], [-87.654273, 41.944458], [-87.654016, 41.937175], [-87.653552, 41.937186], [-87.65355, 41.937074]], "type": "LineString"}, "properties": {"timestamp": "2024-08-23T19:52:56", "type": "transition"}}, {"type": "Feature", "geometry": {"coordinates": [[-87.65355, 41.937074], [-87.653552, 41.937186], [-87.654016, 41.937175], [-87.654106, 41.939918], [-87.678349, 41.939586], [-87.678527, 41.946063]], "type": "LineString"}, "properties": {"timestamp": "2024-08-23T19:52:56", "type": "ride", "rideType": "UberX", "pickupAddress": "N Clark St, Chicago, IL 60657, US", "dropoffAddress": "N Damen Ave, Chicago, IL 60618-3063, US", "basePay": "5.80", "surge": "4.00", "tip": "5.00", "earnings": "14.80", "duration": "549", "distance": "1.70", "rideStartTime": "August 23, 2024 at 07:52 PM", "rideEndTime": "August 23, 2024 at 08:02 PM"}}, {"type": "Feature", "geometry": {"coordinates": [[-87.678527, 41.946063], [-87.679366, 41.975076]], "type": "LineString"}, "properties": {"timestamp": "2024-08-23T20:03:09", "type": "transition"}}, {"type": "Feature", "geometry": {"coordinates": [[-87.679366, 41.975076], [-87.679185, 41.968753], [-87.688893, 41.968612], [-87.688686, 41.961319], [-87.698474, 41.961247], [-87.698335, 41.956867]], "type": "LineString"}, "properties": {"timestamp": "2024-08-23T20:03:09", "type": "ride", "rideType": "Comfort", "pickupAddress": "N Damen Ave, Chicago, IL 60625-1602, US", "dropoffAddress": "N California Ave, Chicago, IL 60647-1290, US", "basePay": "11.88", "surge": "0.00", "tip": "5.00", "earnings": "16.88", "duration": "1138", "distance": "4.00", "rideStartTime": "August 23, 2024 at 08:03 PM", "rideEndTime": "August 23, 2024 at 08:22 PM"}}, {"type": "Feature", "geometry": {"coordinates": [[-87.698335, 41.956867], [-87.698037, 41.946686], [-87.705359, 41.94665], [-87.705281, 41.943085]], "type": "LineString"}, "properties": {"timestamp": "2024-08-23T20:26:14", "type": "transition"}}, {"type": "Feature", "geometry": {"coordinates": [[-87.705281, 41.943085], [-87.705182, 41.939366], [-87.702718, 41.939378], [-87.702616, 41.935677], [-87.673831, 41.919706], [-87.671882, 41.918264], [-87.671723, 41.918151], [-87.671212, 41.917869], [-87.667505, 41.91793], [-87.666413, 41.916455], [-87.663815, 41.917067], [-87.658378, 41.917139], [-87.658214, 41.918041], [-87.648523, 41.918178], [-87.648495, 41.91731]], "type": "LineString"}, "properties": {"timestamp": "2024-08-23T20:26:14", "type": "ride", "rideType": "UberX", "pickupAddress": "N Albany Ave, Chicago, IL 60647-3815, US", "dropoffAddress": "N Halsted St, Chicago, IL 60614, US", "basePay": "9.08", "surge": "0.00", "tip": "0.00", "earnings": "9.08", "duration": "987", "distance": "3.30", "rideStartTime": "August 23, 2024 at 08:26 PM", "rideEndTime": "August 23, 2024 at 08:42 PM"}}, {"type": "Feature", "geometry": {"coordinates": [[-87.648495, 41.91731], [-87.648766, 41.925453], [-87.63067, 41.926223], [-87.631851, 41.928415], [-87.632612, 41.935386], [-87.638833, 41.941219], [-87.644437, 41.951086], [-87.644701, 41.955266], [-87.649207, 41.974381], [-87.649649, 41.976812], [-87.659864, 41.976324], [-87.659771, 41.972678], [-87.660107, 41.972674]], "type": "LineString"}, "properties": {"timestamp": "2024-08-24T13:17:47", "type": "transition"}}]}