{"type": "FeatureCollection", "features": [{"type": "Feature", "geometry": {"coordinates": [[-87.701236, 41.92529], [-87.700436, 41.924799], [-87.687645, 41.924902], [-87.687399, 41.916838], [-87.677494, 41.910469], [-87.677416, 41.908257], [-87.678238, 41.908243]], "type": "LineString"}, "properties": {}}, {"type": "Feature", "geometry": {"coordinates": [[-87.678238, 41.908243], [-87.682288, 41.908173], [-87.68215, 41.903106], [-87.687018, 41.903025], [-87.686835, 41.89575], [-87.701213, 41.895606]], "type": "LineString"}, "properties": {}}, {"type": "Feature", "geometry": {"coordinates": [[-87.701213, 41.895606], [-87.702191, 41.895594], [-87.701875, 41.910165], [-87.687207, 41.910324], [-87.687645, 41.924902], [-87.682301, 41.924978], [-87.685177, 41.926707], [-87.709664, 41.940439], [-87.715161, 41.942387], [-87.719618, 41.947985], [-87.742619, 41.960998], [-87.746732, 41.965012], [-87.746614, 41.980044], [-87.751348, 41.987222], [-87.748745, 42.001173], [-87.749189, 42.009518], [-87.752849, 42.014015], [-87.765343, 42.021217], [-87.768358, 42.025543], [-87.768407, 42.033299], [-87.764702, 42.038593], [-87.759717, 42.040844], [-87.727716, 42.040759], [-87.727556, 42.048014], [-87.724487, 42.048046]], "type": "LineString"}, "properties": {}}, {"type": "Feature", "geometry": {"coordinates": [[-87.724487, 42.048046], [-87.699097, 42.048379], [-87.693603, 42.048591], [-87.690141, 42.048544], [-87.690213, 42.044213], [-87.681904, 42.044102], [-87.68191, 42.043758]], "type": "LineString"}, "properties": {}}, {"type": "Feature", "geometry": {"coordinates": [[-87.68191, 42.043758], [-87.681797, 42.042665], [-87.680562, 42.042648], [-87.678155, 42.027266], [-87.668578, 42.027161], [-87.666902, 42.025972], [-87.665412, 42.023099], [-87.66691, 42.022304], [-87.666595, 42.021131], [-87.660929, 42.005557], [-87.66054, 41.998191], [-87.659728, 41.971482], [-87.656283, 41.971565], [-87.656365, 41.974712]], "type": "LineString"}, "properties": {}}, {"type": "Feature", "geometry": {"coordinates": [[-87.656365, 41.974712], [-87.656375, 41.975268], [-87.659881, 41.975216], [-87.659665, 41.968862], [-87.656894, 41.964503]], "type": "LineString"}, "properties": {}}, {"type": "Feature", "geometry": {"coordinates": [[-87.656894, 41.964503], [-87.656894, 41.964503]], "type": "LineString"}, "properties": {}}, {"type": "Feature", "geometry": {"coordinates": [[-87.656894, 41.964503], [-87.659056, 41.967879], [-87.658872, 41.968029], [-87.658888, 41.969033], [-87.656225, 41.96907], [-87.656365, 41.974712]], "type": "LineString"}, "properties": {}}, {"type": "Feature", "geometry": {"coordinates": [[-87.656365, 41.974712], [-87.656408, 41.976381], [-87.684288, 41.975964], [-87.684347, 41.977792], [-87.685587, 41.977775], [-87.685609, 41.978461]], "type": "LineString"}, "properties": {}}, {"type": "Feature", "geometry": {"coordinates": [[-87.685609, 41.978461], [-87.686125, 41.978225], [-87.684361, 41.978248], [-87.684347, 41.977792], [-87.684838, 41.977786]], "type": "LineString"}, "properties": {}}, {"type": "Feature", "geometry": {"coordinates": [[-87.684838, 41.977786], [-87.686799, 41.977758], [-87.686732, 41.97593], [-87.651813, 41.976453], [-87.649568, 41.974283], [-87.648822, 41.972134], [-87.644905, 41.955203], [-87.644611, 41.950978], [-87.638957, 41.941067], [-87.632527, 41.93482], [-87.632048, 41.928427], [-87.627538, 41.915117], [-87.627206, 41.913042], [-87.628067, 41.912346], [-87.631428, 41.913459], [-87.633196, 41.912907], [-87.632901, 41.900546], [-87.63435, 41.90053], [-87.634293, 41.898867]], "type": "LineString"}, "properties": {}}, {"type": "Feature", "geometry": {"coordinates": [[-87.634293, 41.898867], [-87.63441, 41.9021], [-87.635771, 41.902081]], "type": "LineString"}, "properties": {}}, {"type": "Feature", "geometry": {"coordinates": [[-87.635771, 41.902081], [-87.63739, 41.902067], [-87.637178, 41.896556], [-87.64782, 41.896403], [-87.647611, 41.890088], [-87.64876, 41.890082], [-87.648752, 41.889662]], "type": "LineString"}, "properties": {}}, {"type": "Feature", "geometry": {"coordinates": [[-87.648752, 41.889662], [-87.648718, 41.889017], [-87.644337, 41.889054], [-87.644184, 41.884425], [-87.646033, 41.884406]], "type": "LineString"}, "properties": {}}, {"type": "Feature", "geometry": {"coordinates": [[-87.646033, 41.884406], [-87.647438, 41.884415], [-87.647407, 41.88314], [-87.641266, 41.883178], [-87.639745, 41.883185], [-87.624233, 41.883257], [-87.624484, 41.887965], [-87.624034, 41.889969], [-87.624208, 41.896271], [-87.624066, 41.897586], [-87.623421, 41.897599]], "type": "LineString"}, "properties": {}}, {"type": "Feature", "geometry": {"coordinates": [[-87.623421, 41.897599], [-87.621852, 41.897618], [-87.621834, 41.896766], [-87.622557, 41.896757]], "type": "LineString"}, "properties": {}}, {"type": "Feature", "geometry": {"coordinates": [[-87.622557, 41.896757], [-87.654734, 41.896269], [-87.655808, 41.89501], [-87.657675, 41.89596], [-87.659161, 41.897893], [-87.660805, 41.901753], [-87.66087, 41.905872], [-87.662226, 41.907951], [-87.664445, 41.910674], [-87.677494, 41.910469], [-87.681022, 41.912677], [-87.682642, 41.91265], [-87.68394, 41.913552], [-87.684419, 41.913544]], "type": "LineString"}, "properties": {}}, {"type": "Feature", "geometry": {"coordinates": [[-87.684419, 41.913544], [-87.68394, 41.913552], [-87.682703, 41.912753], [-87.682642, 41.91265], [-87.681022, 41.912677], [-87.68026, 41.912186], [-87.680184, 41.912246], [-87.680098, 41.912251], [-87.676282, 41.912324], [-87.676261, 41.910843], [-87.675379, 41.910856]], "type": "LineString"}, "properties": {}}, {"type": "Feature", "geometry": {"coordinates": [[-87.675379, 41.910856], [-87.675032, 41.910862], [-87.675023, 41.910517], [-87.648286, 41.910927], [-87.648584, 41.919998], [-87.64738, 41.92], [-87.647358, 41.919908]], "type": "LineString"}, "properties": {}}, {"type": "Feature", "geometry": {"coordinates": [[-87.647358, 41.919908], [-87.647406, 41.920016], [-87.648584, 41.919998], [-87.648766, 41.925453], [-87.658713, 41.932557], [-87.65822, 41.932567]], "type": "LineString"}, "properties": {}}, {"type": "Feature", "geometry": {"coordinates": [[-87.65822, 41.932567], [-87.668452, 41.9324], [-87.668616, 41.921563], [-87.677255, 41.921395], [-87.671115, 41.918139], [-87.668247, 41.915543], [-87.664752, 41.909975], [-87.661559, 41.906635], [-87.660921, 41.900902], [-87.659049, 41.896968], [-87.657114, 41.895018], [-87.653963, 41.891931], [-87.651034, 41.892554], [-87.63704, 41.892368], [-87.63637, 41.887983], [-87.63527, 41.888]], "type": "LineString"}, "properties": {}}, {"type": "Feature", "geometry": {"coordinates": [[-87.63527, 41.888], [-87.63637, 41.887983], [-87.636789, 41.888455], [-87.636943, 41.888771], [-87.636984, 41.889941], [-87.632662, 41.89], [-87.632638, 41.888522], [-87.632518, 41.888008], [-87.632527, 41.884474], [-87.635401, 41.884465], [-87.635439, 41.886768], [-87.634232, 41.886821]], "type": "LineString"}, "properties": {}}, {"type": "Feature", "geometry": {"coordinates": [[-87.634232, 41.886821], [-87.632428, 41.886819], [-87.633095, 41.912584], [-87.632796, 41.913071], [-87.634358, 41.915623], [-87.634849, 41.915479], [-87.646272, 41.923682], [-87.646319, 41.92499]], "type": "LineString"}, "properties": {}}, {"type": "Feature", "geometry": {"coordinates": [[-87.646319, 41.92499], [-87.646336, 41.925491], [-87.648766, 41.925453], [-87.658713, 41.932557], [-87.658824, 41.935883]], "type": "LineString"}, "properties": {}}]}