{"type": "FeatureCollection", "features": [{"type": "Feature", "geometry": {"coordinates": [[-87.712298, 42.019106], [-87.711292, 42.019113], [-87.710729, 42.021634], [-87.71108, 42.026386], [-87.710533, 42.048194], [-87.688792, 42.048527], [-87.688587, 42.049394]], "type": "LineString"}, "properties": {"timestamp": "2024-08-15T11:30:16", "type": "ride"}}, {"type": "Feature", "geometry": {"coordinates": [[-87.688587, 42.049394], [-87.687935, 42.051264], [-87.688175, 42.051825], [-87.689961, 42.053534], [-87.691181, 42.055254], [-87.698762, 42.064341], [-87.704473, 42.064385]], "type": "LineString"}, "properties": {"timestamp": "2024-08-15T11:55:04", "type": "transition"}}, {"type": "Feature", "geometry": {"coordinates": [[-87.704473, 42.064385], [-87.728131, 42.064611], [-87.730613, 42.062484], [-87.75032, 42.062551], [-87.750273, 42.064858], [-87.75066, 42.064862]], "type": "LineString"}, "properties": {"timestamp": "2024-08-15T11:55:04", "type": "ride"}}, {"type": "Feature", "geometry": {"coordinates": [[-87.75066, 42.064862], [-87.751446, 42.06483], [-87.751456, 42.062559], [-87.756298, 42.062565], [-87.756812, 42.063707], [-87.755346, 42.063244], [-87.755495, 42.061288], [-87.761767, 42.05296], [-87.762905, 42.041518], [-87.768504, 42.03371], [-87.768822, 42.026512], [-87.765062, 42.020736], [-87.750699, 42.01165], [-87.751005, 42.01047], [-87.751253, 42.011764], [-87.739331, 42.011716], [-87.729129, 42.0037], [-87.707391, 41.99039], [-87.67223, 41.990752], [-87.660074, 41.983631], [-87.659728, 41.971482], [-87.656283, 41.971565], [-87.656365, 41.974712]], "type": "LineString"}, "properties": {"timestamp": "2024-08-15T13:55:45", "type": "transition"}}, {"type": "Feature", "geometry": {"coordinates": [[-87.656365, 41.974712], [-87.656408, 41.976381], [-87.659864, 41.976324], [-87.660074, 41.983631], [-87.6699, 41.989705], [-87.670138, 41.99639], [-87.670543, 41.998086], [-87.667905, 41.998118], [-87.668176, 42.005122]], "type": "LineString"}, "properties": {"timestamp": "2024-08-15T13:55:45", "type": "ride"}}, {"type": "Feature", "geometry": {"coordinates": [[-87.668176, 42.005122], [-87.668185, 42.005422], [-87.665823, 42.005466], [-87.66518, 41.991183]], "type": "LineString"}, "properties": {"timestamp": "2024-08-15T14:13:52", "type": "transition"}}, {"type": "Feature", "geometry": {"coordinates": [[-87.66518, 41.991183], [-87.665673, 42.003627], [-87.666051, 42.00362]], "type": "LineString"}, "properties": {"timestamp": "2024-08-15T14:13:52", "type": "ride"}}, {"type": "Feature", "geometry": {"coordinates": [[-87.666051, 42.00362], [-87.668125, 42.003585], [-87.668185, 42.005422], [-87.68169, 42.00518], [-87.682235, 42.006411], [-87.681335, 42.006428]], "type": "LineString"}, "properties": {"timestamp": "2024-08-15T14:23:02", "type": "transition"}}, {"type": "Feature", "geometry": {"coordinates": [[-87.681335, 42.006428], [-87.680726, 42.00644], [-87.675425, 41.994982], [-87.67531, 41.992132], [-87.669778, 41.989576], [-87.662456, 41.985105], [-87.654178, 41.985586], [-87.653157, 41.984999], [-87.652706, 41.981232], [-87.648822, 41.972134], [-87.644905, 41.955203], [-87.644611, 41.950978], [-87.638957, 41.941067], [-87.632637, 41.935041], [-87.631858, 41.927741], [-87.631853, 41.926001], [-87.640463, 41.92558], [-87.641881, 41.927956]], "type": "LineString"}, "properties": {"timestamp": "2024-08-15T14:23:02", "type": "ride"}}, {"type": "Feature", "geometry": {"coordinates": [[-87.641881, 41.927956], [-87.638269, 41.921963], [-87.638941, 41.921954], [-87.638583, 41.911164], [-87.641018, 41.911125], [-87.641023, 41.911281]], "type": "LineString"}, "properties": {"timestamp": "2024-08-15T14:48:06", "type": "transition"}}, {"type": "Feature", "geometry": {"coordinates": [[-87.641023, 41.911281], [-87.641015, 41.911006], [-87.633071, 41.911172], [-87.633044, 41.912903], [-87.632269, 41.913237], [-87.630561, 41.913114], [-87.628505, 41.912247], [-87.626923, 41.912475], [-87.626017, 41.913347], [-87.628743, 41.918036], [-87.631735, 41.927967], [-87.631922, 41.9333], [-87.632402, 41.934989], [-87.633661, 41.936704], [-87.638342, 41.94059], [-87.64225, 41.947356], [-87.642515, 41.948658], [-87.643541, 41.95042]], "type": "LineString"}, "properties": {"timestamp": "2024-08-15T14:48:06", "type": "ride"}}, {"type": "Feature", "geometry": {"coordinates": [[-87.643541, 41.95042], [-87.644356, 41.952797], [-87.643828, 41.954466], [-87.644162, 41.954667], [-87.64569, 41.95795], [-87.646094, 41.960253], [-87.645534, 41.962086], [-87.639779, 41.962798], [-87.639059, 41.963055], [-87.638571, 41.963606]], "type": "LineString"}, "properties": {"timestamp": "2024-08-15T15:07:58", "type": "transition"}}, {"type": "Feature", "geometry": {"coordinates": [[-87.638571, 41.963606], [-87.639836, 41.962786], [-87.646878, 41.961908], [-87.645733, 41.957427], [-87.645546, 41.955777], [-87.645235, 41.954634], [-87.744598, 41.953455], [-87.744655, 41.950713], [-87.74723, 41.95068], [-87.747132, 41.947676]], "type": "LineString"}, "properties": {"timestamp": "2024-08-15T15:07:58", "type": "ride"}}, {"type": "Feature", "geometry": {"coordinates": [[-87.747132, 41.947676], [-87.747132, 41.947676]], "type": "LineString"}, "properties": {"timestamp": "2024-08-15T15:33:43", "type": "transition"}}, {"type": "Feature", "geometry": {"coordinates": [[-87.747132, 41.947676], [-87.747568, 41.96178], [-87.746911, 41.962975], [-87.747627, 41.96438], [-87.745977, 41.964394], [-87.747015, 41.96725], [-87.747426, 41.975724], [-87.746886, 41.976477], [-87.74607, 41.976396], [-87.745776, 41.975364], [-87.689151, 41.975899], [-87.689265, 41.97886], [-87.688009, 41.978881], [-87.688015, 41.97923], [-87.685725, 41.979722], [-87.685301, 41.981238], [-87.685604, 41.982307], [-87.68541, 41.982385], [-87.685638, 41.986037], [-87.682929, 41.986051], [-87.682777, 41.986635], [-87.681454, 41.987045]], "type": "LineString"}, "properties": {"timestamp": "2024-08-15T15:33:43", "type": "ride"}}, {"type": "Feature", "geometry": {"coordinates": [[-87.681454, 41.987045], [-87.682858, 41.98656], [-87.683199, 41.985105], [-87.685612, 41.985047], [-87.685604, 41.982307], [-87.685439, 41.981706], [-87.68536, 41.980287], [-87.688009, 41.978881], [-87.689265, 41.97886], [-87.688512, 41.955627], [-87.687413, 41.917587], [-87.703944, 41.917431], [-87.703892, 41.915416]], "type": "LineString"}, "properties": {"timestamp": "2024-08-15T16:05:22", "type": "transition"}}, {"type": "Feature", "geometry": {"coordinates": [[-87.703892, 41.915416], [-87.703857, 41.913751], [-87.70233, 41.913772], [-87.702283, 41.912], [-87.701932, 41.912147], [-87.702101, 41.91745], [-87.697194, 41.917494], [-87.697682, 41.933955], [-87.715161, 41.942387], [-87.719618, 41.947985], [-87.742619, 41.960998], [-87.746732, 41.965012], [-87.746614, 41.980044], [-87.751348, 41.987222], [-87.748589, 42.006167], [-87.748003, 42.010101], [-87.747705, 42.019034], [-87.690179, 42.019532], [-87.690093, 42.025635], [-87.685572, 42.025609]], "type": "LineString"}, "properties": {"timestamp": "2024-08-15T16:05:22", "type": "ride"}}, {"type": "Feature", "geometry": {"coordinates": [[-87.685572, 42.025609], [-87.685342, 42.025607], [-87.685845, 42.029894], [-87.688374, 42.041263], [-87.688534, 42.044191], [-87.682277, 42.044109], [-87.682549, 42.044837]], "type": "LineString"}, "properties": {"timestamp": "2024-08-15T17:30:11", "type": "transition"}}, {"type": "Feature", "geometry": {"coordinates": [[-87.682549, 42.044837], [-87.682277, 42.044109], [-87.680521, 42.044073], [-87.68054, 42.039944], [-87.678285, 42.028177]], "type": "LineString"}, "properties": {"timestamp": "2024-08-15T17:30:11", "type": "ride"}}, {"type": "Feature", "geometry": {"coordinates": [[-87.678285, 42.028177], [-87.678285, 42.028177]], "type": "LineString"}, "properties": {"timestamp": "2024-08-15T17:37:37", "type": "transition"}}, {"type": "Feature", "geometry": {"coordinates": [[-87.678285, 42.028177], [-87.678155, 42.027266], [-87.678818, 42.0273], [-87.678958, 42.027274], [-87.679066, 42.027736], [-87.680382, 42.027754], [-87.680368, 42.028453]], "type": "LineString"}, "properties": {"timestamp": "2024-08-15T17:37:37", "type": "ride"}}, {"type": "Feature", "geometry": {"coordinates": [[-87.680368, 42.028453], [-87.680409, 42.025492], [-87.682326, 42.025506], [-87.682427, 42.024919], [-87.682988, 42.024901], [-87.683183, 42.024942], [-87.683246, 42.025042], [-87.683367, 42.02503]], "type": "LineString"}, "properties": {"timestamp": "2024-08-15T17:42:06", "type": "transition"}}, {"type": "Feature", "geometry": {"coordinates": [[-87.683367, 42.02503], [-87.683183, 42.024942], [-87.682257, 42.024907], [-87.682775, 42.022996], [-87.685061, 42.023016], [-87.684067, 42.015152], [-87.681855, 42.008899], [-87.675425, 41.994982], [-87.67531, 41.992132], [-87.670085, 41.989706], [-87.669796, 41.987608], [-87.669769, 41.987519]], "type": "LineString"}, "properties": {"timestamp": "2024-08-15T17:42:06", "type": "ride"}}, {"type": "Feature", "geometry": {"coordinates": [[-87.669769, 41.987519], [-87.669769, 41.987519]], "type": "LineString"}, "properties": {"timestamp": "2024-08-15T17:49:14", "type": "transition"}}, {"type": "Feature", "geometry": {"coordinates": [[-87.669769, 41.987519], [-87.669343, 41.985953], [-87.669821, 41.985945], [-87.669568, 41.986947], [-87.6699, 41.989705], [-87.67531, 41.992132], [-87.675425, 41.994982], [-87.681855, 42.008899], [-87.683076, 42.012318], [-87.686154, 42.012243], [-87.686055, 42.011115], [-87.683771, 42.011219]], "type": "LineString"}, "properties": {"timestamp": "2024-08-15T17:49:14", "type": "ride"}}, {"type": "Feature", "geometry": {"coordinates": [[-87.683771, 42.011219], [-87.682709, 42.011268], [-87.681855, 42.008899], [-87.681159, 42.007344], [-87.683904, 42.00729], [-87.683862, 42.006381], [-87.681335, 42.006428]], "type": "LineString"}, "properties": {"timestamp": "2024-08-15T18:03:00", "type": "transition"}}, {"type": "Feature", "geometry": {"coordinates": [[-87.681335, 42.006428], [-87.680726, 42.00644], [-87.681855, 42.008899], [-87.682033, 42.008959], [-87.682247, 42.00895]], "type": "LineString"}, "properties": {"timestamp": "2024-08-15T18:03:00", "type": "ride"}}, {"type": "Feature", "geometry": {"coordinates": [[-87.682247, 42.00895], [-87.683963, 42.008875], [-87.683824, 42.005141], [-87.683168, 42.005153]], "type": "LineString"}, "properties": {"timestamp": "2024-08-15T18:12:05", "type": "transition"}}, {"type": "Feature", "geometry": {"coordinates": [[-87.683168, 42.005153], [-87.690071, 42.005024], [-87.690179, 42.019532], [-87.712298, 42.019106]], "type": "LineString"}, "properties": {"timestamp": "2024-08-15T18:12:05", "type": "ride"}}, {"type": "Feature", "geometry": {"coordinates": [[-87.712298, 42.019106], [-87.712298, 42.019106]], "type": "LineString"}, "properties": {"timestamp": "2024-08-15T18:25:38", "type": "transition"}}, {"type": "Feature", "geometry": {"coordinates": [[-87.712298, 42.019106], [-87.690179, 42.019532], [-87.666039, 42.019248], [-87.665399, 42.01716], [-87.667605, 42.01712]], "type": "LineString"}, "properties": {"timestamp": "2024-08-15T18:25:38", "type": "ride"}}, {"type": "Feature", "geometry": {"coordinates": [[-87.667605, 42.01712], [-87.670321, 42.017079], [-87.672516, 42.01701], [-87.672527, 42.017329], [-87.683329, 42.012227], [-87.687558, 42.012258], [-87.687505, 42.017428]], "type": "LineString"}, "properties": {"timestamp": "2024-08-15T18:29:31", "type": "transition"}}, {"type": "Feature", "geometry": {"coordinates": [[-87.687505, 42.017428], [-87.690195, 42.017434], [-87.688512, 41.955627], [-87.688469, 41.954086], [-87.698254, 41.953982], [-87.697932, 41.942795], [-87.701229, 41.942777]], "type": "LineString"}, "properties": {"timestamp": "2024-08-15T18:29:31", "type": "ride"}}, {"type": "Feature", "geometry": {"coordinates": [[-87.701229, 41.942777], [-87.701229, 41.942777]], "type": "LineString"}, "properties": {"timestamp": "2024-08-15T19:04:18", "type": "transition"}}, {"type": "Feature", "geometry": {"coordinates": [[-87.701229, 41.942777], [-87.703229, 41.942766], [-87.702467, 41.94223], [-87.702789, 41.94193], [-87.702616, 41.935677], [-87.673831, 41.919706], [-87.671882, 41.918264], [-87.671723, 41.918151], [-87.671212, 41.917869], [-87.667505, 41.91793], [-87.666413, 41.916455], [-87.663815, 41.917067], [-87.658378, 41.917139], [-87.658214, 41.918041], [-87.648523, 41.918178], [-87.648495, 41.91731]], "type": "LineString"}, "properties": {"timestamp": "2024-08-15T19:04:18", "type": "ride"}}, {"type": "Feature", "geometry": {"coordinates": [[-87.648495, 41.91731], [-87.648378, 41.913826], [-87.649577, 41.913806], [-87.649617, 41.914943]], "type": "LineString"}, "properties": {"timestamp": "2024-08-15T19:22:20", "type": "transition"}}, {"type": "Feature", "geometry": {"coordinates": [[-87.649617, 41.914943], [-87.649729, 41.918159], [-87.653366, 41.918105], [-87.653121, 41.910848], [-87.658619, 41.910768], [-87.659943, 41.907139], [-87.659432, 41.904628], [-87.657866, 41.903014], [-87.656728, 41.901378], [-87.656627, 41.899886], [-87.658881, 41.899846], [-87.658901, 41.900211], [-87.659328, 41.900649], [-87.660134, 41.900664], [-87.660179, 41.900807]], "type": "LineString"}, "properties": {"timestamp": "2024-08-15T19:22:20", "type": "ride"}}, {"type": "Feature", "geometry": {"coordinates": [[-87.660179, 41.900807], [-87.660214, 41.901897], [-87.660553, 41.902744], [-87.660665, 41.90345], [-87.658338, 41.903492], [-87.659164, 41.904243], [-87.659432, 41.904628], [-87.659943, 41.907139], [-87.660908, 41.908679]], "type": "LineString"}, "properties": {"timestamp": "2024-08-15T19:31:57", "type": "transition"}}, {"type": "Feature", "geometry": {"coordinates": [[-87.660908, 41.908679], [-87.658892, 41.903997], [-87.658875, 41.90348], [-87.661667, 41.903435], [-87.658255, 41.896], [-87.647099, 41.887778], [-87.646219, 41.885929], [-87.645999, 41.881827], [-87.646134, 41.880956], [-87.646145, 41.879569], [-87.646166, 41.878121], [-87.646107, 41.877218], [-87.646733, 41.875649], [-87.646076, 41.875057], [-87.630714, 41.875521], [-87.630577, 41.869035], [-87.630586, 41.867327], [-87.624158, 41.867398], [-87.624082, 41.864113], [-87.623681, 41.864128]], "type": "LineString"}, "properties": {"timestamp": "2024-08-15T19:31:57", "type": "ride"}}, {"type": "Feature", "geometry": {"coordinates": [[-87.623681, 41.864128], [-87.624082, 41.864113], [-87.623811, 41.852932], [-87.631144, 41.852935], [-87.631153, 41.850453], [-87.631351, 41.843118], [-87.631207, 41.779686], [-87.626113, 41.772231], [-87.624621, 41.72052], [-87.621065, 41.713653], [-87.600337, 41.713191], [-87.592948, 41.708673], [-87.592406, 41.703483], [-87.601798, 41.685512], [-87.601728, 41.676933], [-87.589096, 41.660202], [-87.59119, 41.659512], [-87.560717, 41.658851], [-87.555878, 41.656176], [-87.555649, 41.65737], [-87.553811, 41.65736], [-87.553812, 41.656889]], "type": "LineString"}, "properties": {"timestamp": "2024-08-15T19:47:04", "type": "transition"}}, {"type": "Feature", "geometry": {"coordinates": [[-87.553812, 41.656889], [-87.553811, 41.65736], [-87.557102, 41.657281], [-87.585314, 41.660149], [-87.590822, 41.662478], [-87.601403, 41.675885], [-87.601563, 41.685726], [-87.594329, 41.69908], [-87.591535, 41.705863], [-87.595707, 41.711823], [-87.618809, 41.713575], [-87.62372, 41.717096], [-87.625651, 41.769497], [-87.630747, 41.779495], [-87.630667, 41.838631], [-87.63193, 41.844225], [-87.642036, 41.847354], [-87.644778, 41.850632], [-87.644517, 41.867845], [-87.644628, 41.873521], [-87.649223, 41.875863], [-87.697949, 41.875633], [-87.767488, 41.871015], [-87.799298, 41.873251], [-87.804441, 41.87368], [-87.806613, 41.934519], [-87.820654, 41.93424], [-87.82067, 41.934634]], "type": "LineString"}, "properties": {"timestamp": "2024-08-15T19:47:04", "type": "ride"}}, {"type": "Feature", "geometry": {"coordinates": [[-87.82067, 41.934634], [-87.820654, 41.93424], [-87.821275, 41.934229], [-87.821404, 41.937842], [-87.786046, 41.938315], [-87.786299, 41.945676], [-87.766768, 41.945882], [-87.767005, 41.953168], [-87.698254, 41.953982], [-87.698335, 41.956867]], "type": "LineString"}, "properties": {"timestamp": "2024-08-15T20:21:33", "type": "transition"}}, {"type": "Feature", "geometry": {"coordinates": [[-87.698335, 41.956867], [-87.697902, 41.941887], [-87.700544, 41.941872], [-87.701556, 41.941084], [-87.702765, 41.941075], [-87.702516, 41.932074], [-87.707434, 41.932039], [-87.707505, 41.930261], [-87.707814, 41.929332], [-87.707541, 41.929168], [-87.70705, 41.9174], [-87.710267, 41.917363], [-87.710199, 41.914054]], "type": "LineString"}, "properties": {"timestamp": "2024-08-15T20:21:33", "type": "ride"}}, {"type": "Feature", "geometry": {"coordinates": [[-87.710199, 41.914054], [-87.710185, 41.91363], [-87.708555, 41.913656], [-87.708671, 41.917381], [-87.687413, 41.917587], [-87.687548, 41.921862], [-87.686959, 41.921868]], "type": "LineString"}, "properties": {"timestamp": "2024-08-15T20:28:26", "type": "transition"}}, {"type": "Feature", "geometry": {"coordinates": [[-87.686959, 41.921868], [-87.686506, 41.921873], [-87.686465, 41.920628], [-87.68262, 41.920704], [-87.682641, 41.92131], [-87.677255, 41.921395], [-87.668918, 41.916326], [-87.661559, 41.906635], [-87.658834, 41.896667], [-87.646614, 41.886973], [-87.645245, 41.851247], [-87.642429, 41.847384], [-87.634652, 41.845323], [-87.63091, 41.84209], [-87.631207, 41.779686], [-87.626113, 41.772231], [-87.624621, 41.72052], [-87.627884, 41.715903], [-87.636193, 41.714895], [-87.651299, 41.714153], [-87.652056, 41.714057], [-87.655187, 41.714061], [-87.655278, 41.717528], [-87.654822, 41.717535]], "type": "LineString"}, "properties": {"timestamp": "2024-08-15T20:28:26", "type": "ride"}}, {"type": "Feature", "geometry": {"coordinates": [[-87.654822, 41.717535], [-87.655278, 41.717528], [-87.655187, 41.714061], [-87.652056, 41.714057], [-87.650961, 41.713181], [-87.642306, 41.714223], [-87.632642, 41.714662], [-87.627057, 41.715693], [-87.624177, 41.719562], [-87.625651, 41.769497], [-87.626008, 41.77431], [-87.630526, 41.779578], [-87.63142, 41.807989], [-87.6297, 41.812339], [-87.629968, 41.819951], [-87.629633, 41.823673], [-87.621597, 41.823783], [-87.621608, 41.824244]], "type": "LineString"}, "properties": {"timestamp": "2024-08-15T20:54:25", "type": "transition"}}, {"type": "Feature", "geometry": {"coordinates": [[-87.621608, 41.824244], [-87.621754, 41.831064], [-87.629817, 41.830961], [-87.629831, 41.831311], [-87.630393, 41.837743], [-87.630317, 41.842376], [-87.631347, 41.844144], [-87.633465, 41.84523], [-87.642036, 41.847354], [-87.644933, 41.850987], [-87.644156, 41.857362], [-87.645685, 41.885013], [-87.647091, 41.888098], [-87.650048, 41.890597], [-87.651108, 41.891699], [-87.65026, 41.89242], [-87.632511, 41.892423], [-87.632605, 41.895614], [-87.630373, 41.895653]], "type": "LineString"}, "properties": {"timestamp": "2024-08-15T20:54:25", "type": "ride"}}, {"type": "Feature", "geometry": {"coordinates": [[-87.630373, 41.895653], [-87.628179, 41.895692], [-87.628138, 41.894078], [-87.626781, 41.894099], [-87.626665, 41.889909]], "type": "LineString"}, "properties": {"timestamp": "2024-08-15T21:12:57", "type": "transition"}}, {"type": "Feature", "geometry": {"coordinates": [[-87.626665, 41.889909], [-87.626725, 41.891688], [-87.639878, 41.891506], [-87.644384, 41.891225], [-87.644337, 41.889054], [-87.650349, 41.889017]], "type": "LineString"}, "properties": {"timestamp": "2024-08-15T21:12:57", "type": "ride"}}, {"type": "Feature", "geometry": {"coordinates": [[-87.650349, 41.889017], [-87.651067, 41.889008], [-87.651106, 41.890059], [-87.64876, 41.890082], [-87.648752, 41.889662]], "type": "LineString"}, "properties": {"timestamp": "2024-08-15T21:25:59", "type": "transition"}}, {"type": "Feature", "geometry": {"coordinates": [[-87.648752, 41.889662], [-87.64876, 41.890082], [-87.647611, 41.890088], [-87.647674, 41.896553], [-87.648086, 41.903643], [-87.637466, 41.903798]], "type": "LineString"}, "properties": {"timestamp": "2024-08-15T21:25:59", "type": "ride"}}, {"type": "Feature", "geometry": {"coordinates": [[-87.637466, 41.903798], [-87.634474, 41.903857], [-87.634293, 41.898867]], "type": "LineString"}, "properties": {"timestamp": "2024-08-15T21:40:41", "type": "transition"}}, {"type": "Feature", "geometry": {"coordinates": [[-87.634293, 41.898867], [-87.63421, 41.896586], [-87.65541, 41.896254], [-87.667446, 41.903976], [-87.667586, 41.90882], [-87.666429, 41.908834], [-87.666435, 41.909028]], "type": "LineString"}, "properties": {"timestamp": "2024-08-15T21:40:41", "type": "ride"}}, {"type": "Feature", "geometry": {"coordinates": [[-87.666435, 41.909028], [-87.666509, 41.910658], [-87.66776, 41.910633], [-87.667495, 41.901054], [-87.669888, 41.901009], [-87.669869, 41.900367]], "type": "LineString"}, "properties": {"timestamp": "2024-08-15T22:03:02", "type": "transition"}}, {"type": "Feature", "geometry": {"coordinates": [[-87.669869, 41.900367], [-87.669955, 41.90331], [-87.667439, 41.903351], [-87.66782, 41.916129], [-87.663815, 41.917067], [-87.658201, 41.917264], [-87.658464, 41.925291], [-87.653601, 41.925374], [-87.654016, 41.937175], [-87.653552, 41.937186], [-87.65355, 41.937074]], "type": "LineString"}, "properties": {"timestamp": "2024-08-15T22:03:02", "type": "ride"}}, {"type": "Feature", "geometry": {"coordinates": [[-87.65355, 41.937074], [-87.65355, 41.937074]], "type": "LineString"}, "properties": {"timestamp": "2024-08-15T22:44:12", "type": "transition"}}, {"type": "Feature", "geometry": {"coordinates": [[-87.65355, 41.937074], [-87.653552, 41.937186], [-87.654016, 41.937175], [-87.654106, 41.939918], [-87.638796, 41.940268], [-87.638606, 41.939931], [-87.634194, 41.936955], [-87.632527, 41.93482], [-87.632114, 41.933155], [-87.632048, 41.928427], [-87.629189, 41.918735], [-87.627538, 41.915117], [-87.627206, 41.913042], [-87.628067, 41.912346], [-87.631428, 41.913459], [-87.633196, 41.912907], [-87.633004, 41.903886], [-87.637466, 41.903798], [-87.637419, 41.902837], [-87.636893, 41.902843]], "type": "LineString"}, "properties": {"timestamp": "2024-08-15T22:44:12", "type": "ride"}}, {"type": "Feature", "geometry": {"coordinates": [[-87.636893, 41.902843], [-87.636893, 41.902843]], "type": "LineString"}, "properties": {"timestamp": "2024-08-15T22:54:37", "type": "transition"}}, {"type": "Feature", "geometry": {"coordinates": [[-87.636893, 41.902843], [-87.637419, 41.902837], [-87.637466, 41.903798], [-87.639563, 41.903768], [-87.648257, 41.910013], [-87.648766, 41.925453], [-87.668609, 41.939697], [-87.668676, 41.942431], [-87.668053, 41.942439]], "type": "LineString"}, "properties": {"timestamp": "2024-08-15T22:54:37", "type": "ride"}}, {"type": "Feature", "geometry": {"coordinates": [[-87.668053, 41.942439], [-87.6688, 41.94243], [-87.668473, 41.932963]], "type": "LineString"}, "properties": {"timestamp": "2024-08-15T23:08:16", "type": "transition"}}, {"type": "Feature", "geometry": {"coordinates": [[-87.668473, 41.932963], [-87.668452, 41.9324], [-87.669262, 41.96524], [-87.662408, 41.965333], [-87.662436, 41.965538]], "type": "LineString"}, "properties": {"timestamp": "2024-08-15T23:08:16", "type": "ride"}}, {"type": "Feature", "geometry": {"coordinates": [[-87.662436, 41.965538], [-87.662436, 41.965538]], "type": "LineString"}, "properties": {"timestamp": "2024-08-15T23:24:30", "type": "transition"}}, {"type": "Feature", "geometry": {"coordinates": [[-87.662436, 41.965538], [-87.662408, 41.965333], [-87.669385, 41.965239], [-87.66897, 41.94882], [-87.667351, 41.948845]], "type": "LineString"}, "properties": {"timestamp": "2024-08-15T23:24:30", "type": "ride"}}, {"type": "Feature", "geometry": {"coordinates": [[-87.667351, 41.948845], [-87.66884, 41.948822], [-87.668983, 41.954306], [-87.727612, 41.95365], [-87.727395, 41.946377], [-87.739921, 41.946215]], "type": "LineString"}, "properties": {"timestamp": "2024-08-15T23:42:25", "type": "transition"}}, {"type": "Feature", "geometry": {"coordinates": [[-87.739921, 41.946215], [-87.739311, 41.946223], [-87.740947, 41.949504], [-87.749242, 41.954581], [-87.758052, 41.964761], [-87.757599, 41.964985], [-87.757708, 41.967874], [-87.757622, 41.967875], [-87.758399, 41.968431]], "type": "LineString"}, "properties": {"timestamp": "2024-08-15T23:42:25", "type": "ride"}}, {"type": "Feature", "geometry": {"coordinates": [[-87.758399, 41.968431], [-87.758399, 41.968431]], "type": "LineString"}, "properties": {"timestamp": "2024-08-15T23:51:12", "type": "transition"}}, {"type": "Feature", "geometry": {"coordinates": [[-87.758399, 41.968431], [-87.757622, 41.967875], [-87.747723, 41.968033], [-87.747918, 41.972896], [-87.747761, 41.972794], [-87.747223, 41.966563], [-87.745232, 41.962358], [-87.719592, 41.947613], [-87.715306, 41.94215], [-87.709927, 41.940372], [-87.670146, 41.917654], [-87.66137, 41.906646], [-87.659246, 41.897685], [-87.647531, 41.888343], [-87.645999, 41.881827], [-87.646134, 41.880956], [-87.646145, 41.879569], [-87.646166, 41.878121], [-87.646107, 41.877218], [-87.646076, 41.875057], [-87.629223, 41.875546], [-87.629268, 41.877337]], "type": "LineString"}, "properties": {"timestamp": "2024-08-15T23:51:12", "type": "ride"}}, {"type": "Feature", "geometry": {"coordinates": [[-87.629268, 41.877337], [-87.629291, 41.878179], [-87.628769, 41.878188], [-87.62871, 41.875706], [-87.651339, 41.875719], [-87.657603, 41.876197], [-87.688313, 41.875763], [-87.692409, 41.875862], [-87.698604, 41.87596], [-87.698638, 41.877405], [-87.69832, 41.877408]], "type": "LineString"}, "properties": {"timestamp": "2024-08-16T00:02:37", "type": "transition"}}, {"type": "Feature", "geometry": {"coordinates": [[-87.69832, 41.877408], [-87.70111, 41.877385], [-87.701067, 41.875937], [-87.701496, 41.875935], [-87.708542, 41.874316], [-87.733365, 41.873929], [-87.740374, 41.87187], [-87.766962, 41.871028], [-87.799298, 41.873251], [-87.804441, 41.87368], [-87.807255, 41.952771], [-87.81343, 41.952624], [-87.813381, 41.956252], [-87.813854, 41.956241]], "type": "LineString"}, "properties": {"timestamp": "2024-08-16T00:02:37", "type": "ride"}}, {"type": "Feature", "geometry": {"coordinates": [[-87.813854, 41.956241], [-87.813381, 41.956252], [-87.81343, 41.952624], [-87.668983, 41.954306], [-87.669126, 41.95977], [-87.665276, 41.959819], [-87.665071, 41.959336], [-87.664488, 41.959319], [-87.664187, 41.960581]], "type": "LineString"}, "properties": {"timestamp": "2024-08-16T00:23:15", "type": "transition"}}, {"type": "Feature", "geometry": {"coordinates": [[-87.664187, 41.960581], [-87.664488, 41.959319], [-87.665071, 41.959336], [-87.665949, 41.961638], [-87.646878, 41.961908], [-87.644905, 41.955203], [-87.644611, 41.950978], [-87.639566, 41.942042], [-87.638796, 41.940268], [-87.639537, 41.940119], [-87.639435, 41.936919]], "type": "LineString"}, "properties": {"timestamp": "2024-08-16T00:23:15", "type": "ride"}}, {"type": "Feature", "geometry": {"coordinates": [[-87.639435, 41.936919], [-87.63931, 41.932914], [-87.638681, 41.932293], [-87.638993, 41.931592], [-87.638762, 41.930111], [-87.638765, 41.927795], [-87.63794, 41.926736], [-87.636833, 41.926079], [-87.636155, 41.925892], [-87.636058, 41.925673], [-87.638116, 41.925626], [-87.638082, 41.924687]], "type": "LineString"}, "properties": {"timestamp": "2024-08-16T00:34:22", "type": "transition"}}, {"type": "Feature", "geometry": {"coordinates": [[-87.638082, 41.924687], [-87.63805, 41.923795], [-87.639373, 41.923783], [-87.638269, 41.921963], [-87.648652, 41.921814], [-87.648584, 41.919998], [-87.64738, 41.92], [-87.647358, 41.919908]], "type": "LineString"}, "properties": {"timestamp": "2024-08-16T00:34:22", "type": "ride"}}, {"type": "Feature", "geometry": {"coordinates": [[-87.647358, 41.919908], [-87.647406, 41.920016], [-87.648584, 41.919998], [-87.648766, 41.925453], [-87.646336, 41.925491], [-87.64637, 41.926694], [-87.642153, 41.926767], [-87.641326, 41.927017], [-87.641881, 41.927956]], "type": "LineString"}, "properties": {"timestamp": "2024-08-16T00:41:41", "type": "transition"}}, {"type": "Feature", "geometry": {"coordinates": [[-87.641881, 41.927956], [-87.638269, 41.921963], [-87.638941, 41.921954], [-87.638808, 41.918322], [-87.638503, 41.918106]], "type": "LineString"}, "properties": {"timestamp": "2024-08-16T00:41:41", "type": "ride"}}, {"type": "Feature", "geometry": {"coordinates": [[-87.638503, 41.918106], [-87.634849, 41.915479], [-87.634358, 41.915623], [-87.632796, 41.913071], [-87.628505, 41.912247], [-87.626932, 41.912316], [-87.624114, 41.90257], [-87.619617, 41.900898], [-87.614229, 41.892716], [-87.614127, 41.884928], [-87.617453, 41.881821], [-87.617261, 41.869765], [-87.619588, 41.866208], [-87.614728, 41.853242], [-87.614444, 41.848506], [-87.626818, 41.84732], [-87.631727, 41.847855], [-87.631351, 41.843118], [-87.631289, 41.79178], [-87.631532, 41.783322], [-87.631833, 41.779372], [-87.632128, 41.779366], [-87.632538, 41.778543]], "type": "LineString"}, "properties": {"timestamp": "2024-08-16T00:46:21", "type": "transition"}}, {"type": "Feature", "geometry": {"coordinates": [[-87.632538, 41.778543], [-87.632128, 41.779366], [-87.631833, 41.779372], [-87.631812, 41.778124], [-87.635009, 41.778077], [-87.635057, 41.779907], [-87.630139, 41.779931], [-87.630149, 41.780433], [-87.63142, 41.807989], [-87.629665, 41.812785], [-87.630393, 41.837743], [-87.631001, 41.844069], [-87.63096, 41.845776], [-87.630081, 41.846653], [-87.623841, 41.847827], [-87.616851, 41.847976], [-87.612514, 41.847311], [-87.609757, 41.841157], [-87.609375, 41.839163], [-87.613244, 41.848488], [-87.614499, 41.848207], [-87.616087, 41.851978]], "type": "LineString"}, "properties": {"timestamp": "2024-08-16T00:46:21", "type": "ride"}}, {"type": "Feature", "geometry": {"coordinates": [[-87.616087, 41.851978], [-87.616876, 41.85573], [-87.616543, 41.856402], [-87.617503, 41.857757], [-87.61714, 41.857849], [-87.614728, 41.853242], [-87.613506, 41.849799], [-87.614678, 41.848403], [-87.623817, 41.848065], [-87.628154, 41.84709], [-87.630973, 41.847424], [-87.634449, 41.847955], [-87.636524, 41.84749], [-87.641219, 41.847736], [-87.64329, 41.848618], [-87.644555, 41.850742], [-87.644854, 41.873493], [-87.644167, 41.87559], [-87.645364, 41.877863], [-87.645275, 41.880374], [-87.645355, 41.881847], [-87.645393, 41.882198], [-87.645396, 41.883308], [-87.645365, 41.885689], [-87.647482, 41.885665], [-87.647627, 41.891194], [-87.650448, 41.893035]], "type": "LineString"}, "properties": {"timestamp": "2024-08-16T18:14:07", "type": "transition"}}]}