{"type": "FeatureCollection", "features": [{"type": "Feature", "geometry": {"coordinates": [[-87.673501, 41.98069], [-87.674532, 41.980675], [-87.674411, 41.976102], [-87.679392, 41.976029], [-87.678771, 41.954216], [-87.733959, 41.953587], [-87.733804, 41.948121], [-87.736646, 41.948077], [-87.736648, 41.948162]], "type": "LineString"}, "properties": {"timestamp": "2024-02-05T17:01:57", "type": "ride", "rideType": "UberX Share", "pickupAddress": "W Rascher Ave, Chicago, IL 60640-1205, US", "dropoffAddress": "N Lowell Ave, Chicago, IL 60639-2043, US", "basePay": "18.50", "surge": "0.00", "tip": "0.00", "earnings": "18.50", "duration": "3563", "distance": "9.20", "rideStartTime": "February 05, 2024 at 05:01 PM", "rideEndTime": "February 05, 2024 at 06:01 PM"}}, {"type": "Feature", "geometry": {"coordinates": [[-87.736648, 41.948162], [-87.736807, 41.953551], [-87.731304, 41.953617], [-87.719717, 41.947499], [-87.715518, 41.942115], [-87.709442, 41.939977], [-87.671115, 41.918139], [-87.668499, 41.915851], [-87.666712, 41.913088], [-87.665662, 41.910672], [-87.66776, 41.910633], [-87.667457, 41.899711], [-87.674089, 41.899597], [-87.67412, 41.90052]], "type": "LineString"}, "properties": {"timestamp": "2024-02-06T18:11:52", "type": "transition"}}]}