{"type": "FeatureCollection", "features": [{"type": "Feature", "geometry": {"coordinates": [[-87.660107, 41.972674], [-87.659771, 41.972678], [-87.659673, 41.969021], [-87.669477, 41.968876], [-87.66911, 41.954302], [-87.698254, 41.953982], [-87.697932, 41.942795], [-87.701229, 41.942777]], "type": "LineString"}, "properties": {"timestamp": "2024-02-17T19:09:20", "type": "ride", "rideType": "UberX", "pickupAddress": "W Argyle St, Chicago, IL 60640-3305, US", "dropoffAddress": "W Roscoe St, Chicago, IL 60618, US", "basePay": "7.51", "surge": "0.00", "tip": "1.00", "earnings": "8.51", "duration": "739", "distance": "2.60", "rideStartTime": "February 17, 2024 at 07:09 PM", "rideEndTime": "February 17, 2024 at 07:21 PM"}}, {"type": "Feature", "geometry": {"coordinates": [[-87.701229, 41.942777], [-87.697932, 41.942795], [-87.698037, 41.946686], [-87.665227, 41.947064], [-87.66513, 41.943401], [-87.665475, 41.943396]], "type": "LineString"}, "properties": {"timestamp": "2024-02-17T19:22:27", "type": "transition"}}, {"type": "Feature", "geometry": {"coordinates": [[-87.665475, 41.943396], [-87.688089, 41.94311], [-87.688345, 41.949742]], "type": "LineString"}, "properties": {"timestamp": "2024-02-17T19:22:27", "type": "ride", "rideType": "UberX", "pickupAddress": "W Roscoe St, Chicago, IL 60657, US", "dropoffAddress": "N Western Ave, Chicago, IL 60622, US", "basePay": "8.13", "surge": "1.75", "tip": "0.00", "earnings": "9.88", "duration": "1020", "distance": "3.80", "rideStartTime": "February 17, 2024 at 07:22 PM", "rideEndTime": "February 17, 2024 at 07:39 PM"}}, {"type": "Feature", "geometry": {"coordinates": [[-87.688345, 41.949742], [-87.687645, 41.924902], [-87.690086, 41.924878], [-87.690094, 41.925214]], "type": "LineString"}, "properties": {"timestamp": "2024-02-17T19:52:21", "type": "transition"}}, {"type": "Feature", "geometry": {"coordinates": [[-87.690094, 41.925214], [-87.690204, 41.928523], [-87.689255, 41.928366], [-87.687706, 41.928661], [-87.688345, 41.949742]], "type": "LineString"}, "properties": {"timestamp": "2024-02-17T19:52:21", "type": "ride", "rideType": "UberX", "pickupAddress": "N Campbell Ave, Chicago, IL 60612, US", "dropoffAddress": "N Western Ave, Chicago, IL 60622, US", "basePay": "3.06", "surge": "1.50", "tip": "0.00", "earnings": "4.56", "duration": "182", "distance": "0.60", "rideStartTime": "February 17, 2024 at 07:52 PM", "rideEndTime": "February 17, 2024 at 07:55 PM"}}, {"type": "Feature", "geometry": {"coordinates": [[-87.688345, 41.949742], [-87.687207, 41.910324], [-87.701875, 41.910165], [-87.70125, 41.907241], [-87.702278, 41.902886], [-87.701605, 41.902888]], "type": "LineString"}, "properties": {"timestamp": "2024-02-17T19:56:03", "type": "transition"}}, {"type": "Feature", "geometry": {"coordinates": [[-87.701605, 41.902888], [-87.702278, 41.902886], [-87.70125, 41.907241], [-87.701875, 41.910165], [-87.687207, 41.910324], [-87.688003, 41.939468], [-87.658974, 41.939838], [-87.659098, 41.944409], [-87.656319, 41.944451]], "type": "LineString"}, "properties": {"timestamp": "2024-02-17T19:56:03", "type": "ride", "rideType": "UberX", "pickupAddress": "W Division St, Chicago, IL 60622, US", "dropoffAddress": "W Newport Ave, Chicago, IL 60657-1537, US", "basePay": "9.91", "surge": "3.00", "tip": "0.00", "earnings": "12.91", "duration": "1119", "distance": "4.00", "rideStartTime": "February 17, 2024 at 07:56 PM", "rideEndTime": "February 17, 2024 at 08:14 PM"}}, {"type": "Feature", "geometry": {"coordinates": [[-87.656319, 41.944451], [-87.654273, 41.944458], [-87.649228, 41.938193], [-87.648495, 41.91731]], "type": "LineString"}, "properties": {"timestamp": "2024-02-17T20:29:02", "type": "transition"}}, {"type": "Feature", "geometry": {"coordinates": [[-87.648495, 41.91731], [-87.648286, 41.910927], [-87.664445, 41.910674], [-87.668091, 41.915886], [-87.670574, 41.91815], [-87.709664, 41.940439], [-87.714861, 41.942208], [-87.719618, 41.947985], [-87.742619, 41.960998], [-87.752403, 41.966033], [-87.75503, 41.967937], [-87.757623, 41.967938], [-87.758399, 41.968431]], "type": "LineString"}, "properties": {"timestamp": "2024-02-17T20:29:02", "type": "ride", "rideType": "UberX", "pickupAddress": "N Halsted St, Chicago, IL 60657, US", "dropoffAddress": "W North Ave, Chicago, IL 60647-5413, US", "basePay": "9.52", "surge": "2.25", "tip": "0.00", "earnings": "11.77", "duration": "1387", "distance": "3.90", "rideStartTime": "February 17, 2024 at 08:29 PM", "rideEndTime": "February 17, 2024 at 08:52 PM"}}, {"type": "Feature", "geometry": {"coordinates": [[-87.758399, 41.968431], [-87.757622, 41.967875], [-87.747723, 41.968033], [-87.747918, 41.972896], [-87.747761, 41.972794], [-87.747223, 41.966563], [-87.745961, 41.963113], [-87.742125, 41.960129], [-87.719592, 41.947613], [-87.715306, 41.94215], [-87.710219, 41.940524], [-87.698173, 41.933659], [-87.673831, 41.919706], [-87.671882, 41.918264], [-87.671887, 41.917859], [-87.677621, 41.91776], [-87.677009, 41.894261]], "type": "LineString"}, "properties": {"timestamp": "2024-02-17T20:53:26", "type": "transition"}}, {"type": "Feature", "geometry": {"coordinates": [[-87.677009, 41.894261], [-87.677893, 41.925026], [-87.681912, 41.924981], [-87.685177, 41.926707], [-87.704001, 41.937344], [-87.706803, 41.939132], [-87.727187, 41.939096], [-87.727167, 41.938375]], "type": "LineString"}, "properties": {"timestamp": "2024-02-17T20:53:26", "type": "ride", "rideType": "UberX", "pickupAddress": "N Damen Ave, Chicago, IL 60622, US", "dropoffAddress": "N Pulaski Rd, Chicago, IL 60641-5422, US", "basePay": "7.48", "surge": "0.00", "tip": "5.00", "earnings": "12.48", "duration": "1072", "distance": "4.50", "rideStartTime": "February 17, 2024 at 08:53 PM", "rideEndTime": "February 17, 2024 at 09:11 PM"}}, {"type": "Feature", "geometry": {"coordinates": [[-87.727167, 41.938375], [-87.727137, 41.93727], [-87.72591, 41.937285], [-87.723937, 41.936078], [-87.724624, 41.935463], [-87.724532, 41.93209]], "type": "LineString"}, "properties": {"timestamp": "2024-02-17T21:11:40", "type": "transition"}}, {"type": "Feature", "geometry": {"coordinates": [[-87.724532, 41.93209], [-87.724523, 41.931828], [-87.761321, 41.931344], [-87.76134, 41.931863]], "type": "LineString"}, "properties": {"timestamp": "2024-02-17T21:11:40", "type": "ride", "rideType": "UberX", "pickupAddress": "N Springfield Ave, Chicago, IL 60618-5112, US", "dropoffAddress": "N Long Ave, Chicago, IL 60639-2913, US", "basePay": "7.63", "surge": "0.00", "tip": "0.00", "earnings": "7.63", "duration": "841", "distance": "3.40", "rideStartTime": "February 17, 2024 at 09:11 PM", "rideEndTime": "February 17, 2024 at 09:25 PM"}}, {"type": "Feature", "geometry": {"coordinates": [[-87.76134, 41.931863], [-87.761321, 41.931344], [-87.766244, 41.931279], [-87.765522, 41.898494], [-87.770378, 41.898428], [-87.770348, 41.89751], [-87.77057, 41.897508]], "type": "LineString"}, "properties": {"timestamp": "2024-02-17T21:37:57", "type": "transition"}}, {"type": "Feature", "geometry": {"coordinates": [[-87.77057, 41.897508], [-87.775216, 41.897444], [-87.774314, 41.871045], [-87.650308, 41.875329], [-87.648052, 41.875215], [-87.644983, 41.869485], [-87.644998, 41.850609], [-87.642186, 41.847255], [-87.634652, 41.845323], [-87.63091, 41.84209], [-87.631207, 41.779686], [-87.626113, 41.772231], [-87.624621, 41.72052], [-87.621065, 41.713653], [-87.600337, 41.713191], [-87.592948, 41.708673], [-87.592406, 41.703483], [-87.601798, 41.685512], [-87.601728, 41.676933], [-87.589096, 41.660202], [-87.59119, 41.659512], [-87.560717, 41.658851], [-87.555878, 41.656176], [-87.555649, 41.65737], [-87.553811, 41.65736], [-87.553812, 41.656889]], "type": "LineString"}, "properties": {"timestamp": "2024-02-17T21:37:57", "type": "ride", "rideType": "UberX", "pickupAddress": "W Walton St, Chicago, IL 60651-3464, US", "dropoffAddress": "S Michigan Ave, Chicago, IL 60605, US", "basePay": "12.06", "surge": "0.00", "tip": "0.00", "earnings": "12.06", "duration": "942", "distance": "7.40", "rideStartTime": "February 17, 2024 at 09:37 PM", "rideEndTime": "February 17, 2024 at 09:53 PM"}}, {"type": "Feature", "geometry": {"coordinates": [[-87.553812, 41.656889], [-87.553812, 41.656889]], "type": "LineString"}, "properties": {"timestamp": "2024-02-17T22:01:12", "type": "transition"}}, {"type": "Feature", "geometry": {"coordinates": [[-87.553812, 41.656889], [-87.553811, 41.65736], [-87.557102, 41.657281], [-87.585314, 41.660149], [-87.590822, 41.662478], [-87.601403, 41.675885], [-87.601563, 41.685726], [-87.594329, 41.69908], [-87.591535, 41.705863], [-87.595707, 41.711823], [-87.618809, 41.713575], [-87.62372, 41.717096], [-87.625651, 41.769497], [-87.630526, 41.779578], [-87.629968, 41.819951], [-87.629633, 41.823673], [-87.619991, 41.823804], [-87.619964, 41.822908]], "type": "LineString"}, "properties": {"timestamp": "2024-02-17T22:01:12", "type": "ride", "rideType": "UberX", "pickupAddress": "S Michigan Ave, Chicago, IL 60605, US", "dropoffAddress": "S Prairie Ave, Chicago, IL 60616, US", "basePay": "4.21", "surge": "0.00", "tip": "0.00", "earnings": "4.21", "duration": "387", "distance": "1.50", "rideStartTime": "February 17, 2024 at 10:01 PM", "rideEndTime": "February 17, 2024 at 10:07 PM"}}, {"type": "Feature", "geometry": {"coordinates": [[-87.619964, 41.822908], [-87.619964, 41.822908]], "type": "LineString"}, "properties": {"timestamp": "2024-02-17T22:07:56", "type": "transition"}}, {"type": "Feature", "geometry": {"coordinates": [[-87.619964, 41.822908], [-87.619991, 41.823804], [-87.604016, 41.824107], [-87.599849, 41.825435], [-87.604294, 41.829367], [-87.607125, 41.833032], [-87.608141, 41.838145], [-87.613467, 41.852437], [-87.618709, 41.863523], [-87.62045, 41.867696], [-87.620589, 41.873218], [-87.624138, 41.873158], [-87.624171, 41.874529], [-87.626634, 41.874402], [-87.626671, 41.874067]], "type": "LineString"}, "properties": {"timestamp": "2024-02-17T22:07:56", "type": "ride", "rideType": "UberX", "pickupAddress": "S Prairie Ave, Chicago, IL 60616, US", "dropoffAddress": "N Dearborn St, Chicago, IL 60602, US", "basePay": "5.50", "surge": "0.00", "tip": "0.00", "earnings": "5.50", "duration": "752", "distance": "2.50", "rideStartTime": "February 17, 2024 at 10:07 PM", "rideEndTime": "February 17, 2024 at 10:20 PM"}}, {"type": "Feature", "geometry": {"coordinates": [[-87.626671, 41.874067], [-87.626634, 41.874402], [-87.627593, 41.874392], [-87.6276, 41.874559], [-87.629195, 41.874543], [-87.629579, 41.889242], [-87.628704, 41.889251]], "type": "LineString"}, "properties": {"timestamp": "2024-02-17T22:31:02", "type": "transition"}}, {"type": "Feature", "geometry": {"coordinates": [[-87.628704, 41.889251], [-87.625331, 41.889586], [-87.62541, 41.892522], [-87.624121, 41.892541], [-87.624042, 41.900824], [-87.623664, 41.902709], [-87.62589, 41.912141], [-87.628743, 41.918036], [-87.631851, 41.928415], [-87.632152, 41.934381], [-87.633661, 41.936704], [-87.63676, 41.939073], [-87.638088, 41.940568], [-87.650679, 41.939965], [-87.655221, 41.945603], [-87.664502, 41.945239]], "type": "LineString"}, "properties": {"timestamp": "2024-02-17T22:31:02", "type": "ride", "rideType": "UberX", "pickupAddress": "W Kinzie St, Chicago, IL 60654, US", "dropoffAddress": "W Cornelia Ave, Chicago, IL 60657-1223, US", "basePay": "9.12", "surge": "0.00", "tip": "4.00", "earnings": "13.12", "duration": "829", "distance": "5.90", "rideStartTime": "February 17, 2024 at 10:31 PM", "rideEndTime": "February 17, 2024 at 10:44 PM"}}, {"type": "Feature", "geometry": {"coordinates": [[-87.664502, 41.945239], [-87.663953, 41.945247], [-87.663682, 41.936111], [-87.648766, 41.925453], [-87.648495, 41.91731]], "type": "LineString"}, "properties": {"timestamp": "2024-02-17T23:01:44", "type": "transition"}}, {"type": "Feature", "geometry": {"coordinates": [[-87.648495, 41.91731], [-87.648766, 41.925453], [-87.63067, 41.926223], [-87.631851, 41.928415], [-87.632612, 41.935386], [-87.638833, 41.941219], [-87.644437, 41.951086], [-87.644701, 41.955266], [-87.649207, 41.974381], [-87.649649, 41.976812], [-87.674927, 41.976095], [-87.67488, 41.974623]], "type": "LineString"}, "properties": {"timestamp": "2024-02-17T23:01:44", "type": "ride", "rideType": "UberX", "pickupAddress": "N Halsted St, Chicago, IL 60657, US", "dropoffAddress": "N Ravenswood Ave, Chicago, IL 60640, US", "basePay": "6.20", "surge": "0.00", "tip": "3.00", "earnings": "9.20", "duration": "733", "distance": "3.40", "rideStartTime": "February 17, 2024 at 11:01 PM", "rideEndTime": "February 17, 2024 at 11:13 PM"}}, {"type": "Feature", "geometry": {"coordinates": [[-87.67488, 41.974623], [-87.674845, 41.97335], [-87.669592, 41.973436], [-87.669477, 41.968876], [-87.648824, 41.969276], [-87.64734, 41.965793], [-87.644611, 41.950978], [-87.638957, 41.941067], [-87.632527, 41.93482], [-87.632048, 41.928427], [-87.627538, 41.915117], [-87.627206, 41.913042], [-87.628067, 41.912346], [-87.631075, 41.913404], [-87.632856, 41.913169], [-87.634358, 41.915623], [-87.634849, 41.915479], [-87.638503, 41.918106]], "type": "LineString"}, "properties": {"timestamp": "2024-02-17T23:11:15", "type": "transition"}}, {"type": "Feature", "geometry": {"coordinates": [[-87.638503, 41.918106], [-87.648766, 41.925453], [-87.648892, 41.929091], [-87.647955, 41.929095]], "type": "LineString"}, "properties": {"timestamp": "2024-02-17T23:11:15", "type": "ride", "rideType": "UberX", "pickupAddress": "N Lincoln Ave, Chicago, IL 60625, US", "dropoffAddress": "N Ashland Ave, Chicago, IL 60614-1102, US", "basePay": "6.22", "surge": "0.00", "tip": "5.00", "earnings": "11.22", "duration": "546", "distance": "2.40", "rideStartTime": "February 17, 2024 at 11:11 PM", "rideEndTime": "February 17, 2024 at 11:20 PM"}}, {"type": "Feature", "geometry": {"coordinates": [[-87.647955, 41.929095], [-87.648892, 41.929091], [-87.648766, 41.925453], [-87.663327, 41.925216], [-87.6632, 41.921626], [-87.664379, 41.921608], [-87.664499, 41.921692]], "type": "LineString"}, "properties": {"timestamp": "2024-02-17T23:22:36", "type": "transition"}}, {"type": "Feature", "geometry": {"coordinates": [[-87.664499, 41.921692], [-87.664379, 41.921608], [-87.677765, 41.92139], [-87.677621, 41.91776], [-87.687413, 41.917587], [-87.687207, 41.910324], [-87.701875, 41.910165], [-87.70125, 41.907241], [-87.70207, 41.904322], [-87.702278, 41.902886], [-87.701605, 41.902888]], "type": "LineString"}, "properties": {"timestamp": "2024-02-17T23:22:36", "type": "ride", "rideType": "UberX", "pickupAddress": "N Clybourn Ave, Chicago, IL 60614-1942, US", "dropoffAddress": "W Division St, Chicago, IL 60610-2780, US", "basePay": "6.11", "surge": "0.00", "tip": "0.00", "earnings": "6.11", "duration": "777", "distance": "3.00", "rideStartTime": "February 17, 2024 at 11:22 PM", "rideEndTime": "February 17, 2024 at 11:35 PM"}}, {"type": "Feature", "geometry": {"coordinates": [[-87.701605, 41.902888], [-87.696883, 41.902928], [-87.696699, 41.895661], [-87.63421, 41.896586], [-87.634293, 41.898867]], "type": "LineString"}, "properties": {"timestamp": "2024-02-17T23:37:34", "type": "transition"}}, {"type": "Feature", "geometry": {"coordinates": [[-87.634293, 41.898867], [-87.63421, 41.896586], [-87.65541, 41.896254], [-87.67369, 41.907965], [-87.6746, 41.907182], [-87.679817, 41.9071], [-87.679878, 41.909327], [-87.677955, 41.909364]], "type": "LineString"}, "properties": {"timestamp": "2024-02-17T23:37:34", "type": "ride", "rideType": "UberX", "pickupAddress": "N Wells, Chicago, IL 60614, US", "dropoffAddress": "W Pierce Ave, Chicago, IL 60622-2249, US", "basePay": "5.01", "surge": "1.00", "tip": "1.00", "earnings": "7.01", "duration": "469", "distance": "2.10", "rideStartTime": "February 17, 2024 at 11:37 PM", "rideEndTime": "February 17, 2024 at 11:45 PM"}}, {"type": "Feature", "geometry": {"coordinates": [[-87.677955, 41.909364], [-87.677447, 41.909373], [-87.677494, 41.910469], [-87.667084, 41.910646], [-87.667076, 41.910411]], "type": "LineString"}, "properties": {"timestamp": "2024-02-17T23:48:59", "type": "transition"}}, {"type": "Feature", "geometry": {"coordinates": [[-87.667076, 41.910411], [-87.667084, 41.910646], [-87.664445, 41.910674], [-87.668091, 41.915886], [-87.670574, 41.91815], [-87.704001, 41.937344], [-87.706803, 41.939132], [-87.709692, 41.939347], [-87.746879, 41.93884], [-87.746595, 41.931542], [-87.751741, 41.93147]], "type": "LineString"}, "properties": {"timestamp": "2024-02-17T23:48:59", "type": "ride", "rideType": "UberX Share", "pickupAddress": "1551 W North Ave, Chicago, IL 60642, US", "dropoffAddress": "W Diversey Ave, Chicago, IL 60647-1763, US", "basePay": "5.23", "surge": "2.25", "tip": "0.00", "earnings": "7.48", "duration": "440", "distance": "2.80", "rideStartTime": "February 17, 2024 at 11:48 PM", "rideEndTime": "February 17, 2024 at 11:56 PM"}}, {"type": "Feature", "geometry": {"coordinates": [[-87.751741, 41.93147], [-87.751741, 41.93147]], "type": "LineString"}, "properties": {"timestamp": "2024-02-18T00:06:21", "type": "transition"}}, {"type": "Feature", "geometry": {"coordinates": [[-87.751741, 41.93147], [-87.696547, 41.932116], [-87.669405, 41.916815], [-87.664752, 41.909975], [-87.661559, 41.906635], [-87.660921, 41.900902], [-87.659049, 41.896968], [-87.657114, 41.895018], [-87.653963, 41.891931], [-87.651034, 41.892554], [-87.63704, 41.892368], [-87.637178, 41.896556], [-87.63421, 41.896586], [-87.634293, 41.898867]], "type": "LineString"}, "properties": {"timestamp": "2024-02-18T00:06:21", "type": "ride", "rideType": "UberX", "pickupAddress": "W Diversey Ave, Chicago, IL 60647-1221, US", "dropoffAddress": "N Wells St, Chicago, IL 60610, US", "basePay": "8.95", "surge": "1.25", "tip": "3.13", "earnings": "13.33", "duration": "1087", "distance": "6.20", "rideStartTime": "February 18, 2024 at 12:06 AM", "rideEndTime": "February 18, 2024 at 12:24 AM"}}, {"type": "Feature", "geometry": {"coordinates": [[-87.634293, 41.898867], [-87.634293, 41.898867]], "type": "LineString"}, "properties": {"timestamp": "2024-02-18T00:22:12", "type": "transition"}}, {"type": "Feature", "geometry": {"coordinates": [[-87.634293, 41.898867], [-87.63421, 41.896586], [-87.65541, 41.896254], [-87.667446, 41.903976], [-87.667586, 41.90882], [-87.666429, 41.908834], [-87.666435, 41.909028]], "type": "LineString"}, "properties": {"timestamp": "2024-02-18T00:22:12", "type": "ride", "rideType": "UberX", "pickupAddress": "N Wells St, Chicago, IL 60610, US", "dropoffAddress": "N Bosworth Ave, Chicago, IL 60642-3315, US", "basePay": "4.37", "surge": "0.00", "tip": "0.00", "earnings": "4.37", "duration": "657", "distance": "3.40", "rideStartTime": "February 18, 2024 at 12:22 AM", "rideEndTime": "February 18, 2024 at 12:33 AM"}}, {"type": "Feature", "geometry": {"coordinates": [[-87.666435, 41.909028], [-87.666509, 41.910658], [-87.66776, 41.910633], [-87.667457, 41.899711], [-87.674089, 41.899597], [-87.67412, 41.90052]], "type": "LineString"}, "properties": {"timestamp": "2024-02-18T00:32:40", "type": "transition"}}, {"type": "Feature", "geometry": {"coordinates": [[-87.67412, 41.90052], [-87.674089, 41.899597], [-87.677161, 41.899544], [-87.677057, 41.895912], [-87.702191, 41.895594], [-87.701974, 41.891131], [-87.701519, 41.889772], [-87.701464, 41.888916], [-87.700036, 41.888934], [-87.699076, 41.889326], [-87.698543, 41.889373]], "type": "LineString"}, "properties": {"timestamp": "2024-02-18T00:32:40", "type": "ride", "rideType": "UberX", "pickupAddress": "N Milwaukee Ave, Chicago, IL 60622, US", "dropoffAddress": "W Grand Ave, Chicago, IL 60612, US", "basePay": "5.18", "surge": "1.25", "tip": "3.00", "earnings": "9.43", "duration": "403", "distance": "1.90", "rideStartTime": "February 18, 2024 at 12:32 AM", "rideEndTime": "February 18, 2024 at 12:39 AM"}}, {"type": "Feature", "geometry": {"coordinates": [[-87.698543, 41.889373], [-87.699076, 41.889326], [-87.700036, 41.888934], [-87.701464, 41.888916], [-87.701291, 41.884089], [-87.720256, 41.885169], [-87.720919, 41.885279], [-87.720964, 41.886818], [-87.721861, 41.886809]], "type": "LineString"}, "properties": {"timestamp": "2024-02-18T00:42:49", "type": "transition"}}, {"type": "Feature", "geometry": {"coordinates": [[-87.721861, 41.886809], [-87.720964, 41.886818], [-87.721433, 41.902715], [-87.745973, 41.902357], [-87.746476, 41.928818], [-87.753872, 41.92871], [-87.75388, 41.928954]], "type": "LineString"}, "properties": {"timestamp": "2024-02-18T00:42:49", "type": "ride", "rideType": "UberX", "pickupAddress": "W Fulton St, Chicago, IL 60624-1928, US", "dropoffAddress": "N Leclaire Ave, Chicago, IL 60651-3029, US", "basePay": "7.41", "surge": "2.00", "tip": "0.00", "earnings": "9.41", "duration": "586", "distance": "3.00", "rideStartTime": "February 18, 2024 at 12:42 AM", "rideEndTime": "February 18, 2024 at 12:52 AM"}}, {"type": "Feature", "geometry": {"coordinates": [[-87.75388, 41.928954], [-87.753902, 41.92962], [-87.746593, 41.929723], [-87.746005, 41.913935], [-87.711889, 41.900057], [-87.702222, 41.896575], [-87.701067, 41.875937], [-87.705721, 41.875893], [-87.705737, 41.876665]], "type": "LineString"}, "properties": {"timestamp": "2024-02-18T01:06:56", "type": "transition"}}, {"type": "Feature", "geometry": {"coordinates": [[-87.705737, 41.876665], [-87.705721, 41.875893], [-87.70598, 41.875891], [-87.706651, 41.898325], [-87.711412, 41.900181], [-87.711856, 41.908233], [-87.714298, 41.90821], [-87.714347, 41.909624]], "type": "LineString"}, "properties": {"timestamp": "2024-02-18T01:06:56", "type": "ride", "rideType": "UberX", "pickupAddress": "N Kedzie Ave, Chicago, IL 60612-1035, US", "dropoffAddress": "N Saint Louis Ave, Chicago, IL 60624-1358, US", "basePay": "5.68", "surge": "1.50", "tip": "0.00", "earnings": "7.18", "duration": "316", "distance": "0.60", "rideStartTime": "February 18, 2024 at 01:06 AM", "rideEndTime": "February 18, 2024 at 01:12 AM"}}, {"type": "Feature", "geometry": {"coordinates": [[-87.714347, 41.909624], [-87.71436, 41.910015], [-87.706907, 41.910104], [-87.706651, 41.898325], [-87.702222, 41.896575], [-87.701291, 41.884089], [-87.686532, 41.884621], [-87.686177, 41.868999], [-87.670488, 41.8692]], "type": "LineString"}, "properties": {"timestamp": "2024-02-18T01:27:01", "type": "transition"}}, {"type": "Feature", "geometry": {"coordinates": [[-87.670488, 41.8692], [-87.666399, 41.869264], [-87.666563, 41.875179], [-87.666292, 41.875183], [-87.6605, 41.875604], [-87.650308, 41.875329], [-87.647601, 41.875302], [-87.645452, 41.874563], [-87.644482, 41.875077], [-87.64458, 41.876036], [-87.64558, 41.877925], [-87.645654, 41.884644], [-87.646015, 41.886212], [-87.647638, 41.88874], [-87.650048, 41.890597], [-87.651108, 41.891699], [-87.650896, 41.892164], [-87.65026, 41.89242], [-87.632511, 41.892423], [-87.632605, 41.895614], [-87.630373, 41.895653]], "type": "LineString"}, "properties": {"timestamp": "2024-02-18T01:27:01", "type": "ride", "rideType": "UberX", "pickupAddress": "W Taylor St, Chicago, IL 60612-4131, US", "dropoffAddress": "W Hubbard, Chicago, IL 60654, US", "basePay": "8.20", "surge": "2.75", "tip": "0.00", "earnings": "10.95", "duration": "463", "distance": "4.40", "rideStartTime": "February 18, 2024 at 01:27 AM", "rideEndTime": "February 18, 2024 at 01:34 AM"}}, {"type": "Feature", "geometry": {"coordinates": [[-87.630373, 41.895653], [-87.629762, 41.895665], [-87.62978, 41.896655], [-87.64782, 41.896403], [-87.647611, 41.890088], [-87.64876, 41.890082], [-87.648752, 41.889662]], "type": "LineString"}, "properties": {"timestamp": "2024-02-18T01:38:23", "type": "transition"}}, {"type": "Feature", "geometry": {"coordinates": [[-87.648752, 41.889662], [-87.648644, 41.885646], [-87.646258, 41.885682], [-87.645999, 41.881827], [-87.646134, 41.880956], [-87.646145, 41.879569], [-87.646166, 41.878121], [-87.649135, 41.875728], [-87.697949, 41.875633], [-87.767488, 41.871015], [-87.810299, 41.874235], [-87.887193, 41.869778], [-87.903102, 41.873868], [-87.918965, 41.868556], [-87.929548, 41.857187], [-87.946695, 41.845298], [-87.978457, 41.84403], [-88.015984, 41.832098], [-88.021676, 41.827558], [-88.028569, 41.813668], [-88.034292, 41.810006], [-88.073498, 41.810084], [-88.087614, 41.805662], [-88.159381, 41.806483], [-88.164816, 41.807737], [-88.166633, 41.808158], [-88.17093, 41.842049], [-88.160935, 41.856978], [-88.176889, 41.857012], [-88.192877, 41.861458], [-88.19473, 41.863763], [-88.194407, 41.885083], [-88.204904, 41.884636]], "type": "LineString"}, "properties": {"timestamp": "2024-02-18T01:38:23", "type": "ride", "rideType": "UberX", "pickupAddress": "N Green St Fl 3, Chicago, IL 60607, US", "dropoffAddress": "W Addison St, Chicago, IL 06061, US", "basePay": "10.26", "surge": "3.50", "tip": "0.00", "earnings": "13.76", "duration": "1027", "distance": "6.10", "rideStartTime": "February 18, 2024 at 01:38 AM", "rideEndTime": "February 18, 2024 at 01:55 AM"}}, {"type": "Feature", "geometry": {"coordinates": [[-88.204904, 41.884636], [-88.200892, 41.882], [-88.194625, 41.882082], [-88.194851, 41.85856], [-88.203689, 41.850282], [-88.201072, 41.830769], [-88.205031, 41.815559], [-88.203554, 41.802987], [-88.170986, 41.806297], [-88.087366, 41.805456], [-88.073551, 41.809888], [-88.035675, 41.809533], [-88.028541, 41.81336], [-88.01898, 41.830068], [-88.000391, 41.836259], [-87.978408, 41.843825], [-87.94557, 41.845432], [-87.932811, 41.853259], [-87.922937, 41.864502], [-87.911351, 41.872171], [-87.901684, 41.873316], [-87.888177, 41.869444], [-87.882376, 41.869576], [-87.810791, 41.874042], [-87.769061, 41.87064], [-87.69832, 41.875168], [-87.650308, 41.875329], [-87.64458, 41.876036], [-87.645275, 41.880374], [-87.645355, 41.881847], [-87.645393, 41.882198], [-87.647404, 41.888483], [-87.658783, 41.897251], [-87.662226, 41.907951], [-87.664445, 41.910674], [-87.653121, 41.910848], [-87.654016, 41.937175], [-87.653552, 41.937186], [-87.65355, 41.937074]], "type": "LineString"}, "properties": {"timestamp": "2024-02-18T01:58:11", "type": "transition"}}, {"type": "Feature", "geometry": {"coordinates": [[-87.65355, 41.937074], [-87.653552, 41.937186], [-87.654016, 41.937175], [-87.653741, 41.929016], [-87.643784, 41.921883], [-87.6435, 41.912815], [-87.641129, 41.912841], [-87.641023, 41.911281]], "type": "LineString"}, "properties": {"timestamp": "2024-02-18T01:58:11", "type": "ride", "rideType": "UberX", "pickupAddress": "N Clark St, Chicago, IL 60657-1611, US", "dropoffAddress": "N Cleveland Ave, Chicago, IL 60610-1718, US", "basePay": "7.50", "surge": "1.75", "tip": "0.00", "earnings": "9.25", "duration": "925", "distance": "3.30", "rideStartTime": "February 18, 2024 at 01:58 AM", "rideEndTime": "February 18, 2024 at 02:13 AM"}}, {"type": "Feature", "geometry": {"coordinates": [[-87.641023, 41.911281], [-87.641018, 41.911125], [-87.701875, 41.910165], [-87.70125, 41.907241], [-87.702278, 41.902886], [-87.701605, 41.902888]], "type": "LineString"}, "properties": {"timestamp": "2024-02-18T02:22:24", "type": "transition"}}, {"type": "Feature", "geometry": {"coordinates": [[-87.701605, 41.902888], [-87.702278, 41.902886], [-87.70125, 41.907241], [-87.701875, 41.910165], [-87.667641, 41.910635], [-87.66782, 41.916129], [-87.663815, 41.917067], [-87.658378, 41.917139], [-87.65834, 41.921676], [-87.657125, 41.921694], [-87.657077, 41.920202]], "type": "LineString"}, "properties": {"timestamp": "2024-02-18T02:22:24", "type": "ride", "rideType": "UberX", "pickupAddress": "W Division St, Chicago, IL 60610, US", "dropoffAddress": "N Clifton Ave, Chicago, IL 60614-4120, US", "basePay": "6.20", "surge": "3.00", "tip": "0.00", "earnings": "9.20", "duration": "531", "distance": "2.30", "rideStartTime": "February 18, 2024 at 02:22 AM", "rideEndTime": "February 18, 2024 at 02:31 AM"}}, {"type": "Feature", "geometry": {"coordinates": [[-87.657077, 41.920202], [-87.657007, 41.918057], [-87.647123, 41.918199]], "type": "LineString"}, "properties": {"timestamp": "2024-02-18T02:33:03", "type": "transition"}}, {"type": "Feature", "geometry": {"coordinates": [[-87.647123, 41.918199], [-87.648523, 41.918178], [-87.64782, 41.896403], [-87.654734, 41.896269], [-87.657416, 41.893069], [-87.657358, 41.889992], [-87.658624, 41.889981]], "type": "LineString"}, "properties": {"timestamp": "2024-02-18T02:33:03", "type": "ride", "rideType": "UberX", "pickupAddress": "W Armitage Ave, Chicago, IL 60614, US", "dropoffAddress": "W Hubbard St, Chicago, IL 60642-6522, US", "basePay": "6.45", "surge": "0.00", "tip": "5.00", "earnings": "11.45", "duration": "456", "distance": "2.30", "rideStartTime": "February 18, 2024 at 02:33 AM", "rideEndTime": "February 18, 2024 at 02:40 AM"}}, {"type": "Feature", "geometry": {"coordinates": [[-87.658624, 41.889981], [-87.655763, 41.890005], [-87.655799, 41.889907], [-87.655637, 41.885529], [-87.654782, 41.885544]], "type": "LineString"}, "properties": {"timestamp": "2024-02-18T02:39:44", "type": "transition"}}, {"type": "Feature", "geometry": {"coordinates": [[-87.654782, 41.885544], [-87.626286, 41.88576], [-87.626312, 41.886804], [-87.625797, 41.886814]], "type": "LineString"}, "properties": {"timestamp": "2024-02-18T02:39:44", "type": "ride", "rideType": "UberX", "pickupAddress": "W Lake St, Chicago, IL 60607, US", "dropoffAddress": "E Wacker Pl, Chicago, IL 60601-7202, US", "basePay": "8.00", "surge": "0.00", "tip": "0.00", "earnings": "8.00", "duration": "731", "distance": "2.70", "rideStartTime": "February 18, 2024 at 02:39 AM", "rideEndTime": "February 18, 2024 at 02:51 AM"}}, {"type": "Feature", "geometry": {"coordinates": [[-87.625797, 41.886814], [-87.626312, 41.886804], [-87.626463, 41.887226], [-87.626741, 41.887064], [-87.627165, 41.886951], [-87.631015, 41.886949], [-87.63088, 41.882086]], "type": "LineString"}, "properties": {"timestamp": "2024-02-18T02:59:03", "type": "transition"}}, {"type": "Feature", "geometry": {"coordinates": [[-87.63088, 41.882086], [-87.630715, 41.875701], [-87.641651, 41.875644], [-87.646562, 41.876207], [-87.645662, 41.872433], [-87.645091, 41.850828], [-87.642257, 41.847292], [-87.634652, 41.845323], [-87.63091, 41.84209], [-87.631289, 41.79178], [-87.631532, 41.783322], [-87.631838, 41.7799], [-87.625367, 41.78006], [-87.6254, 41.779128]], "type": "LineString"}, "properties": {"timestamp": "2024-02-18T02:59:03", "type": "ride", "rideType": "UberX", "pickupAddress": "N Clark, Chicago, IL 60610, US", "dropoffAddress": "S State St, Chicago, IL 60616-4391, US", "basePay": "8.87", "surge": "1.50", "tip": "1.00", "earnings": "11.37", "duration": "597", "distance": "6.60", "rideStartTime": "February 18, 2024 at 02:59 AM", "rideEndTime": "February 18, 2024 at 03:09 AM"}}, {"type": "Feature", "geometry": {"coordinates": [[-87.6254, 41.779128], [-87.625218, 41.772818], [-87.62998, 41.772715], [-87.630149, 41.780433], [-87.63142, 41.807989], [-87.629665, 41.812785], [-87.630393, 41.837743], [-87.631347, 41.844144], [-87.642036, 41.847354], [-87.644829, 41.85074], [-87.644517, 41.867845], [-87.644628, 41.873521], [-87.645646, 41.875725], [-87.649223, 41.875863], [-87.662425, 41.876121], [-87.666742, 41.876354], [-87.666531, 41.869262], [-87.670488, 41.8692]], "type": "LineString"}, "properties": {"timestamp": "2024-02-18T03:24:53", "type": "transition"}}, {"type": "Feature", "geometry": {"coordinates": [[-87.670488, 41.8692], [-87.666399, 41.869264], [-87.666563, 41.875179], [-87.666292, 41.875183], [-87.650308, 41.875329], [-87.645452, 41.874563], [-87.64458, 41.876036], [-87.646101, 41.886419], [-87.651689, 41.891702], [-87.65868, 41.896836], [-87.66137, 41.906646], [-87.670146, 41.917654], [-87.709927, 41.940372], [-87.715306, 41.94215], [-87.719592, 41.947613], [-87.741635, 41.95982], [-87.746287, 41.963594], [-87.747426, 41.975724], [-87.74607, 41.976396], [-87.745776, 41.975364], [-87.747984, 41.975339], [-87.747142, 41.947946], [-87.742642, 41.948]], "type": "LineString"}, "properties": {"timestamp": "2024-02-18T03:24:53", "type": "ride", "rideType": "UberX", "pickupAddress": "W Taylor St, Chicago, IL 60607, US", "dropoffAddress": "W Waveland Ave, Chicago, IL 60641-3449, US", "basePay": "15.67", "surge": "3.00", "tip": "0.00", "earnings": "18.67", "duration": "1467", "distance": "10.70", "rideStartTime": "February 18, 2024 at 03:24 AM", "rideEndTime": "February 18, 2024 at 03:49 AM"}}, {"type": "Feature", "geometry": {"coordinates": [[-87.742642, 41.948], [-87.742654, 41.950556], [-87.744615, 41.951751], [-87.744598, 41.953455], [-87.731304, 41.953617], [-87.719717, 41.947499], [-87.715518, 41.942115], [-87.709442, 41.939977], [-87.671115, 41.918139], [-87.668499, 41.915851], [-87.666712, 41.913088], [-87.665662, 41.910672], [-87.654084, 41.910826], [-87.649323, 41.905133]], "type": "LineString"}, "properties": {"timestamp": "2024-02-20T17:08:19", "type": "transition"}}]}