{"type": "FeatureCollection", "features": [{"type": "Feature", "geometry": {"coordinates": [[-87.82067, 41.934634], [-87.820654, 41.93424], [-87.806613, 41.934519], [-87.804598, 41.873618], [-87.769061, 41.87064], [-87.739969, 41.871594], [-87.733001, 41.87362], [-87.69832, 41.875168], [-87.650308, 41.875329], [-87.648052, 41.875215], [-87.646014, 41.874037], [-87.644983, 41.869485], [-87.644998, 41.850609], [-87.642186, 41.847255], [-87.634652, 41.845323], [-87.631597, 41.842703], [-87.631069, 41.830548], [-87.631351, 41.823664], [-87.637354, 41.823572], [-87.637371, 41.822128], [-87.636442, 41.820875], [-87.636384, 41.828196]], "type": "LineString"}, "properties": {"timestamp": "2024-05-25T12:07:53", "type": "ride"}}, {"type": "Feature", "geometry": {"coordinates": [[-87.636384, 41.828196], [-87.636271, 41.821693], [-87.636312, 41.821467], [-87.636505, 41.82142], [-87.636442, 41.820875], [-87.636628, 41.820881], [-87.637094, 41.821281], [-87.637886, 41.821664], [-87.637872, 41.821917], [-87.637371, 41.822128], [-87.637354, 41.823572], [-87.641053, 41.82352], [-87.641181, 41.828999], [-87.642413, 41.828981], [-87.642419, 41.829256]], "type": "LineString"}, "properties": {"timestamp": "2024-05-25T12:36:55", "type": "transition"}}, {"type": "Feature", "geometry": {"coordinates": [[-87.642419, 41.829256], [-87.64245, 41.8308], [-87.684464, 41.830295], [-87.685425, 41.83845], [-87.694132, 41.838129], [-87.694753, 41.847634], [-87.698857, 41.847944], [-87.699093, 41.85186], [-87.710877, 41.851661], [-87.711165, 41.851938], [-87.723333, 41.851643], [-87.73165, 41.848648]], "type": "LineString"}, "properties": {"timestamp": "2024-05-25T12:36:55", "type": "ride"}}, {"type": "Feature", "geometry": {"coordinates": [[-87.73165, 41.848648], [-87.686158, 41.864713], [-87.680846, 41.869064], [-87.670488, 41.8692]], "type": "LineString"}, "properties": {"timestamp": "2024-05-25T13:52:56", "type": "transition"}}, {"type": "Feature", "geometry": {"coordinates": [[-87.670488, 41.8692], [-87.666399, 41.869264], [-87.666563, 41.875179], [-87.666292, 41.875183], [-87.6605, 41.875604], [-87.650924, 41.875321], [-87.620619, 41.875815], [-87.620605, 41.884357], [-87.618892, 41.884368]], "type": "LineString"}, "properties": {"timestamp": "2024-05-25T13:52:56", "type": "ride"}}, {"type": "Feature", "geometry": {"coordinates": [[-87.618892, 41.884368], [-87.613523, 41.884405], [-87.613459, 41.884519], [-87.624371, 41.884484], [-87.624431, 41.88577], [-87.624623, 41.885769], [-87.624571, 41.884489], [-87.624344, 41.884366], [-87.623414, 41.884372], [-87.622907, 41.884293], [-87.621085, 41.884319]], "type": "LineString"}, "properties": {"timestamp": "2024-05-25T14:26:17", "type": "transition"}}, {"type": "Feature", "geometry": {"coordinates": [[-87.621085, 41.884319], [-87.620576, 41.884316], [-87.637617, 41.884463], [-87.663166, 41.884164], [-87.6653, 41.885361], [-87.66685, 41.88533], [-87.666934, 41.886119], [-87.666648, 41.886122]], "type": "LineString"}, "properties": {"timestamp": "2024-05-25T14:26:17", "type": "ride"}}, {"type": "Feature", "geometry": {"coordinates": [[-87.666648, 41.886122], [-87.666934, 41.886119], [-87.666953, 41.886514], [-87.667053, 41.886129], [-87.667085, 41.885323], [-87.686532, 41.884621], [-87.686258, 41.872439]], "type": "LineString"}, "properties": {"timestamp": "2024-05-25T14:53:43", "type": "transition"}}, {"type": "Feature", "geometry": {"coordinates": [[-87.686258, 41.872439], [-87.685988, 41.86479], [-87.740046, 41.84568], [-87.741957, 41.844155], [-87.74583, 41.84365], [-87.810482, 41.820928], [-87.822541, 41.819295], [-87.827713, 41.815879], [-87.837877, 41.816297], [-87.837934, 41.818187], [-87.83772, 41.81819]], "type": "LineString"}, "properties": {"timestamp": "2024-05-25T14:53:43", "type": "ride"}}, {"type": "Feature", "geometry": {"coordinates": [[-87.83772, 41.81819], [-87.836612, 41.81821], [-87.836547, 41.816232], [-87.833858, 41.816105], [-87.82873, 41.824859], [-87.829256, 41.835367], [-87.833513, 41.839536], [-87.833629, 41.870006], [-87.830438, 41.871614], [-87.810791, 41.874042], [-87.769061, 41.87064], [-87.739969, 41.871594], [-87.733001, 41.87362], [-87.69832, 41.875168], [-87.650308, 41.875329], [-87.645452, 41.874563], [-87.64458, 41.876036], [-87.645275, 41.880374], [-87.645355, 41.881847], [-87.645393, 41.882198], [-87.647404, 41.888483], [-87.658783, 41.897251], [-87.661061, 41.906443], [-87.667879, 41.91562], [-87.675191, 41.920831], [-87.677815, 41.922669], [-87.678134, 41.932278], [-87.680713, 41.932257], [-87.680658, 41.932073]], "type": "LineString"}, "properties": {"timestamp": "2024-05-25T17:05:19", "type": "transition"}}, {"type": "Feature", "geometry": {"coordinates": [[-87.680658, 41.932073], [-87.680713, 41.932257], [-87.678134, 41.932278], [-87.677765, 41.92139], [-87.677255, 41.921395], [-87.671848, 41.918587], [-87.669405, 41.916815], [-87.667999, 41.915202], [-87.664752, 41.909975], [-87.662005, 41.90728], [-87.661229, 41.905802], [-87.661667, 41.903435], [-87.655448, 41.903534], [-87.656534, 41.904795], [-87.656617, 41.907144], [-87.655968, 41.907157]], "type": "LineString"}, "properties": {"timestamp": "2024-05-25T17:05:19", "type": "ride"}}, {"type": "Feature", "geometry": {"coordinates": [[-87.655968, 41.907157], [-87.655968, 41.907157]], "type": "LineString"}, "properties": {"timestamp": "2024-05-25T17:09:50", "type": "transition"}}, {"type": "Feature", "geometry": {"coordinates": [[-87.655968, 41.907157], [-87.655446, 41.907169], [-87.655255, 41.904942], [-87.652152, 41.901212], [-87.647885, 41.899052], [-87.64782, 41.896403], [-87.631243, 41.896633], [-87.631219, 41.895637], [-87.630373, 41.895653]], "type": "LineString"}, "properties": {"timestamp": "2024-05-25T17:09:50", "type": "ride"}}, {"type": "Feature", "geometry": {"coordinates": [[-87.630373, 41.895653], [-87.630373, 41.895653]], "type": "LineString"}, "properties": {"timestamp": "2024-05-25T17:26:48", "type": "transition"}}, {"type": "Feature", "geometry": {"coordinates": [[-87.630373, 41.895653], [-87.629762, 41.895665], [-87.62978, 41.896655], [-87.63421, 41.896586], [-87.634293, 41.898867]], "type": "LineString"}, "properties": {"timestamp": "2024-05-25T17:26:48", "type": "ride"}}, {"type": "Feature", "geometry": {"coordinates": [[-87.634293, 41.898867], [-87.63435, 41.90053], [-87.632751, 41.900548], [-87.632906, 41.905762], [-87.628062, 41.905825]], "type": "LineString"}, "properties": {"timestamp": "2024-05-25T17:33:58", "type": "transition"}}, {"type": "Feature", "geometry": {"coordinates": [[-87.628062, 41.905825], [-87.628019, 41.904866], [-87.628715, 41.904854], [-87.628691, 41.903945], [-87.633004, 41.903886], [-87.632793, 41.89661], [-87.64782, 41.896403], [-87.647611, 41.890088], [-87.64876, 41.890082], [-87.648752, 41.889662]], "type": "LineString"}, "properties": {"timestamp": "2024-05-25T17:33:58", "type": "ride"}}, {"type": "Feature", "geometry": {"coordinates": [[-87.648752, 41.889662], [-87.648752, 41.889662]], "type": "LineString"}, "properties": {"timestamp": "2024-05-25T18:02:29", "type": "transition"}}, {"type": "Feature", "geometry": {"coordinates": [[-87.648752, 41.889662], [-87.648644, 41.885646], [-87.646258, 41.885682], [-87.645922, 41.884746], [-87.645999, 41.881827], [-87.646134, 41.880956], [-87.646145, 41.879569], [-87.646166, 41.878121], [-87.646107, 41.877218], [-87.646063, 41.876551], [-87.646733, 41.875649], [-87.646076, 41.875057], [-87.644423, 41.875457], [-87.630714, 41.875521], [-87.630236, 41.857771], [-87.623921, 41.857891], [-87.623874, 41.855491], [-87.622723, 41.855505]], "type": "LineString"}, "properties": {"timestamp": "2024-05-25T18:02:29", "type": "ride"}}, {"type": "Feature", "geometry": {"coordinates": [[-87.622723, 41.855505], [-87.623874, 41.855491], [-87.623807, 41.852795], [-87.622709, 41.85281]], "type": "LineString"}, "properties": {"timestamp": "2024-05-25T18:21:28", "type": "transition"}}, {"type": "Feature", "geometry": {"coordinates": [[-87.622709, 41.85281], [-87.622234, 41.852813], [-87.622442, 41.867418], [-87.618739, 41.867474], [-87.617003, 41.869799], [-87.617167, 41.881825], [-87.613613, 41.884932], [-87.614003, 41.89273], [-87.619441, 41.900921], [-87.622727, 41.90171], [-87.623983, 41.902767], [-87.62589, 41.912141], [-87.628743, 41.918036], [-87.630534, 41.924159], [-87.63067, 41.926223], [-87.648766, 41.925453], [-87.653741, 41.929016], [-87.653827, 41.931569]], "type": "LineString"}, "properties": {"timestamp": "2024-05-25T18:21:28", "type": "ride"}}, {"type": "Feature", "geometry": {"coordinates": [[-87.653827, 41.931569], [-87.653863, 41.932636], [-87.649013, 41.932728], [-87.649275, 41.939973], [-87.638088, 41.940568], [-87.644496, 41.951253], [-87.648738, 41.973046], [-87.652803, 41.984951], [-87.662456, 41.985105], [-87.67531, 41.992132], [-87.684067, 42.015152], [-87.684812, 42.020734]], "type": "LineString"}, "properties": {"timestamp": "2024-05-25T21:40:10", "type": "transition"}}, {"type": "Feature", "geometry": {"coordinates": [[-87.684812, 42.020734], [-87.684067, 42.015152], [-87.67531, 41.992132], [-87.662456, 41.985105], [-87.653157, 41.984999], [-87.648822, 41.972134], [-87.64469, 41.951193], [-87.639566, 41.942042], [-87.638796, 41.940268], [-87.639537, 41.940119], [-87.63931, 41.932914], [-87.639319, 41.931369], [-87.64343, 41.93001], [-87.642943, 41.929694], [-87.647955, 41.929095]], "type": "LineString"}, "properties": {"timestamp": "2024-05-25T21:40:10", "type": "ride"}}, {"type": "Feature", "geometry": {"coordinates": [[-87.647955, 41.929095], [-87.648892, 41.929091], [-87.649275, 41.939973], [-87.638088, 41.940568], [-87.644496, 41.951253], [-87.644596, 41.954749], [-87.648738, 41.973046], [-87.652251, 41.981039], [-87.652803, 41.984951], [-87.654178, 41.985586], [-87.662456, 41.985105], [-87.665884, 41.987189], [-87.669585, 41.987146], [-87.669707, 41.988054], [-87.669796, 41.987608], [-87.669769, 41.987519]], "type": "LineString"}, "properties": {"timestamp": "2024-05-25T21:58:37", "type": "transition"}}, {"type": "Feature", "geometry": {"coordinates": [[-87.669769, 41.987519], [-87.669181, 41.985433], [-87.663294, 41.985603], [-87.662456, 41.985105], [-87.653157, 41.984999], [-87.648822, 41.972134], [-87.644611, 41.950978], [-87.638957, 41.941067], [-87.632527, 41.93482], [-87.632048, 41.928427], [-87.62421, 41.902733], [-87.619617, 41.900898], [-87.614907, 41.893955], [-87.614335, 41.8919], [-87.61419, 41.889771], [-87.615105, 41.887652], [-87.625084, 41.888319], [-87.62718, 41.886918], [-87.63479, 41.886919], [-87.634774, 41.885732], [-87.634134, 41.885735]], "type": "LineString"}, "properties": {"timestamp": "2024-05-25T21:58:37", "type": "ride"}}, {"type": "Feature", "geometry": {"coordinates": [[-87.634134, 41.885735], [-87.633948, 41.885735], [-87.633916, 41.884468], [-87.645482, 41.884408], [-87.645901, 41.884186], [-87.645999, 41.881827], [-87.646134, 41.880956], [-87.646145, 41.879569], [-87.646166, 41.878121], [-87.646815, 41.876334], [-87.647774, 41.87588], [-87.649135, 41.875728], [-87.657603, 41.876197], [-87.688313, 41.875763], [-87.692409, 41.875862], [-87.696151, 41.875983], [-87.696261, 41.880169], [-87.695733, 41.880173]], "type": "LineString"}, "properties": {"timestamp": "2024-05-25T22:17:48", "type": "transition"}}, {"type": "Feature", "geometry": {"coordinates": [[-87.695733, 41.880173], [-87.696261, 41.880169], [-87.69636, 41.884255], [-87.701291, 41.884089], [-87.701479, 41.889426], [-87.701974, 41.891131], [-87.702191, 41.895594], [-87.701213, 41.895606]], "type": "LineString"}, "properties": {"timestamp": "2024-05-25T22:17:48", "type": "ride"}}, {"type": "Feature", "geometry": {"coordinates": [[-87.701213, 41.895606], [-87.677057, 41.895912], [-87.677161, 41.899544], [-87.674089, 41.899597], [-87.67412, 41.90052]], "type": "LineString"}, "properties": {"timestamp": "2024-05-25T22:35:44", "type": "transition"}}, {"type": "Feature", "geometry": {"coordinates": [[-87.67412, 41.90052], [-87.674089, 41.899597], [-87.660982, 41.899842], [-87.660843, 41.899711], [-87.658005, 41.895752], [-87.646473, 41.886676], [-87.644363, 41.857367], [-87.645793, 41.852447], [-87.644333, 41.849097], [-87.644894, 41.846776], [-87.652708, 41.844955], [-87.66744, 41.837772], [-87.680443, 41.836967], [-87.718339, 41.82508], [-87.722555, 41.823909], [-87.724092, 41.822913], [-87.722658, 41.775021], [-87.723897, 41.775006], [-87.723917, 41.775762]], "type": "LineString"}, "properties": {"timestamp": "2024-05-25T22:35:44", "type": "ride"}}, {"type": "Feature", "geometry": {"coordinates": [[-87.723917, 41.775762], [-87.723946, 41.776827], [-87.722709, 41.77684], [-87.723989, 41.822673], [-87.680385, 41.836711], [-87.66766, 41.83747], [-87.658964, 41.841885], [-87.642563, 41.846659], [-87.644555, 41.850742], [-87.645685, 41.885013], [-87.650048, 41.890597], [-87.65026, 41.89242], [-87.63704, 41.892368], [-87.637466, 41.903798], [-87.639563, 41.903768], [-87.6404, 41.904375], [-87.64022, 41.904515], [-87.639718, 41.904149]], "type": "LineString"}, "properties": {"timestamp": "2024-05-25T23:18:56", "type": "transition"}}, {"type": "Feature", "geometry": {"coordinates": [[-87.639718, 41.904149], [-87.63907, 41.904191], [-87.63865, 41.904769], [-87.638379, 41.904774], [-87.63858, 41.911039], [-87.633071, 41.911172], [-87.633044, 41.912903], [-87.632269, 41.913237], [-87.628505, 41.912247], [-87.626923, 41.912475], [-87.626017, 41.913347], [-87.628743, 41.918036], [-87.631735, 41.927967], [-87.632402, 41.934989], [-87.638833, 41.941219], [-87.644437, 41.951086], [-87.644596, 41.954749], [-87.648738, 41.973046], [-87.652251, 41.981039], [-87.652765, 41.984866], [-87.653847, 41.985569], [-87.658072, 41.985487], [-87.658038, 41.984272]], "type": "LineString"}, "properties": {"timestamp": "2024-05-25T23:18:56", "type": "ride"}}, {"type": "Feature", "geometry": {"coordinates": [[-87.658038, 41.984272], [-87.658038, 41.984272]], "type": "LineString"}, "properties": {"timestamp": "2024-05-25T23:49:09", "type": "transition"}}, {"type": "Feature", "geometry": {"coordinates": [[-87.658038, 41.984272], [-87.658021, 41.983669], [-87.679477, 41.983198], [-87.679565, 41.982043], [-87.688432, 41.977735], [-87.68922, 41.977715], [-87.689151, 41.975899], [-87.708696, 41.975749], [-87.708478, 41.968457], [-87.714891, 41.968394]], "type": "LineString"}, "properties": {"timestamp": "2024-05-25T23:49:09", "type": "ride"}}, {"type": "Feature", "geometry": {"coordinates": [[-87.714891, 41.968394], [-87.659673, 41.969021], [-87.656894, 41.964503]], "type": "LineString"}, "properties": {"timestamp": "2024-05-25T23:57:27", "type": "transition"}}, {"type": "Feature", "geometry": {"coordinates": [[-87.649323, 41.905133], [-87.649202, 41.905042], [-87.648124, 41.905038], [-87.648286, 41.910927], [-87.633071, 41.911172], [-87.632269, 41.913237], [-87.628505, 41.912247], [-87.626017, 41.913347], [-87.631735, 41.927967], [-87.632402, 41.934989], [-87.638833, 41.941219], [-87.644437, 41.951086], [-87.648738, 41.973046], [-87.652803, 41.984951], [-87.662456, 41.985105], [-87.67531, 41.992132], [-87.675808, 41.995752]], "type": "LineString"}, "properties": {"timestamp": "2024-05-26T00:19:05", "type": "ride"}}, {"type": "Feature", "geometry": {"coordinates": [[-87.675808, 41.995752], [-87.67684, 41.99796], [-87.67067, 41.998083], [-87.670315, 41.996388], [-87.665471, 41.996456], [-87.665223, 41.996338], [-87.663308, 41.996357]], "type": "LineString"}, "properties": {"timestamp": "2024-05-27T16:40:34", "type": "transition"}}]}