{"type": "FeatureCollection", "features": [{"type": "Feature", "geometry": {"coordinates": [[-87.670148, 42.011246], [-87.670155, 42.011487], [-87.662865, 42.011614], [-87.66054, 41.998191], [-87.660132, 41.985467], [-87.653157, 41.984999], [-87.648822, 41.972134], [-87.64469, 41.951193], [-87.638957, 41.941067], [-87.632527, 41.93482], [-87.632048, 41.928427], [-87.624861, 41.904908], [-87.624179, 41.901978], [-87.624245, 41.900012], [-87.630601, 41.899807]], "type": "LineString"}, "properties": {"timestamp": "2024-04-21T11:22:07", "type": "ride", "rideType": "UberX", "pickupAddress": "N Ashland Blvd, Chicago, IL 60626-2504, US", "dropoffAddress": "W Washington Blvd, Chicago, IL 60607-2103, US", "basePay": "16.62", "surge": "0.00", "tip": "0.00", "earnings": "16.62", "duration": "1799", "distance": "12.40", "rideStartTime": "April 21, 2024 at 11:22 AM", "rideEndTime": "April 21, 2024 at 11:52 AM"}}, {"type": "Feature", "geometry": {"coordinates": [[-87.630601, 41.899807], [-87.631337, 41.899794], [-87.631243, 41.896633], [-87.616893, 41.896844], [-87.614264, 41.892868], [-87.614081, 41.885247], [-87.617453, 41.881821], [-87.617261, 41.869765], [-87.619589, 41.866068], [-87.614728, 41.853242], [-87.614444, 41.848506], [-87.626818, 41.84732], [-87.631727, 41.847855], [-87.631351, 41.843118], [-87.631289, 41.79178], [-87.631289, 41.778978], [-87.626564, 41.773198], [-87.626239, 41.768925], [-87.626556, 41.766175], [-87.626545, 41.7655], [-87.644417, 41.765212], [-87.644436, 41.766001]], "type": "LineString"}, "properties": {"timestamp": "2024-04-21T12:34:02", "type": "transition"}}, {"type": "Feature", "geometry": {"coordinates": [[-87.644436, 41.766001], [-87.644417, 41.765212], [-87.624899, 41.765368], [-87.624908, 41.765772], [-87.62543, 41.769557], [-87.626008, 41.77431], [-87.630526, 41.779578], [-87.630393, 41.837743], [-87.631001, 41.844069], [-87.630081, 41.846653], [-87.616851, 41.847976], [-87.613276, 41.848193], [-87.612177, 41.849732], [-87.619221, 41.866556], [-87.619018, 41.867469], [-87.624157, 41.867506], [-87.624075, 41.870601], [-87.626403, 41.870554]], "type": "LineString"}, "properties": {"timestamp": "2024-04-21T12:34:02", "type": "ride", "rideType": "UberX", "pickupAddress": "S Halsted St, Chicago, IL 60661, US", "dropoffAddress": "900 S Wabash Ave, Chicago, IL 60605, US", "basePay": "5.18", "surge": "1.00", "tip": "5.00", "earnings": "11.18", "duration": "653", "distance": "2.00", "rideStartTime": "April 21, 2024 at 12:34 PM", "rideEndTime": "April 21, 2024 at 12:44 PM"}}, {"type": "Feature", "geometry": {"coordinates": [[-87.626403, 41.870554], [-87.62424, 41.870598], [-87.623338, 41.834707], [-87.625058, 41.83469], [-87.625023, 41.832863]], "type": "LineString"}, "properties": {"timestamp": "2024-04-21T12:39:21", "type": "transition"}}, {"type": "Feature", "geometry": {"coordinates": [[-87.625023, 41.832863], [-87.626475, 41.83283], [-87.626821, 41.846791], [-87.626258, 41.84692], [-87.616851, 41.847976], [-87.613392, 41.848153], [-87.612168, 41.84938], [-87.619244, 41.8661], [-87.617003, 41.869799], [-87.617167, 41.881825], [-87.613645, 41.884762], [-87.614003, 41.89273], [-87.619441, 41.900921], [-87.624048, 41.902893], [-87.631851, 41.928415], [-87.632152, 41.934381], [-87.63676, 41.939073], [-87.638088, 41.940568], [-87.65654, 41.939878], [-87.656666, 41.944445], [-87.656319, 41.944451]], "type": "LineString"}, "properties": {"timestamp": "2024-04-21T12:39:21", "type": "ride", "rideType": "UberX", "pickupAddress": "S Wabash Ave, Chicago, IL 60605, US", "dropoffAddress": "W Newport Ave, Chicago, IL 60657, US", "basePay": "13.23", "surge": "1.00", "tip": "0.00", "earnings": "14.23", "duration": "2100", "distance": "8.80", "rideStartTime": "April 21, 2024 at 12:39 PM", "rideEndTime": "April 21, 2024 at 01:14 PM"}}, {"type": "Feature", "geometry": {"coordinates": [[-87.656319, 41.944451], [-87.654273, 41.944458], [-87.654016, 41.937175], [-87.653552, 41.937186], [-87.65355, 41.937074]], "type": "LineString"}, "properties": {"timestamp": "2024-04-21T13:26:28", "type": "transition"}}, {"type": "Feature", "geometry": {"coordinates": [[-87.65355, 41.937074], [-87.653552, 41.937186], [-87.654016, 41.937175], [-87.653987, 41.936284], [-87.639423, 41.936578], [-87.639435, 41.936919]], "type": "LineString"}, "properties": {"timestamp": "2024-04-21T13:26:28", "type": "ride", "rideType": "UberX", "pickupAddress": "N Clark St, Chicago, IL 60657-1602, US", "dropoffAddress": "N Sheridan Rd, Chicago, IL 60657-5999, US", "basePay": "3.38", "surge": "0.00", "tip": "3.00", "earnings": "6.38", "duration": "287", "distance": "0.90", "rideStartTime": "April 21, 2024 at 01:26 PM", "rideEndTime": "April 21, 2024 at 01:31 PM"}}, {"type": "Feature", "geometry": {"coordinates": [[-87.639435, 41.936919], [-87.63931, 41.932914], [-87.65822, 41.932567]], "type": "LineString"}, "properties": {"timestamp": "2024-04-21T13:30:34", "type": "transition"}}, {"type": "Feature", "geometry": {"coordinates": [[-87.65822, 41.932567], [-87.707434, 41.932039], [-87.707505, 41.930261], [-87.707814, 41.929332], [-87.707541, 41.929168], [-87.707825, 41.928361], [-87.707315, 41.927605], [-87.70705, 41.9174], [-87.710267, 41.917363], [-87.710199, 41.914054]], "type": "LineString"}, "properties": {"timestamp": "2024-04-21T13:30:34", "type": "ride", "rideType": "UberX", "pickupAddress": "W Diversey Pkwy, Chicago, IL 60657, US", "dropoffAddress": "N Spaulding Ave, Chicago, IL 60618-6809, US", "basePay": "9.78", "surge": "0.00", "tip": "0.00", "earnings": "9.78", "duration": "1235", "distance": "4.30", "rideStartTime": "April 21, 2024 at 01:30 PM", "rideEndTime": "April 21, 2024 at 01:51 PM"}}, {"type": "Feature", "geometry": {"coordinates": [[-87.710199, 41.914054], [-87.710192, 41.913804], [-87.71013, 41.911905], [-87.711747, 41.911885], [-87.712101, 41.92467], [-87.716986, 41.924616], [-87.717101, 41.92898]], "type": "LineString"}, "properties": {"timestamp": "2024-04-21T13:53:21", "type": "transition"}}, {"type": "Feature", "geometry": {"coordinates": [[-87.717101, 41.92898], [-87.717188, 41.931929], [-87.696547, 41.932116], [-87.669746, 41.917124], [-87.661559, 41.906635], [-87.658834, 41.896667], [-87.647099, 41.887778], [-87.644363, 41.857367], [-87.645793, 41.852447], [-87.644333, 41.849097], [-87.641933, 41.846546], [-87.616851, 41.847976], [-87.612314, 41.847086], [-87.607384, 41.832923], [-87.602929, 41.827907]], "type": "LineString"}, "properties": {"timestamp": "2024-04-21T13:53:21", "type": "ride", "rideType": "UberX", "pickupAddress": "N Central Park Ave, Chicago, IL 60647-1124, US", "dropoffAddress": "S Dusable Lake Shore Dr, Chicago, IL 60637, US", "basePay": "17.45", "surge": "3.25", "tip": "5.78", "earnings": "26.48", "duration": "1978", "distance": "14.50", "rideStartTime": "April 21, 2024 at 01:53 PM", "rideEndTime": "April 21, 2024 at 02:26 PM"}}, {"type": "Feature", "geometry": {"coordinates": [[-87.602929, 41.827907], [-87.600839, 41.825932], [-87.598516, 41.821238], [-87.593977, 41.815295], [-87.590831, 41.812644], [-87.585968, 41.806989], [-87.582734, 41.804634], [-87.581876, 41.803502], [-87.581577, 41.802023], [-87.581753, 41.799732], [-87.585511, 41.7996], [-87.58599, 41.800871]], "type": "LineString"}, "properties": {"timestamp": "2024-04-21T14:32:48", "type": "transition"}}, {"type": "Feature", "geometry": {"coordinates": [[-87.58599, 41.800871], [-87.586639, 41.8025], [-87.587802, 41.802516], [-87.592005, 41.809338], [-87.592028, 41.809694], [-87.588944, 41.810893], [-87.607125, 41.833032], [-87.618159, 41.861647], [-87.614041, 41.892878], [-87.619441, 41.900921], [-87.624048, 41.902893], [-87.632152, 41.934381], [-87.644376, 41.950931], [-87.648738, 41.973046], [-87.655253, 41.985556], [-87.655324, 41.987812]], "type": "LineString"}, "properties": {"timestamp": "2024-04-21T14:32:48", "type": "ride", "rideType": "UberX", "pickupAddress": "S Cornell Ave, Chicago, IL 60615-4212, US", "dropoffAddress": "N Sheridan Rd, Chicago, IL 60626-4516, US", "basePay": "17.50", "surge": "0.00", "tip": "0.00", "earnings": "17.50", "duration": "2020", "distance": "15.60", "rideStartTime": "April 21, 2024 at 02:32 PM", "rideEndTime": "April 21, 2024 at 03:06 PM"}}, {"type": "Feature", "geometry": {"coordinates": [[-87.655324, 41.987812], [-87.65567, 41.997897], [-87.659646, 41.998196], [-87.660644, 41.998874], [-87.661292, 42.006762], [-87.666816, 42.021956], [-87.665298, 42.023129], [-87.666866, 42.026154], [-87.668578, 42.027161], [-87.678958, 42.027274], [-87.678877, 42.026622], [-87.685466, 42.026675], [-87.688374, 42.041263], [-87.688792, 42.048527], [-87.687935, 42.051264], [-87.688577, 42.052175], [-87.706397, 42.05196], [-87.710268, 42.05293]], "type": "LineString"}, "properties": {"timestamp": "2024-04-21T18:32:35", "type": "transition"}}, {"type": "Feature", "geometry": {"coordinates": [[-87.710268, 42.05293], [-87.709225, 42.052495], [-87.706397, 42.05196], [-87.688763, 42.052194], [-87.688069, 42.051448], [-87.688792, 42.048527], [-87.688534, 42.044191], [-87.680521, 42.044073], [-87.680541, 42.043378]], "type": "LineString"}, "properties": {"timestamp": "2024-04-21T18:32:35", "type": "ride", "rideType": "UberX", "pickupAddress": "Golf Rd, Skokie, IL 60203, US", "dropoffAddress": "Chicago Ave, Evanston, IL 60201-4736, US", "basePay": "6.03", "surge": "0.00", "tip": "0.00", "earnings": "6.03", "duration": "555", "distance": "2.00", "rideStartTime": "April 21, 2024 at 06:32 PM", "rideEndTime": "April 21, 2024 at 06:41 PM"}}, {"type": "Feature", "geometry": {"coordinates": [[-87.680541, 42.043378], [-87.680521, 42.044073], [-87.680232, 42.045024], [-87.682227, 42.045548], [-87.682607, 42.045573], [-87.682614, 42.045392]], "type": "LineString"}, "properties": {"timestamp": "2024-04-21T18:47:47", "type": "transition"}}, {"type": "Feature", "geometry": {"coordinates": [[-87.682614, 42.045392], [-87.682607, 42.045573], [-87.688621, 42.045641], [-87.688374, 42.041263], [-87.763691, 42.040938], [-87.764624, 42.041577], [-87.763223, 42.042189], [-87.768504, 42.03371], [-87.768822, 42.026512], [-87.765749, 42.021309], [-87.752686, 42.013632], [-87.749252, 42.009007], [-87.748976, 42.001046], [-87.751521, 41.987219], [-87.746835, 41.980228], [-87.747223, 41.966563], [-87.745961, 41.963113], [-87.742125, 41.960129], [-87.719592, 41.947613], [-87.715306, 41.94215], [-87.698173, 41.933659], [-87.687291, 41.927358], [-87.684125, 41.925223], [-87.687645, 41.924902], [-87.687413, 41.917587], [-87.702101, 41.91745], [-87.702035, 41.915629], [-87.703717, 41.915612]], "type": "LineString"}, "properties": {"timestamp": "2024-04-21T18:47:47", "type": "ride", "rideType": "UberX", "pickupAddress": "812 Grove St, Evanston, IL 60201, US", "dropoffAddress": "W Cortland St, Chicago, IL 60622, US", "basePay": "15.64", "surge": "0.00", "tip": "3.66", "earnings": "19.30", "duration": "2499", "distance": "9.30", "rideStartTime": "April 21, 2024 at 06:47 PM", "rideEndTime": "April 21, 2024 at 07:29 PM"}}, {"type": "Feature", "geometry": {"coordinates": [[-87.703717, 41.915612], [-87.702035, 41.915629], [-87.702101, 41.91745], [-87.677621, 41.91776], [-87.677591, 41.916239]], "type": "LineString"}, "properties": {"timestamp": "2024-04-21T19:30:48", "type": "transition"}}, {"type": "Feature", "geometry": {"coordinates": [[-87.677591, 41.916239], [-87.677893, 41.925026], [-87.681912, 41.924981], [-87.685177, 41.926707], [-87.690595, 41.929581], [-87.694091, 41.931942], [-87.694418, 41.932132], [-87.717188, 41.931929], [-87.717134, 41.930091], [-87.718374, 41.930086], [-87.718419, 41.931664]], "type": "LineString"}, "properties": {"timestamp": "2024-04-21T19:30:48", "type": "ride", "rideType": "UberX", "pickupAddress": "N Damen Ave, Chicago, IL 60647-4565, US", "dropoffAddress": "N Monticello Ave, Chicago, IL 60647-3624, US", "basePay": "5.82", "surge": "0.00", "tip": "1.00", "earnings": "6.82", "duration": "572", "distance": "2.10", "rideStartTime": "April 21, 2024 at 07:30 PM", "rideEndTime": "April 21, 2024 at 07:40 PM"}}, {"type": "Feature", "geometry": {"coordinates": [[-87.718419, 41.931664], [-87.718427, 41.93191], [-87.696547, 41.932116], [-87.675234, 41.920564], [-87.669025, 41.916444], [-87.664752, 41.909975], [-87.661559, 41.906635], [-87.661131, 41.901587], [-87.659049, 41.896968], [-87.647531, 41.888343], [-87.646219, 41.885929], [-87.645999, 41.881827], [-87.646134, 41.880956], [-87.646145, 41.879569], [-87.646166, 41.878121], [-87.646107, 41.877218], [-87.646972, 41.875597], [-87.645662, 41.872433], [-87.645367, 41.869682], [-87.645128, 41.867138], [-87.642187, 41.867183], [-87.642168, 41.866585]], "type": "LineString"}, "properties": {"timestamp": "2024-04-23T18:36:00", "type": "transition"}}]}