{"type": "FeatureCollection", "features": [{"type": "Feature", "geometry": {"coordinates": [[-87.663308, 41.996357], [-87.664158, 41.996348], [-87.664109, 41.99452], [-87.69709, 41.994013], [-87.697047, 41.992791]], "type": "LineString"}, "properties": {"timestamp": "2024-05-27T16:40:34", "type": "ride", "rideType": "UberX", "pickupAddress": "W Rosemont Ave, Chicago, IL 60660-1320, US", "dropoffAddress": "N Washtenaw Ave, Chicago, IL 60659-2613, US", "basePay": "6.13", "surge": "0.00", "tip": "0.00", "earnings": "6.13", "duration": "689", "distance": "1.80", "rideStartTime": "May 27, 2024 at 04:40 PM", "rideEndTime": "May 27, 2024 at 04:52 PM"}}, {"type": "Feature", "geometry": {"coordinates": [[-87.697047, 41.992791], [-87.696964, 41.990463], [-87.689669, 41.99044], [-87.688512, 41.955627], [-87.688245, 41.946744], [-87.705359, 41.94665], [-87.705281, 41.943085]], "type": "LineString"}, "properties": {"timestamp": "2024-05-27T16:55:00", "type": "transition"}}, {"type": "Feature", "geometry": {"coordinates": [[-87.705281, 41.943085], [-87.70527, 41.942755], [-87.697932, 41.942795], [-87.698037, 41.946686], [-87.688245, 41.946744], [-87.690071, 42.005024], [-87.680175, 42.005209], [-87.681159, 42.007344], [-87.682735, 42.007313]], "type": "LineString"}, "properties": {"timestamp": "2024-05-27T16:55:00", "type": "ride", "rideType": "UberX", "pickupAddress": "N Albany Ave, Chicago, IL 60659-2403, US", "dropoffAddress": "W Morse Ave, Chicago, IL 60645-4516, US", "basePay": "3.50", "surge": "0.00", "tip": "5.00", "earnings": "8.50", "duration": "521", "distance": "1.80", "rideStartTime": "May 27, 2024 at 04:55 PM", "rideEndTime": "May 27, 2024 at 05:03 PM"}}, {"type": "Feature", "geometry": {"coordinates": [[-87.682735, 42.007313], [-87.683904, 42.00729], [-87.683963, 42.008875], [-87.682033, 42.008959], [-87.681855, 42.008899], [-87.683076, 42.012318], [-87.674345, 42.01647]], "type": "LineString"}, "properties": {"timestamp": "2024-05-27T17:14:31", "type": "transition"}}, {"type": "Feature", "geometry": {"coordinates": [[-87.674345, 42.01647], [-87.675204, 42.016061], [-87.675457, 42.017327], [-87.676332, 42.01941], [-87.690179, 42.019532], [-87.712298, 42.019106]], "type": "LineString"}, "properties": {"timestamp": "2024-05-27T17:14:31", "type": "ride", "rideType": "UberX", "pickupAddress": "N Rogers Ave, Chicago, IL 60626-1506, US", "dropoffAddress": "Howard St, Evanston, IL 60202, US", "basePay": "5.45", "surge": "1.50", "tip": "0.00", "earnings": "6.95", "duration": "574", "distance": "1.90", "rideStartTime": "May 27, 2024 at 05:14 PM", "rideEndTime": "May 27, 2024 at 05:24 PM"}}, {"type": "Feature", "geometry": {"coordinates": [[-87.712298, 42.019106], [-87.712298, 42.019106]], "type": "LineString"}, "properties": {"timestamp": "2024-05-27T17:25:13", "type": "transition"}}, {"type": "Feature", "geometry": {"coordinates": [[-87.712298, 42.019106], [-87.712298, 42.019106]], "type": "LineString"}, "properties": {"timestamp": "2024-05-27T17:25:13", "type": "ride", "rideType": "UberX", "pickupAddress": "Howard St, Chicago, IL 60645-1138, US", "dropoffAddress": "Howard St, Chicago, IL 60645-1522, US", "basePay": "3.01", "surge": "0.00", "tip": "3.00", "earnings": "6.01", "duration": "151", "distance": "0.60", "rideStartTime": "May 27, 2024 at 05:25 PM", "rideEndTime": "May 27, 2024 at 05:27 PM"}}, {"type": "Feature", "geometry": {"coordinates": [[-87.712298, 42.019106], [-87.690179, 42.019532], [-87.690195, 42.017434], [-87.68887, 42.017434], [-87.688882, 42.015997]], "type": "LineString"}, "properties": {"timestamp": "2024-05-27T17:36:41", "type": "transition"}}, {"type": "Feature", "geometry": {"coordinates": [[-87.688882, 42.015997], [-87.68891, 42.012272], [-87.683329, 42.012227], [-87.674345, 42.01647]], "type": "LineString"}, "properties": {"timestamp": "2024-05-27T17:36:41", "type": "ride", "rideType": "UberX", "pickupAddress": "N Claremont Ave, Chicago, IL 60645-1804, US", "dropoffAddress": "N Rogers Ave, Chicago, IL 60626-1710, US", "basePay": "3.86", "surge": "0.00", "tip": "0.00", "earnings": "3.86", "duration": "290", "distance": "1.10", "rideStartTime": "May 27, 2024 at 05:36 PM", "rideEndTime": "May 27, 2024 at 05:41 PM"}}, {"type": "Feature", "geometry": {"coordinates": [[-87.674345, 42.01647], [-87.672527, 42.017329], [-87.672443, 42.014891], [-87.668332, 42.014968], [-87.668268, 42.014935], [-87.66788, 42.014939], [-87.667802, 42.014972], [-87.667467, 42.014978]], "type": "LineString"}, "properties": {"timestamp": "2024-05-27T17:41:08", "type": "transition"}}, {"type": "Feature", "geometry": {"coordinates": [[-87.667467, 42.014978], [-87.670267, 42.014929], [-87.670195, 42.012718], [-87.682294, 42.012511], [-87.682444, 42.012621], [-87.711447, 42.011826], [-87.711658, 42.004623], [-87.761818, 42.004647], [-87.763778, 41.997387], [-87.787876, 41.997348], [-87.787492, 41.996914], [-87.788044, 41.964947], [-87.786909, 41.962988], [-87.786816, 41.960205], [-87.794287, 41.960061], [-87.822074, 41.946631], [-87.821404, 41.937842], [-87.820185, 41.937866], [-87.820102, 41.936076], [-87.820727, 41.936062], [-87.82067, 41.934634]], "type": "LineString"}, "properties": {"timestamp": "2024-05-27T17:41:08", "type": "ride", "rideType": "Comfort", "pickupAddress": "W Sherwin Ave, Chicago, IL 60626-2218, US", "dropoffAddress": "N Milwaukee Ave, Chicago, IL 60647, US", "basePay": "18.95", "surge": "0.00", "tip": "6.15", "earnings": "25.10", "duration": "1929", "distance": "8.40", "rideStartTime": "May 27, 2024 at 05:41 PM", "rideEndTime": "May 27, 2024 at 06:13 PM"}}, {"type": "Feature", "geometry": {"coordinates": [[-87.82067, 41.934634], [-87.82067, 41.934634]], "type": "LineString"}, "properties": {"timestamp": "2024-05-27T18:19:46", "type": "transition"}}, {"type": "Feature", "geometry": {"coordinates": [[-87.82067, 41.934634], [-87.820654, 41.93424], [-87.821275, 41.934229], [-87.821404, 41.937842], [-87.822616, 41.937819], [-87.82292, 41.945136], [-87.824627, 41.945095], [-87.797713, 41.958438], [-87.797737, 41.968342], [-87.778289, 41.96853], [-87.77728, 41.967665], [-87.747723, 41.968033], [-87.747918, 41.972896], [-87.747761, 41.972794], [-87.747223, 41.966563], [-87.745232, 41.962358], [-87.719592, 41.947613], [-87.715306, 41.94215], [-87.709927, 41.940372], [-87.670146, 41.917654], [-87.66137, 41.906646], [-87.659066, 41.897394], [-87.653065, 41.892534], [-87.63704, 41.892368], [-87.637419, 41.902837], [-87.636893, 41.902843]], "type": "LineString"}, "properties": {"timestamp": "2024-05-27T18:19:46", "type": "ride", "rideType": "UberX", "pickupAddress": "N Milwaukee Ave, Chicago, IL 60647, US", "dropoffAddress": "W Elm St, Chicago, IL 60610, US", "basePay": "8.12", "surge": "0.00", "tip": "0.00", "earnings": "8.12", "duration": "974", "distance": "5.50", "rideStartTime": "May 27, 2024 at 06:19 PM", "rideEndTime": "May 27, 2024 at 06:36 PM"}}, {"type": "Feature", "geometry": {"coordinates": [[-87.636893, 41.902843], [-87.637419, 41.902837], [-87.637329, 41.900496], [-87.628335, 41.9006], [-87.62834, 41.900747], [-87.626352, 41.900781]], "type": "LineString"}, "properties": {"timestamp": "2024-05-27T18:35:04", "type": "transition"}}, {"type": "Feature", "geometry": {"coordinates": [[-87.626352, 41.900781], [-87.624042, 41.900824], [-87.62589, 41.912141], [-87.631851, 41.928415], [-87.632152, 41.934381], [-87.638833, 41.941219], [-87.644376, 41.950931], [-87.648738, 41.973046], [-87.652803, 41.984951], [-87.655253, 41.985556], [-87.655634, 41.997803], [-87.659646, 41.998196], [-87.660721, 42.000436], [-87.663148, 42.000414], [-87.663104, 41.998978]], "type": "LineString"}, "properties": {"timestamp": "2024-05-27T18:35:04", "type": "ride", "rideType": "UberX", "pickupAddress": "E Oak St, Chicago, IL 60611, US", "dropoffAddress": "N Lakewood Ave, Chicago, IL 60626-4706, US", "basePay": "8.20", "surge": "0.00", "tip": "0.00", "earnings": "8.20", "duration": "932", "distance": "8.00", "rideStartTime": "May 27, 2024 at 06:35 PM", "rideEndTime": "May 27, 2024 at 06:50 PM"}}, {"type": "Feature", "geometry": {"coordinates": [[-87.663104, 41.998978], [-87.66306, 41.998164], [-87.656369, 41.998227], [-87.655748, 41.998011], [-87.655324, 41.987812]], "type": "LineString"}, "properties": {"timestamp": "2024-05-27T18:55:30", "type": "transition"}}, {"type": "Feature", "geometry": {"coordinates": [[-87.655324, 41.987812], [-87.655253, 41.985556], [-87.653157, 41.984999], [-87.652706, 41.981232], [-87.649079, 41.973006], [-87.644905, 41.955203], [-87.644611, 41.950978], [-87.638957, 41.941067], [-87.632637, 41.935041], [-87.631858, 41.927741], [-87.631853, 41.926001], [-87.636586, 41.925658], [-87.63646, 41.92199], [-87.638941, 41.921954], [-87.639042, 41.922866], [-87.64057, 41.922846]], "type": "LineString"}, "properties": {"timestamp": "2024-05-27T18:55:30", "type": "ride", "rideType": "UberX", "pickupAddress": "N Sheridan Rd, Chicago, IL 60626, US", "dropoffAddress": "W Grant Pl, Chicago, IL 60614-3706, US", "basePay": "7.78", "surge": "0.00", "tip": "0.00", "earnings": "7.78", "duration": "919", "distance": "6.60", "rideStartTime": "May 27, 2024 at 06:55 PM", "rideEndTime": "May 27, 2024 at 07:10 PM"}}, {"type": "Feature", "geometry": {"coordinates": [[-87.64057, 41.922846], [-87.641391, 41.922835], [-87.641361, 41.921918], [-87.648652, 41.921814], [-87.648584, 41.919998], [-87.65059, 41.919967]], "type": "LineString"}, "properties": {"timestamp": "2024-05-27T19:14:53", "type": "transition"}}, {"type": "Feature", "geometry": {"coordinates": [[-87.65059, 41.919967], [-87.651004, 41.919961], [-87.65094, 41.918142], [-87.648523, 41.918178], [-87.648257, 41.910013], [-87.639563, 41.903768], [-87.633004, 41.903886], [-87.632884, 41.899913]], "type": "LineString"}, "properties": {"timestamp": "2024-05-27T19:14:53", "type": "ride", "rideType": "UberX", "pickupAddress": "W Dickens Ave, Chicago, IL 60614, US", "dropoffAddress": "N Lasalle Dr, Chicago, IL 60610, US", "basePay": "3.89", "surge": "0.00", "tip": "0.00", "earnings": "3.89", "duration": "420", "distance": "1.30", "rideStartTime": "May 27, 2024 at 07:14 PM", "rideEndTime": "May 27, 2024 at 07:21 PM"}}, {"type": "Feature", "geometry": {"coordinates": [[-87.632884, 41.899913], [-87.632866, 41.899245], [-87.632712, 41.899247], [-87.632783, 41.901829], [-87.628373, 41.901883], [-87.628332, 41.902373], [-87.628647, 41.903187], [-87.6269, 41.903229]], "type": "LineString"}, "properties": {"timestamp": "2024-05-27T19:21:38", "type": "transition"}}, {"type": "Feature", "geometry": {"coordinates": [[-87.6269, 41.903229], [-87.632976, 41.903112], [-87.632696, 41.891597], [-87.644384, 41.891225], [-87.644242, 41.885699], [-87.645903, 41.885686], [-87.645999, 41.881827], [-87.646134, 41.880956], [-87.646145, 41.879569], [-87.646166, 41.878121], [-87.646107, 41.877218], [-87.646972, 41.875597], [-87.645662, 41.872433], [-87.645367, 41.869682], [-87.647045, 41.869671], [-87.646848, 41.864784], [-87.647927, 41.864765]], "type": "LineString"}, "properties": {"timestamp": "2024-05-27T19:21:38", "type": "ride", "rideType": "UberX", "pickupAddress": "E Elm St, Chicago, IL 60611-6280, US", "dropoffAddress": "S Morgan St, Chicago, IL 60607-4220, US", "basePay": "7.05", "surge": "0.00", "tip": "0.00", "earnings": "7.05", "duration": "836", "distance": "4.60", "rideStartTime": "May 27, 2024 at 07:21 PM", "rideEndTime": "May 27, 2024 at 07:35 PM"}}, {"type": "Feature", "geometry": {"coordinates": [[-87.647927, 41.864765], [-87.646848, 41.864784], [-87.646914, 41.86712], [-87.632549, 41.867295], [-87.632502, 41.867657], [-87.632343, 41.867868], [-87.632533, 41.868904]], "type": "LineString"}, "properties": {"timestamp": "2024-05-27T19:44:22", "type": "transition"}}, {"type": "Feature", "geometry": {"coordinates": [[-87.632533, 41.868904], [-87.632553, 41.867398], [-87.644095, 41.867254], [-87.644369, 41.869693], [-87.644443, 41.869691], [-87.646327, 41.886906], [-87.6586, 41.897003], [-87.661061, 41.906443], [-87.667879, 41.91562], [-87.690595, 41.929581], [-87.694122, 41.932133], [-87.687832, 41.932179], [-87.688345, 41.949742]], "type": "LineString"}, "properties": {"timestamp": "2024-05-27T19:44:22", "type": "ride", "rideType": "UberX", "pickupAddress": "S Delano Ct E, Chicago, IL 60605, US", "dropoffAddress": "N Western Ave, Chicago, IL 60622, US", "basePay": "8.80", "surge": "0.00", "tip": "0.00", "earnings": "8.80", "duration": "906", "distance": "4.70", "rideStartTime": "May 27, 2024 at 07:44 PM", "rideEndTime": "May 27, 2024 at 07:59 PM"}}, {"type": "Feature", "geometry": {"coordinates": [[-87.688345, 41.949742], [-87.686926, 41.899379], [-87.684486, 41.89942], [-87.684464, 41.89851], [-87.685574, 41.898492]], "type": "LineString"}, "properties": {"timestamp": "2024-05-27T20:00:31", "type": "transition"}}, {"type": "Feature", "geometry": {"coordinates": [[-87.685574, 41.898492], [-87.686903, 41.89847], [-87.687706, 41.928661], [-87.684147, 41.931491], [-87.683979, 41.932222], [-87.649013, 41.932728], [-87.649228, 41.938193], [-87.649915, 41.939012], [-87.651855, 41.938982]], "type": "LineString"}, "properties": {"timestamp": "2024-05-27T20:00:31", "type": "ride", "rideType": "UberX", "pickupAddress": "W Walton St, Chicago, IL 60622-4509, US", "dropoffAddress": "W Fletcher St, Chicago, IL 60657-2113, US", "basePay": "8.55", "surge": "0.00", "tip": "3.00", "earnings": "11.55", "duration": "1139", "distance": "5.40", "rideStartTime": "May 27, 2024 at 08:00 PM", "rideEndTime": "May 27, 2024 at 08:19 PM"}}, {"type": "Feature", "geometry": {"coordinates": [[-87.651855, 41.938982], [-87.654074, 41.938945], [-87.654106, 41.939918], [-87.666233, 41.939729], [-87.666378, 41.944708]], "type": "LineString"}, "properties": {"timestamp": "2024-05-27T20:23:24", "type": "transition"}}, {"type": "Feature", "geometry": {"coordinates": [[-87.666378, 41.944708], [-87.666391, 41.945214], [-87.667591, 41.945197], [-87.667539, 41.943365], [-87.668829, 41.943346], [-87.668727, 41.939696], [-87.688141, 41.939467], [-87.687413, 41.917587], [-87.692301, 41.917536], [-87.692287, 41.917031]], "type": "LineString"}, "properties": {"timestamp": "2024-05-27T20:23:24", "type": "ride", "rideType": "UberX", "pickupAddress": "N Greenview Ave, Chicago, IL 60614, US", "dropoffAddress": "N Rockwell St, Chicago, IL 60618, US", "basePay": "5.29", "surge": "0.00", "tip": "0.00", "earnings": "5.29", "duration": "549", "distance": "1.90", "rideStartTime": "May 27, 2024 at 08:23 PM", "rideEndTime": "May 27, 2024 at 08:32 PM"}}, {"type": "Feature", "geometry": {"coordinates": [[-87.692287, 41.917031], [-87.692301, 41.917536], [-87.687413, 41.917587], [-87.688598, 41.958583], [-87.693909, 41.958553], [-87.694067, 41.958567]], "type": "LineString"}, "properties": {"timestamp": "2024-05-27T20:30:34", "type": "transition"}}, {"type": "Feature", "geometry": {"coordinates": [[-87.694067, 41.958567], [-87.69172, 41.958571], [-87.691746, 41.959467], [-87.688628, 41.959498], [-87.69024, 42.012287], [-87.687558, 42.012258], [-87.687549, 42.012869], [-87.686195, 42.012855], [-87.686196, 42.012766]], "type": "LineString"}, "properties": {"timestamp": "2024-05-27T20:30:34", "type": "ride", "rideType": "UberX Share", "pickupAddress": "N California Ave, Chicago, IL 60618, US", "dropoffAddress": "N Bell Ave, Chicago, IL 60645-2672, US", "basePay": "15.40", "surge": "0.00", "tip": "4.00", "earnings": "19.40", "duration": "1998", "distance": "7.60", "rideStartTime": "May 27, 2024 at 08:30 PM", "rideEndTime": "May 27, 2024 at 09:03 PM"}}, {"type": "Feature", "geometry": {"coordinates": [[-87.686196, 42.012766], [-87.686154, 42.012243], [-87.6836, 42.012217], [-87.683023, 42.012168], [-87.681855, 42.008899], [-87.679672, 42.004103], [-87.680339, 42.004091], [-87.680219, 42.000154], [-87.681431, 42.000135], [-87.681434, 42.000225]], "type": "LineString"}, "properties": {"timestamp": "2024-05-27T21:13:24", "type": "transition"}}, {"type": "Feature", "geometry": {"coordinates": [[-87.681434, 42.000225], [-87.681418, 41.99968], [-87.6802, 41.999699], [-87.680225, 42.00032], [-87.677934, 42.00037], [-87.681855, 42.008899], [-87.683076, 42.012318], [-87.679075, 42.014222], [-87.679061, 42.016798]], "type": "LineString"}, "properties": {"timestamp": "2024-05-27T21:13:24", "type": "ride", "rideType": "UberX", "pickupAddress": "N Seeley Ave, Chicago, IL 60645-4918, US", "dropoffAddress": "N Winchester Ave, Chicago, IL 60626-1513, US", "basePay": "4.44", "surge": "0.00", "tip": "0.00", "earnings": "4.44", "duration": "327", "distance": "1.00", "rideStartTime": "May 27, 2024 at 09:13 PM", "rideEndTime": "May 27, 2024 at 09:18 PM"}}, {"type": "Feature", "geometry": {"coordinates": [[-87.679061, 42.016798], [-87.679035, 42.019436], [-87.690179, 42.019532], [-87.712298, 42.019106]], "type": "LineString"}, "properties": {"timestamp": "2024-05-27T21:21:11", "type": "transition"}}, {"type": "Feature", "geometry": {"coordinates": [[-87.712298, 42.019106], [-87.690179, 42.019532], [-87.684645, 42.019488], [-87.683956, 42.014829]], "type": "LineString"}, "properties": {"timestamp": "2024-05-27T21:21:11", "type": "ride", "rideType": "UberX", "pickupAddress": "Howard St, Evanston, IL 60202, US", "dropoffAddress": "N Ridge Blvd, Chicago, IL 60645-2064, US", "basePay": "5.60", "surge": "0.00", "tip": "1.00", "earnings": "6.60", "duration": "431", "distance": "1.70", "rideStartTime": "May 27, 2024 at 09:21 PM", "rideEndTime": "May 27, 2024 at 09:28 PM"}}, {"type": "Feature", "geometry": {"coordinates": [[-87.683956, 42.014829], [-87.675425, 41.994982], [-87.67531, 41.992132], [-87.669778, 41.989576], [-87.662456, 41.985105], [-87.654178, 41.985586], [-87.653214, 41.985103], [-87.652706, 41.981232], [-87.648822, 41.972134], [-87.645733, 41.957427], [-87.645546, 41.955777], [-87.645235, 41.954634], [-87.649713, 41.954561], [-87.649744, 41.955658], [-87.647826, 41.955693]], "type": "LineString"}, "properties": {"timestamp": "2024-05-29T16:11:51", "type": "transition"}}]}