{"type": "FeatureCollection", "features": [{"type": "Feature", "geometry": {"coordinates": [[-87.669671, 41.950633], [-87.669013, 41.950641], [-87.668727, 41.939696], [-87.688141, 41.939467], [-87.687207, 41.910324], [-87.701875, 41.910165], [-87.70125, 41.907241], [-87.702278, 41.902886], [-87.701605, 41.902888]], "type": "LineString"}, "properties": {"timestamp": "2024-06-11T18:15:40", "type": "ride", "rideType": "UberX", "pickupAddress": "W Grace St, Chicago, IL 60613-2813, US", "dropoffAddress": "W Division St, Chicago, IL 60610, US", "basePay": "4.62", "surge": "2.00", "tip": "0.00", "earnings": "6.62", "duration": "887", "distance": "5.20", "rideStartTime": "June 11, 2024 at 06:15 PM", "rideEndTime": "June 11, 2024 at 06:30 PM"}}, {"type": "Feature", "geometry": {"coordinates": [[-87.701605, 41.902888], [-87.666488, 41.903364], [-87.660843, 41.899711], [-87.658834, 41.896667], [-87.657114, 41.895018], [-87.655657, 41.89377], [-87.654831, 41.89226], [-87.653963, 41.891931], [-87.651034, 41.892554], [-87.62966, 41.892457], [-87.629727, 41.894584]], "type": "LineString"}, "properties": {"timestamp": "2024-06-11T18:29:13", "type": "transition"}}, {"type": "Feature", "geometry": {"coordinates": [[-87.629727, 41.894584], [-87.629736, 41.89485], [-87.631201, 41.894831], [-87.630743, 41.876886], [-87.633707, 41.876853], [-87.633487, 41.868948]], "type": "LineString"}, "properties": {"timestamp": "2024-06-11T18:29:13", "type": "ride", "rideType": "UberX", "pickupAddress": "N Dearborn Pkwy, Chicago, IL 60610, US", "dropoffAddress": "S Wells St, Chicago, IL 60607-4509, US", "basePay": "7.19", "surge": "1.25", "tip": "0.00", "earnings": "8.44", "duration": "1165", "distance": "3.00", "rideStartTime": "June 11, 2024 at 06:29 PM", "rideEndTime": "June 11, 2024 at 06:48 PM"}}, {"type": "Feature", "geometry": {"coordinates": [[-87.633487, 41.868948], [-87.633487, 41.868948]], "type": "LineString"}, "properties": {"timestamp": "2024-06-11T18:47:24", "type": "transition"}}, {"type": "Feature", "geometry": {"coordinates": [[-87.633487, 41.868948], [-87.633684, 41.87567], [-87.657603, 41.876197], [-87.697235, 41.875658], [-87.70915, 41.874284], [-87.732948, 41.873967], [-87.739541, 41.871955], [-87.749896, 41.871736], [-87.754752, 41.871957], [-87.755768, 41.902251], [-87.758251, 41.902229], [-87.758276, 41.90313], [-87.756482, 41.903148]], "type": "LineString"}, "properties": {"timestamp": "2024-06-11T18:47:24", "type": "ride", "rideType": "UberX", "pickupAddress": "S Wells St, Chicago, IL 60607, US", "dropoffAddress": "W Crystal St, Chicago, IL 60651-2402, US", "basePay": "10.20", "surge": "0.00", "tip": "0.00", "earnings": "10.20", "duration": "1461", "distance": "6.10", "rideStartTime": "June 11, 2024 at 06:47 PM", "rideEndTime": "June 11, 2024 at 07:11 PM"}}, {"type": "Feature", "geometry": {"coordinates": [[-87.756482, 41.903148], [-87.755793, 41.903155], [-87.755785, 41.909507], [-87.746127, 41.909582], [-87.747627, 41.96438], [-87.745977, 41.964394], [-87.746614, 41.980044], [-87.751348, 41.987222], [-87.748589, 42.006167], [-87.748003, 42.010101], [-87.747705, 42.019034], [-87.712298, 42.019106]], "type": "LineString"}, "properties": {"timestamp": "2024-06-13T15:46:23", "type": "transition"}}]}