{"type": "FeatureCollection", "features": [{"type": "Feature", "geometry": {"coordinates": [[-87.658824, 41.935883], [-87.658824, 41.935883]], "type": "LineString"}, "properties": {"timestamp": "2024-02-29T16:35:08", "type": "ride"}}, {"type": "Feature", "geometry": {"coordinates": [[-87.658824, 41.935883], [-87.658713, 41.932557], [-87.66355, 41.932479], [-87.663383, 41.927039], [-87.664639, 41.927018], [-87.664634, 41.926889]], "type": "LineString"}, "properties": {"timestamp": "2024-02-29T16:42:42", "type": "transition"}}, {"type": "Feature", "geometry": {"coordinates": [[-87.664634, 41.926889], [-87.664567, 41.925197], [-87.681912, 41.924981], [-87.685177, 41.926707], [-87.704001, 41.937344], [-87.707163, 41.939332], [-87.707595, 41.939599], [-87.708014, 41.953885], [-87.706798, 41.953889], [-87.706753, 41.952356]], "type": "LineString"}, "properties": {"timestamp": "2024-02-29T16:42:42", "type": "ride"}}, {"type": "Feature", "geometry": {"coordinates": [[-87.706753, 41.952356], [-87.706972, 41.945366], [-87.702467, 41.94223], [-87.702616, 41.935677], [-87.669746, 41.917124], [-87.661559, 41.906635], [-87.658834, 41.896667], [-87.647099, 41.887778], [-87.644363, 41.857367], [-87.645793, 41.852447], [-87.644333, 41.849097], [-87.644894, 41.846776], [-87.652708, 41.844955], [-87.667166, 41.837862], [-87.679805, 41.837095], [-87.690167, 41.833938]], "type": "LineString"}, "properties": {"timestamp": "2024-02-29T17:03:19", "type": "transition"}}, {"type": "Feature", "geometry": {"coordinates": [[-87.690167, 41.833938], [-87.695427, 41.832287], [-87.698851, 41.831418], [-87.700566, 41.830863], [-87.704666, 41.829715], [-87.704642, 41.829034], [-87.699332, 41.830574], [-87.680385, 41.836711], [-87.66766, 41.83747], [-87.658964, 41.841885], [-87.651204, 41.844952], [-87.642563, 41.846659], [-87.642133, 41.847625], [-87.644555, 41.850742], [-87.644417, 41.865805], [-87.64591, 41.885931], [-87.648317, 41.889375], [-87.6586, 41.897003], [-87.660805, 41.901753], [-87.660967, 41.906186], [-87.662226, 41.907951], [-87.664445, 41.910674], [-87.667084, 41.910646], [-87.667076, 41.910411]], "type": "LineString"}, "properties": {"timestamp": "2024-02-29T17:03:19", "type": "ride"}}, {"type": "Feature", "geometry": {"coordinates": [[-87.667076, 41.910411], [-87.667084, 41.910646], [-87.664445, 41.910674], [-87.668091, 41.915886], [-87.670574, 41.91815], [-87.690595, 41.929581], [-87.694122, 41.932133], [-87.687832, 41.932179], [-87.688345, 41.949742]], "type": "LineString"}, "properties": {"timestamp": "2024-02-29T17:45:00", "type": "transition"}}, {"type": "Feature", "geometry": {"coordinates": [[-87.688345, 41.949742], [-87.688146, 41.939587], [-87.678134, 41.932278], [-87.677765, 41.92139], [-87.677255, 41.921395], [-87.668918, 41.916326], [-87.661559, 41.906635], [-87.658834, 41.896667], [-87.646614, 41.886973], [-87.644363, 41.857367], [-87.645793, 41.852447], [-87.644333, 41.849097], [-87.644894, 41.846776], [-87.652708, 41.844955], [-87.667166, 41.837862], [-87.680151, 41.837032], [-87.695427, 41.832287], [-87.698851, 41.831418], [-87.700566, 41.830863], [-87.70462, 41.83001], [-87.704823, 41.837239], [-87.720693, 41.836956], [-87.720749, 41.839057]], "type": "LineString"}, "properties": {"timestamp": "2024-02-29T17:45:00", "type": "ride"}}, {"type": "Feature", "geometry": {"coordinates": [[-87.720749, 41.839057], [-87.720791, 41.840624], [-87.724458, 41.840566], [-87.72475, 41.851087], [-87.694461, 41.861781], [-87.694519, 41.862438]], "type": "LineString"}, "properties": {"timestamp": "2024-02-29T18:07:49", "type": "transition"}}, {"type": "Feature", "geometry": {"coordinates": [[-87.694519, 41.862438], [-87.694461, 41.861781], [-87.685988, 41.86479], [-87.676298, 41.872865], [-87.676418, 41.875016], [-87.676128, 41.875021], [-87.6605, 41.875604], [-87.650308, 41.875329], [-87.647601, 41.875302], [-87.645452, 41.874563], [-87.644482, 41.875077], [-87.64458, 41.876036], [-87.64558, 41.877925], [-87.646015, 41.886212], [-87.647638, 41.88874], [-87.650048, 41.890597], [-87.651108, 41.891699], [-87.65026, 41.89242], [-87.63704, 41.892368], [-87.637466, 41.903798], [-87.639563, 41.903768], [-87.6404, 41.904375], [-87.64022, 41.904515], [-87.639718, 41.904149]], "type": "LineString"}, "properties": {"timestamp": "2024-02-29T18:07:49", "type": "ride"}}, {"type": "Feature", "geometry": {"coordinates": [[-87.639718, 41.904149], [-87.64022, 41.904515], [-87.6404, 41.904375], [-87.639563, 41.903768], [-87.648086, 41.903643], [-87.64782, 41.896403], [-87.654734, 41.896269], [-87.659133, 41.891059], [-87.667205, 41.890972], [-87.667087, 41.886928], [-87.673532, 41.886827]], "type": "LineString"}, "properties": {"timestamp": "2024-02-29T18:47:17", "type": "transition"}}, {"type": "Feature", "geometry": {"coordinates": [[-87.673532, 41.886827], [-87.676791, 41.886776], [-87.677621, 41.91776], [-87.684968, 41.91763], [-87.684989, 41.918313]], "type": "LineString"}, "properties": {"timestamp": "2024-02-29T18:47:17", "type": "ride"}}, {"type": "Feature", "geometry": {"coordinates": [[-87.684989, 41.918313], [-87.684991, 41.918381], [-87.687437, 41.918337], [-87.688345, 41.949742]], "type": "LineString"}, "properties": {"timestamp": "2024-02-29T19:33:09", "type": "transition"}}, {"type": "Feature", "geometry": {"coordinates": [[-87.688345, 41.949742], [-87.688469, 41.954086], [-87.709352, 41.953974], [-87.727612, 41.95365], [-87.727575, 41.952511], [-87.727757, 41.952328], [-87.727738, 41.951616], [-87.727531, 41.951378], [-87.720007, 41.947686], [-87.719002, 41.94685], [-87.718393, 41.945898]], "type": "LineString"}, "properties": {"timestamp": "2024-02-29T19:33:09", "type": "ride"}}, {"type": "Feature", "geometry": {"coordinates": [[-87.718393, 41.945898], [-87.716727, 41.94319], [-87.715518, 41.942115], [-87.714674, 41.941459], [-87.713508, 41.941087], [-87.712526, 41.940478], [-87.712704, 41.946565], [-87.694882, 41.946711], [-87.694885, 41.947669]], "type": "LineString"}, "properties": {"timestamp": "2024-02-29T19:43:05", "type": "transition"}}, {"type": "Feature", "geometry": {"coordinates": [[-87.694885, 41.947669], [-87.694882, 41.946711], [-87.698037, 41.946686], [-87.697602, 41.932108], [-87.696547, 41.932116], [-87.670155, 41.917456], [-87.661229, 41.905802], [-87.661667, 41.903435], [-87.658338, 41.903492], [-87.6567, 41.901311], [-87.656554, 41.896984], [-87.650448, 41.893035]], "type": "LineString"}, "properties": {"timestamp": "2024-02-29T19:43:05", "type": "ride"}}, {"type": "Feature", "geometry": {"coordinates": [[-87.650448, 41.893035], [-87.650924, 41.893342], [-87.650987, 41.893426], [-87.651495, 41.8937], [-87.65541, 41.896254], [-87.657506, 41.896233], [-87.65753, 41.897142], [-87.658055, 41.897137]], "type": "LineString"}, "properties": {"timestamp": "2024-02-29T20:14:47", "type": "transition"}}, {"type": "Feature", "geometry": {"coordinates": [[-87.658055, 41.897137], [-87.65753, 41.897142], [-87.657506, 41.896233], [-87.65541, 41.896254], [-87.647627, 41.891194], [-87.647611, 41.890088], [-87.64876, 41.890082], [-87.648752, 41.889662]], "type": "LineString"}, "properties": {"timestamp": "2024-02-29T20:14:47", "type": "ride"}}, {"type": "Feature", "geometry": {"coordinates": [[-87.648752, 41.889662], [-87.648718, 41.889017], [-87.644337, 41.889054], [-87.644184, 41.884425], [-87.646033, 41.884406]], "type": "LineString"}, "properties": {"timestamp": "2024-02-29T20:22:28", "type": "transition"}}, {"type": "Feature", "geometry": {"coordinates": [[-87.646033, 41.884406], [-87.647438, 41.884415], [-87.64736, 41.881782], [-87.64573, 41.881801], [-87.645735, 41.885306], [-87.647404, 41.888483], [-87.658783, 41.897251], [-87.660805, 41.901753], [-87.661061, 41.906443], [-87.664439, 41.910145], [-87.668818, 41.916712], [-87.690595, 41.929581], [-87.694122, 41.932133], [-87.692784, 41.932142], [-87.692831, 41.935622], [-87.695239, 41.937288], [-87.695292, 41.941333], [-87.696049, 41.94133], [-87.696047, 41.94108]], "type": "LineString"}, "properties": {"timestamp": "2024-02-29T20:22:28", "type": "ride"}}, {"type": "Feature", "geometry": {"coordinates": [[-87.696047, 41.94108], [-87.696049, 41.94133], [-87.695292, 41.941333], [-87.695268, 41.939421], [-87.697818, 41.939404], [-87.697682, 41.933955], [-87.710036, 41.940632], [-87.713685, 41.941688], [-87.715161, 41.942387], [-87.716453, 41.943551], [-87.718308, 41.946743], [-87.71887, 41.947406], [-87.719888, 41.948144], [-87.721756, 41.948955], [-87.723791, 41.950079], [-87.727575, 41.952511], [-87.727757, 41.952328], [-87.727738, 41.951616], [-87.727531, 41.951378], [-87.720007, 41.947686], [-87.719002, 41.94685], [-87.718393, 41.945898]], "type": "LineString"}, "properties": {"timestamp": "2024-02-29T20:50:33", "type": "transition"}}, {"type": "Feature", "geometry": {"coordinates": [[-87.718393, 41.945898], [-87.716727, 41.94319], [-87.715518, 41.942115], [-87.712526, 41.940478], [-87.712487, 41.939288], [-87.727187, 41.939096], [-87.726763, 41.924493], [-87.79707, 41.923585], [-87.797058, 41.923215]], "type": "LineString"}, "properties": {"timestamp": "2024-02-29T20:50:33", "type": "ride"}}, {"type": "Feature", "geometry": {"coordinates": [[-87.797058, 41.923215], [-87.79707, 41.923585], [-87.789403, 41.92364], [-87.687645, 41.924902], [-87.687706, 41.928661], [-87.683979, 41.932222], [-87.680713, 41.932257], [-87.680658, 41.932073]], "type": "LineString"}, "properties": {"timestamp": "2024-02-29T20:59:06", "type": "transition"}}, {"type": "Feature", "geometry": {"coordinates": [[-87.680658, 41.932073], [-87.680713, 41.932257], [-87.678134, 41.932278], [-87.677923, 41.925839], [-87.675559, 41.925628], [-87.675053, 41.923391], [-87.667757, 41.918251], [-87.660908, 41.908679]], "type": "LineString"}, "properties": {"timestamp": "2024-02-29T20:59:06", "type": "ride"}}, {"type": "Feature", "geometry": {"coordinates": [[-87.660908, 41.908679], [-87.659943, 41.907139], [-87.659389, 41.904542], [-87.657866, 41.903014], [-87.6567, 41.901311], [-87.656554, 41.896984], [-87.650448, 41.893035]], "type": "LineString"}, "properties": {"timestamp": "2024-02-29T21:10:14", "type": "transition"}}, {"type": "Feature", "geometry": {"coordinates": [[-87.650448, 41.893035], [-87.654976, 41.895983], [-87.655808, 41.89501], [-87.669906, 41.91766], [-87.742619, 41.960998], [-87.751348, 41.987222], [-87.749189, 42.009518], [-87.768599, 42.026582], [-87.754799, 42.062763], [-87.75864, 42.086787], [-87.790096, 42.140407], [-87.845415, 42.218048], [-87.874841, 42.221904], [-87.873988, 42.22053], [-87.875556, 42.220188], [-87.875633, 42.2188], [-87.873909, 42.219001]], "type": "LineString"}, "properties": {"timestamp": "2024-02-29T21:10:14", "type": "ride"}}, {"type": "Feature", "geometry": {"coordinates": [[-87.873909, 42.219001], [-87.873985, 42.219064], [-87.875633, 42.2188], [-87.875556, 42.220188], [-87.873988, 42.22053], [-87.874841, 42.221904], [-87.866571, 42.22171], [-87.861321, 42.218278], [-87.845636, 42.21805], [-87.818144, 42.180055], [-87.811916, 42.166139], [-87.787387, 42.136654], [-87.784412, 42.126982], [-87.75931, 42.088171], [-87.75495, 42.063156], [-87.761767, 42.05296], [-87.768822, 42.026512], [-87.765062, 42.020736], [-87.750699, 42.01165], [-87.69024, 42.012287], [-87.6901, 42.006264], [-87.681335, 42.006428]], "type": "LineString"}, "properties": {"timestamp": "2024-03-01T16:10:16", "type": "transition"}}]}