{"type": "FeatureCollection", "features": [{"type": "Feature", "geometry": {"coordinates": [[-87.82067, 41.934634], [-87.820654, 41.93424], [-87.806613, 41.934519], [-87.804598, 41.873618], [-87.769061, 41.87064], [-87.739969, 41.871594], [-87.733001, 41.87362], [-87.69832, 41.875168], [-87.650308, 41.875329], [-87.645452, 41.874563], [-87.64458, 41.876036], [-87.645275, 41.880374], [-87.645355, 41.881847], [-87.645393, 41.882198], [-87.645396, 41.883308], [-87.645365, 41.885689], [-87.644242, 41.885699], [-87.644304, 41.887821]], "type": "LineString"}, "properties": {"timestamp": "2024-08-17T20:04:22", "type": "ride"}}, {"type": "Feature", "geometry": {"coordinates": [[-87.644304, 41.887821], [-87.644242, 41.885699], [-87.643867, 41.885702]], "type": "LineString"}, "properties": {"timestamp": "2024-08-17T20:20:52", "type": "transition"}}, {"type": "Feature", "geometry": {"coordinates": [[-87.643867, 41.885702], [-87.645903, 41.885686], [-87.645999, 41.881827], [-87.646134, 41.880956], [-87.646145, 41.879569], [-87.646166, 41.878121], [-87.646815, 41.876334], [-87.647774, 41.87588], [-87.649135, 41.875728], [-87.657603, 41.876197], [-87.680757, 41.875819], [-87.683358, 41.876139], [-87.686385, 41.876082], [-87.685988, 41.86479], [-87.693282, 41.862197], [-87.693225, 41.860049]], "type": "LineString"}, "properties": {"timestamp": "2024-08-17T20:20:52", "type": "ride"}}, {"type": "Feature", "geometry": {"coordinates": [[-87.693225, 41.860049], [-87.693282, 41.862197], [-87.689339, 41.863541], [-87.685988, 41.86479], [-87.672534, 41.865003]], "type": "LineString"}, "properties": {"timestamp": "2024-08-17T20:40:49", "type": "transition"}}, {"type": "Feature", "geometry": {"coordinates": [[-87.672534, 41.865003], [-87.666289, 41.865086], [-87.666563, 41.875179], [-87.666292, 41.875183], [-87.650308, 41.875329], [-87.647601, 41.875302], [-87.645452, 41.874563], [-87.644482, 41.875077], [-87.64458, 41.876036], [-87.645275, 41.880374], [-87.645355, 41.881847], [-87.645393, 41.882198], [-87.64591, 41.885931], [-87.647404, 41.888483], [-87.658783, 41.897251], [-87.660805, 41.901753], [-87.661061, 41.906443], [-87.664439, 41.910145], [-87.668091, 41.915886], [-87.670574, 41.91815], [-87.678438, 41.922676], [-87.681513, 41.924733], [-87.687645, 41.924902], [-87.687548, 41.921862], [-87.686959, 41.921868]], "type": "LineString"}, "properties": {"timestamp": "2024-08-17T20:40:49", "type": "ride"}}, {"type": "Feature", "geometry": {"coordinates": [[-87.686959, 41.921868], [-87.687548, 41.921862], [-87.687645, 41.924902], [-87.716986, 41.924616], [-87.717101, 41.92898]], "type": "LineString"}, "properties": {"timestamp": "2024-08-17T21:14:23", "type": "transition"}}, {"type": "Feature", "geometry": {"coordinates": [[-87.717101, 41.92898], [-87.717188, 41.931929], [-87.687832, 41.932179], [-87.688469, 41.953985], [-87.674211, 41.954179], [-87.67413, 41.951481], [-87.676436, 41.951447]], "type": "LineString"}, "properties": {"timestamp": "2024-08-17T21:14:23", "type": "ride"}}, {"type": "Feature", "geometry": {"coordinates": [[-87.676436, 41.951447], [-87.676876, 41.951442], [-87.6712, 41.943313], [-87.671095, 41.939671], [-87.663815, 41.939759], [-87.663758, 41.938211]], "type": "LineString"}, "properties": {"timestamp": "2024-08-17T21:53:41", "type": "transition"}}, {"type": "Feature", "geometry": {"coordinates": [[-87.663758, 41.938211], [-87.663815, 41.939759], [-87.638088, 41.940568], [-87.644437, 41.951086], [-87.648738, 41.973046], [-87.652803, 41.984951], [-87.655253, 41.985556], [-87.655634, 41.997803], [-87.659646, 41.998196], [-87.666595, 42.021131], [-87.67307, 42.02117], [-87.673052, 42.022528], [-87.672219, 42.022524]], "type": "LineString"}, "properties": {"timestamp": "2024-08-17T21:53:41", "type": "ride"}}, {"type": "Feature", "geometry": {"coordinates": [[-87.672219, 42.022524], [-87.670723, 42.022482], [-87.670705, 42.022268], [-87.66692, 42.022252], [-87.664892, 42.015441], [-87.662865, 42.011614], [-87.660929, 42.005557], [-87.666961, 42.005444], [-87.666905, 42.003606], [-87.668125, 42.003585], [-87.668176, 42.005122]], "type": "LineString"}, "properties": {"timestamp": "2024-08-17T22:21:58", "type": "transition"}}, {"type": "Feature", "geometry": {"coordinates": [[-87.668176, 42.005122], [-87.668185, 42.005422], [-87.670603, 42.00538], [-87.670965, 41.999116], [-87.669796, 41.987608], [-87.66892, 41.947004], [-87.665227, 41.947064], [-87.66513, 41.943401], [-87.665475, 41.943396]], "type": "LineString"}, "properties": {"timestamp": "2024-08-17T22:21:58", "type": "ride"}}, {"type": "Feature", "geometry": {"coordinates": [[-87.665475, 41.943396], [-87.6712, 41.943313], [-87.673726, 41.946928], [-87.698037, 41.946686], [-87.697932, 41.942795], [-87.701229, 41.942777]], "type": "LineString"}, "properties": {"timestamp": "2024-08-17T22:44:36", "type": "transition"}}, {"type": "Feature", "geometry": {"coordinates": [[-87.701229, 41.942777], [-87.697932, 41.942795], [-87.698254, 41.953982], [-87.668983, 41.954306], [-87.669648, 41.979827], [-87.66485, 41.979903], [-87.664903, 41.981729], [-87.665248, 41.981724]], "type": "LineString"}, "properties": {"timestamp": "2024-08-17T22:44:36", "type": "ride"}}, {"type": "Feature", "geometry": {"coordinates": [[-87.665248, 41.981724], [-87.66843, 41.981675], [-87.668287, 41.979849], [-87.668416, 41.976191], [-87.667495, 41.968905], [-87.659673, 41.969021], [-87.656894, 41.964503]], "type": "LineString"}, "properties": {"timestamp": "2024-08-17T22:56:13", "type": "transition"}}, {"type": "Feature", "geometry": {"coordinates": [[-87.656894, 41.964503], [-87.655148, 41.961772], [-87.646878, 41.961908], [-87.644905, 41.955203], [-87.644611, 41.950978], [-87.639566, 41.942042], [-87.638796, 41.940268], [-87.639537, 41.940119], [-87.639435, 41.936919]], "type": "LineString"}, "properties": {"timestamp": "2024-08-17T22:56:13", "type": "ride"}}, {"type": "Feature", "geometry": {"coordinates": [[-87.639435, 41.936919], [-87.639435, 41.936919]], "type": "LineString"}, "properties": {"timestamp": "2024-08-17T23:08:53", "type": "transition"}}, {"type": "Feature", "geometry": {"coordinates": [[-87.639435, 41.936919], [-87.639537, 41.940119], [-87.638088, 41.940568], [-87.644496, 41.951253], [-87.644596, 41.954749], [-87.648738, 41.973046], [-87.652251, 41.981039], [-87.652803, 41.984951], [-87.654178, 41.985586], [-87.662456, 41.985105], [-87.665884, 41.987189], [-87.669585, 41.987146], [-87.669707, 41.988054], [-87.669796, 41.987608], [-87.669769, 41.987519]], "type": "LineString"}, "properties": {"timestamp": "2024-08-17T23:08:53", "type": "ride"}}, {"type": "Feature", "geometry": {"coordinates": [[-87.669769, 41.987519], [-87.669181, 41.985433], [-87.663294, 41.985603], [-87.662456, 41.985105], [-87.654178, 41.985586], [-87.653157, 41.984999], [-87.652706, 41.981232], [-87.648822, 41.972134], [-87.644905, 41.955203], [-87.64469, 41.951193], [-87.639566, 41.942042], [-87.638796, 41.940268], [-87.639537, 41.940119], [-87.63931, 41.932914], [-87.639319, 41.931369], [-87.64343, 41.93001], [-87.642943, 41.929694], [-87.647955, 41.929095]], "type": "LineString"}, "properties": {"timestamp": "2024-08-17T23:13:48", "type": "transition"}}, {"type": "Feature", "geometry": {"coordinates": [[-87.647955, 41.929095], [-87.653741, 41.929016], [-87.666175, 41.937916], [-87.666233, 41.939729], [-87.673369, 41.939644]], "type": "LineString"}, "properties": {"timestamp": "2024-08-17T23:13:48", "type": "ride"}}, {"type": "Feature", "geometry": {"coordinates": [[-87.673369, 41.939644], [-87.654106, 41.939918], [-87.654016, 41.937175], [-87.653552, 41.937186], [-87.65355, 41.937074]], "type": "LineString"}, "properties": {"timestamp": "2024-08-17T23:30:28", "type": "transition"}}, {"type": "Feature", "geometry": {"coordinates": [[-87.65355, 41.937074], [-87.653552, 41.937186], [-87.654016, 41.937175], [-87.654106, 41.939918], [-87.638796, 41.940268], [-87.638606, 41.939931], [-87.634194, 41.936955], [-87.632453, 41.934639], [-87.632048, 41.928427], [-87.629189, 41.918735], [-87.62605, 41.911998], [-87.62421, 41.902733], [-87.62264, 41.901491], [-87.619743, 41.900996], [-87.61878, 41.899659], [-87.618028, 41.89823]], "type": "LineString"}, "properties": {"timestamp": "2024-08-17T23:30:28", "type": "ride"}}, {"type": "Feature", "geometry": {"coordinates": [[-87.618028, 41.89823], [-87.619828, 41.900878], [-87.624042, 41.900824], [-87.623664, 41.902709], [-87.624883, 41.906002], [-87.625717, 41.909833], [-87.625477, 41.912497], [-87.626017, 41.913347], [-87.626875, 41.912624], [-87.627835, 41.912344], [-87.630971, 41.913382], [-87.632438, 41.913334], [-87.633196, 41.912907], [-87.633223, 41.911171], [-87.701875, 41.910165], [-87.702035, 41.915629], [-87.703897, 41.91561], [-87.703892, 41.915416]], "type": "LineString"}, "properties": {"timestamp": "2024-08-18T00:12:27", "type": "transition"}}, {"type": "Feature", "geometry": {"coordinates": [[-87.703892, 41.915416], [-87.703857, 41.913751], [-87.70233, 41.913772], [-87.702283, 41.912], [-87.701932, 41.912147], [-87.702101, 41.91745], [-87.687413, 41.917587], [-87.688469, 41.953985], [-87.668983, 41.954306], [-87.669707, 41.988054], [-87.669796, 41.987608], [-87.669769, 41.987519]], "type": "LineString"}, "properties": {"timestamp": "2024-08-18T00:12:27", "type": "ride"}}, {"type": "Feature", "geometry": {"coordinates": [[-87.669769, 41.987519], [-87.669769, 41.987519]], "type": "LineString"}, "properties": {"timestamp": "2024-08-18T00:27:52", "type": "transition"}}, {"type": "Feature", "geometry": {"coordinates": [[-87.669769, 41.987519], [-87.669181, 41.985433], [-87.663294, 41.985603], [-87.662456, 41.985105], [-87.654178, 41.985586], [-87.653157, 41.984999], [-87.652706, 41.981232], [-87.648822, 41.972134], [-87.644905, 41.955203], [-87.644611, 41.950978], [-87.638957, 41.941067], [-87.632637, 41.935041], [-87.631858, 41.927741], [-87.631853, 41.926001], [-87.648766, 41.925453], [-87.648495, 41.91731]], "type": "LineString"}, "properties": {"timestamp": "2024-08-18T00:27:52", "type": "ride"}}, {"type": "Feature", "geometry": {"coordinates": [[-87.648495, 41.91731], [-87.648766, 41.925453], [-87.63067, 41.926223], [-87.631851, 41.928415], [-87.632612, 41.935386], [-87.638833, 41.941219], [-87.644376, 41.950931], [-87.646094, 41.960253], [-87.645534, 41.962086], [-87.655148, 41.961772], [-87.656894, 41.964503]], "type": "LineString"}, "properties": {"timestamp": "2024-08-18T00:43:22", "type": "transition"}}, {"type": "Feature", "geometry": {"coordinates": [[-87.656894, 41.964503], [-87.657469, 41.965401], [-87.663838, 41.965314], [-87.663815, 41.965153]], "type": "LineString"}, "properties": {"timestamp": "2024-08-18T00:43:22", "type": "ride"}}, {"type": "Feature", "geometry": {"coordinates": [[-87.663815, 41.965153], [-87.663838, 41.965314], [-87.669262, 41.96524], [-87.669707, 41.988054], [-87.669796, 41.987608], [-87.669769, 41.987519]], "type": "LineString"}, "properties": {"timestamp": "2024-08-18T00:53:06", "type": "transition"}}, {"type": "Feature", "geometry": {"coordinates": [[-87.669769, 41.987519], [-87.669181, 41.985433], [-87.663294, 41.985603], [-87.662456, 41.985105], [-87.654178, 41.985586], [-87.653157, 41.984999], [-87.652706, 41.981232], [-87.648822, 41.972134], [-87.644905, 41.955203], [-87.64469, 41.951193], [-87.638957, 41.941067], [-87.632527, 41.93482], [-87.632048, 41.928427], [-87.627538, 41.915117], [-87.627206, 41.913042], [-87.628067, 41.912346], [-87.631075, 41.913404], [-87.632856, 41.913169], [-87.634358, 41.915623], [-87.634849, 41.915479], [-87.638503, 41.918106]], "type": "LineString"}, "properties": {"timestamp": "2024-08-18T00:53:06", "type": "ride"}}, {"type": "Feature", "geometry": {"coordinates": [[-87.638503, 41.918106], [-87.638503, 41.918106]], "type": "LineString"}, "properties": {"timestamp": "2024-08-18T01:09:22", "type": "transition"}}, {"type": "Feature", "geometry": {"coordinates": [[-87.638503, 41.918106], [-87.638808, 41.918322], [-87.643665, 41.91825], [-87.643295, 41.906457], [-87.644203, 41.907095], [-87.644203, 41.906409], [-87.644323, 41.906407]], "type": "LineString"}, "properties": {"timestamp": "2024-08-18T01:09:22", "type": "ride"}}, {"type": "Feature", "geometry": {"coordinates": [[-87.644323, 41.906407], [-87.644203, 41.906409], [-87.644203, 41.907095], [-87.639563, 41.903768], [-87.634474, 41.903857], [-87.634293, 41.898867]], "type": "LineString"}, "properties": {"timestamp": "2024-08-18T01:19:39", "type": "transition"}}, {"type": "Feature", "geometry": {"coordinates": [[-87.634293, 41.898867], [-87.634054, 41.891576], [-87.644384, 41.891225], [-87.644242, 41.885699], [-87.645903, 41.885686], [-87.645288, 41.851399], [-87.642429, 41.847384], [-87.634652, 41.845323], [-87.63091, 41.84209], [-87.631207, 41.779686], [-87.626113, 41.772231], [-87.624621, 41.72052], [-87.621065, 41.713653], [-87.600337, 41.713191], [-87.592948, 41.708673], [-87.592406, 41.703483], [-87.601798, 41.685512], [-87.601728, 41.676933], [-87.589096, 41.660202], [-87.59119, 41.659512], [-87.560717, 41.658851], [-87.555878, 41.656176], [-87.555649, 41.65737], [-87.553811, 41.65736], [-87.553812, 41.656889]], "type": "LineString"}, "properties": {"timestamp": "2024-08-18T01:19:39", "type": "ride"}}, {"type": "Feature", "geometry": {"coordinates": [[-87.553812, 41.656889], [-87.553811, 41.65736], [-87.557102, 41.657281], [-87.560754, 41.659], [-87.585314, 41.660149], [-87.590822, 41.662478], [-87.601403, 41.675885], [-87.601563, 41.685726], [-87.594329, 41.69908], [-87.591535, 41.705863], [-87.595707, 41.711823], [-87.602049, 41.713615], [-87.618809, 41.713575], [-87.62356, 41.716744], [-87.625511, 41.765819], [-87.62543, 41.769557], [-87.62539, 41.772685], [-87.616507, 41.772933]], "type": "LineString"}, "properties": {"timestamp": "2024-08-18T01:28:52", "type": "transition"}}, {"type": "Feature", "geometry": {"coordinates": [[-87.616507, 41.772933], [-87.615455, 41.772974], [-87.615283, 41.765714], [-87.624903, 41.765537], [-87.624908, 41.765772], [-87.62543, 41.769557], [-87.626008, 41.77431], [-87.630526, 41.779578], [-87.630393, 41.837743], [-87.631347, 41.844144], [-87.642036, 41.847354], [-87.644903, 41.850908], [-87.644854, 41.873493], [-87.645275, 41.880374], [-87.645355, 41.881847], [-87.645213, 41.883151], [-87.641266, 41.883178], [-87.639745, 41.883185], [-87.635376, 41.883239], [-87.63637, 41.887983], [-87.638308, 41.888006], [-87.637518, 41.887943]], "type": "LineString"}, "properties": {"timestamp": "2024-08-18T01:28:52", "type": "ride"}}, {"type": "Feature", "geometry": {"coordinates": [[-87.637518, 41.887943], [-87.63637, 41.887983], [-87.63704, 41.892368], [-87.624121, 41.892541], [-87.624042, 41.900824], [-87.62589, 41.912141], [-87.631851, 41.928415], [-87.632152, 41.934381], [-87.638833, 41.941219], [-87.644376, 41.950931], [-87.648738, 41.973046], [-87.652803, 41.984951], [-87.662456, 41.985105], [-87.6699, 41.989705], [-87.672167, 42.002613], [-87.673021, 42.002599]], "type": "LineString"}, "properties": {"timestamp": "2024-08-19T15:16:54", "type": "transition"}}]}