{"type": "FeatureCollection", "features": [{"type": "Feature", "geometry": {"coordinates": [[-87.689188, 42.031753], [-87.690009, 42.031757], [-87.690179, 42.019532], [-87.708654, 42.019153], [-87.709351, 42.001531]], "type": "LineString"}, "properties": {"timestamp": "2024-07-16T20:27:05", "type": "ride", "rideType": "UberX", "pickupAddress": "Madison St, Evanston, IL 60202-2204, US", "dropoffAddress": "W Touhy Ave, Lincolnwood, IL 60712-1027, US", "basePay": "8.93", "surge": "0.00", "tip": "0.00", "earnings": "8.93", "duration": "593", "distance": "3.80", "rideStartTime": "July 16, 2024 at 08:27 PM", "rideEndTime": "July 16, 2024 at 08:36 PM"}}, {"type": "Feature", "geometry": {"coordinates": [[-87.709351, 42.001531], [-87.709354, 41.997394], [-87.711691, 41.997354], [-87.714093, 41.994454], [-87.71155, 41.992891], [-87.708877, 41.983076], [-87.707815, 41.945936], [-87.705317, 41.944219], [-87.705281, 41.943085]], "type": "LineString"}, "properties": {"timestamp": "2024-07-16T20:55:12", "type": "transition"}}, {"type": "Feature", "geometry": {"coordinates": [[-87.705281, 41.943085], [-87.705182, 41.939366], [-87.702718, 41.939378], [-87.702616, 41.935677], [-87.669746, 41.917124], [-87.661559, 41.906635], [-87.658834, 41.896667], [-87.647099, 41.887778], [-87.644363, 41.857367], [-87.645793, 41.852447], [-87.644333, 41.849097], [-87.644894, 41.846776], [-87.652708, 41.844955], [-87.667166, 41.837862], [-87.680151, 41.837032], [-87.695427, 41.832287], [-87.698851, 41.831418], [-87.700566, 41.830863], [-87.70462, 41.83001], [-87.70506, 41.844708]], "type": "LineString"}, "properties": {"timestamp": "2024-07-16T20:55:12", "type": "ride", "rideType": "UberX", "pickupAddress": "N Albany Ave, Chicago, IL 60659-1402, US", "dropoffAddress": "N Western Ave, Chicago, IL 60645, US", "basePay": "5.57", "surge": "0.00", "tip": "0.00", "earnings": "5.57", "duration": "561", "distance": "2.40", "rideStartTime": "July 16, 2024 at 08:55 PM", "rideEndTime": "July 16, 2024 at 09:04 PM"}}, {"type": "Feature", "geometry": {"coordinates": [[-87.70506, 41.844708], [-87.70506, 41.844708]], "type": "LineString"}, "properties": {"timestamp": "2024-07-16T21:01:25", "type": "transition"}}, {"type": "Feature", "geometry": {"coordinates": [[-87.70506, 41.844708], [-87.704642, 41.829034], [-87.699332, 41.830574], [-87.680385, 41.836711], [-87.66766, 41.83747], [-87.642887, 41.846989], [-87.616851, 41.847976], [-87.612168, 41.84938], [-87.619244, 41.8661], [-87.614041, 41.892878], [-87.619441, 41.900921], [-87.624048, 41.902893], [-87.632152, 41.934381], [-87.644376, 41.950931], [-87.648738, 41.973046], [-87.655253, 41.985556], [-87.655748, 41.998011], [-87.667905, 41.998118], [-87.668176, 42.005122]], "type": "LineString"}, "properties": {"timestamp": "2024-07-16T21:01:25", "type": "ride", "rideType": "UberX Share", "pickupAddress": "N Western Ave, Chicago, IL 60645-1511, US", "dropoffAddress": "N Greenview Ave, Chicago, IL 60626-1713, US", "basePay": "4.34", "surge": "0.00", "tip": "3.00", "earnings": "7.34", "duration": "523", "distance": "1.40", "rideStartTime": "July 16, 2024 at 09:01 PM", "rideEndTime": "July 16, 2024 at 09:10 PM"}}, {"type": "Feature", "geometry": {"coordinates": [[-87.668176, 42.005122], [-87.668185, 42.005422], [-87.680175, 42.005209], [-87.681855, 42.008899], [-87.682247, 42.00895]], "type": "LineString"}, "properties": {"timestamp": "2024-07-16T21:15:00", "type": "transition"}}, {"type": "Feature", "geometry": {"coordinates": [[-87.682247, 42.00895], [-87.681855, 42.008899], [-87.675425, 41.994982], [-87.67531, 41.992132], [-87.670085, 41.989706], [-87.669796, 41.987608], [-87.669293, 41.961591], [-87.665949, 41.961638], [-87.664338, 41.957755], [-87.659238, 41.950599], [-87.659221, 41.948978], [-87.660432, 41.948958], [-87.660438, 41.949184]], "type": "LineString"}, "properties": {"timestamp": "2024-07-16T21:15:00", "type": "ride", "rideType": "UberX", "pickupAddress": "W Lunt Ave, Chicago, IL 60626-3032, US", "dropoffAddress": "N Magnolia Ave, Chicago, IL 60613-3802, US", "basePay": "10.58", "surge": "0.00", "tip": "3.00", "earnings": "13.58", "duration": "1057", "distance": "5.80", "rideStartTime": "July 16, 2024 at 09:15 PM", "rideEndTime": "July 16, 2024 at 09:32 PM"}}, {"type": "Feature", "geometry": {"coordinates": [[-87.660438, 41.949184], [-87.660496, 41.951033], [-87.659594, 41.951046], [-87.662225, 41.95438], [-87.727612, 41.95365], [-87.727395, 41.946377], [-87.739921, 41.946215]], "type": "LineString"}, "properties": {"timestamp": "2024-07-16T21:35:33", "type": "transition"}}, {"type": "Feature", "geometry": {"coordinates": [[-87.739921, 41.946215], [-87.71959, 41.946484], [-87.718156, 41.944989], [-87.715518, 41.942115], [-87.710267, 41.940414], [-87.693566, 41.930594], [-87.687291, 41.927358], [-87.683686, 41.924962], [-87.66815, 41.925151], [-87.668327, 41.932402], [-87.658713, 41.932557], [-87.658824, 41.935883]], "type": "LineString"}, "properties": {"timestamp": "2024-07-16T21:35:33", "type": "ride", "rideType": "UberX", "pickupAddress": "W Addison St, Chicago, IL 60613, US", "dropoffAddress": "N Racine Ave, Chicago, IL 60614-4013, US", "basePay": "10.14", "surge": "0.00", "tip": "0.00", "earnings": "10.14", "duration": "1340", "distance": "4.80", "rideStartTime": "July 16, 2024 at 09:35 PM", "rideEndTime": "July 16, 2024 at 09:57 PM"}}, {"type": "Feature", "geometry": {"coordinates": [[-87.658824, 41.935883], [-87.65834, 41.921676], [-87.659737, 41.921657]], "type": "LineString"}, "properties": {"timestamp": "2024-07-16T22:00:11", "type": "transition"}}, {"type": "Feature", "geometry": {"coordinates": [[-87.659737, 41.921657], [-87.65834, 41.921676], [-87.658378, 41.917139], [-87.666413, 41.916455], [-87.66216, 41.910715], [-87.665662, 41.910672], [-87.665325, 41.910236], [-87.661439, 41.906386], [-87.658834, 41.896667], [-87.648602, 41.889352], [-87.646315, 41.886261], [-87.644998, 41.850609], [-87.642186, 41.847255], [-87.634652, 41.845323], [-87.63091, 41.84209], [-87.631289, 41.79178], [-87.631532, 41.783322], [-87.63183, 41.779091], [-87.630079, 41.77648], [-87.62998, 41.772715], [-87.616507, 41.772933]], "type": "LineString"}, "properties": {"timestamp": "2024-07-16T22:00:11", "type": "ride", "rideType": "UberX", "pickupAddress": "W Webster Ave, Chicago, IL 60614, US", "dropoffAddress": "S State St, Chicago, IL 60605-1616, US", "basePay": "8.35", "surge": "0.00", "tip": "0.00", "earnings": "8.35", "duration": "704", "distance": "5.30", "rideStartTime": "July 16, 2024 at 10:00 PM", "rideEndTime": "July 16, 2024 at 10:11 PM"}}, {"type": "Feature", "geometry": {"coordinates": [[-87.616507, 41.772933], [-87.615455, 41.772974], [-87.615283, 41.765714], [-87.624903, 41.765537], [-87.624908, 41.765772], [-87.62543, 41.769557], [-87.626008, 41.77431], [-87.630526, 41.779578], [-87.630393, 41.837743], [-87.631347, 41.844144], [-87.642036, 41.847354], [-87.644903, 41.850908], [-87.644854, 41.873493], [-87.645275, 41.880374], [-87.645355, 41.881847], [-87.645393, 41.882198], [-87.645396, 41.883308], [-87.645365, 41.885689], [-87.649818, 41.885626], [-87.649838, 41.886778], [-87.649954, 41.886776]], "type": "LineString"}, "properties": {"timestamp": "2024-07-16T22:30:38", "type": "transition"}}, {"type": "Feature", "geometry": {"coordinates": [[-87.649954, 41.886776], [-87.652176, 41.886743], [-87.652288, 41.891135], [-87.655792, 41.891092], [-87.656525, 41.893906], [-87.655717, 41.894874], [-87.65932, 41.898217], [-87.661253, 41.906799], [-87.669906, 41.91766], [-87.709664, 41.940439], [-87.714861, 41.942208], [-87.719618, 41.947985], [-87.738838, 41.958569], [-87.741371, 41.960451], [-87.794161, 41.960081], [-87.809667, 41.952719], [-87.830579, 41.952201], [-87.830506, 41.950381], [-87.831732, 41.950349]], "type": "LineString"}, "properties": {"timestamp": "2024-07-16T22:30:38", "type": "ride", "rideType": "UberX", "pickupAddress": "W Fulton Market, Chicago, IL 60607, US", "dropoffAddress": "W Byron St, Chicago, IL 60634-2637, US", "basePay": "14.98", "surge": "2.75", "tip": "6.38", "earnings": "24.11", "duration": "1302", "distance": "9.80", "rideStartTime": "July 16, 2024 at 10:30 PM", "rideEndTime": "July 16, 2024 at 10:52 PM"}}, {"type": "Feature", "geometry": {"coordinates": [[-87.831732, 41.950349], [-87.831804, 41.952171], [-87.699463, 41.953978], [-87.699511, 41.955624]], "type": "LineString"}, "properties": {"timestamp": "2024-07-17T20:37:09", "type": "transition"}}]}