{"type": "FeatureCollection", "features": [{"type": "Feature", "geometry": {"coordinates": [[-87.680928, 41.944938], [-87.680878, 41.943192], [-87.67845, 41.943223], [-87.678766, 41.954121], [-87.668983, 41.954306], [-87.669751, 41.983483], [-87.666707, 41.983528]], "type": "LineString"}, "properties": {"timestamp": "2024-03-15T15:06:17", "type": "ride", "rideType": "UberX", "pickupAddress": "N Hoyne Ave, Chicago, IL 60618-8208, US", "dropoffAddress": "W Bryn Mawr Ave, Chicago, IL 60660, US", "basePay": "12.24", "surge": "0.00", "tip": "2.00", "earnings": "14.24", "duration": "1451", "distance": "5.00", "rideStartTime": "March 15, 2024 at 03:06 PM", "rideEndTime": "March 15, 2024 at 03:30 PM"}}, {"type": "Feature", "geometry": {"coordinates": [[-87.666707, 41.983528], [-87.655916, 41.983706], [-87.655197, 41.983816], [-87.655324, 41.987812]], "type": "LineString"}, "properties": {"timestamp": "2024-03-15T15:38:06", "type": "transition"}}, {"type": "Feature", "geometry": {"coordinates": [[-87.655324, 41.987812], [-87.655253, 41.985556], [-87.653157, 41.984999], [-87.652706, 41.981232], [-87.648822, 41.972134], [-87.644905, 41.955203], [-87.64469, 41.951193], [-87.639566, 41.942042], [-87.638796, 41.940268], [-87.673369, 41.939644]], "type": "LineString"}, "properties": {"timestamp": "2024-03-15T15:38:06", "type": "ride", "rideType": "UberX", "pickupAddress": "N Sheridan Rd, Chicago, IL 60660-4735, US", "dropoffAddress": "W Belmont Ave, Chicago, IL 60657-3303, US", "basePay": "8.48", "surge": "0.00", "tip": "0.00", "earnings": "8.48", "duration": "1131", "distance": "4.40", "rideStartTime": "March 15, 2024 at 03:38 PM", "rideEndTime": "March 15, 2024 at 03:56 PM"}}, {"type": "Feature", "geometry": {"coordinates": [[-87.673369, 41.939644], [-87.658974, 41.939838], [-87.658824, 41.935883]], "type": "LineString"}, "properties": {"timestamp": "2024-03-15T15:57:00", "type": "transition"}}, {"type": "Feature", "geometry": {"coordinates": [[-87.658824, 41.935883], [-87.658713, 41.932557], [-87.678134, 41.932278], [-87.677893, 41.925026], [-87.681912, 41.924981], [-87.685177, 41.926707], [-87.715161, 41.942387], [-87.719618, 41.947985], [-87.742619, 41.960998], [-87.78422, 41.982409], [-87.852562, 41.984247], [-87.875224, 41.996518], [-87.898667, 42.007565], [-87.953891, 42.021307], [-87.977902, 42.038006], [-88.018823, 42.056093], [-88.021626, 42.056828], [-88.029256, 42.057979], [-88.030904, 42.04186], [-88.031014, 42.017386], [-88.023582, 41.990718], [-88.024834, 41.972392], [-88.027352, 41.957727], [-88.037535, 41.947597], [-88.038117, 41.90897], [-88.038982, 41.904811], [-88.103087, 41.902316], [-88.150515, 41.907877], [-88.151092, 41.888137], [-88.204904, 41.884636]], "type": "LineString"}, "properties": {"timestamp": "2024-03-15T15:57:00", "type": "ride", "rideType": "UberX", "pickupAddress": "N Racine Ave, Chicago, IL 60657, US", "dropoffAddress": "W Addison St, Chicago, IL 06061, US", "basePay": "3.35", "surge": "1.00", "tip": "0.00", "earnings": "4.35", "duration": "338", "distance": "1.10", "rideStartTime": "March 15, 2024 at 03:57 PM", "rideEndTime": "March 15, 2024 at 04:02 PM"}}, {"type": "Feature", "geometry": {"coordinates": [[-88.204904, 41.884636], [-88.200892, 41.882], [-88.194625, 41.882082], [-88.194851, 41.85856], [-88.203689, 41.850282], [-88.201072, 41.830769], [-88.205031, 41.815559], [-88.203554, 41.802987], [-88.170986, 41.806297], [-88.087366, 41.805456], [-88.073551, 41.809888], [-88.035675, 41.809533], [-88.028541, 41.81336], [-88.01898, 41.830068], [-88.000391, 41.836259], [-87.978408, 41.843825], [-87.947329, 41.844922], [-87.934852, 41.85191], [-87.929177, 41.852971], [-87.920235, 41.844667], [-87.918148, 41.825922], [-87.908492, 41.797318], [-87.907479, 41.773318], [-87.904027, 41.766857], [-87.857382, 41.74704], [-87.842069, 41.745926], [-87.822968, 41.73662], [-87.811467, 41.727737], [-87.80508, 41.716476], [-87.78787, 41.7024], [-87.77527, 41.678929], [-87.747859, 41.665135], [-87.743754, 41.664335], [-87.739544, 41.662493], [-87.738316, 41.653173], [-87.728698, 41.647706], [-87.72873, 41.647319], [-87.697498, 41.647857], [-87.697217, 41.647687], [-87.693784, 41.649436]], "type": "LineString"}, "properties": {"timestamp": "2024-03-15T16:09:26", "type": "transition"}}, {"type": "Feature", "geometry": {"coordinates": [[-87.693784, 41.649436], [-87.691911, 41.649639], [-87.691186, 41.655369], [-87.670277, 41.655615], [-87.661676, 41.658289], [-87.662153, 41.663542], [-87.661702, 41.6876], [-87.658693, 41.695796], [-87.653084, 41.700714], [-87.652574, 41.712012], [-87.648322, 41.714432], [-87.632642, 41.714662], [-87.627057, 41.715693], [-87.624177, 41.719562], [-87.625651, 41.769497], [-87.630747, 41.779495], [-87.630667, 41.838631], [-87.63193, 41.844225], [-87.642221, 41.847448], [-87.644991, 41.851145], [-87.647091, 41.888098], [-87.658396, 41.896733], [-87.661061, 41.906443], [-87.669227, 41.917096], [-87.704001, 41.937344], [-87.707163, 41.939332], [-87.707595, 41.939599], [-87.708017, 41.953983], [-87.709947, 41.953965]], "type": "LineString"}, "properties": {"timestamp": "2024-03-15T16:09:26", "type": "ride", "rideType": "UberX", "pickupAddress": "N Broadway, Chicago, IL 60657-1825, US", "dropoffAddress": "W Irving Park Rd, Chicago, IL 60618, US", "basePay": "6.90", "surge": "0.00", "tip": "0.00", "earnings": "6.90", "duration": "889", "distance": "2.10", "rideStartTime": "March 15, 2024 at 04:09 PM", "rideEndTime": "March 15, 2024 at 04:24 PM"}}, {"type": "Feature", "geometry": {"coordinates": [[-87.709947, 41.953965], [-87.710466, 41.953958], [-87.656767, 41.95446], [-87.656894, 41.958194]], "type": "LineString"}, "properties": {"timestamp": "2024-03-15T16:37:23", "type": "transition"}}, {"type": "Feature", "geometry": {"coordinates": [[-87.656894, 41.958194], [-87.656767, 41.95446], [-87.662225, 41.95438], [-87.659238, 41.950599], [-87.658974, 41.939838], [-87.663815, 41.939759], [-87.663682, 41.936111], [-87.663209, 41.935776]], "type": "LineString"}, "properties": {"timestamp": "2024-03-15T16:37:23", "type": "ride", "rideType": "UberX", "pickupAddress": "W Irving Park Rd, Chicago, IL 60613-2407, US", "dropoffAddress": "N Lincoln Ave, Chicago, IL 60657, US", "basePay": "10.16", "surge": "0.00", "tip": "0.00", "earnings": "10.16", "duration": "816", "distance": "1.60", "rideStartTime": "March 15, 2024 at 04:37 PM", "rideEndTime": "March 15, 2024 at 04:50 PM"}}, {"type": "Feature", "geometry": {"coordinates": [[-87.663209, 41.935776], [-87.663209, 41.935776]], "type": "LineString"}, "properties": {"timestamp": "2024-03-15T16:58:07", "type": "transition"}}, {"type": "Feature", "geometry": {"coordinates": [[-87.663209, 41.935776], [-87.663682, 41.936111], [-87.663649, 41.93521], [-87.668549, 41.935144], [-87.668616, 41.921563], [-87.677255, 41.921395], [-87.671115, 41.918139], [-87.668247, 41.915543], [-87.664752, 41.909975], [-87.661559, 41.906635], [-87.660921, 41.900902], [-87.659049, 41.896968], [-87.657114, 41.895018], [-87.653963, 41.891931], [-87.651034, 41.892554], [-87.62966, 41.892457], [-87.629727, 41.894584]], "type": "LineString"}, "properties": {"timestamp": "2024-03-15T16:58:07", "type": "ride", "rideType": "UberX", "pickupAddress": "N Lincoln Ave, Chicago, IL 60657, US", "dropoffAddress": "N Dearborn St, Chicago, IL 60610, US", "basePay": "7.27", "surge": "1.25", "tip": "0.00", "earnings": "8.52", "duration": "908", "distance": "2.70", "rideStartTime": "March 15, 2024 at 04:58 PM", "rideEndTime": "March 15, 2024 at 05:13 PM"}}, {"type": "Feature", "geometry": {"coordinates": [[-87.629727, 41.894584], [-87.629727, 41.894584]], "type": "LineString"}, "properties": {"timestamp": "2024-03-15T17:13:25", "type": "transition"}}, {"type": "Feature", "geometry": {"coordinates": [[-87.629727, 41.894584], [-87.62978, 41.896655], [-87.632635, 41.896613], [-87.633095, 41.912584], [-87.632796, 41.913071], [-87.634358, 41.915623], [-87.634849, 41.915479], [-87.638503, 41.918106]], "type": "LineString"}, "properties": {"timestamp": "2024-03-15T17:13:25", "type": "ride", "rideType": "UberX", "pickupAddress": "N Dearborn St, Chicago, IL 60610-2005, US", "dropoffAddress": "N Lincoln Ave, Chicago, IL 60614, US", "basePay": "6.13", "surge": "0.00", "tip": "0.00", "earnings": "6.13", "duration": "656", "distance": "1.90", "rideStartTime": "March 15, 2024 at 05:13 PM", "rideEndTime": "March 15, 2024 at 05:24 PM"}}, {"type": "Feature", "geometry": {"coordinates": [[-87.638503, 41.918106], [-87.653741, 41.929016], [-87.65652, 41.928972]], "type": "LineString"}, "properties": {"timestamp": "2024-03-15T17:29:42", "type": "transition"}}, {"type": "Feature", "geometry": {"coordinates": [[-87.65652, 41.928972], [-87.653741, 41.929016], [-87.648766, 41.925453], [-87.634154, 41.925694], [-87.63067, 41.926223], [-87.631851, 41.928415], [-87.631922, 41.9333], [-87.632612, 41.935386], [-87.633661, 41.936704], [-87.637308, 41.939504], [-87.638833, 41.941219], [-87.644376, 41.950931], [-87.644596, 41.954749], [-87.646094, 41.960253], [-87.645534, 41.962086], [-87.649918, 41.961843], [-87.649893, 41.96095], [-87.649583, 41.960955]], "type": "LineString"}, "properties": {"timestamp": "2024-03-15T17:29:42", "type": "ride", "rideType": "UberX", "pickupAddress": "W Wrightwood Ave, Chicago, IL 60614-1315, US", "dropoffAddress": "W Junior Ter, Chicago, IL 60613-1512, US", "basePay": "7.54", "surge": "0.00", "tip": "5.00", "earnings": "12.54", "duration": "948", "distance": "2.80", "rideStartTime": "March 15, 2024 at 05:29 PM", "rideEndTime": "March 15, 2024 at 05:45 PM"}}, {"type": "Feature", "geometry": {"coordinates": [[-87.649583, 41.960955], [-87.649583, 41.960955]], "type": "LineString"}, "properties": {"timestamp": "2024-03-15T17:40:50", "type": "transition"}}, {"type": "Feature", "geometry": {"coordinates": [[-87.649583, 41.960955], [-87.646837, 41.961], [-87.646878, 41.961908], [-87.644905, 41.955203], [-87.644611, 41.950978], [-87.639566, 41.942042], [-87.638796, 41.940268], [-87.654106, 41.939918], [-87.654016, 41.937175], [-87.653552, 41.937186], [-87.65355, 41.937074]], "type": "LineString"}, "properties": {"timestamp": "2024-03-15T17:40:50", "type": "ride", "rideType": "UberX", "pickupAddress": "W Junior Ter, Chicago, IL 60613-1512, US", "dropoffAddress": "N Clark St, Chicago, IL 60657, US", "basePay": "5.01", "surge": "0.00", "tip": "0.00", "earnings": "5.01", "duration": "697", "distance": "2.00", "rideStartTime": "March 15, 2024 at 05:40 PM", "rideEndTime": "March 15, 2024 at 05:52 PM"}}, {"type": "Feature", "geometry": {"coordinates": [[-87.65355, 41.937074], [-87.653552, 41.937186], [-87.654016, 41.937175], [-87.653987, 41.936284], [-87.636854, 41.93662], [-87.636832, 41.936481]], "type": "LineString"}, "properties": {"timestamp": "2024-03-15T17:50:16", "type": "transition"}}, {"type": "Feature", "geometry": {"coordinates": [[-87.636832, 41.936481], [-87.636648, 41.934349], [-87.636082, 41.933168], [-87.637134, 41.931132], [-87.633621, 41.925745], [-87.631853, 41.926001], [-87.630603, 41.923776], [-87.629189, 41.918735], [-87.627538, 41.915117], [-87.627206, 41.913042], [-87.628067, 41.912346], [-87.631428, 41.913459], [-87.633196, 41.912907], [-87.632901, 41.900546], [-87.63435, 41.90053], [-87.634293, 41.898867]], "type": "LineString"}, "properties": {"timestamp": "2024-03-15T17:50:16", "type": "ride", "rideType": "UberX", "pickupAddress": "N Lake Shore Dr, Chicago, IL 60657-3928, US", "dropoffAddress": "N Wells St, Chicago, IL 60610, US", "basePay": "7.24", "surge": "1.75", "tip": "0.00", "earnings": "8.99", "duration": "926", "distance": "2.50", "rideStartTime": "March 15, 2024 at 05:50 PM", "rideEndTime": "March 15, 2024 at 06:05 PM"}}, {"type": "Feature", "geometry": {"coordinates": [[-87.634293, 41.898867], [-87.634589, 41.907668], [-87.635387, 41.907654]], "type": "LineString"}, "properties": {"timestamp": "2024-03-15T18:15:37", "type": "transition"}}, {"type": "Feature", "geometry": {"coordinates": [[-87.635387, 41.907654], [-87.63847, 41.90761], [-87.638347, 41.903783], [-87.67239, 41.903268], [-87.672359, 41.902201], [-87.671148, 41.902224], [-87.671172, 41.903001]], "type": "LineString"}, "properties": {"timestamp": "2024-03-15T18:15:37", "type": "ride", "rideType": "UberX", "pickupAddress": "W Schiller St, Chicago, IL 60610, US", "dropoffAddress": "1725 W Division St, Chicago, IL 60622, US", "basePay": "7.70", "surge": "0.00", "tip": "0.00", "earnings": "7.70", "duration": "1382", "distance": "2.30", "rideStartTime": "March 15, 2024 at 06:15 PM", "rideEndTime": "March 15, 2024 at 06:38 PM"}}, {"type": "Feature", "geometry": {"coordinates": [[-87.671172, 41.903001], [-87.67118, 41.903289], [-87.667572, 41.903349], [-87.667402, 41.8979], [-87.660058, 41.898021]], "type": "LineString"}, "properties": {"timestamp": "2024-03-15T18:49:11", "type": "transition"}}, {"type": "Feature", "geometry": {"coordinates": [[-87.660058, 41.898021], [-87.662444, 41.897978], [-87.66251, 41.899796], [-87.686926, 41.899379], [-87.687018, 41.903025], [-87.701605, 41.902888]], "type": "LineString"}, "properties": {"timestamp": "2024-03-15T18:49:11", "type": "ride", "rideType": "UberX", "pickupAddress": "W Chestnut St, Chicago, IL 60642-5322, US", "dropoffAddress": "W Division St, Chicago, IL 60622, US", "basePay": "5.16", "surge": "2.75", "tip": "0.00", "earnings": "7.91", "duration": "513", "distance": "1.50", "rideStartTime": "March 15, 2024 at 06:49 PM", "rideEndTime": "March 15, 2024 at 06:57 PM"}}, {"type": "Feature", "geometry": {"coordinates": [[-87.701605, 41.902888], [-87.677276, 41.903184], [-87.67729, 41.903681], [-87.677053, 41.903685]], "type": "LineString"}, "properties": {"timestamp": "2024-03-15T18:53:07", "type": "transition"}}, {"type": "Feature", "geometry": {"coordinates": [[-87.677053, 41.903685], [-87.67729, 41.903681], [-87.677057, 41.895912], [-87.686835, 41.89575], [-87.686385, 41.876082], [-87.695752, 41.875985]], "type": "LineString"}, "properties": {"timestamp": "2024-03-15T18:53:07", "type": "ride", "rideType": "UberX", "pickupAddress": "1211 N Damen Ave, Chicago, IL 60622, US", "dropoffAddress": "W Van Buren St, Chicago, IL 60607, US", "basePay": "8.26", "surge": "2.25", "tip": "0.00", "earnings": "10.51", "duration": "1109", "distance": "3.90", "rideStartTime": "March 15, 2024 at 06:53 PM", "rideEndTime": "March 15, 2024 at 07:11 PM"}}, {"type": "Feature", "geometry": {"coordinates": [[-87.695752, 41.875985], [-87.696151, 41.875983], [-87.696127, 41.874902], [-87.695509, 41.874908], [-87.690201, 41.875125], [-87.687666, 41.875301], [-87.662068, 41.875578], [-87.658543, 41.875322], [-87.656893, 41.875346], [-87.657142, 41.881621], [-87.65436, 41.881667], [-87.654546, 41.888297]], "type": "LineString"}, "properties": {"timestamp": "2024-03-15T19:39:07", "type": "transition"}}, {"type": "Feature", "geometry": {"coordinates": [[-87.654546, 41.888297], [-87.654625, 41.891105], [-87.687286, 41.890639], [-87.699899, 41.895625], [-87.701213, 41.895606]], "type": "LineString"}, "properties": {"timestamp": "2024-03-15T19:39:07", "type": "ride", "rideType": "UberX", "pickupAddress": "N Aberdeen St, Chicago, IL 60607-1605, US", "dropoffAddress": "W Chicago Ave, Chicago, IL 60622, US", "basePay": "4.75", "surge": "1.75", "tip": "3.00", "earnings": "9.50", "duration": "701", "distance": "1.50", "rideStartTime": "March 15, 2024 at 07:39 PM", "rideEndTime": "March 15, 2024 at 07:50 PM"}}, {"type": "Feature", "geometry": {"coordinates": [[-87.701213, 41.895606], [-87.699899, 41.895625], [-87.687286, 41.890639], [-87.654625, 41.891105], [-87.654546, 41.888297]], "type": "LineString"}, "properties": {"timestamp": "2024-03-15T19:55:01", "type": "transition"}}, {"type": "Feature", "geometry": {"coordinates": [[-87.654546, 41.888297], [-87.654467, 41.885549], [-87.662788, 41.885409], [-87.663487, 41.883985], [-87.666061, 41.881475], [-87.679085, 41.881324], [-87.678236, 41.88126]], "type": "LineString"}, "properties": {"timestamp": "2024-03-15T19:55:01", "type": "ride", "rideType": "UberX", "pickupAddress": "N Aberdeen St, Chicago, IL 60642-5860, US", "dropoffAddress": "W Madison St, Chicago, IL 60612, US", "basePay": "5.61", "surge": "4.25", "tip": "3.00", "earnings": "12.86", "duration": "593", "distance": "1.70", "rideStartTime": "March 15, 2024 at 07:55 PM", "rideEndTime": "March 15, 2024 at 08:04 PM"}}, {"type": "Feature", "geometry": {"coordinates": [[-87.678236, 41.88126], [-87.666737, 41.881465], [-87.666835, 41.884777], [-87.667222, 41.896071], [-87.668514, 41.89605], [-87.66852, 41.896312]], "type": "LineString"}, "properties": {"timestamp": "2024-03-15T20:17:23", "type": "transition"}}, {"type": "Feature", "geometry": {"coordinates": [[-87.66852, 41.896312], [-87.668514, 41.89605], [-87.667365, 41.896069], [-87.667205, 41.890972], [-87.65893, 41.891061], [-87.658694, 41.891345]], "type": "LineString"}, "properties": {"timestamp": "2024-03-15T20:17:23", "type": "ride", "rideType": "UberX", "pickupAddress": "N Marshfield Ave, Chicago, IL 60622-5130, US", "dropoffAddress": "N Ogden Ave, Chicago, IL 60642, US", "basePay": "5.52", "surge": "0.00", "tip": "0.00", "earnings": "5.52", "duration": "271", "distance": "1.00", "rideStartTime": "March 15, 2024 at 08:17 PM", "rideEndTime": "March 15, 2024 at 08:21 PM"}}, {"type": "Feature", "geometry": {"coordinates": [[-87.658694, 41.891345], [-87.654844, 41.895899], [-87.651439, 41.893636], [-87.650448, 41.893035]], "type": "LineString"}, "properties": {"timestamp": "2024-03-15T20:20:56", "type": "transition"}}, {"type": "Feature", "geometry": {"coordinates": [[-87.650448, 41.893035], [-87.650924, 41.893342], [-87.647667, 41.89336], [-87.648086, 41.903643], [-87.643216, 41.903716], [-87.643529, 41.913908], [-87.644729, 41.913887]], "type": "LineString"}, "properties": {"timestamp": "2024-03-15T20:20:56", "type": "ride", "rideType": "UberX", "pickupAddress": "N Milwaukee Ave, Chicago, IL 60642-5939, US", "dropoffAddress": "W Willow St, Chicago, IL 60614-5107, US", "basePay": "4.99", "surge": "3.25", "tip": "2.00", "earnings": "10.24", "duration": "530", "distance": "1.70", "rideStartTime": "March 15, 2024 at 08:20 PM", "rideEndTime": "March 15, 2024 at 08:29 PM"}}, {"type": "Feature", "geometry": {"coordinates": [[-87.644729, 41.913887], [-87.644453, 41.913892], [-87.644405, 41.912364]], "type": "LineString"}, "properties": {"timestamp": "2024-03-15T20:32:04", "type": "transition"}}, {"type": "Feature", "geometry": {"coordinates": [[-87.644405, 41.912364], [-87.644363, 41.911019], [-87.648286, 41.910927], [-87.647513, 41.886796], [-87.639904, 41.886819], [-87.639953, 41.887994], [-87.640199, 41.88801]], "type": "LineString"}, "properties": {"timestamp": "2024-03-15T20:32:04", "type": "ride", "rideType": "UberX", "pickupAddress": "N Vine St, Chicago, IL 60614-5119, US", "dropoffAddress": "S Canal St, Chicago, IL 60606, US", "basePay": "8.45", "surge": "0.00", "tip": "0.00", "earnings": "8.45", "duration": "965", "distance": "3.30", "rideStartTime": "March 15, 2024 at 08:32 PM", "rideEndTime": "March 15, 2024 at 08:48 PM"}}, {"type": "Feature", "geometry": {"coordinates": [[-87.640199, 41.88801], [-87.639953, 41.887994], [-87.64001, 41.889064], [-87.641432, 41.889102], [-87.64118, 41.880567], [-87.636998, 41.880628], [-87.636803, 41.876812]], "type": "LineString"}, "properties": {"timestamp": "2024-03-15T20:46:03", "type": "transition"}}, {"type": "Feature", "geometry": {"coordinates": [[-87.636803, 41.876812], [-87.636629, 41.876812], [-87.636693, 41.87809], [-87.617182, 41.878364], [-87.616996, 41.882205], [-87.613645, 41.884762], [-87.614041, 41.892878], [-87.619441, 41.900921], [-87.622727, 41.90171], [-87.623983, 41.902767], [-87.62589, 41.912141], [-87.628743, 41.918036], [-87.630534, 41.924159], [-87.63067, 41.926223], [-87.633621, 41.925745], [-87.636987, 41.930951], [-87.63931, 41.932914], [-87.642737, 41.932848], [-87.64278, 41.934284], [-87.642085, 41.934296]], "type": "LineString"}, "properties": {"timestamp": "2024-03-15T20:46:03", "type": "ride", "rideType": "UberX", "pickupAddress": "S Wacker Dr, Chicago, IL 60606, US", "dropoffAddress": "W Surf St, Chicago, IL 60657, US", "basePay": "10.91", "surge": "0.00", "tip": "3.29", "earnings": "14.20", "duration": "1504", "distance": "5.70", "rideStartTime": "March 15, 2024 at 08:46 PM", "rideEndTime": "March 15, 2024 at 09:11 PM"}}, {"type": "Feature", "geometry": {"coordinates": [[-87.642085, 41.934296], [-87.641392, 41.934308], [-87.641357, 41.932875], [-87.65822, 41.932567]], "type": "LineString"}, "properties": {"timestamp": "2024-03-15T21:19:16", "type": "transition"}}, {"type": "Feature", "geometry": {"coordinates": [[-87.65822, 41.932567], [-87.658713, 41.932557], [-87.638503, 41.918106]], "type": "LineString"}, "properties": {"timestamp": "2024-03-15T21:19:16", "type": "ride", "rideType": "Comfort", "pickupAddress": "W Diversey Pkwy, Chicago, IL 60614, US", "dropoffAddress": "N Lincoln Ave, Chicago, IL 60618, US", "basePay": "10.50", "surge": "1.00", "tip": "0.00", "earnings": "11.50", "duration": "822", "distance": "2.90", "rideStartTime": "March 15, 2024 at 09:19 PM", "rideEndTime": "March 15, 2024 at 09:32 PM"}}, {"type": "Feature", "geometry": {"coordinates": [[-87.638503, 41.918106], [-87.638808, 41.918322], [-87.638941, 41.921954], [-87.63646, 41.92199], [-87.636586, 41.925658], [-87.63067, 41.926223], [-87.631851, 41.928415], [-87.632612, 41.935386], [-87.638833, 41.941219], [-87.644437, 41.951086], [-87.644596, 41.954749], [-87.648738, 41.973046], [-87.652386, 41.98144], [-87.652325, 41.983912], [-87.679477, 41.983198], [-87.679565, 41.982043], [-87.687992, 41.977941], [-87.688015, 41.97923], [-87.685908, 41.979583], [-87.685402, 41.980202], [-87.685604, 41.982307], [-87.68541, 41.982385], [-87.685638, 41.986037], [-87.682929, 41.986051], [-87.681454, 41.987045]], "type": "LineString"}, "properties": {"timestamp": "2024-03-15T22:18:34", "type": "transition"}}, {"type": "Feature", "geometry": {"coordinates": [[-87.681454, 41.987045], [-87.682858, 41.98656], [-87.683199, 41.985105], [-87.685612, 41.985047], [-87.685604, 41.982307], [-87.685439, 41.981706], [-87.68536, 41.980287], [-87.685908, 41.979583], [-87.688015, 41.97923], [-87.688009, 41.978881], [-87.689265, 41.97886], [-87.689151, 41.975899], [-87.747984, 41.975339], [-87.747723, 41.968033], [-87.757623, 41.967938], [-87.758399, 41.968431]], "type": "LineString"}, "properties": {"timestamp": "2024-03-15T22:18:34", "type": "ride", "rideType": "UberX", "pickupAddress": "N Western Ave, Chicago, IL 60625-2115, US", "dropoffAddress": "W North Ave, Chicago, IL 60647-5066, US", "basePay": "8.71", "surge": "0.00", "tip": "0.00", "earnings": "8.71", "duration": "887", "distance": "4.40", "rideStartTime": "March 15, 2024 at 10:18 PM", "rideEndTime": "March 15, 2024 at 10:33 PM"}}, {"type": "Feature", "geometry": {"coordinates": [[-87.758399, 41.968431], [-87.757622, 41.967875], [-87.747723, 41.968033], [-87.747918, 41.972896], [-87.747761, 41.972794], [-87.747223, 41.966563], [-87.745961, 41.963113], [-87.742125, 41.960129], [-87.719592, 41.947613], [-87.715306, 41.94215], [-87.710219, 41.940524], [-87.698173, 41.933659], [-87.673831, 41.919706], [-87.671882, 41.918264], [-87.671887, 41.917859], [-87.677621, 41.91776], [-87.677565, 41.914726], [-87.682438, 41.914622], [-87.683478, 41.915299]], "type": "LineString"}, "properties": {"timestamp": "2024-03-15T22:46:49", "type": "transition"}}, {"type": "Feature", "geometry": {"coordinates": [[-87.683478, 41.915299], [-87.682438, 41.914622], [-87.677565, 41.914726], [-87.677621, 41.91776], [-87.671089, 41.917871], [-87.670404, 41.917216], [-87.661559, 41.906635], [-87.658834, 41.896667], [-87.646473, 41.886676], [-87.644363, 41.857367], [-87.645793, 41.852447], [-87.644333, 41.849097], [-87.641933, 41.846546], [-87.616851, 41.847976], [-87.612314, 41.847086], [-87.607188, 41.832576], [-87.600839, 41.825932], [-87.593977, 41.815295], [-87.58209, 41.803885], [-87.57922, 41.796009], [-87.58022, 41.791662], [-87.574954, 41.781232], [-87.579216, 41.779846], [-87.584175, 41.780203], [-87.586376, 41.776085], [-87.586137, 41.759682], [-87.585114, 41.759693], [-87.585107, 41.759229], [-87.584124, 41.759242]], "type": "LineString"}, "properties": {"timestamp": "2024-03-15T22:46:49", "type": "ride", "rideType": "UberX", "pickupAddress": "N Wilmot Ave, Chicago, IL 60647-5524, US", "dropoffAddress": "W Fullerton Ave, Chicago, IL 60614, US", "basePay": "5.03", "surge": "0.00", "tip": "0.00", "earnings": "5.03", "duration": "373", "distance": "1.30", "rideStartTime": "March 15, 2024 at 10:46 PM", "rideEndTime": "March 15, 2024 at 10:53 PM"}}, {"type": "Feature", "geometry": {"coordinates": [[-87.584124, 41.759242], [-87.585107, 41.759229], [-87.585114, 41.759693], [-87.585762, 41.759686], [-87.585994, 41.771514], [-87.584175, 41.780203], [-87.574628, 41.780713], [-87.581975, 41.803976], [-87.606909, 41.832668], [-87.610426, 41.843509], [-87.612641, 41.848604], [-87.630973, 41.847424], [-87.641219, 41.847736], [-87.644555, 41.850742], [-87.646457, 41.887151], [-87.658396, 41.896733], [-87.661061, 41.906443], [-87.668818, 41.916712], [-87.690595, 41.929581], [-87.694122, 41.932133], [-87.687832, 41.932179], [-87.688345, 41.949742]], "type": "LineString"}, "properties": {"timestamp": "2024-03-15T22:58:48", "type": "transition"}}, {"type": "Feature", "geometry": {"coordinates": [[-87.688345, 41.949742], [-87.687207, 41.910324], [-87.749173, 41.90959], [-87.781715, 41.909186], [-87.781778, 41.911009], [-87.782134, 41.911003]], "type": "LineString"}, "properties": {"timestamp": "2024-03-15T22:58:48", "type": "ride", "rideType": "UberX", "pickupAddress": "N Western Ave, Chicago, IL 60647-2027, US", "dropoffAddress": "W Wabansia Ave, Chicago, IL 60622-1443, US", "basePay": "6.34", "surge": "0.00", "tip": "0.00", "earnings": "6.34", "duration": "594", "distance": "2.30", "rideStartTime": "March 15, 2024 at 10:58 PM", "rideEndTime": "March 15, 2024 at 11:08 PM"}}, {"type": "Feature", "geometry": {"coordinates": [[-87.782134, 41.911003], [-87.780168, 41.911024], [-87.780108, 41.909205], [-87.746127, 41.909582], [-87.745973, 41.902357], [-87.717777, 41.902754], [-87.711889, 41.900057], [-87.699899, 41.895625], [-87.675826, 41.895932], [-87.67594, 41.899493]], "type": "LineString"}, "properties": {"timestamp": "2024-03-15T23:10:41", "type": "transition"}}, {"type": "Feature", "geometry": {"coordinates": [[-87.67594, 41.899493], [-87.675943, 41.899565], [-87.677161, 41.899544], [-87.677893, 41.925026], [-87.66815, 41.925151], [-87.668463, 41.936057], [-87.663682, 41.936111], [-87.663758, 41.938211]], "type": "LineString"}, "properties": {"timestamp": "2024-03-15T23:10:41", "type": "ride", "rideType": "UberX", "pickupAddress": "N Winchester Ave, Chicago, IL 60622-4963, US", "dropoffAddress": "N Southport Ave, Chicago, IL 60614, US", "basePay": "9.27", "surge": "2.50", "tip": "0.00", "earnings": "11.77", "duration": "722", "distance": "2.80", "rideStartTime": "March 15, 2024 at 11:10 PM", "rideEndTime": "March 15, 2024 at 11:22 PM"}}, {"type": "Feature", "geometry": {"coordinates": [[-87.663758, 41.938211], [-87.663682, 41.936111], [-87.638503, 41.918106]], "type": "LineString"}, "properties": {"timestamp": "2024-03-15T23:33:26", "type": "transition"}}, {"type": "Feature", "geometry": {"coordinates": [[-87.638503, 41.918106], [-87.638808, 41.918322], [-87.638583, 41.911164], [-87.658619, 41.910768], [-87.659943, 41.907139], [-87.659508, 41.904817], [-87.658892, 41.903997], [-87.658875, 41.90348], [-87.68215, 41.903106], [-87.682072, 41.900379], [-87.682861, 41.900367]], "type": "LineString"}, "properties": {"timestamp": "2024-03-15T23:33:26", "type": "ride", "rideType": "UberX", "pickupAddress": "N Lincoln Ave, Chicago, IL 60614, US", "dropoffAddress": "W Cortez St, Chicago, IL 60622-3517, US", "basePay": "8.26", "surge": "2.25", "tip": "1.00", "earnings": "11.51", "duration": "1045", "distance": "3.50", "rideStartTime": "March 15, 2024 at 11:33 PM", "rideEndTime": "March 15, 2024 at 11:50 PM"}}, {"type": "Feature", "geometry": {"coordinates": [[-87.682861, 41.900367], [-87.686949, 41.900304], [-87.687706, 41.928661], [-87.684147, 41.931491], [-87.683979, 41.932222], [-87.680713, 41.932257], [-87.680658, 41.932073]], "type": "LineString"}, "properties": {"timestamp": "2024-03-16T00:01:11", "type": "transition"}}, {"type": "Feature", "geometry": {"coordinates": [[-87.680658, 41.932073], [-87.680713, 41.932257], [-87.678134, 41.932278], [-87.677893, 41.925026], [-87.681912, 41.924981], [-87.685177, 41.926707], [-87.709664, 41.940439], [-87.715161, 41.942387], [-87.719618, 41.947985], [-87.742619, 41.960998], [-87.752403, 41.966033], [-87.75503, 41.967937], [-87.757623, 41.967938], [-87.758399, 41.968431]], "type": "LineString"}, "properties": {"timestamp": "2024-03-16T00:01:11", "type": "ride", "rideType": "UberX", "pickupAddress": "N Leavitt St, Chicago, IL 60622, US", "dropoffAddress": "W North Ave, Chicago, IL 60647-5414, US", "basePay": "3.14", "surge": "0.00", "tip": "0.00", "earnings": "3.14", "duration": "339", "distance": "1.20", "rideStartTime": "March 16, 2024 at 12:01 AM", "rideEndTime": "March 16, 2024 at 12:06 AM"}}, {"type": "Feature", "geometry": {"coordinates": [[-87.758399, 41.968431], [-87.757623, 41.967938], [-87.760755, 41.967869], [-87.761466, 41.967596], [-87.765021, 41.967822], [-87.77728, 41.967665], [-87.778289, 41.96853], [-87.797737, 41.968342], [-87.797713, 41.958438], [-87.816945, 41.949144], [-87.816641, 41.941072]], "type": "LineString"}, "properties": {"timestamp": "2024-03-16T00:02:51", "type": "transition"}}, {"type": "Feature", "geometry": {"coordinates": [[-87.816641, 41.941072], [-87.816587, 41.939617], [-87.817797, 41.939594], [-87.818384, 41.948419], [-87.797713, 41.958438], [-87.797737, 41.968342], [-87.778289, 41.96853], [-87.77728, 41.967665], [-87.747723, 41.968033], [-87.747918, 41.972896], [-87.747761, 41.972794], [-87.747223, 41.966563], [-87.745961, 41.963113], [-87.742125, 41.960129], [-87.719592, 41.947613], [-87.715306, 41.94215], [-87.710219, 41.940524], [-87.698173, 41.933659], [-87.687291, 41.927358], [-87.683686, 41.924962], [-87.665786, 41.925178], [-87.66581, 41.927], [-87.664639, 41.927018], [-87.664634, 41.926889]], "type": "LineString"}, "properties": {"timestamp": "2024-03-16T00:02:51", "type": "ride", "rideType": "UberX", "pickupAddress": "W North Ave, Chicago, IL 60622, US", "dropoffAddress": "N Janssen Ave, Chicago, IL 60657-1321, US", "basePay": "6.42", "surge": "0.00", "tip": "3.00", "earnings": "9.42", "duration": "658", "distance": "3.10", "rideStartTime": "March 16, 2024 at 12:02 AM", "rideEndTime": "March 16, 2024 at 12:13 AM"}}, {"type": "Feature", "geometry": {"coordinates": [[-87.664634, 41.926889], [-87.664567, 41.925197], [-87.663327, 41.925216], [-87.663953, 41.945247], [-87.664502, 41.945239]], "type": "LineString"}, "properties": {"timestamp": "2024-03-16T00:15:30", "type": "transition"}}, {"type": "Feature", "geometry": {"coordinates": [[-87.664502, 41.945239], [-87.663953, 41.945247], [-87.663815, 41.939759], [-87.688141, 41.939467], [-87.687862, 41.928591], [-87.689255, 41.928366], [-87.690326, 41.928531], [-87.701194, 41.928437], [-87.70114, 41.925798]], "type": "LineString"}, "properties": {"timestamp": "2024-03-16T00:15:30", "type": "ride", "rideType": "UberX", "pickupAddress": "W Cornelia Ave, Chicago, IL 60657-1402, US", "dropoffAddress": "N Richmond St, Chicago, IL 60647-5121, US", "basePay": "9.95", "surge": "0.00", "tip": "0.00", "earnings": "9.95", "duration": "1051", "distance": "4.40", "rideStartTime": "March 16, 2024 at 12:15 AM", "rideEndTime": "March 16, 2024 at 12:33 AM"}}, {"type": "Feature", "geometry": {"coordinates": [[-87.70114, 41.925798], [-87.701298, 41.932082], [-87.687832, 41.932179], [-87.688469, 41.953985], [-87.668983, 41.954306], [-87.669185, 41.961593], [-87.655148, 41.961772], [-87.656894, 41.964503]], "type": "LineString"}, "properties": {"timestamp": "2024-03-16T15:50:05", "type": "transition"}}]}