{"type": "FeatureCollection", "features": [{"type": "Feature", "geometry": {"coordinates": [[-87.688345, 41.949742], [-87.688245, 41.946744], [-87.665227, 41.947064], [-87.665169, 41.94523], [-87.664502, 41.945239]], "type": "LineString"}, "properties": {"timestamp": "2024-08-14T17:58:33", "type": "ride"}}, {"type": "Feature", "geometry": {"coordinates": [[-87.664502, 41.945239], [-87.663953, 41.945247], [-87.663439, 41.928863], [-87.662223, 41.928882], [-87.662162, 41.927255]], "type": "LineString"}, "properties": {"timestamp": "2024-08-14T18:20:33", "type": "transition"}}, {"type": "Feature", "geometry": {"coordinates": [[-87.662162, 41.927255], [-87.662155, 41.927058], [-87.663383, 41.927039], [-87.6632, 41.921626], [-87.677255, 41.921395], [-87.671115, 41.918139], [-87.668247, 41.915543], [-87.664752, 41.909975], [-87.661559, 41.906635], [-87.661131, 41.901587], [-87.659049, 41.896968], [-87.647531, 41.888343], [-87.646219, 41.885929], [-87.645999, 41.881827], [-87.646134, 41.880956], [-87.646145, 41.879569], [-87.646166, 41.878121], [-87.646107, 41.877218], [-87.646733, 41.875649], [-87.646076, 41.875057], [-87.629223, 41.875546], [-87.629291, 41.878179], [-87.626099, 41.878262], [-87.626066, 41.876978], [-87.627123, 41.876964]], "type": "LineString"}, "properties": {"timestamp": "2024-08-14T18:20:33", "type": "ride"}}, {"type": "Feature", "geometry": {"coordinates": [[-87.627123, 41.876964], [-87.635203, 41.876831], [-87.635343, 41.881924], [-87.640505, 41.881877]], "type": "LineString"}, "properties": {"timestamp": "2024-08-14T22:05:34", "type": "transition"}}, {"type": "Feature", "geometry": {"coordinates": [[-87.640505, 41.881877], [-87.641227, 41.88187], [-87.64118, 41.880567], [-87.617244, 41.880924], [-87.613645, 41.884762], [-87.614041, 41.892878], [-87.619441, 41.900921], [-87.623983, 41.902767], [-87.631799, 41.928213], [-87.632273, 41.934701], [-87.638833, 41.941219], [-87.644376, 41.950931], [-87.648738, 41.973046], [-87.652765, 41.984866], [-87.662456, 41.985105], [-87.665051, 41.986679], [-87.66518, 41.991183]], "type": "LineString"}, "properties": {"timestamp": "2024-08-14T22:05:34", "type": "ride"}}, {"type": "Feature", "geometry": {"coordinates": [[-87.66518, 41.991183], [-87.665145, 41.989946], [-87.669914, 41.989919], [-87.669967, 41.9908], [-87.748329, 41.989958], [-87.747984, 41.975339], [-87.74954, 41.975314]], "type": "LineString"}, "properties": {"timestamp": "2024-08-14T22:34:42", "type": "transition"}}, {"type": "Feature", "geometry": {"coordinates": [[-87.74954, 41.975314], [-87.692352, 41.975877], [-87.691979, 41.973917], [-87.689722, 41.970481], [-87.688961, 41.970413], [-87.688893, 41.968612], [-87.671021, 41.968858], [-87.670902, 41.964075]], "type": "LineString"}, "properties": {"timestamp": "2024-08-14T22:34:42", "type": "ride"}}, {"type": "Feature", "geometry": {"coordinates": [[-87.670902, 41.964075], [-87.670639, 41.954328], [-87.673794, 41.95429], [-87.67359, 41.946929], [-87.67855, 41.946869], [-87.678527, 41.946063]], "type": "LineString"}, "properties": {"timestamp": "2024-08-14T22:44:19", "type": "transition"}}, {"type": "Feature", "geometry": {"coordinates": [[-87.678527, 41.946063], [-87.678766, 41.954121], [-87.668983, 41.954306], [-87.669751, 41.983483], [-87.666707, 41.983528]], "type": "LineString"}, "properties": {"timestamp": "2024-08-14T22:44:19", "type": "ride"}}, {"type": "Feature", "geometry": {"coordinates": [[-87.666707, 41.983528], [-87.669751, 41.983483], [-87.669775, 41.984337], [-87.669348, 41.98441]], "type": "LineString"}, "properties": {"timestamp": "2024-08-14T22:55:58", "type": "transition"}}, {"type": "Feature", "geometry": {"coordinates": [[-87.669348, 41.98441], [-87.668976, 41.984461], [-87.668766, 41.983497], [-87.669871, 41.983481], [-87.66911, 41.954302], [-87.727612, 41.95365], [-87.727395, 41.946377], [-87.735605, 41.946271], [-87.734699, 41.9457], [-87.734572, 41.939174]], "type": "LineString"}, "properties": {"timestamp": "2024-08-14T22:55:58", "type": "ride"}}, {"type": "Feature", "geometry": {"coordinates": [[-87.734572, 41.939174], [-87.734567, 41.939004], [-87.727187, 41.939096], [-87.727395, 41.946377], [-87.717815, 41.94651], [-87.719292, 41.947883], [-87.722225, 41.949188], [-87.738838, 41.958569], [-87.741371, 41.960451], [-87.741062, 41.960809]], "type": "LineString"}, "properties": {"timestamp": "2024-08-14T23:13:25", "type": "transition"}}, {"type": "Feature", "geometry": {"coordinates": [[-87.741062, 41.960809], [-87.741222, 41.960807], [-87.741341, 41.964446], [-87.745977, 41.964394], [-87.747015, 41.96725], [-87.747318, 41.972024], [-87.746614, 41.980044], [-87.751348, 41.987222], [-87.750649, 41.995203], [-87.748787, 42.000788], [-87.748589, 42.006167], [-87.748759, 42.00958], [-87.748003, 42.010101], [-87.747705, 42.019034], [-87.742782, 42.01901], [-87.742824, 42.017206], [-87.743027, 42.017206]], "type": "LineString"}, "properties": {"timestamp": "2024-08-14T23:13:25", "type": "ride"}}, {"type": "Feature", "geometry": {"coordinates": [[-87.743027, 42.017206], [-87.742824, 42.017206], [-87.742782, 42.01901], [-87.712298, 42.019106]], "type": "LineString"}, "properties": {"timestamp": "2024-08-15T11:30:16", "type": "transition"}}]}