{"type": "FeatureCollection", "features": [{"type": "Feature", "geometry": {"coordinates": [[-87.74954, 41.975314], [-87.749263, 41.975317], [-87.749213, 41.973672], [-87.747761, 41.972794], [-87.746713, 41.963263], [-87.74508, 41.961682], [-87.73715, 41.957103], [-87.731304, 41.953617], [-87.656767, 41.95446], [-87.656894, 41.958194]], "type": "LineString"}, "properties": {"timestamp": "2024-05-17T13:40:40", "type": "ride", "rideType": "UberX", "pickupAddress": "W Foster Ave, Chicago, IL 60640-1034, US", "dropoffAddress": "W Irving Park Rd, Chicago, IL 60613, US", "basePay": "6.17", "surge": "1.50", "tip": "3.00", "earnings": "10.67", "duration": "681", "distance": "2.00", "rideStartTime": "May 17, 2024 at 01:40 PM", "rideEndTime": "May 17, 2024 at 01:52 PM"}}, {"type": "Feature", "geometry": {"coordinates": [[-87.656894, 41.958194], [-87.656157, 41.958251], [-87.656021, 41.958406], [-87.654643, 41.958427], [-87.654748, 41.961775], [-87.646701, 41.961925], [-87.639836, 41.962786], [-87.639059, 41.963055], [-87.638723, 41.963341], [-87.638571, 41.963606]], "type": "LineString"}, "properties": {"timestamp": "2024-05-17T13:56:38", "type": "transition"}}, {"type": "Feature", "geometry": {"coordinates": [[-87.638571, 41.963606], [-87.639836, 41.962786], [-87.646878, 41.961908], [-87.644905, 41.955203], [-87.644507, 41.950757], [-87.638957, 41.941067], [-87.632527, 41.93482], [-87.632048, 41.928427], [-87.627538, 41.915117], [-87.627206, 41.913042], [-87.628067, 41.912346], [-87.632438, 41.913334], [-87.633196, 41.912907], [-87.633223, 41.911171], [-87.649501, 41.910903], [-87.664499, 41.921692]], "type": "LineString"}, "properties": {"timestamp": "2024-05-17T13:56:38", "type": "ride", "rideType": "UberX", "pickupAddress": "W Montrose Ave, Chicago, IL 60613, US", "dropoffAddress": "N Clybourn Ave, Chicago, IL 60614, US", "basePay": "7.39", "surge": "1.00", "tip": "5.00", "earnings": "13.39", "duration": "768", "distance": "2.60", "rideStartTime": "May 17, 2024 at 01:56 PM", "rideEndTime": "May 17, 2024 at 02:09 PM"}}, {"type": "Feature", "geometry": {"coordinates": [[-87.664499, 41.921692], [-87.640519, 41.90446]], "type": "LineString"}, "properties": {"timestamp": "2024-05-17T15:05:43", "type": "transition"}}, {"type": "Feature", "geometry": {"coordinates": [[-87.640519, 41.90446], [-87.639563, 41.903768], [-87.648086, 41.903643], [-87.647482, 41.885665], [-87.646258, 41.885682], [-87.645999, 41.881827], [-87.646134, 41.880956], [-87.646145, 41.879569], [-87.646166, 41.878121], [-87.646815, 41.876334], [-87.649135, 41.875728], [-87.657603, 41.876197], [-87.697235, 41.875658], [-87.706246, 41.87458], [-87.71569, 41.874495], [-87.714953, 41.849851], [-87.716176, 41.849837], [-87.71618, 41.849994]], "type": "LineString"}, "properties": {"timestamp": "2024-05-17T15:05:43", "type": "ride", "rideType": "UberX", "pickupAddress": "N Clybourn Ave Unit C104, Chicago, IL 60610, US", "dropoffAddress": "S Millard Ave, Chicago, IL 60623-1545, US", "basePay": "14.03", "surge": "0.00", "tip": "0.00", "earnings": "14.03", "duration": "1691", "distance": "6.40", "rideStartTime": "May 17, 2024 at 03:05 PM", "rideEndTime": "May 17, 2024 at 03:33 PM"}}, {"type": "Feature", "geometry": {"coordinates": [[-87.71618, 41.849994], [-87.716226, 41.851656], [-87.734518, 41.851513], [-87.735235, 41.87392], [-87.737005, 41.873304], [-87.743633, 41.873193]], "type": "LineString"}, "properties": {"timestamp": "2024-05-17T15:41:11", "type": "transition"}}, {"type": "Feature", "geometry": {"coordinates": [[-87.743633, 41.873193], [-87.737005, 41.873304], [-87.735235, 41.87392], [-87.735214, 41.872889], [-87.731862, 41.873657], [-87.708482, 41.873969], [-87.69832, 41.875168], [-87.680246, 41.875358], [-87.676418, 41.875016], [-87.676791, 41.886776], [-87.673532, 41.886827]], "type": "LineString"}, "properties": {"timestamp": "2024-05-17T15:41:11", "type": "ride", "rideType": "UberX", "pickupAddress": "4722 W Harrison St, Chicago, IL 60644, US", "dropoffAddress": "W Fulton St, Chicago, IL 60607, US", "basePay": "9.05", "surge": "3.00", "tip": "0.00", "earnings": "12.05", "duration": "989", "distance": "5.10", "rideStartTime": "May 17, 2024 at 03:41 PM", "rideEndTime": "May 17, 2024 at 03:57 PM"}}, {"type": "Feature", "geometry": {"coordinates": [[-87.673532, 41.886827], [-87.666966, 41.886929], [-87.667056, 41.889896], [-87.64876, 41.890082], [-87.648718, 41.889017], [-87.644337, 41.889054], [-87.644184, 41.884425], [-87.646033, 41.884406]], "type": "LineString"}, "properties": {"timestamp": "2024-05-17T16:10:20", "type": "transition"}}, {"type": "Feature", "geometry": {"coordinates": [[-87.646033, 41.884406], [-87.647438, 41.884415], [-87.647482, 41.885665], [-87.646258, 41.885682], [-87.645999, 41.881827], [-87.646134, 41.880956], [-87.646145, 41.879569], [-87.646166, 41.878121], [-87.646815, 41.876334], [-87.649135, 41.875728], [-87.657603, 41.876197], [-87.697949, 41.875633], [-87.70915, 41.874284], [-87.732948, 41.873967], [-87.740938, 41.87185], [-87.76928, 41.871025], [-87.799298, 41.873251], [-87.804441, 41.87368], [-87.806613, 41.934519], [-87.820654, 41.93424], [-87.82067, 41.934634]], "type": "LineString"}, "properties": {"timestamp": "2024-05-17T16:10:20", "type": "ride", "rideType": "UberX", "pickupAddress": "W Randolph St, Chicago, IL 60607, US", "dropoffAddress": "N Milwaukee Ave, Chicago, IL 60647-2627, US", "basePay": "11.42", "surge": "1.25", "tip": "0.00", "earnings": "12.67", "duration": "1769", "distance": "4.30", "rideStartTime": "May 17, 2024 at 04:10 PM", "rideEndTime": "May 17, 2024 at 04:39 PM"}}, {"type": "Feature", "geometry": {"coordinates": [[-87.82067, 41.934634], [-87.820654, 41.93424], [-87.81151, 41.934421], [-87.811185, 41.924776], [-87.803157, 41.923552], [-87.789403, 41.92364], [-87.707229, 41.924722], [-87.70705, 41.9174], [-87.705789, 41.917413]], "type": "LineString"}, "properties": {"timestamp": "2024-05-17T17:00:54", "type": "transition"}}, {"type": "Feature", "geometry": {"coordinates": [[-87.705789, 41.917413], [-87.671089, 41.917871], [-87.670404, 41.917216], [-87.661559, 41.906635], [-87.658834, 41.896667], [-87.646614, 41.886973], [-87.64461, 41.864445], [-87.645245, 41.851247], [-87.642429, 41.847384], [-87.634652, 41.845323], [-87.63091, 41.84209], [-87.631289, 41.79178], [-87.631532, 41.783322], [-87.63183, 41.779091], [-87.630079, 41.77648], [-87.62998, 41.772715], [-87.616507, 41.772933]], "type": "LineString"}, "properties": {"timestamp": "2024-05-17T17:00:54", "type": "ride", "rideType": "UberX", "pickupAddress": "W Armitage Ave, Chicago, IL 60647-3860, US", "dropoffAddress": "S State St, Chicago, IL 60605-2404, US", "basePay": "13.43", "surge": "3.50", "tip": "0.00", "earnings": "16.93", "duration": "2013", "distance": "7.50", "rideStartTime": "May 17, 2024 at 05:00 PM", "rideEndTime": "May 17, 2024 at 05:34 PM"}}, {"type": "Feature", "geometry": {"coordinates": [[-87.616507, 41.772933], [-87.615455, 41.772974], [-87.615283, 41.765714], [-87.624903, 41.765537], [-87.624908, 41.765772], [-87.62543, 41.769557], [-87.626008, 41.77431], [-87.629816, 41.777792], [-87.630526, 41.779578], [-87.63142, 41.807989], [-87.6297, 41.812339], [-87.630064, 41.823852], [-87.629817, 41.830961], [-87.626457, 41.831008], [-87.626475, 41.83283], [-87.625023, 41.832863]], "type": "LineString"}, "properties": {"timestamp": "2024-05-17T17:33:17", "type": "transition"}}, {"type": "Feature", "geometry": {"coordinates": [[-87.625023, 41.832863], [-87.626475, 41.83283], [-87.627146, 41.857832], [-87.63188, 41.85776], [-87.631731, 41.859839], [-87.633115, 41.860635], [-87.633284, 41.861304]], "type": "LineString"}, "properties": {"timestamp": "2024-05-17T17:33:17", "type": "ride", "rideType": "UberX", "pickupAddress": "S Wabash Ave, Chicago, IL 60605-2504, US", "dropoffAddress": "W Roosevelt Rd, Chicago, IL 60607-4912, US", "basePay": "15.16", "surge": "0.00", "tip": "0.00", "earnings": "15.16", "duration": "1979", "distance": "3.70", "rideStartTime": "May 17, 2024 at 05:33 PM", "rideEndTime": "May 17, 2024 at 06:06 PM"}}, {"type": "Feature", "geometry": {"coordinates": [[-87.633284, 41.861304], [-87.633115, 41.860635], [-87.632052, 41.860175], [-87.631731, 41.859839], [-87.63188, 41.85776], [-87.636071, 41.857756], [-87.646633, 41.857542], [-87.646649, 41.858102], [-87.649947, 41.858054], [-87.649934, 41.857613]], "type": "LineString"}, "properties": {"timestamp": "2024-05-17T18:14:04", "type": "transition"}}, {"type": "Feature", "geometry": {"coordinates": [[-87.649934, 41.857613], [-87.649947, 41.858054], [-87.646649, 41.858102], [-87.646633, 41.857542], [-87.643769, 41.857593], [-87.643778, 41.857758], [-87.64489, 41.873955], [-87.645711, 41.877665], [-87.645735, 41.885306], [-87.647404, 41.888483], [-87.650048, 41.890597], [-87.651108, 41.891699], [-87.650896, 41.892164], [-87.65026, 41.89242], [-87.631145, 41.892439], [-87.631072, 41.889473]], "type": "LineString"}, "properties": {"timestamp": "2024-05-17T18:14:04", "type": "ride", "rideType": "Comfort", "pickupAddress": "S Sangamon St, Chicago, IL 60608-2214, US", "dropoffAddress": "N Clark St, Chicago, IL 60654, US", "basePay": "12.51", "surge": "1.25", "tip": "6.72", "earnings": "20.48", "duration": "1206", "distance": "3.20", "rideStartTime": "May 17, 2024 at 06:14 PM", "rideEndTime": "May 17, 2024 at 06:34 PM"}}, {"type": "Feature", "geometry": {"coordinates": [[-87.631072, 41.889473], [-87.631063, 41.889218], [-87.629579, 41.889242], [-87.629616, 41.89084], [-87.628048, 41.890871], [-87.628071, 41.891667], [-87.628847, 41.891657]], "type": "LineString"}, "properties": {"timestamp": "2024-05-17T18:37:56", "type": "transition"}}, {"type": "Feature", "geometry": {"coordinates": [[-87.628847, 41.891657], [-87.631127, 41.891621], [-87.630986, 41.885747], [-87.624623, 41.885769], [-87.624571, 41.884489], [-87.624344, 41.884366], [-87.623414, 41.884372], [-87.622907, 41.884293], [-87.620237, 41.884324], [-87.617593, 41.884399], [-87.617441, 41.884426], [-87.617389, 41.884538], [-87.615772, 41.884596], [-87.615797, 41.885979]], "type": "LineString"}, "properties": {"timestamp": "2024-05-17T18:37:56", "type": "ride", "rideType": "UberX", "pickupAddress": "W Grand Ave, Chicago, IL 60654, US", "dropoffAddress": "N Harbor Dr, Chicago, IL 60601-7526, US", "basePay": "5.16", "surge": "0.00", "tip": "5.00", "earnings": "10.16", "duration": "769", "distance": "1.60", "rideStartTime": "May 17, 2024 at 06:37 PM", "rideEndTime": "May 17, 2024 at 06:50 PM"}}, {"type": "Feature", "geometry": {"coordinates": [[-87.615797, 41.885979], [-87.615831, 41.885242], [-87.615774, 41.885076], [-87.615772, 41.884596], [-87.615897, 41.884557], [-87.617389, 41.884538], [-87.617418, 41.885524], [-87.616373, 41.885534], [-87.616288, 41.885561], [-87.616251, 41.885628], [-87.616289, 41.886523], [-87.616352, 41.886547], [-87.618715, 41.88653]], "type": "LineString"}, "properties": {"timestamp": "2024-05-17T18:52:03", "type": "transition"}}, {"type": "Feature", "geometry": {"coordinates": [[-87.618715, 41.88653], [-87.619106, 41.886506], [-87.6191, 41.885527], [-87.617418, 41.885524], [-87.617389, 41.884538], [-87.624571, 41.884489], [-87.62435, 41.875724], [-87.651339, 41.875719], [-87.657603, 41.876197], [-87.688313, 41.875763], [-87.692409, 41.875862], [-87.696151, 41.875983], [-87.696098, 41.873794], [-87.697016, 41.873784]], "type": "LineString"}, "properties": {"timestamp": "2024-05-17T18:52:03", "type": "ride", "rideType": "Uber Pet", "pickupAddress": "E South Water St, Chicago, IL 60601-4004, US", "dropoffAddress": "W Harrison St, Chicago, IL 60612-3523, US", "basePay": "11.45", "surge": "0.00", "tip": "0.00", "earnings": "11.45", "duration": "840", "distance": "4.60", "rideStartTime": "May 17, 2024 at 06:52 PM", "rideEndTime": "May 17, 2024 at 07:06 PM"}}, {"type": "Feature", "geometry": {"coordinates": [[-87.697016, 41.873784], [-87.697016, 41.873784]], "type": "LineString"}, "properties": {"timestamp": "2024-05-17T19:13:01", "type": "transition"}}, {"type": "Feature", "geometry": {"coordinates": [[-87.697016, 41.873784], [-87.696098, 41.873794], [-87.696127, 41.874902], [-87.695509, 41.874908], [-87.690201, 41.875125], [-87.650308, 41.875329], [-87.647601, 41.875302], [-87.645452, 41.874563], [-87.644482, 41.875077], [-87.64458, 41.876036], [-87.645275, 41.880374], [-87.645355, 41.881847], [-87.645393, 41.882198], [-87.64591, 41.885931], [-87.647404, 41.888483], [-87.658783, 41.897251], [-87.660805, 41.901753], [-87.660967, 41.906186], [-87.662226, 41.907951], [-87.664445, 41.910674], [-87.653121, 41.910848], [-87.654016, 41.937175], [-87.653552, 41.937186], [-87.65355, 41.937074]], "type": "LineString"}, "properties": {"timestamp": "2024-05-17T19:13:01", "type": "ride", "rideType": "UberX", "pickupAddress": "W Harrison St, Chicago, IL 60612-3706, US", "dropoffAddress": "N Clark St, Chicago, IL 60657, US", "basePay": "14.16", "surge": "1.25", "tip": "0.00", "earnings": "15.41", "duration": "2681", "distance": "6.70", "rideStartTime": "May 17, 2024 at 07:13 PM", "rideEndTime": "May 17, 2024 at 07:57 PM"}}, {"type": "Feature", "geometry": {"coordinates": [[-87.65355, 41.937074], [-87.653552, 41.937186], [-87.654016, 41.937175], [-87.654165, 41.941734], [-87.644463, 41.941865], [-87.644433, 41.94114], [-87.644851, 41.941134]], "type": "LineString"}, "properties": {"timestamp": "2024-05-17T20:22:51", "type": "transition"}}, {"type": "Feature", "geometry": {"coordinates": [[-87.644851, 41.941134], [-87.649309, 41.941079], [-87.649275, 41.939973], [-87.638796, 41.940268], [-87.638606, 41.939931], [-87.634194, 41.936955], [-87.632527, 41.93482], [-87.632114, 41.933155], [-87.632048, 41.928427], [-87.629189, 41.918735], [-87.627538, 41.915117], [-87.627206, 41.913042], [-87.628067, 41.912346], [-87.631428, 41.913459], [-87.633196, 41.912907], [-87.63294, 41.901826], [-87.631826, 41.90184]], "type": "LineString"}, "properties": {"timestamp": "2024-05-17T20:22:51", "type": "ride", "rideType": "UberX", "pickupAddress": "W Melrose St, Chicago, IL 60657-3418, US", "dropoffAddress": "W Maple St, Chicago, IL 60610, US", "basePay": "9.26", "surge": "1.50", "tip": "0.00", "earnings": "10.76", "duration": "743", "distance": "3.80", "rideStartTime": "May 17, 2024 at 08:22 PM", "rideEndTime": "May 17, 2024 at 08:35 PM"}}, {"type": "Feature", "geometry": {"coordinates": [[-87.631826, 41.90184], [-87.629927, 41.901864], [-87.629995, 41.903925], [-87.627083, 41.903975]], "type": "LineString"}, "properties": {"timestamp": "2024-05-17T20:34:46", "type": "transition"}}, {"type": "Feature", "geometry": {"coordinates": [[-87.627083, 41.903975], [-87.625015, 41.904013], [-87.625125, 41.905182], [-87.626169, 41.90953], [-87.626281, 41.911131], [-87.627054, 41.912538], [-87.627835, 41.912344], [-87.628511, 41.912414], [-87.630586, 41.913269], [-87.631428, 41.913459], [-87.632856, 41.913169], [-87.634358, 41.915623], [-87.634849, 41.915479], [-87.638503, 41.918106]], "type": "LineString"}, "properties": {"timestamp": "2024-05-17T20:34:46", "type": "ride", "rideType": "UberX", "pickupAddress": "E Division St, Chicago, IL 60610-2316, US", "dropoffAddress": "N Lincoln Ave, Chicago, IL 60614, US", "basePay": "6.15", "surge": "0.00", "tip": "0.00", "earnings": "6.15", "duration": "522", "distance": "1.90", "rideStartTime": "May 17, 2024 at 08:34 PM", "rideEndTime": "May 17, 2024 at 08:43 PM"}}, {"type": "Feature", "geometry": {"coordinates": [[-87.638503, 41.918106], [-87.646272, 41.923682], [-87.646319, 41.92499]], "type": "LineString"}, "properties": {"timestamp": "2024-05-17T20:45:30", "type": "transition"}}, {"type": "Feature", "geometry": {"coordinates": [[-87.646319, 41.92499], [-87.646336, 41.925491], [-87.66815, 41.925151], [-87.668616, 41.921563], [-87.677255, 41.921395], [-87.671115, 41.918139], [-87.668247, 41.915543], [-87.664752, 41.909975], [-87.661559, 41.906635], [-87.661131, 41.901587], [-87.659049, 41.896968], [-87.647531, 41.888343], [-87.646219, 41.885929], [-87.645999, 41.881827], [-87.646134, 41.880956], [-87.646145, 41.879569], [-87.646166, 41.878121], [-87.646544, 41.876602], [-87.647927, 41.875847], [-87.662425, 41.876121], [-87.666742, 41.876354], [-87.666531, 41.869262], [-87.670488, 41.8692]], "type": "LineString"}, "properties": {"timestamp": "2024-05-17T20:45:30", "type": "ride", "rideType": "UberX", "pickupAddress": "N Orchard St, Chicago, IL 60614-2511, US", "dropoffAddress": "W Taylor St, Chicago, IL 60607-4224, US", "basePay": "12.90", "surge": "0.00", "tip": "0.00", "earnings": "12.90", "duration": "1647", "distance": "5.90", "rideStartTime": "May 17, 2024 at 08:45 PM", "rideEndTime": "May 17, 2024 at 09:12 PM"}}, {"type": "Feature", "geometry": {"coordinates": [[-87.670488, 41.8692], [-87.670488, 41.8692]], "type": "LineString"}, "properties": {"timestamp": "2024-05-17T21:21:52", "type": "transition"}}, {"type": "Feature", "geometry": {"coordinates": [[-87.670488, 41.8692], [-87.666531, 41.869262], [-87.665804, 41.837665], [-87.697256, 41.818401]], "type": "LineString"}, "properties": {"timestamp": "2024-05-17T21:21:52", "type": "ride", "rideType": "UberX", "pickupAddress": "W Taylor St, Chicago, IL 60607-3847, US", "dropoffAddress": "S Archer Ave, Chicago, IL 60616, US", "basePay": "4.67", "surge": "0.00", "tip": "0.00", "earnings": "4.67", "duration": "477", "distance": "1.80", "rideStartTime": "May 17, 2024 at 09:21 PM", "rideEndTime": "May 17, 2024 at 09:29 PM"}}, {"type": "Feature", "geometry": {"coordinates": [[-87.697256, 41.818401], [-87.689949, 41.822877], [-87.64593, 41.823452], [-87.644436, 41.766001]], "type": "LineString"}, "properties": {"timestamp": "2024-05-17T21:30:13", "type": "transition"}}, {"type": "Feature", "geometry": {"coordinates": [[-87.644436, 41.766001], [-87.644417, 41.765212], [-87.624899, 41.765368], [-87.624908, 41.765772], [-87.62543, 41.769557], [-87.626008, 41.77431], [-87.630526, 41.779578], [-87.630393, 41.837743], [-87.631001, 41.844069], [-87.630081, 41.846653], [-87.616851, 41.847976], [-87.613276, 41.848193], [-87.612177, 41.849732], [-87.618709, 41.863523], [-87.62045, 41.867696], [-87.62062, 41.875872]], "type": "LineString"}, "properties": {"timestamp": "2024-05-17T21:30:13", "type": "ride", "rideType": "UberX", "pickupAddress": "S Halsted St, Chicago, IL 60608, US", "dropoffAddress": "E Monroe St, Chicago, IL 60603, US", "basePay": "9.33", "surge": "0.00", "tip": "0.00", "earnings": "9.33", "duration": "983", "distance": "4.70", "rideStartTime": "May 17, 2024 at 09:30 PM", "rideEndTime": "May 17, 2024 at 09:46 PM"}}, {"type": "Feature", "geometry": {"coordinates": [[-87.62062, 41.875872], [-87.62062, 41.875872]], "type": "LineString"}, "properties": {"timestamp": "2024-05-17T21:54:36", "type": "transition"}}, {"type": "Feature", "geometry": {"coordinates": [[-87.62062, 41.875872], [-87.620589, 41.873218], [-87.617318, 41.873248], [-87.614728, 41.853242], [-87.626818, 41.84732], [-87.631351, 41.843118], [-87.624621, 41.72052], [-87.653181, 41.711591], [-87.662544, 41.636998], [-87.743713, 41.570233], [-87.742861, 41.499211], [-87.761111, 41.408869], [-87.814721, 41.351385], [-87.867101, 41.219237], [-87.865799, 41.175878], [-87.844903, 41.164011], [-87.835896, 41.122686], [-87.836688, 41.119015], [-87.854097, 41.119243], [-87.853612, 41.121841], [-87.854171, 41.121902]], "type": "LineString"}, "properties": {"timestamp": "2024-05-17T21:54:36", "type": "ride", "rideType": "UberX", "pickupAddress": "E Monroe St, Chicago, IL 60603, US", "dropoffAddress": "E Chestnut St, Downtown, IL 60611, US", "basePay": "4.64", "surge": "0.00", "tip": "1.00", "earnings": "5.64", "duration": "611", "distance": "1.40", "rideStartTime": "May 17, 2024 at 09:54 PM", "rideEndTime": "May 17, 2024 at 10:04 PM"}}, {"type": "Feature", "geometry": {"coordinates": [[-87.854171, 41.121902], [-87.849746, 41.121424], [-87.849699, 41.118883], [-87.834861, 41.118921], [-87.84476, 41.164218], [-87.865433, 41.175771], [-87.866302, 41.220462], [-87.814319, 41.35146], [-87.760648, 41.409124], [-87.742012, 41.574355], [-87.662381, 41.636784], [-87.652822, 41.711489], [-87.632642, 41.714662], [-87.625651, 41.769497], [-87.630667, 41.838631], [-87.631001, 41.844069], [-87.616851, 41.847976], [-87.618709, 41.863523], [-87.620283, 41.893412], [-87.621935, 41.893376]], "type": "LineString"}, "properties": {"timestamp": "2024-05-17T22:03:17", "type": "transition"}}, {"type": "Feature", "geometry": {"coordinates": [[-87.621935, 41.893376], [-87.641157, 41.8931], [-87.639878, 41.891506], [-87.643004, 41.891239], [-87.647627, 41.891194], [-87.651495, 41.8937], [-87.651133, 41.894], [-87.65115, 41.895044], [-87.650724, 41.89505]], "type": "LineString"}, "properties": {"timestamp": "2024-05-17T22:03:17", "type": "ride", "rideType": "UberX", "pickupAddress": "E Ontario St, Chicago, IL 60611-3019, US", "dropoffAddress": "W Huron St, Chicago, IL 60642-5914, US", "basePay": "7.94", "surge": "0.00", "tip": "3.00", "earnings": "10.94", "duration": "834", "distance": "2.10", "rideStartTime": "May 17, 2024 at 10:03 PM", "rideEndTime": "May 17, 2024 at 10:17 PM"}}, {"type": "Feature", "geometry": {"coordinates": [[-87.650724, 41.89505], [-87.650724, 41.89505]], "type": "LineString"}, "properties": {"timestamp": "2024-05-17T22:24:34", "type": "transition"}}, {"type": "Feature", "geometry": {"coordinates": [[-87.650724, 41.89505], [-87.65115, 41.895044], [-87.651133, 41.894], [-87.651495, 41.8937], [-87.647627, 41.891194], [-87.643004, 41.891239], [-87.640016, 41.891501], [-87.637019, 41.891543], [-87.63704, 41.892368], [-87.62966, 41.892457], [-87.629727, 41.894584]], "type": "LineString"}, "properties": {"timestamp": "2024-05-17T22:24:34", "type": "ride", "rideType": "UberX", "pickupAddress": "W Huron St, Chicago, IL 60642, US", "dropoffAddress": "N Dearborn St, Chicago, IL 60654-3816, US", "basePay": "4.00", "surge": "0.00", "tip": "3.00", "earnings": "7.00", "duration": "463", "distance": "1.30", "rideStartTime": "May 17, 2024 at 10:24 PM", "rideEndTime": "May 17, 2024 at 10:32 PM"}}, {"type": "Feature", "geometry": {"coordinates": [[-87.629727, 41.894584], [-87.629736, 41.89485], [-87.631201, 41.894831], [-87.631072, 41.889473]], "type": "LineString"}, "properties": {"timestamp": "2024-05-17T22:31:14", "type": "transition"}}, {"type": "Feature", "geometry": {"coordinates": [[-87.631072, 41.889473], [-87.630715, 41.875701], [-87.641651, 41.875644], [-87.646562, 41.876207], [-87.645662, 41.872433], [-87.644363, 41.857367], [-87.645091, 41.850828], [-87.642257, 41.847292], [-87.634652, 41.845323], [-87.632305, 41.843952], [-87.631511, 41.841797], [-87.63168, 41.838241], [-87.626758, 41.838295], [-87.626661, 41.833703]], "type": "LineString"}, "properties": {"timestamp": "2024-05-17T22:31:14", "type": "ride", "rideType": "UberX", "pickupAddress": "N Clark St, Chicago, IL 60654-4502, US", "dropoffAddress": "S State St, Chicago, IL 60605, US", "basePay": "5.48", "surge": "0.00", "tip": "0.00", "earnings": "5.48", "duration": "415", "distance": "1.40", "rideStartTime": "May 17, 2024 at 10:31 PM", "rideEndTime": "May 17, 2024 at 10:38 PM"}}, {"type": "Feature", "geometry": {"coordinates": [[-87.626661, 41.833703], [-87.62663, 41.831006], [-87.629817, 41.830961], [-87.629831, 41.831311], [-87.630393, 41.837743], [-87.630492, 41.841726], [-87.631001, 41.844069], [-87.63096, 41.845776], [-87.630081, 41.846653], [-87.623841, 41.847827], [-87.616851, 41.847976], [-87.613276, 41.848193], [-87.612394, 41.848832], [-87.612177, 41.849732], [-87.613531, 41.852962], [-87.615172, 41.85531], [-87.617619, 41.860334], [-87.618518, 41.862767], [-87.619221, 41.866556], [-87.619018, 41.867469], [-87.624157, 41.867506], [-87.624075, 41.870601], [-87.628609, 41.870542], [-87.62857, 41.869756]], "type": "LineString"}, "properties": {"timestamp": "2024-05-17T22:46:57", "type": "transition"}}, {"type": "Feature", "geometry": {"coordinates": [[-87.62857, 41.869756], [-87.628609, 41.870542], [-87.627449, 41.870533], [-87.6276, 41.874559], [-87.629195, 41.874543], [-87.629598, 41.890042], [-87.631091, 41.890022], [-87.631072, 41.889473]], "type": "LineString"}, "properties": {"timestamp": "2024-05-17T22:46:57", "type": "ride", "rideType": "UberX", "pickupAddress": "S Plymouth Ct, Chicago, IL 60605, US", "dropoffAddress": "N Clark St, Chicago, IL 60654, US", "basePay": "3.85", "surge": "0.00", "tip": "2.00", "earnings": "5.85", "duration": "511", "distance": "1.30", "rideStartTime": "May 17, 2024 at 10:46 PM", "rideEndTime": "May 17, 2024 at 10:55 PM"}}, {"type": "Feature", "geometry": {"coordinates": [[-87.631072, 41.889473], [-87.631063, 41.889218], [-87.629579, 41.889242], [-87.629727, 41.894584]], "type": "LineString"}, "properties": {"timestamp": "2024-05-17T22:56:10", "type": "transition"}}, {"type": "Feature", "geometry": {"coordinates": [[-87.629727, 41.894584], [-87.629839, 41.899126], [-87.621322, 41.899255]], "type": "LineString"}, "properties": {"timestamp": "2024-05-17T22:56:10", "type": "ride", "rideType": "UberX", "pickupAddress": "N Dearborn St, Chicago, IL 60654-4812, US", "dropoffAddress": "W Delaware Pl, Chicago, IL 60610-3306, US", "basePay": "3.01", "surge": "0.00", "tip": "0.00", "earnings": "3.01", "duration": "307", "distance": "0.40", "rideStartTime": "May 17, 2024 at 10:56 PM", "rideEndTime": "May 17, 2024 at 11:01 PM"}}, {"type": "Feature", "geometry": {"coordinates": [[-87.621322, 41.899255], [-87.620228, 41.899272], [-87.620216, 41.898442], [-87.624206, 41.898386], [-87.624388, 41.896443], [-87.624316, 41.893335], [-87.629681, 41.893255], [-87.629727, 41.894584]], "type": "LineString"}, "properties": {"timestamp": "2024-05-17T23:35:32", "type": "transition"}}, {"type": "Feature", "geometry": {"coordinates": [[-87.629727, 41.894584], [-87.629762, 41.895665], [-87.624376, 41.895747], [-87.624211, 41.889927], [-87.624661, 41.887869], [-87.624571, 41.884489], [-87.624344, 41.884366], [-87.623414, 41.884372], [-87.620237, 41.884324], [-87.617593, 41.884399], [-87.617389, 41.884538], [-87.615772, 41.884596], [-87.615811, 41.886931], [-87.61618, 41.886949]], "type": "LineString"}, "properties": {"timestamp": "2024-05-17T23:35:32", "type": "ride", "rideType": "UberX", "pickupAddress": "N Dearborn St, Chicago, IL 60610, US", "dropoffAddress": "E Waterside Dr, Chicago, IL 60601-4736, US", "basePay": "6.08", "surge": "1.25", "tip": "1.40", "earnings": "8.73", "duration": "792", "distance": "2.40", "rideStartTime": "May 17, 2024 at 11:35 PM", "rideEndTime": "May 17, 2024 at 11:48 PM"}}, {"type": "Feature", "geometry": {"coordinates": [[-87.61618, 41.886949], [-87.617235, 41.886944], [-87.61744, 41.887001], [-87.617384, 41.887122], [-87.617443, 41.887718], [-87.617531, 41.887767], [-87.61954, 41.887866], [-87.620783, 41.887992], [-87.620789, 41.886861], [-87.624639, 41.886812], [-87.624571, 41.884489], [-87.624344, 41.884366], [-87.623414, 41.884372], [-87.622907, 41.884293], [-87.621085, 41.884319]], "type": "LineString"}, "properties": {"timestamp": "2024-05-17T23:43:27", "type": "transition"}}, {"type": "Feature", "geometry": {"coordinates": [[-87.621085, 41.884319], [-87.620576, 41.884316], [-87.620627, 41.887811], [-87.620376, 41.887783], [-87.615811, 41.887462], [-87.613913, 41.887569], [-87.613977, 41.889544], [-87.614171, 41.893189], [-87.619441, 41.900921], [-87.622727, 41.90171], [-87.624048, 41.902893], [-87.62589, 41.912141], [-87.628743, 41.918036], [-87.630534, 41.924159], [-87.63067, 41.926223], [-87.648766, 41.925453], [-87.653741, 41.929016], [-87.653827, 41.931569]], "type": "LineString"}, "properties": {"timestamp": "2024-05-17T23:43:27", "type": "ride", "rideType": "UberX", "pickupAddress": "E Randolph St, Chicago, IL 60601, US", "dropoffAddress": "N Sheffield Ave, Chicago, IL 60657, US", "basePay": "10.06", "surge": "2.50", "tip": "2.00", "earnings": "14.56", "duration": "1298", "distance": "5.70", "rideStartTime": "May 17, 2024 at 11:43 PM", "rideEndTime": "May 18, 2024 at 12:05 AM"}}, {"type": "Feature", "geometry": {"coordinates": [[-87.653827, 41.931569], [-87.654106, 41.939918]], "type": "LineString"}, "properties": {"timestamp": "2024-05-18T00:07:06", "type": "transition"}}, {"type": "Feature", "geometry": {"coordinates": [[-87.654106, 41.939918], [-87.666233, 41.939729], [-87.666175, 41.937916], [-87.668655, 41.93788], [-87.668616, 41.921563], [-87.677255, 41.921395], [-87.669405, 41.916815], [-87.664752, 41.909975], [-87.661748, 41.90696], [-87.661131, 41.901587], [-87.659383, 41.897534], [-87.657508, 41.895016], [-87.657416, 41.893069], [-87.659133, 41.891059], [-87.658694, 41.891345]], "type": "LineString"}, "properties": {"timestamp": "2024-05-18T00:07:06", "type": "ride", "rideType": "UberX", "pickupAddress": "W Belmont Ave and N Sheffield Ave, Chicago, IL 60657, US", "dropoffAddress": "N Ogden Ave, Chicago, IL 60642-6418, US", "basePay": "8.68", "surge": "1.50", "tip": "0.00", "earnings": "10.18", "duration": "1116", "distance": "4.70", "rideStartTime": "May 18, 2024 at 12:07 AM", "rideEndTime": "May 18, 2024 at 12:25 AM"}}, {"type": "Feature", "geometry": {"coordinates": [[-87.658694, 41.891345], [-87.658299, 41.891822], [-87.657392, 41.891837], [-87.657374, 41.891076], [-87.652288, 41.891135], [-87.652166, 41.886401], [-87.652344, 41.886398]], "type": "LineString"}, "properties": {"timestamp": "2024-05-18T00:31:32", "type": "transition"}}, {"type": "Feature", "geometry": {"coordinates": [[-87.652344, 41.886398], [-87.652166, 41.886401], [-87.652288, 41.891135], [-87.687437, 41.890657], [-87.708783, 41.899176], [-87.715822, 41.899117]], "type": "LineString"}, "properties": {"timestamp": "2024-05-18T00:31:32", "type": "ride", "rideType": "UberX", "pickupAddress": "1001 W Fulton Market, Chicago, IL 60607, US", "dropoffAddress": "W Augusta Blvd, Chicago, IL 60622-4926, US", "basePay": "5.49", "surge": "5.00", "tip": "3.00", "earnings": "13.49", "duration": "721", "distance": "2.10", "rideStartTime": "May 18, 2024 at 12:31 AM", "rideEndTime": "May 18, 2024 at 12:43 AM"}}, {"type": "Feature", "geometry": {"coordinates": [[-87.715822, 41.899117], [-87.708783, 41.899176], [-87.699899, 41.895625], [-87.65541, 41.896254], [-87.650448, 41.893035]], "type": "LineString"}, "properties": {"timestamp": "2024-05-18T00:43:39", "type": "transition"}}, {"type": "Feature", "geometry": {"coordinates": [[-87.650448, 41.893035], [-87.654976, 41.895983], [-87.655808, 41.89501], [-87.657675, 41.89596], [-87.65932, 41.898217], [-87.660805, 41.901753], [-87.661253, 41.906799], [-87.669906, 41.91766], [-87.709664, 41.940439], [-87.714861, 41.942208], [-87.719618, 41.947985], [-87.738838, 41.958569], [-87.741371, 41.960451], [-87.74187, 41.960845], [-87.794287, 41.960061], [-87.822074, 41.946631], [-87.821404, 41.937842], [-87.820185, 41.937866], [-87.820102, 41.936076], [-87.820727, 41.936062], [-87.82067, 41.934634]], "type": "LineString"}, "properties": {"timestamp": "2024-05-18T00:43:39", "type": "ride", "rideType": "UberX", "pickupAddress": "N Milwaukee Ave, Chicago, IL 60642-4019, US", "dropoffAddress": "N Milwaukee Ave, Chicago, IL 60647-4340, US", "basePay": "6.37", "surge": "1.50", "tip": "2.00", "earnings": "9.87", "duration": "530", "distance": "1.90", "rideStartTime": "May 18, 2024 at 12:43 AM", "rideEndTime": "May 18, 2024 at 12:52 AM"}}, {"type": "Feature", "geometry": {"coordinates": [[-87.82067, 41.934634], [-87.820654, 41.93424], [-87.821275, 41.934229], [-87.821404, 41.937842], [-87.822616, 41.937819], [-87.82292, 41.945136], [-87.824627, 41.945095], [-87.809667, 41.952719], [-87.688469, 41.953985], [-87.688345, 41.949742]], "type": "LineString"}, "properties": {"timestamp": "2024-05-18T01:01:44", "type": "transition"}}, {"type": "Feature", "geometry": {"coordinates": [[-87.688345, 41.949742], [-87.688146, 41.939587], [-87.678134, 41.932278], [-87.677009, 41.894261]], "type": "LineString"}, "properties": {"timestamp": "2024-05-18T01:01:44", "type": "ride", "rideType": "UberX", "pickupAddress": "N Western Ave, Chicago, IL 60622, US", "dropoffAddress": "N Damen Ave, Chicago, IL 60622, US", "basePay": "5.08", "surge": "0.00", "tip": "0.00", "earnings": "5.08", "duration": "196", "distance": "0.90", "rideStartTime": "May 18, 2024 at 01:01 AM", "rideEndTime": "May 18, 2024 at 01:05 AM"}}, {"type": "Feature", "geometry": {"coordinates": [[-87.677009, 41.894261], [-87.677057, 41.895912], [-87.632635, 41.896613], [-87.632751, 41.900548], [-87.628335, 41.9006], [-87.62834, 41.900747], [-87.624042, 41.900824], [-87.62589, 41.912141], [-87.631851, 41.928415], [-87.632152, 41.934381], [-87.638833, 41.941219], [-87.644376, 41.950931], [-87.649207, 41.974381], [-87.649649, 41.976812], [-87.659864, 41.976324], [-87.659822, 41.974627], [-87.663301, 41.974579]], "type": "LineString"}, "properties": {"timestamp": "2024-05-18T10:22:11", "type": "transition"}}]}