{"type": "FeatureCollection", "features": [{"type": "Feature", "geometry": {"coordinates": [[-87.683005, 42.017138], [-87.682991, 42.019473], [-87.747705, 42.019034], [-87.747939, 42.011817], [-87.75189, 42.011856], [-87.748838, 42.007194], [-87.751521, 41.987219], [-87.746835, 41.980228], [-87.747223, 41.966563], [-87.745232, 41.962358], [-87.719592, 41.947613], [-87.715306, 41.94215], [-87.670146, 41.917654], [-87.66137, 41.906646], [-87.659246, 41.897685], [-87.647531, 41.888343], [-87.645999, 41.881827], [-87.646134, 41.880956], [-87.646145, 41.879569], [-87.646166, 41.878121], [-87.649135, 41.875728], [-87.716326, 41.874195], [-87.725442, 41.874358], [-87.72475, 41.851087], [-87.73165, 41.848648]], "type": "LineString"}, "properties": {"timestamp": "2024-04-05T10:09:46", "type": "ride", "rideType": "UberX", "pickupAddress": "N Hoyne Ave, Chicago, IL 60645, US", "dropoffAddress": "W Ogden Ave, Chicago, IL 60612-3714, US", "basePay": "16.71", "surge": "0.00", "tip": "5.19", "earnings": "21.90", "duration": "2127", "distance": "14.90", "rideStartTime": "April 05, 2024 at 10:09 AM", "rideEndTime": "April 05, 2024 at 10:45 AM"}}, {"type": "Feature", "geometry": {"coordinates": [[-87.73165, 41.848648], [-87.734395, 41.847679], [-87.735214, 41.872889], [-87.731862, 41.873657], [-87.708909, 41.873948], [-87.697594, 41.875189], [-87.650308, 41.875329], [-87.647601, 41.875302], [-87.645452, 41.874563], [-87.644482, 41.875077], [-87.64458, 41.876036], [-87.645275, 41.880374], [-87.645355, 41.881847], [-87.645393, 41.882198], [-87.645396, 41.883308], [-87.645365, 41.885689], [-87.647482, 41.885665], [-87.647627, 41.891194], [-87.650448, 41.893035]], "type": "LineString"}, "properties": {"timestamp": "2024-04-05T12:49:32", "type": "transition"}}, {"type": "Feature", "geometry": {"coordinates": [[-87.650448, 41.893035], [-87.660982, 41.899842], [-87.674089, 41.899597], [-87.67412, 41.90052]], "type": "LineString"}, "properties": {"timestamp": "2024-04-05T12:49:32", "type": "ride", "rideType": "UberX", "pickupAddress": "N Milwaukee Ave, Chicago, IL 60642-4019, US", "dropoffAddress": "N Milwaukee Ave, Chicago, IL 60622, US", "basePay": "3.01", "surge": "1.75", "tip": "0.00", "earnings": "4.76", "duration": "266", "distance": "0.60", "rideStartTime": "April 05, 2024 at 12:49 PM", "rideEndTime": "April 05, 2024 at 12:53 PM"}}, {"type": "Feature", "geometry": {"coordinates": [[-87.67412, 41.90052], [-87.674089, 41.899597], [-87.669849, 41.899669], [-87.669869, 41.900367]], "type": "LineString"}, "properties": {"timestamp": "2024-04-05T12:55:27", "type": "transition"}}, {"type": "Feature", "geometry": {"coordinates": [[-87.669869, 41.900367], [-87.669955, 41.90331], [-87.677276, 41.903184], [-87.677494, 41.910469], [-87.688592, 41.917571], [-87.692301, 41.917536], [-87.692287, 41.917031]], "type": "LineString"}, "properties": {"timestamp": "2024-04-05T12:55:27", "type": "ride", "rideType": "UberX", "pickupAddress": "N Paulina St, Chicago, IL 60622-3855, US", "dropoffAddress": "N Rockwell St, Chicago, IL 60625, US", "basePay": "11.47", "surge": "3.00", "tip": "7.00", "earnings": "21.47", "duration": "1289", "distance": "5.90", "rideStartTime": "April 05, 2024 at 12:55 PM", "rideEndTime": "April 05, 2024 at 01:16 PM"}}, {"type": "Feature", "geometry": {"coordinates": [[-87.692287, 41.917031], [-87.692301, 41.917536], [-87.667505, 41.91793], [-87.666413, 41.916455], [-87.663815, 41.917067], [-87.658378, 41.917139], [-87.658214, 41.918041], [-87.638808, 41.918322], [-87.638503, 41.918106]], "type": "LineString"}, "properties": {"timestamp": "2024-04-05T13:27:08", "type": "transition"}}, {"type": "Feature", "geometry": {"coordinates": [[-87.638503, 41.918106], [-87.638808, 41.918322], [-87.638941, 41.921954], [-87.63646, 41.92199], [-87.636586, 41.925658], [-87.63067, 41.926223], [-87.631851, 41.928415], [-87.632612, 41.935386], [-87.638833, 41.941219], [-87.644376, 41.950931], [-87.647541, 41.967723], [-87.647273, 41.969474], [-87.702871, 41.96851], [-87.701541, 41.966694], [-87.701889, 41.966691], [-87.701875, 41.966227], [-87.703687, 41.966208]], "type": "LineString"}, "properties": {"timestamp": "2024-04-05T13:27:08", "type": "ride", "rideType": "UberX", "pickupAddress": "N Lincoln Ave, Chicago, IL 60625, US", "dropoffAddress": "N Kedzie Ave, Chicago, IL 60625-4712, US", "basePay": "4.19", "surge": "0.00", "tip": "0.00", "earnings": "4.19", "duration": "264", "distance": "1.10", "rideStartTime": "April 05, 2024 at 01:27 PM", "rideEndTime": "April 05, 2024 at 01:31 PM"}}, {"type": "Feature", "geometry": {"coordinates": [[-87.703687, 41.966208], [-87.703687, 41.966208]], "type": "LineString"}, "properties": {"timestamp": "2024-04-05T13:33:12", "type": "transition"}}, {"type": "Feature", "geometry": {"coordinates": [[-87.703687, 41.966208], [-87.703517, 41.966209], [-87.703607, 41.968503], [-87.713373, 41.968411], [-87.713554, 41.975692], [-87.745776, 41.975364], [-87.746921, 41.977435], [-87.746796, 41.980645], [-87.750643, 41.985324], [-87.751348, 41.987222], [-87.750649, 41.995203], [-87.748714, 42.001506], [-87.748691, 42.007768], [-87.750639, 42.011931], [-87.750297, 42.013105], [-87.749434, 42.012339], [-87.750189, 42.011836], [-87.77782, 42.011989]], "type": "LineString"}, "properties": {"timestamp": "2024-04-05T13:33:12", "type": "ride", "rideType": "UberX", "pickupAddress": "N Kedzie Ave, Chicago, IL 60625-5207, US", "dropoffAddress": "W Touhy Ave, Niles, IL 60714, US", "basePay": "9.77", "surge": "0.00", "tip": "0.00", "earnings": "9.77", "duration": "1072", "distance": "6.40", "rideStartTime": "April 05, 2024 at 01:33 PM", "rideEndTime": "April 05, 2024 at 01:51 PM"}}, {"type": "Feature", "geometry": {"coordinates": [[-87.77782, 42.011989], [-87.77782, 42.011989]], "type": "LineString"}, "properties": {"timestamp": "2024-04-05T14:00:59", "type": "transition"}}, {"type": "Feature", "geometry": {"coordinates": [[-87.77782, 42.011989], [-87.761544, 42.011818], [-87.761273, 42.01425], [-87.759027, 42.020929], [-87.758439, 42.021831], [-87.752383, 42.021804], [-87.751923, 42.022149], [-87.751862, 42.024493], [-87.749772, 42.024475]], "type": "LineString"}, "properties": {"timestamp": "2024-04-05T14:00:59", "type": "ride", "rideType": "UberX", "pickupAddress": "W Touhy Ave, Niles, IL 60714, US", "dropoffAddress": "Kirk St, Skokie, IL 60077-3002, US", "basePay": "3.54", "surge": "0.00", "tip": "1.00", "earnings": "4.54", "duration": "410", "distance": "1.70", "rideStartTime": "April 05, 2024 at 02:00 PM", "rideEndTime": "April 05, 2024 at 02:07 PM"}}, {"type": "Feature", "geometry": {"coordinates": [[-87.749772, 42.024475], [-87.751862, 42.024493], [-87.751923, 42.022149], [-87.752216, 42.021926], [-87.748642, 42.01904], [-87.728246, 42.018987], [-87.684645, 42.019488], [-87.684067, 42.015152], [-87.681855, 42.008899], [-87.679672, 42.004103], [-87.680339, 42.004091], [-87.68034, 42.004141]], "type": "LineString"}, "properties": {"timestamp": "2024-04-05T14:36:56", "type": "transition"}}, {"type": "Feature", "geometry": {"coordinates": [[-87.68034, 42.004141], [-87.680339, 42.004091], [-87.679672, 42.004103], [-87.680175, 42.005209], [-87.709343, 42.004672], [-87.709354, 41.997394], [-87.748324, 41.997339], [-87.747984, 41.975339], [-87.755278, 41.975246], [-87.755249, 41.974331], [-87.756662, 41.974319]], "type": "LineString"}, "properties": {"timestamp": "2024-04-05T14:36:56", "type": "ride", "rideType": "UberX", "pickupAddress": "N Damen Ave, Chicago, IL 60645-5102, US", "dropoffAddress": "W Winona St, Chicago, IL 60630-2331, US", "basePay": "13.26", "surge": "1.25", "tip": "0.00", "earnings": "14.51", "duration": "1408", "distance": "5.90", "rideStartTime": "April 05, 2024 at 02:36 PM", "rideEndTime": "April 05, 2024 at 03:00 PM"}}, {"type": "Feature", "geometry": {"coordinates": [[-87.756662, 41.974319], [-87.757731, 41.974311], [-87.757586, 41.969737], [-87.758408, 41.969704], [-87.759449, 41.969369], [-87.761242, 41.968432], [-87.757803, 41.964478]], "type": "LineString"}, "properties": {"timestamp": "2024-04-05T15:15:44", "type": "transition"}}, {"type": "Feature", "geometry": {"coordinates": [[-87.757803, 41.964478], [-87.758052, 41.964761], [-87.757599, 41.964985], [-87.757708, 41.967874], [-87.747723, 41.968033], [-87.747918, 41.972896], [-87.747761, 41.972794], [-87.747223, 41.966563], [-87.746728, 41.964261], [-87.745232, 41.962358], [-87.741323, 41.959634], [-87.719592, 41.947613], [-87.715306, 41.94215], [-87.709927, 41.940372], [-87.670146, 41.917654], [-87.66137, 41.906646], [-87.660965, 41.901658], [-87.659066, 41.897394], [-87.653065, 41.892534], [-87.63704, 41.892368], [-87.637019, 41.891543], [-87.647627, 41.891194], [-87.650448, 41.893035]], "type": "LineString"}, "properties": {"timestamp": "2024-04-05T15:15:44", "type": "ride", "rideType": "UberX", "pickupAddress": "N Milwaukee Ave, Chicago, IL 60641, US", "dropoffAddress": "N Milwaukee Ave, Chicago, IL 60642, US", "basePay": "10.91", "surge": "0.00", "tip": "0.00", "earnings": "10.91", "duration": "1406", "distance": "7.10", "rideStartTime": "April 05, 2024 at 03:15 PM", "rideEndTime": "April 05, 2024 at 03:39 PM"}}, {"type": "Feature", "geometry": {"coordinates": [[-87.650448, 41.893035], [-87.650924, 41.893342], [-87.647667, 41.89336], [-87.648086, 41.903643], [-87.639563, 41.903768], [-87.6404, 41.904375], [-87.64022, 41.904515], [-87.639718, 41.904149]], "type": "LineString"}, "properties": {"timestamp": "2024-04-05T15:39:47", "type": "transition"}}, {"type": "Feature", "geometry": {"coordinates": [[-87.639718, 41.904149], [-87.64022, 41.904515], [-87.6404, 41.904375], [-87.639563, 41.903768], [-87.633004, 41.903886], [-87.632683, 41.890793], [-87.631109, 41.890814], [-87.631072, 41.889473]], "type": "LineString"}, "properties": {"timestamp": "2024-04-05T15:39:47", "type": "ride", "rideType": "UberX", "pickupAddress": "W Chicago Ave, Chicago, IL 60642, US", "dropoffAddress": "N Clark St, Chicago, IL 60654, US", "basePay": "6.65", "surge": "2.25", "tip": "5.48", "earnings": "14.38", "duration": "592", "distance": "2.30", "rideStartTime": "April 05, 2024 at 03:39 PM", "rideEndTime": "April 05, 2024 at 03:49 PM"}}, {"type": "Feature", "geometry": {"coordinates": [[-87.631072, 41.889473], [-87.631072, 41.889473]], "type": "LineString"}, "properties": {"timestamp": "2024-04-05T15:55:10", "type": "transition"}}, {"type": "Feature", "geometry": {"coordinates": [[-87.631072, 41.889473], [-87.631063, 41.889218], [-87.629579, 41.889242], [-87.629995, 41.903925], [-87.628691, 41.903945], [-87.628786, 41.907482]], "type": "LineString"}, "properties": {"timestamp": "2024-04-05T15:55:10", "type": "ride", "rideType": "UberX", "pickupAddress": "N Clark St, Chicago, IL 60654, US", "dropoffAddress": "N State Pkwy, Chicago, IL 60610-8112, US", "basePay": "5.17", "surge": "0.00", "tip": "0.00", "earnings": "5.17", "duration": "797", "distance": "2.40", "rideStartTime": "April 05, 2024 at 03:55 PM", "rideEndTime": "April 05, 2024 at 04:08 PM"}}, {"type": "Feature", "geometry": {"coordinates": [[-87.628786, 41.907482], [-87.62884, 41.909484], [-87.626169, 41.90953], [-87.626932, 41.912316], [-87.624114, 41.90257], [-87.619617, 41.900898], [-87.614229, 41.892716], [-87.614127, 41.884928], [-87.617453, 41.881821], [-87.617261, 41.869765], [-87.619588, 41.866208], [-87.614728, 41.853242], [-87.614444, 41.848506], [-87.626818, 41.84732], [-87.631727, 41.847855], [-87.631351, 41.843118], [-87.631289, 41.79178], [-87.631532, 41.783322], [-87.631833, 41.779372], [-87.632128, 41.779366], [-87.632538, 41.778543]], "type": "LineString"}, "properties": {"timestamp": "2024-04-05T16:28:59", "type": "transition"}}, {"type": "Feature", "geometry": {"coordinates": [[-87.632538, 41.778543], [-87.632128, 41.779366], [-87.631833, 41.779372], [-87.631812, 41.778124], [-87.635009, 41.778077], [-87.635057, 41.779907], [-87.630139, 41.779931], [-87.630149, 41.780433], [-87.63142, 41.807989], [-87.629665, 41.812785], [-87.630393, 41.837743], [-87.631347, 41.844144], [-87.642036, 41.847354], [-87.644778, 41.850632], [-87.645875, 41.885816], [-87.648003, 41.8891], [-87.658783, 41.897251], [-87.659701, 41.899938], [-87.67107, 41.899648], [-87.671103, 41.900741]], "type": "LineString"}, "properties": {"timestamp": "2024-04-05T16:28:59", "type": "ride", "rideType": "Uber Pet", "pickupAddress": "W North Ave, Chicago, IL 60610, US", "dropoffAddress": "N Hermitage Ave, Chicago, IL 60640-2716, US", "basePay": "15.34", "surge": "1.25", "tip": "5.79", "earnings": "22.38", "duration": "1558", "distance": "6.90", "rideStartTime": "April 05, 2024 at 04:28 PM", "rideEndTime": "April 05, 2024 at 04:54 PM"}}, {"type": "Feature", "geometry": {"coordinates": [[-87.671103, 41.900741], [-87.67118, 41.903289], [-87.667439, 41.903351], [-87.667771, 41.917197], [-87.66862, 41.92163], [-87.668113, 41.926065], [-87.669543, 41.976174], [-87.674927, 41.976095], [-87.67488, 41.974623]], "type": "LineString"}, "properties": {"timestamp": "2024-04-05T17:07:47", "type": "transition"}}, {"type": "Feature", "geometry": {"coordinates": [[-87.67488, 41.974623], [-87.674845, 41.97335], [-87.669592, 41.973436], [-87.669293, 41.961591], [-87.665949, 41.961638], [-87.664497, 41.958026], [-87.662484, 41.954753], [-87.654273, 41.944458], [-87.654016, 41.937175], [-87.653552, 41.937186], [-87.65355, 41.937074]], "type": "LineString"}, "properties": {"timestamp": "2024-04-05T17:07:47", "type": "ride", "rideType": "UberX", "pickupAddress": "N Ravenswood Ave, Chicago, IL 60640, US", "dropoffAddress": "N Clark St, Chicago, IL 60657, US", "basePay": "6.30", "surge": "0.00", "tip": "0.00", "earnings": "6.30", "duration": "727", "distance": "2.20", "rideStartTime": "April 05, 2024 at 05:07 PM", "rideEndTime": "April 05, 2024 at 05:19 PM"}}, {"type": "Feature", "geometry": {"coordinates": [[-87.65355, 41.937074], [-87.653552, 41.937186], [-87.654016, 41.937175], [-87.654106, 41.939918], [-87.658974, 41.939838], [-87.659122, 41.945319], [-87.664502, 41.945239]], "type": "LineString"}, "properties": {"timestamp": "2024-04-05T17:25:44", "type": "transition"}}, {"type": "Feature", "geometry": {"coordinates": [[-87.664502, 41.945239], [-87.663953, 41.945247], [-87.66393, 41.944336], [-87.654273, 41.944458], [-87.650679, 41.939965], [-87.638796, 41.940268], [-87.638606, 41.939931], [-87.634194, 41.936955], [-87.632453, 41.934639], [-87.632048, 41.928427], [-87.629189, 41.918735], [-87.62605, 41.911998], [-87.624861, 41.904908], [-87.624179, 41.901978], [-87.624357, 41.894946], [-87.631577, 41.894826]], "type": "LineString"}, "properties": {"timestamp": "2024-04-05T17:25:44", "type": "ride", "rideType": "UberX", "pickupAddress": "W Cornelia Ave, Chicago, IL 60657-1428, US", "dropoffAddress": "110 W Huron St, Chicago, IL 60654, US", "basePay": "10.01", "surge": "2.00", "tip": "0.00", "earnings": "12.01", "duration": "1795", "distance": "5.30", "rideStartTime": "April 05, 2024 at 05:25 PM", "rideEndTime": "April 05, 2024 at 05:55 PM"}}, {"type": "Feature", "geometry": {"coordinates": [[-87.631577, 41.894826], [-87.632582, 41.894813], [-87.632751, 41.900548], [-87.628335, 41.9006], [-87.62834, 41.900747], [-87.624042, 41.900824], [-87.623664, 41.902709], [-87.62589, 41.912141], [-87.628743, 41.918036], [-87.631851, 41.928415], [-87.632152, 41.934381], [-87.633661, 41.936704], [-87.638833, 41.941219], [-87.644376, 41.950931], [-87.646094, 41.960253], [-87.645534, 41.962086], [-87.655148, 41.961772], [-87.656894, 41.964503]], "type": "LineString"}, "properties": {"timestamp": "2024-04-06T14:55:20", "type": "transition"}}]}