{"type": "FeatureCollection", "features": [{"type": "Feature", "geometry": {"coordinates": [[-87.658038, 41.984272], [-87.658021, 41.983669], [-87.653702, 41.983688], [-87.648822, 41.972134], [-87.644611, 41.950978], [-87.638957, 41.941067], [-87.632453, 41.934639], [-87.632048, 41.928427], [-87.62428, 41.902892], [-87.619617, 41.900898], [-87.614304, 41.892985], [-87.614127, 41.884928], [-87.617321, 41.882167], [-87.617442, 41.878363], [-87.620697, 41.878331], [-87.620625, 41.876287], [-87.688313, 41.875763], [-87.692409, 41.875862], [-87.696151, 41.875983], [-87.696098, 41.873794], [-87.697016, 41.873784]], "type": "LineString"}, "properties": {"timestamp": "2024-03-06T19:00:34", "type": "ride", "rideType": "UberX", "pickupAddress": "N Winthrop Ave, Chicago, IL 60660-4304, US", "dropoffAddress": "W Harrison St, Chicago, IL 60612, US", "basePay": "15.00", "surge": "0.00", "tip": "0.00", "earnings": "15.00", "duration": "1698", "distance": "11.20", "rideStartTime": "March 06, 2024 at 07:00 PM", "rideEndTime": "March 06, 2024 at 07:28 PM"}}, {"type": "Feature", "geometry": {"coordinates": [[-87.697016, 41.873784], [-87.696098, 41.873794], [-87.695913, 41.866515], [-87.671352, 41.866763], [-87.671422, 41.869184], [-87.670488, 41.8692]], "type": "LineString"}, "properties": {"timestamp": "2024-03-06T19:36:22", "type": "transition"}}, {"type": "Feature", "geometry": {"coordinates": [[-87.670488, 41.8692], [-87.680846, 41.869064], [-87.686158, 41.864713], [-87.719882, 41.85285], [-87.719647, 41.843584]], "type": "LineString"}, "properties": {"timestamp": "2024-03-06T19:36:22", "type": "ride", "rideType": "UberX", "pickupAddress": "W Taylor St, Chicago, IL 60612-4320, US", "dropoffAddress": "S Hamlin Ave, Chicago, IL 60623-2060, US", "basePay": "6.32", "surge": "0.00", "tip": "0.00", "earnings": "6.32", "duration": "710", "distance": "2.90", "rideStartTime": "March 06, 2024 at 07:36 PM", "rideEndTime": "March 06, 2024 at 07:48 PM"}}, {"type": "Feature", "geometry": {"coordinates": [[-87.719647, 41.843584], [-87.719616, 41.842489], [-87.714751, 41.842563], [-87.715087, 41.85443], [-87.686158, 41.864713], [-87.683748, 41.866652], [-87.666327, 41.866797], [-87.666464, 41.871629], [-87.662941, 41.871693], [-87.662955, 41.870725]], "type": "LineString"}, "properties": {"timestamp": "2024-03-06T20:30:26", "type": "transition"}}, {"type": "Feature", "geometry": {"coordinates": [[-87.662955, 41.870725], [-87.662906, 41.870382], [-87.662941, 41.871693], [-87.666464, 41.871629], [-87.66659, 41.876357], [-87.698604, 41.87596], [-87.698638, 41.877405], [-87.69832, 41.877408]], "type": "LineString"}, "properties": {"timestamp": "2024-03-06T20:30:26", "type": "ride", "rideType": "UberX", "pickupAddress": "S Bishop St, Chicago, IL 60607-4020, US", "dropoffAddress": "W Jackson Blvd, Chicago, IL 60607, US", "basePay": "4.49", "surge": "0.00", "tip": "0.00", "earnings": "4.49", "duration": "272", "distance": "1.10", "rideStartTime": "March 06, 2024 at 08:30 PM", "rideEndTime": "March 06, 2024 at 08:34 PM"}}, {"type": "Feature", "geometry": {"coordinates": [[-87.69832, 41.877408], [-87.69832, 41.877408]], "type": "LineString"}, "properties": {"timestamp": "2024-03-06T20:37:05", "type": "transition"}}, {"type": "Feature", "geometry": {"coordinates": [[-87.69832, 41.877408], [-87.696189, 41.877434], [-87.696127, 41.874902], [-87.695509, 41.874908], [-87.690201, 41.875125], [-87.659837, 41.87561], [-87.650308, 41.875329], [-87.648052, 41.875215], [-87.646919, 41.874806], [-87.64633, 41.874142], [-87.645367, 41.869682], [-87.651118, 41.869507], [-87.651139, 41.868055], [-87.651026, 41.868305], [-87.648898, 41.868337]], "type": "LineString"}, "properties": {"timestamp": "2024-03-06T20:37:05", "type": "ride", "rideType": "UberX", "pickupAddress": "W Jackson Blvd, Chicago, IL 60661, US", "dropoffAddress": "W Harrison St, Chicago, IL 60607-3532, US", "basePay": "3.34", "surge": "1.00", "tip": "0.00", "earnings": "4.34", "duration": "161", "distance": "0.50", "rideStartTime": "March 06, 2024 at 08:37 PM", "rideEndTime": "March 06, 2024 at 08:39 PM"}}, {"type": "Feature", "geometry": {"coordinates": [[-87.648898, 41.868337], [-87.651026, 41.868305], [-87.651118, 41.869507], [-87.644443, 41.869691], [-87.644854, 41.873493], [-87.644167, 41.87559], [-87.645364, 41.877863], [-87.645275, 41.880374], [-87.645355, 41.881847], [-87.645393, 41.882198], [-87.645396, 41.883308], [-87.645365, 41.885689], [-87.647482, 41.885665], [-87.647611, 41.890088], [-87.64819, 41.890084], [-87.64819, 41.889822]], "type": "LineString"}, "properties": {"timestamp": "2024-03-06T20:39:11", "type": "transition"}}, {"type": "Feature", "geometry": {"coordinates": [[-87.64819, 41.889822], [-87.64819, 41.890084], [-87.647611, 41.890088], [-87.647627, 41.891194], [-87.654976, 41.895983], [-87.655808, 41.89501], [-87.657675, 41.89596], [-87.659011, 41.897622], [-87.660805, 41.901753], [-87.661061, 41.906443], [-87.664439, 41.910145], [-87.668818, 41.916712], [-87.690595, 41.929581], [-87.694122, 41.932133], [-87.687832, 41.932179], [-87.688686, 41.961319], [-87.680587, 41.961439], [-87.680736, 41.966637]], "type": "LineString"}, "properties": {"timestamp": "2024-03-06T20:39:11", "type": "ride", "rideType": "UberX", "pickupAddress": "S Halsted St, Chicago, IL 60607-3603, US", "dropoffAddress": "N Seeley Ave, Chicago, IL 60625-1704, US", "basePay": "10.47", "surge": "0.00", "tip": "4.58", "earnings": "15.05", "duration": "1168", "distance": "8.00", "rideStartTime": "March 06, 2024 at 08:39 PM", "rideEndTime": "March 06, 2024 at 08:58 PM"}}, {"type": "Feature", "geometry": {"coordinates": [[-87.680736, 41.966637], [-87.680796, 41.968733], [-87.714891, 41.968394]], "type": "LineString"}, "properties": {"timestamp": "2024-03-06T21:09:47", "type": "transition"}}, {"type": "Feature", "geometry": {"coordinates": [[-87.714891, 41.968394], [-87.659673, 41.969021], [-87.657469, 41.965401], [-87.652393, 41.965457], [-87.652375, 41.96449], [-87.65273, 41.964485]], "type": "LineString"}, "properties": {"timestamp": "2024-03-06T21:09:47", "type": "ride", "rideType": "UberX", "pickupAddress": "W Lawrence Ave, Chicago, IL 60640, US", "dropoffAddress": "W Windsor Ave, Chicago, IL 60640-6108, US", "basePay": "4.54", "surge": "0.00", "tip": "0.00", "earnings": "4.54", "duration": "482", "distance": "1.60", "rideStartTime": "March 06, 2024 at 09:09 PM", "rideEndTime": "March 06, 2024 at 09:17 PM"}}, {"type": "Feature", "geometry": {"coordinates": [[-87.65273, 41.964485], [-87.654779, 41.96446], [-87.654748, 41.961775], [-87.714367, 41.961119], [-87.714413, 41.962942], [-87.713522, 41.962954]], "type": "LineString"}, "properties": {"timestamp": "2024-03-06T21:21:03", "type": "transition"}}, {"type": "Feature", "geometry": {"coordinates": [[-87.713522, 41.962954], [-87.713199, 41.962957], [-87.713554, 41.975692], [-87.689151, 41.975899], [-87.68922, 41.977715], [-87.688432, 41.977735], [-87.685014, 41.97925], [-87.679565, 41.982043], [-87.679477, 41.983198], [-87.661354, 41.983611], [-87.661271, 41.980907]], "type": "LineString"}, "properties": {"timestamp": "2024-03-06T21:21:03", "type": "ride", "rideType": "UberX", "pickupAddress": "W Sunnyside Ave, Chicago, IL 60640-6107, US", "dropoffAddress": "N Magnolia Ave, Chicago, IL 60640-5511, US", "basePay": "3.01", "surge": "0.00", "tip": "0.00", "earnings": "3.01", "duration": "175", "distance": "0.60", "rideStartTime": "March 06, 2024 at 09:21 PM", "rideEndTime": "March 06, 2024 at 09:23 PM"}}, {"type": "Feature", "geometry": {"coordinates": [[-87.661271, 41.980907], [-87.661135, 41.976304], [-87.66966, 41.976173], [-87.66911, 41.954302], [-87.688469, 41.954086], [-87.687413, 41.917587], [-87.702101, 41.91745], [-87.702035, 41.915629], [-87.703717, 41.915612]], "type": "LineString"}, "properties": {"timestamp": "2024-03-07T11:54:52", "type": "transition"}}]}