{"type": "FeatureCollection", "features": [{"type": "Feature", "geometry": {"coordinates": [[-87.639435, 41.936919], [-87.63931, 41.932914], [-87.66355, 41.932479], [-87.6632, 41.921626], [-87.664379, 41.921608], [-87.664499, 41.921692]], "type": "LineString"}, "properties": {"timestamp": "2024-08-22T13:32:57", "type": "ride"}}, {"type": "Feature", "geometry": {"coordinates": [[-87.664499, 41.921692], [-87.664379, 41.921608], [-87.668616, 41.921563], [-87.667771, 41.917197], [-87.667495, 41.901054], [-87.669888, 41.901009], [-87.669869, 41.900367]], "type": "LineString"}, "properties": {"timestamp": "2024-08-22T14:02:38", "type": "transition"}}, {"type": "Feature", "geometry": {"coordinates": [[-87.669869, 41.900367], [-87.669849, 41.899669], [-87.660982, 41.899842], [-87.660843, 41.899711], [-87.658834, 41.896667], [-87.657114, 41.895018], [-87.655657, 41.89377], [-87.654831, 41.89226], [-87.653963, 41.891931], [-87.651034, 41.892554], [-87.648515, 41.892376], [-87.639284, 41.892486], [-87.63704, 41.892368], [-87.636943, 41.888771], [-87.63637, 41.887983], [-87.63527, 41.888]], "type": "LineString"}, "properties": {"timestamp": "2024-08-22T14:02:38", "type": "ride"}}, {"type": "Feature", "geometry": {"coordinates": [[-87.63527, 41.888], [-87.63637, 41.887983], [-87.636789, 41.888455], [-87.636943, 41.888771], [-87.63704, 41.892368], [-87.62966, 41.892457], [-87.629727, 41.894584]], "type": "LineString"}, "properties": {"timestamp": "2024-08-22T14:21:19", "type": "transition"}}, {"type": "Feature", "geometry": {"coordinates": [[-87.629727, 41.894584], [-87.62978, 41.896655], [-87.616893, 41.896844], [-87.614264, 41.892868], [-87.614081, 41.885247], [-87.614645, 41.884041], [-87.617453, 41.881821], [-87.617261, 41.869765], [-87.619589, 41.866068], [-87.614728, 41.853242], [-87.613506, 41.849799], [-87.614444, 41.848506], [-87.623443, 41.848101], [-87.626818, 41.84732], [-87.630758, 41.848155], [-87.631727, 41.847855], [-87.631351, 41.843118], [-87.631163, 41.834246], [-87.631513, 41.830937], [-87.626457, 41.831008], [-87.626475, 41.83283], [-87.625023, 41.832863]], "type": "LineString"}, "properties": {"timestamp": "2024-08-22T14:21:19", "type": "ride"}}, {"type": "Feature", "geometry": {"coordinates": [[-87.625023, 41.832863], [-87.626475, 41.83283], [-87.626499, 41.834676], [-87.626674, 41.834684], [-87.62663, 41.831006], [-87.631513, 41.830937], [-87.631268, 41.819145], [-87.64093, 41.818987], [-87.640874, 41.816722], [-87.642841, 41.816684]], "type": "LineString"}, "properties": {"timestamp": "2024-08-22T14:32:51", "type": "transition"}}, {"type": "Feature", "geometry": {"coordinates": [[-87.642841, 41.816684], [-87.642091, 41.816698], [-87.64208, 41.816246], [-87.631192, 41.816426], [-87.631174, 41.816105], [-87.630735, 41.812287], [-87.63223, 41.807383], [-87.631289, 41.778978], [-87.626564, 41.773198], [-87.626239, 41.768925], [-87.626556, 41.766175], [-87.626539, 41.765349], [-87.58632, 41.765964], [-87.586137, 41.759682], [-87.585114, 41.759693], [-87.585107, 41.759229], [-87.584124, 41.759242]], "type": "LineString"}, "properties": {"timestamp": "2024-08-22T14:32:51", "type": "ride"}}, {"type": "Feature", "geometry": {"coordinates": [[-87.584124, 41.759242], [-87.585107, 41.759229], [-87.585114, 41.759693], [-87.585762, 41.759686], [-87.585994, 41.771514], [-87.584175, 41.780203], [-87.574628, 41.780713], [-87.581975, 41.803976], [-87.606909, 41.832668], [-87.610426, 41.843509], [-87.612641, 41.848604], [-87.630973, 41.847424], [-87.641219, 41.847736], [-87.644555, 41.850742], [-87.64591, 41.885931], [-87.6586, 41.897003], [-87.661061, 41.906443], [-87.668478, 41.916334], [-87.715161, 41.942387], [-87.719618, 41.947985], [-87.742619, 41.960998], [-87.752403, 41.966033], [-87.75503, 41.967937], [-87.757623, 41.967938], [-87.758399, 41.968431]], "type": "LineString"}, "properties": {"timestamp": "2024-08-22T19:29:30", "type": "transition"}}, {"type": "Feature", "geometry": {"coordinates": [[-87.758399, 41.968431], [-87.757622, 41.967875], [-87.747723, 41.968033], [-87.747918, 41.972896], [-87.747761, 41.972794], [-87.747223, 41.966563], [-87.745961, 41.963113], [-87.742125, 41.960129], [-87.719592, 41.947613], [-87.715306, 41.94215], [-87.710219, 41.940524], [-87.698173, 41.933659], [-87.687291, 41.927358], [-87.683686, 41.924962], [-87.647534, 41.925472]], "type": "LineString"}, "properties": {"timestamp": "2024-08-22T19:29:30", "type": "ride"}}, {"type": "Feature", "geometry": {"coordinates": [[-87.647534, 41.925472], [-87.63436, 41.925687], [-87.631853, 41.926001], [-87.630603, 41.923776], [-87.629189, 41.918735], [-87.627538, 41.915117], [-87.626932, 41.912316]], "type": "LineString"}, "properties": {"timestamp": "2024-08-22T19:51:24", "type": "transition"}}, {"type": "Feature", "geometry": {"coordinates": [[-87.626932, 41.912316], [-87.627054, 41.912538], [-87.628511, 41.912414], [-87.631428, 41.913459], [-87.632669, 41.91325], [-87.633227, 41.912793], [-87.632696, 41.891597], [-87.634054, 41.891576], [-87.634037, 41.890774], [-87.633354, 41.890784]], "type": "LineString"}, "properties": {"timestamp": "2024-08-22T19:51:24", "type": "ride"}}, {"type": "Feature", "geometry": {"coordinates": [[-87.633354, 41.890784], [-87.624208, 41.89093], [-87.624567, 41.888229], [-87.615811, 41.887462], [-87.614014, 41.887175], [-87.61394, 41.885118], [-87.617453, 41.881821], [-87.617261, 41.869765], [-87.619563, 41.865851], [-87.607689, 41.833588], [-87.593977, 41.815295], [-87.58209, 41.803885], [-87.57922, 41.796009], [-87.58022, 41.791662], [-87.574954, 41.781232], [-87.579216, 41.779846], [-87.584175, 41.780203], [-87.586376, 41.776085], [-87.586137, 41.759682], [-87.585114, 41.759693], [-87.585107, 41.759229], [-87.584124, 41.759242]], "type": "LineString"}, "properties": {"timestamp": "2024-08-22T21:00:32", "type": "transition"}}, {"type": "Feature", "geometry": {"coordinates": [[-87.584124, 41.759242], [-87.585107, 41.759229], [-87.585114, 41.759693], [-87.585762, 41.759686], [-87.585994, 41.771514], [-87.584919, 41.774909], [-87.585166, 41.778263], [-87.584175, 41.780203], [-87.57958, 41.77981], [-87.574628, 41.780713], [-87.577194, 41.785263], [-87.577988, 41.789105], [-87.580105, 41.791827], [-87.579065, 41.795899], [-87.5812, 41.799076], [-87.581975, 41.803976], [-87.593676, 41.815381], [-87.599195, 41.823136], [-87.599849, 41.825435], [-87.604296, 41.824226], [-87.621597, 41.823783], [-87.621608, 41.824244]], "type": "LineString"}, "properties": {"timestamp": "2024-08-22T21:00:32", "type": "ride"}}, {"type": "Feature", "geometry": {"coordinates": [[-87.621608, 41.824244], [-87.621656, 41.826518], [-87.623134, 41.8265], [-87.62314, 41.823762], [-87.631351, 41.823664], [-87.631372, 41.823339], [-87.632226, 41.807984], [-87.631154, 41.779333], [-87.626113, 41.772231], [-87.624621, 41.72052], [-87.621065, 41.713653], [-87.600337, 41.713191], [-87.592948, 41.708673], [-87.592406, 41.703483], [-87.601798, 41.685512], [-87.601728, 41.676933], [-87.589096, 41.660202], [-87.59119, 41.659512], [-87.560717, 41.658851], [-87.555878, 41.656176], [-87.555649, 41.65737], [-87.553811, 41.65736], [-87.553812, 41.656889]], "type": "LineString"}, "properties": {"timestamp": "2024-08-22T21:13:20", "type": "transition"}}, {"type": "Feature", "geometry": {"coordinates": [[-87.553812, 41.656889], [-87.553811, 41.65736], [-87.557102, 41.657281], [-87.585314, 41.660149], [-87.590822, 41.662478], [-87.601403, 41.675885], [-87.601563, 41.685726], [-87.594329, 41.69908], [-87.591535, 41.705863], [-87.595707, 41.711823], [-87.618809, 41.713575], [-87.62372, 41.717096], [-87.625651, 41.769497], [-87.630747, 41.779495], [-87.630667, 41.838631], [-87.63193, 41.844225], [-87.642221, 41.847448], [-87.644903, 41.850908], [-87.644854, 41.873493], [-87.645275, 41.880374], [-87.645355, 41.881847], [-87.645393, 41.882198], [-87.645396, 41.883308], [-87.645365, 41.885689], [-87.648644, 41.885646], [-87.648752, 41.889662]], "type": "LineString"}, "properties": {"timestamp": "2024-08-22T21:13:20", "type": "ride"}}, {"type": "Feature", "geometry": {"coordinates": [[-87.648752, 41.889662], [-87.648718, 41.889017], [-87.644337, 41.889054], [-87.644184, 41.884425], [-87.646033, 41.884406]], "type": "LineString"}, "properties": {"timestamp": "2024-08-22T21:31:15", "type": "transition"}}, {"type": "Feature", "geometry": {"coordinates": [[-87.646033, 41.884406], [-87.647438, 41.884415], [-87.64736, 41.881782], [-87.64573, 41.881801], [-87.645735, 41.885306], [-87.647404, 41.888483], [-87.658783, 41.897251], [-87.660805, 41.901753], [-87.661061, 41.906443], [-87.664439, 41.910145], [-87.667973, 41.915739], [-87.66968, 41.917898], [-87.667964, 41.917936], [-87.66862, 41.92163], [-87.668609, 41.939697], [-87.669927, 41.941506], [-87.669353, 41.941511]], "type": "LineString"}, "properties": {"timestamp": "2024-08-22T21:31:15", "type": "ride"}}, {"type": "Feature", "geometry": {"coordinates": [[-87.669353, 41.941511], [-87.668771, 41.941517], [-87.668729, 41.939809], [-87.668425, 41.939512], [-87.658713, 41.932557], [-87.653863, 41.932636], [-87.653827, 41.931569]], "type": "LineString"}, "properties": {"timestamp": "2024-08-22T21:56:16", "type": "transition"}}, {"type": "Feature", "geometry": {"coordinates": [[-87.653827, 41.931569], [-87.653863, 41.932636], [-87.658713, 41.932557], [-87.666175, 41.937916], [-87.666233, 41.939729], [-87.673369, 41.939644]], "type": "LineString"}, "properties": {"timestamp": "2024-08-22T21:56:16", "type": "ride"}}, {"type": "Feature", "geometry": {"coordinates": [[-87.673369, 41.939644], [-87.658974, 41.939838], [-87.658837, 41.936197], [-87.651561, 41.936331], [-87.651528, 41.935411], [-87.65295, 41.935378]], "type": "LineString"}, "properties": {"timestamp": "2024-08-22T22:05:59", "type": "transition"}}, {"type": "Feature", "geometry": {"coordinates": [[-87.65295, 41.935378], [-87.653955, 41.935355], [-87.653863, 41.932636], [-87.678134, 41.932278], [-87.677893, 41.925026], [-87.681912, 41.924981], [-87.685177, 41.926707], [-87.709664, 41.940439], [-87.714861, 41.942208], [-87.719618, 41.947985], [-87.738838, 41.958569], [-87.741371, 41.960451], [-87.74187, 41.960845], [-87.794161, 41.960081], [-87.807297, 41.953879], [-87.807064, 41.947086]], "type": "LineString"}, "properties": {"timestamp": "2024-08-22T22:05:59", "type": "ride"}}, {"type": "Feature", "geometry": {"coordinates": [[-87.807064, 41.947086], [-87.807255, 41.952771], [-87.731304, 41.953617], [-87.721846, 41.94853], [-87.718984, 41.946493], [-87.708842, 41.946623], [-87.703229, 41.942766], [-87.701229, 41.942777]], "type": "LineString"}, "properties": {"timestamp": "2024-08-22T22:27:53", "type": "transition"}}, {"type": "Feature", "geometry": {"coordinates": [[-87.701229, 41.942777], [-87.697932, 41.942795], [-87.697818, 41.939404], [-87.654106, 41.939918], [-87.654016, 41.937175], [-87.653552, 41.937186], [-87.65355, 41.937074]], "type": "LineString"}, "properties": {"timestamp": "2024-08-22T22:27:53", "type": "ride"}}, {"type": "Feature", "geometry": {"coordinates": [[-87.65355, 41.937074], [-87.65355, 41.937074]], "type": "LineString"}, "properties": {"timestamp": "2024-08-22T22:35:44", "type": "transition"}}, {"type": "Feature", "geometry": {"coordinates": [[-87.65355, 41.937074], [-87.653552, 41.937186], [-87.654016, 41.937175], [-87.653863, 41.932636], [-87.678134, 41.932278], [-87.677893, 41.925026], [-87.681912, 41.924981], [-87.685177, 41.926707], [-87.709664, 41.940439], [-87.714861, 41.942208], [-87.719618, 41.947985], [-87.738838, 41.958569], [-87.741371, 41.960451], [-87.74187, 41.960845], [-87.794287, 41.960061], [-87.822074, 41.946631], [-87.821404, 41.937842], [-87.820185, 41.937866], [-87.820102, 41.936076], [-87.820727, 41.936062], [-87.82067, 41.934634]], "type": "LineString"}, "properties": {"timestamp": "2024-08-22T22:35:44", "type": "ride"}}, {"type": "Feature", "geometry": {"coordinates": [[-87.82067, 41.934634], [-87.82067, 41.934634]], "type": "LineString"}, "properties": {"timestamp": "2024-08-22T22:54:06", "type": "transition"}}, {"type": "Feature", "geometry": {"coordinates": [[-87.82067, 41.934634], [-87.820654, 41.93424], [-87.821275, 41.934229], [-87.821404, 41.937842], [-87.822616, 41.937819], [-87.82292, 41.945136], [-87.824627, 41.945095], [-87.809667, 41.952719], [-87.672222, 41.954208], [-87.672354, 41.95937]], "type": "LineString"}, "properties": {"timestamp": "2024-08-22T22:54:06", "type": "ride"}}, {"type": "Feature", "geometry": {"coordinates": [[-87.672354, 41.95937], [-87.672366, 41.959729], [-87.669247, 41.959768], [-87.668122, 41.924216], [-87.668644, 41.921138], [-87.667771, 41.917197], [-87.667594, 41.90407], [-87.666488, 41.903364], [-87.665045, 41.903374], [-87.665061, 41.903929]], "type": "LineString"}, "properties": {"timestamp": "2024-08-22T23:18:05", "type": "transition"}}, {"type": "Feature", "geometry": {"coordinates": [[-87.665061, 41.903929], [-87.665154, 41.907034], [-87.666333, 41.907019], [-87.666509, 41.910658], [-87.633071, 41.911172], [-87.633044, 41.912903], [-87.632269, 41.913237], [-87.628505, 41.912247], [-87.626923, 41.912475], [-87.626017, 41.913347], [-87.628743, 41.918036], [-87.631735, 41.927967], [-87.632273, 41.934701], [-87.633661, 41.936704], [-87.638833, 41.941219], [-87.644376, 41.950931], [-87.646094, 41.960253], [-87.645534, 41.962086], [-87.639779, 41.962798], [-87.638571, 41.963606]], "type": "LineString"}, "properties": {"timestamp": "2024-08-22T23:18:05", "type": "ride"}}, {"type": "Feature", "geometry": {"coordinates": [[-87.638571, 41.963606], [-87.638723, 41.963341], [-87.639059, 41.963055], [-87.639836, 41.962786], [-87.646878, 41.961908], [-87.65234, 41.9618], [-87.652353, 41.962723], [-87.65212, 41.962725]], "type": "LineString"}, "properties": {"timestamp": "2024-08-22T23:22:47", "type": "transition"}}, {"type": "Feature", "geometry": {"coordinates": [[-87.65212, 41.962725], [-87.649944, 41.962747], [-87.649918, 41.961843], [-87.646878, 41.961908], [-87.644905, 41.955203], [-87.644507, 41.950757], [-87.638957, 41.941067], [-87.632527, 41.93482], [-87.632048, 41.928427], [-87.627538, 41.915117], [-87.627206, 41.913042], [-87.628067, 41.912346], [-87.632438, 41.913334], [-87.633196, 41.912907], [-87.633223, 41.911171], [-87.648286, 41.910927], [-87.648495, 41.91731]], "type": "LineString"}, "properties": {"timestamp": "2024-08-22T23:22:47", "type": "ride"}}, {"type": "Feature", "geometry": {"coordinates": [[-87.648495, 41.91731], [-87.649228, 41.938193], [-87.649915, 41.939012], [-87.651152, 41.938994], [-87.651186, 41.939804]], "type": "LineString"}, "properties": {"timestamp": "2024-08-22T23:28:19", "type": "transition"}}, {"type": "Feature", "geometry": {"coordinates": [[-87.651186, 41.939804], [-87.651193, 41.939958], [-87.650679, 41.939965], [-87.662225, 41.95438], [-87.701923, 41.954012], [-87.701976, 41.955772], [-87.700495, 41.95578]], "type": "LineString"}, "properties": {"timestamp": "2024-08-22T23:28:19", "type": "ride"}}, {"type": "Feature", "geometry": {"coordinates": [[-87.700495, 41.95578], [-87.69831, 41.955792], [-87.698254, 41.953982], [-87.688733, 41.953983], [-87.678766, 41.954121], [-87.678527, 41.946063]], "type": "LineString"}, "properties": {"timestamp": "2024-08-22T23:46:04", "type": "transition"}}, {"type": "Feature", "geometry": {"coordinates": [[-87.678527, 41.946063], [-87.678771, 41.954216], [-87.712911, 41.953916], [-87.713373, 41.968411], [-87.714891, 41.968394]], "type": "LineString"}, "properties": {"timestamp": "2024-08-22T23:46:04", "type": "ride"}}, {"type": "Feature", "geometry": {"coordinates": [[-87.714891, 41.968394], [-87.649644, 41.969172], [-87.648701, 41.965847]], "type": "LineString"}, "properties": {"timestamp": "2024-08-22T23:58:28", "type": "transition"}}, {"type": "Feature", "geometry": {"coordinates": [[-87.648701, 41.965847], [-87.648611, 41.965499], [-87.647973, 41.965571], [-87.646868, 41.963721], [-87.644507, 41.950757], [-87.638957, 41.941067], [-87.633807, 41.936608], [-87.632453, 41.934639], [-87.632048, 41.928427], [-87.627538, 41.915117], [-87.627206, 41.913042], [-87.628067, 41.912346], [-87.632438, 41.913334], [-87.633196, 41.912907], [-87.633223, 41.911171], [-87.648286, 41.910927], [-87.648495, 41.91731]], "type": "LineString"}, "properties": {"timestamp": "2024-08-22T23:58:28", "type": "ride"}}, {"type": "Feature", "geometry": {"coordinates": [[-87.648495, 41.91731], [-87.648495, 41.91731]], "type": "LineString"}, "properties": {"timestamp": "2024-08-23T00:05:31", "type": "transition"}}, {"type": "Feature", "geometry": {"coordinates": [[-87.648495, 41.91731], [-87.648766, 41.925453], [-87.663682, 41.936111], [-87.663758, 41.938211]], "type": "LineString"}, "properties": {"timestamp": "2024-08-23T00:05:31", "type": "ride"}}, {"type": "Feature", "geometry": {"coordinates": [[-87.663758, 41.938211], [-87.663758, 41.938211]], "type": "LineString"}, "properties": {"timestamp": "2024-08-23T00:12:11", "type": "transition"}}, {"type": "Feature", "geometry": {"coordinates": [[-87.663758, 41.938211], [-87.663649, 41.93521], [-87.668549, 41.935144], [-87.668616, 41.921563], [-87.677255, 41.921395], [-87.669405, 41.916815], [-87.664752, 41.909975], [-87.661748, 41.90696], [-87.661131, 41.901587], [-87.659383, 41.897534], [-87.657463, 41.89442], [-87.663988, 41.894312], [-87.664011, 41.895209], [-87.662558, 41.895231]], "type": "LineString"}, "properties": {"timestamp": "2024-08-23T00:12:11", "type": "ride"}}, {"type": "Feature", "geometry": {"coordinates": [[-87.662558, 41.895231], [-87.662372, 41.895233], [-87.662395, 41.896146], [-87.655926, 41.896248], [-87.655629, 41.895215], [-87.655808, 41.89501], [-87.657675, 41.89596], [-87.65932, 41.898217], [-87.660805, 41.901753], [-87.661253, 41.906799], [-87.664439, 41.910145], [-87.669227, 41.917096], [-87.704001, 41.937344], [-87.707163, 41.939332], [-87.707595, 41.939599], [-87.707967, 41.95211], [-87.704297, 41.952129], [-87.70425, 41.950433]], "type": "LineString"}, "properties": {"timestamp": "2024-08-23T17:06:19", "type": "transition"}}]}