{"type": "FeatureCollection", "features": [{"type": "Feature", "geometry": {"coordinates": [[-87.642419, 41.829256], [-87.64245, 41.8308], [-87.631343, 41.830892], [-87.629817, 41.830961], [-87.629907, 41.834623], [-87.628886, 41.834642], [-87.628847, 41.833673]], "type": "LineString"}, "properties": {"timestamp": "2024-06-20T17:01:31", "type": "ride", "rideType": "UberX", "pickupAddress": "S Lowe Ave, Chicago, IL 60609-1645, US", "dropoffAddress": "S Dearborn St, Chicago, IL 60616, US", "basePay": "8.22", "surge": "0.00", "tip": "0.00", "earnings": "8.22", "duration": "949", "distance": "2.80", "rideStartTime": "June 20, 2024 at 05:01 PM", "rideEndTime": "June 20, 2024 at 05:17 PM"}}, {"type": "Feature", "geometry": {"coordinates": [[-87.628847, 41.833673], [-87.628886, 41.834642], [-87.625058, 41.83469], [-87.625023, 41.832863]], "type": "LineString"}, "properties": {"timestamp": "2024-06-20T17:18:41", "type": "transition"}}, {"type": "Feature", "geometry": {"coordinates": [[-87.625023, 41.832863], [-87.626475, 41.83283], [-87.626578, 41.838297], [-87.630021, 41.838265], [-87.6301, 41.841613], [-87.631814, 41.844491], [-87.641891, 41.847286], [-87.644549, 41.850184], [-87.645183, 41.852401], [-87.644172, 41.856638], [-87.644517, 41.867845], [-87.644628, 41.873521], [-87.645646, 41.875725], [-87.649223, 41.875863], [-87.697949, 41.875633], [-87.70915, 41.874284], [-87.732948, 41.873967], [-87.740374, 41.87187], [-87.766962, 41.871028], [-87.774317, 41.871119], [-87.77372, 41.850493]], "type": "LineString"}, "properties": {"timestamp": "2024-06-20T17:18:41", "type": "ride", "rideType": "UberX", "pickupAddress": "S Wabash Ave, Chicago, IL 60616, US", "dropoffAddress": "S Austin Blvd, Chicago, IL 60644-5313, US", "basePay": "19.33", "surge": "1.00", "tip": "0.00", "earnings": "20.33", "duration": "2256", "distance": "9.50", "rideStartTime": "June 20, 2024 at 05:18 PM", "rideEndTime": "June 20, 2024 at 05:56 PM"}}, {"type": "Feature", "geometry": {"coordinates": [[-87.77372, 41.850493], [-87.775245, 41.898363], [-87.770378, 41.898428], [-87.770348, 41.89751], [-87.77057, 41.897508]], "type": "LineString"}, "properties": {"timestamp": "2024-06-20T18:26:27", "type": "transition"}}, {"type": "Feature", "geometry": {"coordinates": [[-87.77057, 41.897508], [-87.772382, 41.897483], [-87.772411, 41.898401], [-87.765522, 41.898494], [-87.765658, 41.902145], [-87.706787, 41.902833], [-87.70699, 41.927966], [-87.697517, 41.928471], [-87.697848, 41.940244], [-87.695246, 41.940262], [-87.69448, 41.940229], [-87.694671, 41.940836]], "type": "LineString"}, "properties": {"timestamp": "2024-06-20T18:26:27", "type": "ride", "rideType": "UberX", "pickupAddress": "W Walton St, Chicago, IL 60651-3464, US", "dropoffAddress": "W Addison St, Chicago, IL 60618, US", "basePay": "11.86", "surge": "1.00", "tip": "0.00", "earnings": "12.86", "duration": "1827", "distance": "4.70", "rideStartTime": "June 20, 2024 at 06:26 PM", "rideEndTime": "June 20, 2024 at 06:56 PM"}}, {"type": "Feature", "geometry": {"coordinates": [[-87.694671, 41.940836], [-87.694511, 41.940307], [-87.695246, 41.940262], [-87.695268, 41.939421], [-87.723912, 41.939142], [-87.727246, 41.941155], [-87.727241, 41.940886], [-87.728468, 41.94087], [-87.728479, 41.941274]], "type": "LineString"}, "properties": {"timestamp": "2024-06-20T19:05:44", "type": "transition"}}, {"type": "Feature", "geometry": {"coordinates": [[-87.728479, 41.941274], [-87.728199, 41.941739], [-87.727246, 41.941155], [-87.726763, 41.924493], [-87.746319, 41.92425], [-87.746089, 41.907811], [-87.755482, 41.907693]], "type": "LineString"}, "properties": {"timestamp": "2024-06-20T19:05:44", "type": "ride", "rideType": "UberX", "pickupAddress": "N Keystone Ave, Chicago, IL 60641-2413, US", "dropoffAddress": "W Le Moyne St, Chicago, IL 60651-2340, US", "basePay": "5.80", "surge": "1.75", "tip": "2.00", "earnings": "9.55", "duration": "1182", "distance": "3.80", "rideStartTime": "June 20, 2024 at 07:05 PM", "rideEndTime": "June 20, 2024 at 07:25 PM"}}, {"type": "Feature", "geometry": {"coordinates": [[-87.755482, 41.907693], [-87.755899, 41.907687], [-87.755671, 41.910063], [-87.75615, 41.92411], [-87.726763, 41.924493], [-87.726988, 41.931796], [-87.722071, 41.93186], [-87.721999, 41.929231]], "type": "LineString"}, "properties": {"timestamp": "2024-06-20T19:25:52", "type": "transition"}}, {"type": "Feature", "geometry": {"coordinates": [[-87.721999, 41.929231], [-87.721872, 41.924553], [-87.707229, 41.924722], [-87.706651, 41.898325], [-87.702222, 41.896575], [-87.701974, 41.891131], [-87.701464, 41.888916], [-87.700036, 41.888934], [-87.698543, 41.889373]], "type": "LineString"}, "properties": {"timestamp": "2024-06-20T19:25:52", "type": "ride", "rideType": "UberX Share", "pickupAddress": "N Hamlin Ave, Chicago, IL 60651-2146, US", "dropoffAddress": "W Grand Ave, Chicago, IL 60612-1503, US", "basePay": "6.28", "surge": "2.00", "tip": "0.00", "earnings": "8.28", "duration": "784", "distance": "2.70", "rideStartTime": "June 20, 2024 at 07:25 PM", "rideEndTime": "June 20, 2024 at 07:38 PM"}}, {"type": "Feature", "geometry": {"coordinates": [[-87.698543, 41.889373], [-87.699076, 41.889326], [-87.700036, 41.888934], [-87.701464, 41.888916], [-87.701519, 41.889772], [-87.701974, 41.891131], [-87.702191, 41.895594], [-87.686835, 41.89575], [-87.687018, 41.903025], [-87.679708, 41.903145], [-87.679724, 41.903748]], "type": "LineString"}, "properties": {"timestamp": "2024-06-20T19:44:32", "type": "transition"}}, {"type": "Feature", "geometry": {"coordinates": [[-87.679724, 41.903748], [-87.679758, 41.904973], [-87.6822, 41.90494], [-87.68215, 41.903106], [-87.701605, 41.902888]], "type": "LineString"}, "properties": {"timestamp": "2024-06-20T19:44:32", "type": "ride", "rideType": "UberX", "pickupAddress": "N Hoyne Ave, Chicago, IL 60622-4917, US", "dropoffAddress": "W Division St, Chicago, IL 60622, US", "basePay": "3.06", "surge": "1.50", "tip": "0.00", "earnings": "4.56", "duration": "287", "distance": "0.90", "rideStartTime": "June 20, 2024 at 07:44 PM", "rideEndTime": "June 20, 2024 at 07:49 PM"}}, {"type": "Feature", "geometry": {"coordinates": [[-87.701605, 41.902888], [-87.701605, 41.902888]], "type": "LineString"}, "properties": {"timestamp": "2024-06-20T19:53:59", "type": "transition"}}, {"type": "Feature", "geometry": {"coordinates": [[-87.701605, 41.902888], [-87.702278, 41.902886], [-87.702431, 41.897899], [-87.701291, 41.884089], [-87.686532, 41.884621], [-87.686432, 41.881166], [-87.678236, 41.88126]], "type": "LineString"}, "properties": {"timestamp": "2024-06-20T19:53:59", "type": "ride", "rideType": "UberX", "pickupAddress": "W Division St, Chicago, IL 60622-3146, US", "dropoffAddress": "W Madison St, Chicago, IL 60612, US", "basePay": "6.92", "surge": "0.00", "tip": "3.00", "earnings": "9.92", "duration": "379", "distance": "1.50", "rideStartTime": "June 20, 2024 at 07:53 PM", "rideEndTime": "June 20, 2024 at 08:00 PM"}}, {"type": "Feature", "geometry": {"coordinates": [[-87.678236, 41.88126], [-87.676638, 41.881323], [-87.676791, 41.886776], [-87.673532, 41.886827]], "type": "LineString"}, "properties": {"timestamp": "2024-06-20T20:06:37", "type": "transition"}}, {"type": "Feature", "geometry": {"coordinates": [[-87.673532, 41.886827], [-87.666966, 41.886929], [-87.667056, 41.889896], [-87.652264, 41.890047], [-87.652212, 41.888087]], "type": "LineString"}, "properties": {"timestamp": "2024-06-20T20:06:37", "type": "ride", "rideType": "UberX", "pickupAddress": "W Fulton St, Chicago, IL 60607-1124, US", "dropoffAddress": "N Morgan St, Chicago, IL 60607, US", "basePay": "3.01", "surge": "0.00", "tip": "0.00", "earnings": "3.01", "duration": "162", "distance": "0.50", "rideStartTime": "June 20, 2024 at 08:06 PM", "rideEndTime": "June 20, 2024 at 08:09 PM"}}, {"type": "Feature", "geometry": {"coordinates": [[-87.652212, 41.888087], [-87.652288, 41.891135], [-87.643004, 41.891239], [-87.640016, 41.891501], [-87.637019, 41.891543], [-87.63704, 41.892368], [-87.628093, 41.892476], [-87.628071, 41.891667], [-87.628847, 41.891657]], "type": "LineString"}, "properties": {"timestamp": "2024-06-20T20:20:55", "type": "transition"}}, {"type": "Feature", "geometry": {"coordinates": [[-87.628847, 41.891657], [-87.639878, 41.891506], [-87.643004, 41.891239], [-87.659133, 41.891059], [-87.660056, 41.889969], [-87.660876, 41.88996], [-87.660867, 41.889038]], "type": "LineString"}, "properties": {"timestamp": "2024-06-20T20:20:55", "type": "ride", "rideType": "UberX", "pickupAddress": "W Grand Ave, Chicago, IL 60642-6564, US", "dropoffAddress": "N Ada St, Chicago, IL 60607, US", "basePay": "3.33", "surge": "1.00", "tip": "0.00", "earnings": "4.33", "duration": "370", "distance": "0.90", "rideStartTime": "June 20, 2024 at 08:20 PM", "rideEndTime": "June 20, 2024 at 08:27 PM"}}, {"type": "Feature", "geometry": {"coordinates": [[-87.660867, 41.889038], [-87.660774, 41.888942], [-87.661689, 41.887465], [-87.661497, 41.887468], [-87.659834, 41.889971], [-87.64876, 41.890082], [-87.648718, 41.889017], [-87.644337, 41.889054], [-87.644184, 41.884425], [-87.646033, 41.884406]], "type": "LineString"}, "properties": {"timestamp": "2024-06-20T20:25:37", "type": "transition"}}, {"type": "Feature", "geometry": {"coordinates": [[-87.646033, 41.884406], [-87.647438, 41.884415], [-87.64736, 41.881782], [-87.64573, 41.881801], [-87.645735, 41.885306], [-87.647404, 41.888483], [-87.64861, 41.889615], [-87.657024, 41.895403], [-87.658783, 41.897251], [-87.659247, 41.899676], [-87.659821, 41.899956], [-87.660982, 41.899842], [-87.666488, 41.903364], [-87.67239, 41.903268], [-87.672395, 41.903498]], "type": "LineString"}, "properties": {"timestamp": "2024-06-20T20:25:37", "type": "ride", "rideType": "UberX", "pickupAddress": "W Randolph St, Chicago, IL 60607-1619, US", "dropoffAddress": "N Wood St, Chicago, IL 60622-3252, US", "basePay": "5.92", "surge": "0.00", "tip": "3.00", "earnings": "8.92", "duration": "684", "distance": "2.20", "rideStartTime": "June 20, 2024 at 08:25 PM", "rideEndTime": "June 20, 2024 at 08:37 PM"}}, {"type": "Feature", "geometry": {"coordinates": [[-87.672395, 41.903498], [-87.67239, 41.903268], [-87.667439, 41.903351], [-87.667641, 41.910635], [-87.633071, 41.911172], [-87.633044, 41.912903], [-87.632269, 41.913237], [-87.628505, 41.912247], [-87.626923, 41.912475], [-87.626017, 41.913347], [-87.628743, 41.918036], [-87.631735, 41.927967], [-87.632402, 41.934989], [-87.638833, 41.941219], [-87.644376, 41.950931], [-87.647541, 41.967723], [-87.647273, 41.969474], [-87.656225, 41.96907], [-87.656365, 41.974712]], "type": "LineString"}, "properties": {"timestamp": "2024-06-21T18:02:25", "type": "transition"}}]}