{"type": "FeatureCollection", "features": [{"type": "Feature", "geometry": {"coordinates": [[-87.681454, 41.987045], [-87.683199, 41.985105], [-87.685612, 41.985047], [-87.685604, 41.982307], [-87.685439, 41.981706], [-87.68536, 41.980287], [-87.688009, 41.978881], [-87.689265, 41.97886], [-87.688512, 41.955627], [-87.687207, 41.910324], [-87.701875, 41.910165], [-87.702278, 41.902886], [-87.733686, 41.902557], [-87.733699, 41.903012], [-87.733404, 41.903016]], "type": "LineString"}, "properties": {}}, {"type": "Feature", "geometry": {"coordinates": [[-87.733404, 41.903016], [-87.733699, 41.903012], [-87.733711, 41.903464], [-87.726324, 41.903592], [-87.72708, 41.92265], [-87.726455, 41.92266], [-87.727814, 41.960957], [-87.719257, 41.96106], [-87.719417, 41.966527], [-87.716128, 41.966563]], "type": "LineString"}, "properties": {}}, {"type": "Feature", "geometry": {"coordinates": [[-87.716128, 41.966563], [-87.713315, 41.966593], [-87.713554, 41.975692], [-87.689151, 41.975899], [-87.68922, 41.977715], [-87.688432, 41.977735], [-87.685014, 41.97925], [-87.679565, 41.982043], [-87.679477, 41.983198], [-87.674607, 41.983365], [-87.674641, 41.98833], [-87.669926, 41.988432], [-87.669796, 41.987608], [-87.669769, 41.987519]], "type": "LineString"}, "properties": {}}, {"type": "Feature", "geometry": {"coordinates": [[-87.669769, 41.987519], [-87.669343, 41.985953], [-87.669821, 41.985945], [-87.669568, 41.986947], [-87.6699, 41.989705], [-87.67531, 41.992132], [-87.675425, 41.994982], [-87.681855, 42.008899], [-87.683685, 42.014036], [-87.686201, 42.014064], [-87.686196, 42.012766]], "type": "LineString"}, "properties": {}}, {"type": "Feature", "geometry": {"coordinates": [[-87.686196, 42.012766], [-87.686154, 42.012243], [-87.711447, 42.011826], [-87.711691, 41.997354], [-87.787876, 41.997348], [-87.787492, 41.996914], [-87.787864, 41.976281], [-87.795591, 41.978685], [-87.795904, 41.980109], [-87.796063, 41.980089]], "type": "LineString"}, "properties": {}}, {"type": "Feature", "geometry": {"coordinates": [[-87.796063, 41.980089], [-87.795904, 41.980109], [-87.797591, 41.981558], [-87.797582, 41.982111], [-87.78646, 41.982068], [-87.782771, 41.981608], [-87.766154, 41.972237], [-87.760441, 41.970295], [-87.749887, 41.964121], [-87.74647, 41.962831], [-87.73715, 41.957103], [-87.731304, 41.953617], [-87.668983, 41.954306], [-87.669262, 41.96524], [-87.670929, 41.965218], [-87.670902, 41.964075]], "type": "LineString"}, "properties": {}}, {"type": "Feature", "geometry": {"coordinates": [[-87.670902, 41.964075], [-87.670845, 41.961569], [-87.665949, 41.961638], [-87.664497, 41.958026], [-87.662484, 41.954753], [-87.654273, 41.944458], [-87.654106, 41.939918], [-87.653077, 41.939933]], "type": "LineString"}, "properties": {}}, {"type": "Feature", "geometry": {"coordinates": [[-87.653077, 41.939933], [-87.658974, 41.939838], [-87.659073, 41.94349], [-87.665475, 41.943396]], "type": "LineString"}, "properties": {}}, {"type": "Feature", "geometry": {"coordinates": [[-87.665475, 41.943396], [-87.668829, 41.943346], [-87.668122, 41.924216], [-87.668644, 41.921138], [-87.667771, 41.917197], [-87.667572, 41.903349], [-87.67239, 41.903268], [-87.672395, 41.903498]], "type": "LineString"}, "properties": {}}, {"type": "Feature", "geometry": {"coordinates": [[-87.672395, 41.903498], [-87.67239, 41.903268], [-87.667439, 41.903351], [-87.667641, 41.910635], [-87.664445, 41.910674], [-87.668091, 41.915886], [-87.670574, 41.91815], [-87.709664, 41.940439], [-87.714861, 41.942208], [-87.719618, 41.947985], [-87.742619, 41.960998], [-87.752403, 41.966033], [-87.75503, 41.967937], [-87.757623, 41.967938], [-87.758399, 41.968431]], "type": "LineString"}, "properties": {}}, {"type": "Feature", "geometry": {"coordinates": [[-87.758399, 41.968431], [-87.757622, 41.967875], [-87.747723, 41.968033], [-87.747918, 41.972896], [-87.747761, 41.972794], [-87.747223, 41.966563], [-87.745961, 41.963113], [-87.742125, 41.960129], [-87.719592, 41.947613], [-87.715306, 41.94215], [-87.710219, 41.940524], [-87.698173, 41.933659], [-87.687291, 41.927358], [-87.683686, 41.924962], [-87.66815, 41.925151], [-87.668609, 41.939697], [-87.669927, 41.941506], [-87.669353, 41.941511]], "type": "LineString"}, "properties": {}}, {"type": "Feature", "geometry": {"coordinates": [[-87.669353, 41.941511], [-87.671146, 41.941487], [-87.671095, 41.939671], [-87.673369, 41.939644]], "type": "LineString"}, "properties": {}}, {"type": "Feature", "geometry": {"coordinates": [[-87.673369, 41.939644], [-87.688141, 41.939467], [-87.687207, 41.910324], [-87.711884, 41.910045], [-87.711856, 41.908233], [-87.714298, 41.90821], [-87.714347, 41.909624]], "type": "LineString"}, "properties": {}}, {"type": "Feature", "geometry": {"coordinates": [[-87.714347, 41.909624], [-87.71436, 41.910015], [-87.697029, 41.910223], [-87.697682, 41.933955], [-87.715161, 41.942387], [-87.719618, 41.947985], [-87.742619, 41.960998], [-87.746732, 41.965012], [-87.746614, 41.980044], [-87.751348, 41.987222], [-87.748589, 42.006167], [-87.748003, 42.010101], [-87.747943, 42.011715], [-87.69973, 42.012074], [-87.699666, 42.015702], [-87.694779, 42.015808]], "type": "LineString"}, "properties": {}}]}