{"type": "FeatureCollection", "features": [{"type": "Feature", "geometry": {"coordinates": [[-87.628847, 41.833673], [-87.628886, 41.834642], [-87.629907, 41.834623], [-87.630107, 41.843288], [-87.631622, 41.844715], [-87.631783, 41.845528], [-87.626767, 41.845594], [-87.626821, 41.846791], [-87.626258, 41.84692], [-87.622663, 41.847885], [-87.616851, 41.847976], [-87.613276, 41.848193], [-87.612177, 41.849732], [-87.618709, 41.863523], [-87.62045, 41.867696], [-87.620609, 41.884517], [-87.624371, 41.884484], [-87.624094, 41.891505]], "type": "LineString"}, "properties": {}}, {"type": "Feature", "geometry": {"coordinates": [[-87.624094, 41.891505], [-87.624208, 41.896271], [-87.624029, 41.897744], [-87.624077, 41.900014], [-87.626209, 41.89998]], "type": "LineString"}, "properties": {}}, {"type": "Feature", "geometry": {"coordinates": [[-87.626209, 41.89998], [-87.631337, 41.899794], [-87.631243, 41.896633], [-87.65541, 41.896254], [-87.660982, 41.899842], [-87.674089, 41.899597], [-87.67412, 41.90052]], "type": "LineString"}, "properties": {}}, {"type": "Feature", "geometry": {"coordinates": [[-87.67412, 41.90052], [-87.67415, 41.901415], [-87.673548, 41.901426], [-87.673606, 41.903247], [-87.674833, 41.903226], [-87.674795, 41.902204]], "type": "LineString"}, "properties": {}}, {"type": "Feature", "geometry": {"coordinates": [[-87.674795, 41.902204], [-87.674717, 41.899586], [-87.660982, 41.899842], [-87.660843, 41.899711], [-87.657719, 41.895493], [-87.649448, 41.889964], [-87.647531, 41.888343], [-87.646219, 41.885929], [-87.645999, 41.881827], [-87.646134, 41.880956], [-87.646145, 41.879569], [-87.646166, 41.878121], [-87.646107, 41.877218], [-87.646972, 41.875597], [-87.645662, 41.872433], [-87.645367, 41.869682], [-87.645153, 41.867243], [-87.656679, 41.867056], [-87.656617, 41.864984]], "type": "LineString"}, "properties": {}}, {"type": "Feature", "geometry": {"coordinates": [[-87.656617, 41.864984], [-87.65693, 41.876515], [-87.65728, 41.876511], [-87.661623, 41.876138], [-87.688313, 41.875763], [-87.692409, 41.875862], [-87.698604, 41.87596], [-87.698638, 41.877405], [-87.69832, 41.877408]], "type": "LineString"}, "properties": {}}, {"type": "Feature", "geometry": {"coordinates": [[-87.69832, 41.877408], [-87.70111, 41.877385], [-87.701067, 41.875937], [-87.705721, 41.875893], [-87.705737, 41.876665]], "type": "LineString"}, "properties": {}}, {"type": "Feature", "geometry": {"coordinates": [[-87.705737, 41.876665], [-87.705721, 41.875893], [-87.70598, 41.875891], [-87.706028, 41.877324], [-87.691094, 41.877492], [-87.691131, 41.879071]], "type": "LineString"}, "properties": {}}, {"type": "Feature", "geometry": {"coordinates": [[-87.691131, 41.879071], [-87.691094, 41.877492], [-87.686341, 41.877547], [-87.686358, 41.874997], [-87.683366, 41.87496], [-87.6605, 41.875604], [-87.650308, 41.875329], [-87.647601, 41.875302], [-87.645452, 41.874563], [-87.644482, 41.875077], [-87.64458, 41.876036], [-87.645275, 41.880374], [-87.645355, 41.881847], [-87.645393, 41.882198], [-87.646457, 41.887151], [-87.650048, 41.890597], [-87.651108, 41.891699], [-87.65026, 41.89242], [-87.63704, 41.892368], [-87.637466, 41.903798], [-87.638347, 41.903783], [-87.638808, 41.918322], [-87.638503, 41.918106]], "type": "LineString"}, "properties": {}}, {"type": "Feature", "geometry": {"coordinates": [[-87.638503, 41.918106], [-87.634849, 41.915479], [-87.634358, 41.915623], [-87.632796, 41.913071], [-87.628505, 41.912247], [-87.626932, 41.912316], [-87.624114, 41.90257], [-87.619617, 41.900898], [-87.614264, 41.892868], [-87.614127, 41.884928], [-87.617453, 41.881821], [-87.617261, 41.869765], [-87.619589, 41.866068], [-87.607689, 41.833588], [-87.593977, 41.815295], [-87.58209, 41.803885], [-87.57922, 41.796009], [-87.58022, 41.791662], [-87.574954, 41.781232], [-87.579216, 41.779846], [-87.584175, 41.780203], [-87.586376, 41.776085], [-87.586137, 41.759682], [-87.585114, 41.759693], [-87.585107, 41.759229], [-87.584124, 41.759242]], "type": "LineString"}, "properties": {}}, {"type": "Feature", "geometry": {"coordinates": [[-87.584124, 41.759242], [-87.585107, 41.759229], [-87.585114, 41.759693], [-87.585762, 41.759686], [-87.585994, 41.771514], [-87.584175, 41.780203], [-87.574628, 41.780713], [-87.581975, 41.803976], [-87.606909, 41.832668], [-87.610426, 41.843509], [-87.612641, 41.848604], [-87.630973, 41.847424], [-87.641219, 41.847736], [-87.644555, 41.850742], [-87.646327, 41.886906], [-87.6586, 41.897003], [-87.661061, 41.906443], [-87.668478, 41.916334], [-87.678438, 41.922676], [-87.681513, 41.924733], [-87.690086, 41.924878], [-87.690094, 41.925214]], "type": "LineString"}, "properties": {}}, {"type": "Feature", "geometry": {"coordinates": [[-87.690094, 41.925214], [-87.690149, 41.926696], [-87.687704, 41.926718], [-87.687207, 41.910324], [-87.701875, 41.910165], [-87.70125, 41.907241], [-87.702278, 41.902886], [-87.701828, 41.902886], [-87.701786, 41.90106], [-87.701311, 41.901064]], "type": "LineString"}, "properties": {}}, {"type": "Feature", "geometry": {"coordinates": [[-87.701311, 41.901064], [-87.700519, 41.901072], [-87.700566, 41.902897], [-87.745973, 41.902357], [-87.746129, 41.909683], [-87.749173, 41.90959], [-87.805768, 41.908935], [-87.806735, 41.938002], [-87.815295, 41.937955], [-87.815423, 41.94138], [-87.816652, 41.941356], [-87.816641, 41.941072]], "type": "LineString"}, "properties": {}}, {"type": "Feature", "geometry": {"coordinates": [[-87.816641, 41.941072], [-87.816587, 41.939617], [-87.817797, 41.939594], [-87.818384, 41.948419], [-87.797713, 41.958438], [-87.797737, 41.968342], [-87.778289, 41.96853], [-87.77728, 41.967665], [-87.747723, 41.968033], [-87.747918, 41.972896], [-87.747761, 41.972794], [-87.747223, 41.966563], [-87.745961, 41.963113], [-87.742125, 41.960129], [-87.719592, 41.947613], [-87.715306, 41.94215], [-87.710219, 41.940524], [-87.698173, 41.933659], [-87.673831, 41.919706], [-87.671882, 41.918264], [-87.671887, 41.917859], [-87.677621, 41.91776], [-87.677591, 41.916239]], "type": "LineString"}, "properties": {}}, {"type": "Feature", "geometry": {"coordinates": [[-87.677591, 41.916239], [-87.677893, 41.925026], [-87.681912, 41.924981], [-87.685177, 41.926707], [-87.708002, 41.939496], [-87.712586, 41.942429], [-87.713373, 41.968411], [-87.714891, 41.968394]], "type": "LineString"}, "properties": {}}, {"type": "Feature", "geometry": {"coordinates": [[-87.714891, 41.968394], [-87.747723, 41.968033], [-87.747013, 41.962872], [-87.747538, 41.960724], [-87.794287, 41.960061], [-87.822074, 41.946631], [-87.821404, 41.937842], [-87.820185, 41.937866], [-87.820102, 41.936076], [-87.820727, 41.936062], [-87.82067, 41.934634]], "type": "LineString"}, "properties": {}}]}