{"type": "FeatureCollection", "features": [{"type": "Feature", "geometry": {"coordinates": [[-87.667137, 41.999957], [-87.66922, 41.999939], [-87.669168, 41.998103], [-87.655748, 41.998011], [-87.655253, 41.985556], [-87.653157, 41.984999], [-87.649079, 41.973006], [-87.644611, 41.950978], [-87.638957, 41.941067], [-87.632637, 41.935041], [-87.631858, 41.927741], [-87.631853, 41.926001], [-87.648766, 41.925453], [-87.648495, 41.91731]], "type": "LineString"}, "properties": {"timestamp": "2024-06-14T16:53:11", "type": "ride"}}, {"type": "Feature", "geometry": {"coordinates": [[-87.648495, 41.91731], [-87.648766, 41.925453], [-87.63067, 41.926223], [-87.631851, 41.928415], [-87.632612, 41.935386], [-87.638833, 41.941219], [-87.644376, 41.950931], [-87.646094, 41.960253], [-87.645534, 41.962086], [-87.655148, 41.961772], [-87.656894, 41.964503]], "type": "LineString"}, "properties": {"timestamp": "2024-06-14T17:30:27", "type": "transition"}}, {"type": "Feature", "geometry": {"coordinates": [[-87.656894, 41.964503], [-87.655148, 41.961772], [-87.646878, 41.961908], [-87.644507, 41.950757], [-87.638957, 41.941067], [-87.632453, 41.934639], [-87.632048, 41.928427], [-87.62421, 41.902733], [-87.619617, 41.900898], [-87.614264, 41.892868], [-87.614127, 41.884928], [-87.617453, 41.881821], [-87.617261, 41.869765], [-87.619588, 41.866208], [-87.614728, 41.853242], [-87.614444, 41.848506], [-87.626818, 41.84732], [-87.631727, 41.847855], [-87.631351, 41.843118], [-87.630789, 41.819121], [-87.631192, 41.816682], [-87.631192, 41.816426], [-87.623022, 41.816544], [-87.623001, 41.815421]], "type": "LineString"}, "properties": {"timestamp": "2024-06-14T17:30:27", "type": "ride"}}, {"type": "Feature", "geometry": {"coordinates": [[-87.623001, 41.815421], [-87.622988, 41.814738], [-87.626222, 41.814689], [-87.626265, 41.816493], [-87.629441, 41.816448], [-87.629444, 41.816639], [-87.630393, 41.837743], [-87.631001, 41.844069], [-87.63096, 41.845776], [-87.630081, 41.846653], [-87.623841, 41.847827], [-87.616851, 41.847976], [-87.613276, 41.848193], [-87.612177, 41.849732], [-87.618709, 41.863523], [-87.62045, 41.867696], [-87.62062, 41.875872]], "type": "LineString"}, "properties": {"timestamp": "2024-06-14T18:01:33", "type": "transition"}}, {"type": "Feature", "geometry": {"coordinates": [[-87.62062, 41.875872], [-87.62062, 41.875872]], "type": "LineString"}, "properties": {"timestamp": "2024-06-14T18:01:33", "type": "ride"}}, {"type": "Feature", "geometry": {"coordinates": [[-87.62062, 41.875872], [-87.620697, 41.878331], [-87.624208, 41.878293], [-87.624303, 41.880103], [-87.624209, 41.88245], [-87.624344, 41.884366], [-87.623414, 41.884372], [-87.622907, 41.884293], [-87.621085, 41.884319]], "type": "LineString"}, "properties": {"timestamp": "2024-06-14T18:21:42", "type": "transition"}}, {"type": "Feature", "geometry": {"coordinates": [[-87.621085, 41.884319], [-87.620576, 41.884316], [-87.624371, 41.884484], [-87.624042, 41.900824], [-87.623664, 41.902709], [-87.62589, 41.912141], [-87.628743, 41.918036], [-87.630534, 41.924159], [-87.63067, 41.926223], [-87.640463, 41.92558], [-87.641881, 41.927956]], "type": "LineString"}, "properties": {"timestamp": "2024-06-14T18:21:42", "type": "ride"}}, {"type": "Feature", "geometry": {"coordinates": [[-87.641881, 41.927956], [-87.641881, 41.927956]], "type": "LineString"}, "properties": {"timestamp": "2024-06-14T19:08:27", "type": "transition"}}, {"type": "Feature", "geometry": {"coordinates": [[-87.641881, 41.927956], [-87.640463, 41.92558], [-87.631853, 41.926001], [-87.626142, 41.912297], [-87.62421, 41.902733], [-87.62264, 41.901491], [-87.619617, 41.900898], [-87.614264, 41.892868], [-87.614127, 41.884928], [-87.617321, 41.882167], [-87.617442, 41.878363], [-87.620697, 41.878331], [-87.620625, 41.876287], [-87.623299, 41.87589], [-87.624242, 41.876991], [-87.627123, 41.876964]], "type": "LineString"}, "properties": {"timestamp": "2024-06-14T19:08:27", "type": "ride"}}, {"type": "Feature", "geometry": {"coordinates": [[-87.627123, 41.876964], [-87.629742, 41.876898], [-87.629714, 41.875705], [-87.641651, 41.875644], [-87.646562, 41.876207], [-87.645662, 41.872433], [-87.645091, 41.850828], [-87.642257, 41.847292], [-87.634652, 41.845323], [-87.63091, 41.84209], [-87.631207, 41.779686], [-87.626113, 41.772231], [-87.624621, 41.72052], [-87.621065, 41.713653], [-87.600337, 41.713191], [-87.592948, 41.708673], [-87.592406, 41.703483], [-87.601798, 41.685512], [-87.601728, 41.676933], [-87.589096, 41.660202], [-87.59119, 41.659512], [-87.560717, 41.658851], [-87.555878, 41.656176], [-87.555649, 41.65737], [-87.553811, 41.65736], [-87.553812, 41.656889]], "type": "LineString"}, "properties": {"timestamp": "2024-06-14T19:23:35", "type": "transition"}}, {"type": "Feature", "geometry": {"coordinates": [[-87.553812, 41.656889], [-87.553811, 41.65736], [-87.557102, 41.657281], [-87.585314, 41.660149], [-87.590822, 41.662478], [-87.601403, 41.675885], [-87.601563, 41.685726], [-87.594329, 41.69908], [-87.591535, 41.705863], [-87.595707, 41.711823], [-87.618809, 41.713575], [-87.62372, 41.717096], [-87.625651, 41.769497], [-87.630526, 41.779578], [-87.629968, 41.819951], [-87.629633, 41.823673], [-87.619991, 41.823804], [-87.619964, 41.822908]], "type": "LineString"}, "properties": {"timestamp": "2024-06-14T19:23:35", "type": "ride"}}, {"type": "Feature", "geometry": {"coordinates": [[-87.619964, 41.822908], [-87.619964, 41.822908]], "type": "LineString"}, "properties": {"timestamp": "2024-06-14T19:36:53", "type": "transition"}}, {"type": "Feature", "geometry": {"coordinates": [[-87.619964, 41.822908], [-87.619991, 41.823804], [-87.629633, 41.823673], [-87.629738, 41.827425], [-87.630393, 41.837743], [-87.630317, 41.842376], [-87.631347, 41.844144], [-87.633465, 41.84523], [-87.642036, 41.847354], [-87.644933, 41.850987], [-87.644156, 41.857362], [-87.645685, 41.885013], [-87.647091, 41.888098], [-87.650048, 41.890597], [-87.651108, 41.891699], [-87.65026, 41.89242], [-87.631145, 41.892439], [-87.631072, 41.889473]], "type": "LineString"}, "properties": {"timestamp": "2024-06-14T19:36:53", "type": "ride"}}, {"type": "Feature", "geometry": {"coordinates": [[-87.631072, 41.889473], [-87.631063, 41.889218], [-87.631823, 41.889205]], "type": "LineString"}, "properties": {"timestamp": "2024-06-14T19:57:23", "type": "transition"}}, {"type": "Feature", "geometry": {"coordinates": [[-87.631823, 41.889205], [-87.644337, 41.889054], [-87.644242, 41.885699], [-87.645903, 41.885686], [-87.644363, 41.857367], [-87.645793, 41.852447], [-87.644333, 41.849097], [-87.643981, 41.847746], [-87.644894, 41.846776], [-87.652275, 41.845121], [-87.666643, 41.838058], [-87.669478, 41.837422], [-87.674176, 41.837483], [-87.675396, 41.8377], [-87.675739, 41.848542], [-87.676155, 41.848385]], "type": "LineString"}, "properties": {"timestamp": "2024-06-14T19:57:23", "type": "ride"}}, {"type": "Feature", "geometry": {"coordinates": [[-87.676155, 41.848385], [-87.675739, 41.848542], [-87.675532, 41.837577], [-87.66757, 41.837403], [-87.651867, 41.844887], [-87.642765, 41.847012], [-87.616851, 41.847976], [-87.613392, 41.848153], [-87.612168, 41.84938], [-87.619244, 41.8661], [-87.617003, 41.869799], [-87.617167, 41.881825], [-87.613645, 41.884762], [-87.614003, 41.89273], [-87.619441, 41.900921], [-87.624048, 41.902893], [-87.631851, 41.928415], [-87.632152, 41.934381], [-87.63676, 41.939073], [-87.638088, 41.940568], [-87.649275, 41.939973], [-87.64915, 41.936386], [-87.661245, 41.936154], [-87.661241, 41.936537]], "type": "LineString"}, "properties": {"timestamp": "2024-06-14T21:36:48", "type": "transition"}}, {"type": "Feature", "geometry": {"coordinates": [[-87.661241, 41.936537], [-87.661134, 41.932518], [-87.668452, 41.9324], [-87.668616, 41.921563], [-87.677255, 41.921395], [-87.671115, 41.918139], [-87.668247, 41.915543], [-87.664752, 41.909975], [-87.661559, 41.906635], [-87.660921, 41.900902], [-87.659049, 41.896968], [-87.657114, 41.895018], [-87.653963, 41.891931], [-87.651034, 41.892554], [-87.634077, 41.892404], [-87.634037, 41.890774], [-87.633354, 41.890784]], "type": "LineString"}, "properties": {"timestamp": "2024-06-14T21:36:48", "type": "ride"}}, {"type": "Feature", "geometry": {"coordinates": [[-87.633354, 41.890784], [-87.632484, 41.890795], [-87.6325, 41.8916], [-87.687286, 41.890639], [-87.702222, 41.896575], [-87.702311, 41.902777], [-87.701241, 41.907558], [-87.701859, 41.909737], [-87.702035, 41.915629], [-87.703717, 41.915612]], "type": "LineString"}, "properties": {"timestamp": "2024-06-15T17:12:51", "type": "transition"}}]}