{"type": "FeatureCollection", "features": [{"type": "Feature", "geometry": {"coordinates": [[-87.638503, 41.918106], [-87.634849, 41.915479], [-87.634358, 41.915623], [-87.632796, 41.913071], [-87.631903, 41.913301], [-87.631046, 41.913236], [-87.628505, 41.912247], [-87.627696, 41.912183], [-87.626932, 41.912316], [-87.62645, 41.912166], [-87.626204, 41.911491], [-87.625696, 41.908349], [-87.624114, 41.90257], [-87.623432, 41.901893], [-87.62264, 41.901491], [-87.619898, 41.901081], [-87.619526, 41.900795], [-87.61878, 41.899659], [-87.618028, 41.89823]], "type": "LineString"}, "properties": {"timestamp": "2024-09-11T14:47:44", "type": "ride", "rideType": "UberX", "pickupAddress": "N Lincoln Ave, Chicago, IL 60625, US", "dropoffAddress": "N Lake Shore Dr, Chicago, IL 60611, US", "basePay": "6.51", "surge": "0.00", "tip": "0.00", "earnings": "6.51", "duration": "913", "distance": "2.90", "rideStartTime": "September 11, 2024 at 02:47 PM", "rideEndTime": "September 11, 2024 at 03:02 PM"}}, {"type": "Feature", "geometry": {"coordinates": [[-87.618028, 41.89823], [-87.619828, 41.900878], [-87.624042, 41.900824], [-87.623664, 41.902709], [-87.62589, 41.912141], [-87.628743, 41.918036], [-87.631851, 41.928415], [-87.632273, 41.934701], [-87.638962, 41.941399], [-87.644376, 41.950931], [-87.644572, 41.952992], [-87.644162, 41.954667], [-87.645235, 41.954634], [-87.645043, 41.952339], [-87.647829, 41.95166], [-87.646833, 41.950014]], "type": "LineString"}, "properties": {"timestamp": "2024-09-11T15:09:51", "type": "transition"}}, {"type": "Feature", "geometry": {"coordinates": [[-87.646833, 41.950014], [-87.646666, 41.94974], [-87.644573, 41.950465], [-87.645235, 41.954634], [-87.639315, 41.941594], [-87.632453, 41.934639], [-87.632048, 41.928427], [-87.62421, 41.902733], [-87.619617, 41.900898], [-87.614264, 41.892868], [-87.614127, 41.884928], [-87.617453, 41.881821], [-87.617261, 41.869765], [-87.619588, 41.866208], [-87.614728, 41.853242], [-87.614264, 41.84861], [-87.623007, 41.848129], [-87.626571, 41.847768], [-87.626978, 41.847608], [-87.626674, 41.834684], [-87.628886, 41.834642], [-87.628847, 41.833673]], "type": "LineString"}, "properties": {"timestamp": "2024-09-11T15:09:51", "type": "ride", "rideType": "UberX", "pickupAddress": "N Pine Grove Ave, Chicago, IL 60613-3302, US", "dropoffAddress": "S Dearborn St, Chicago, IL 60603, US", "basePay": "8.88", "surge": "0.00", "tip": "0.00", "earnings": "8.88", "duration": "1116", "distance": "6.60", "rideStartTime": "September 11, 2024 at 03:09 PM", "rideEndTime": "September 11, 2024 at 03:28 PM"}}, {"type": "Feature", "geometry": {"coordinates": [[-87.628847, 41.833673], [-87.628886, 41.834642], [-87.629907, 41.834623], [-87.6301, 41.841613], [-87.631814, 41.844491], [-87.642036, 41.847354], [-87.644829, 41.85074], [-87.645167, 41.852863], [-87.644156, 41.857362], [-87.644854, 41.873493], [-87.644167, 41.87559], [-87.645364, 41.877863], [-87.645275, 41.880374], [-87.64518, 41.881808], [-87.644106, 41.881817], [-87.644087, 41.880532], [-87.639693, 41.880598], [-87.639706, 41.881889], [-87.640505, 41.881877]], "type": "LineString"}, "properties": {"timestamp": "2024-09-11T15:28:57", "type": "transition"}}, {"type": "Feature", "geometry": {"coordinates": [[-87.640505, 41.881877], [-87.64573, 41.881801], [-87.645735, 41.885306], [-87.647091, 41.888098], [-87.658063, 41.896345], [-87.66062, 41.90111], [-87.661536, 41.907216], [-87.664439, 41.910145], [-87.668818, 41.916712], [-87.675191, 41.920831], [-87.677815, 41.922669], [-87.678349, 41.939586], [-87.673369, 41.939644]], "type": "LineString"}, "properties": {"timestamp": "2024-09-11T15:28:57", "type": "ride", "rideType": "UberX", "pickupAddress": "W Madison St, Chicago, IL 60661, US", "dropoffAddress": "W Belmont Ave, Chicago, IL 60657-2025, US", "basePay": "11.59", "surge": "0.00", "tip": "5.00", "earnings": "16.59", "duration": "1798", "distance": "4.90", "rideStartTime": "September 11, 2024 at 03:28 PM", "rideEndTime": "September 11, 2024 at 03:58 PM"}}, {"type": "Feature", "geometry": {"coordinates": [[-87.673369, 41.939644], [-87.668609, 41.939697], [-87.668425, 41.939512], [-87.663209, 41.935776]], "type": "LineString"}, "properties": {"timestamp": "2024-09-11T16:04:46", "type": "transition"}}, {"type": "Feature", "geometry": {"coordinates": [[-87.663209, 41.935776], [-87.663682, 41.936111], [-87.663649, 41.93521], [-87.668549, 41.935144], [-87.66815, 41.925151], [-87.681912, 41.924981], [-87.685177, 41.926707], [-87.704001, 41.937344], [-87.706803, 41.939132], [-87.711257, 41.939308], [-87.711184, 41.935794]], "type": "LineString"}, "properties": {"timestamp": "2024-09-11T16:04:46", "type": "ride", "rideType": "UberX", "pickupAddress": "N Lincoln Ave, Chicago, IL 60657, US", "dropoffAddress": "N Christiana Ave, Chicago, IL 60618-4308, US", "basePay": "5.93", "surge": "0.00", "tip": "5.00", "earnings": "10.93", "duration": "1325", "distance": "2.40", "rideStartTime": "September 11, 2024 at 04:04 PM", "rideEndTime": "September 11, 2024 at 04:26 PM"}}, {"type": "Feature", "geometry": {"coordinates": [[-87.711184, 41.935794], [-87.711181, 41.93567], [-87.712412, 41.935654], [-87.711906, 41.917345], [-87.710267, 41.917363], [-87.710199, 41.914054]], "type": "LineString"}, "properties": {"timestamp": "2024-09-11T16:30:26", "type": "transition"}}, {"type": "Feature", "geometry": {"coordinates": [[-87.710199, 41.914054], [-87.710185, 41.91363], [-87.708555, 41.913656], [-87.708671, 41.917381], [-87.697194, 41.917494], [-87.697302, 41.921208], [-87.696499, 41.920727], [-87.695385, 41.921702], [-87.693662, 41.920649], [-87.693678, 41.921362]], "type": "LineString"}, "properties": {"timestamp": "2024-09-11T16:30:26", "type": "ride", "rideType": "UberX", "pickupAddress": "N Spaulding Ave, Chicago, IL 60618-5523, US", "dropoffAddress": "N Talman Ave, Chicago, IL 60647-5224, US", "basePay": "7.55", "surge": "0.00", "tip": "0.00", "earnings": "7.55", "duration": "1130", "distance": "3.10", "rideStartTime": "September 11, 2024 at 04:30 PM", "rideEndTime": "September 11, 2024 at 04:49 PM"}}, {"type": "Feature", "geometry": {"coordinates": [[-87.693678, 41.921362], [-87.693756, 41.924846], [-87.687645, 41.924902], [-87.688686, 41.961319], [-87.678962, 41.961461], [-87.679366, 41.975076]], "type": "LineString"}, "properties": {"timestamp": "2024-09-13T17:37:00", "type": "transition"}}]}