{"type": "FeatureCollection", "features": [{"type": "Feature", "geometry": {"coordinates": [[-87.712298, 42.019106], [-87.711292, 42.019113], [-87.710729, 42.021634], [-87.71108, 42.026386], [-87.710533, 42.048194], [-87.685633, 42.048504], [-87.685471, 42.048465], [-87.684986, 42.047061], [-87.685699, 42.047071]], "type": "LineString"}, "properties": {"timestamp": "2024-07-25T21:26:38", "type": "ride", "rideType": "UberX", "pickupAddress": "Howard St, Evanston, IL 60202, US", "dropoffAddress": "Davis St, Evanston, IL 60201, US", "basePay": "6.66", "surge": "0.00", "tip": "0.00", "earnings": "6.66", "duration": "481", "distance": "2.20", "rideStartTime": "July 25, 2024 at 09:26 PM", "rideEndTime": "July 25, 2024 at 09:34 PM"}}, {"type": "Feature", "geometry": {"coordinates": [[-87.685699, 42.047071], [-87.690144, 42.047108], [-87.690141, 42.048544], [-87.693603, 42.048591], [-87.699097, 42.048379], [-87.724487, 42.048046]], "type": "LineString"}, "properties": {"timestamp": "2024-07-25T21:43:54", "type": "transition"}}, {"type": "Feature", "geometry": {"coordinates": [[-87.724487, 42.048046], [-87.710533, 42.048194], [-87.711699, 41.997144], [-87.714093, 41.994454], [-87.693072, 41.981813], [-87.692092, 41.97416], [-87.688961, 41.970413], [-87.688846, 41.966754], [-87.687466, 41.966835], [-87.681921, 41.95867], [-87.678881, 41.958709], [-87.678854, 41.957803], [-87.676433, 41.957841], [-87.6764, 41.956747]], "type": "LineString"}, "properties": {"timestamp": "2024-07-25T21:43:54", "type": "ride", "rideType": "UberX", "pickupAddress": "Church St, Evanston, IL 60201-3126, US", "dropoffAddress": "N Wolcott Ave, Chicago, IL 60640-3311, US", "basePay": "10.93", "surge": "0.00", "tip": "4.00", "earnings": "14.93", "duration": "1439", "distance": "6.00", "rideStartTime": "July 25, 2024 at 09:43 PM", "rideEndTime": "July 25, 2024 at 10:07 PM"}}, {"type": "Feature", "geometry": {"coordinates": [[-87.6764, 41.956747], [-87.676433, 41.957841], [-87.669071, 41.957958], [-87.669707, 41.988054], [-87.669796, 41.987608], [-87.669769, 41.987519]], "type": "LineString"}, "properties": {"timestamp": "2024-07-25T22:09:29", "type": "transition"}}, {"type": "Feature", "geometry": {"coordinates": [[-87.669769, 41.987519], [-87.669343, 41.985953], [-87.669943, 41.985943], [-87.66911, 41.954302], [-87.698254, 41.953982], [-87.698037, 41.946686], [-87.712704, 41.946565], [-87.712582, 41.942239], [-87.715459, 41.942862]], "type": "LineString"}, "properties": {"timestamp": "2024-07-25T22:09:29", "type": "ride", "rideType": "UberX", "pickupAddress": "N Clark St, Chicago, IL 60640, US", "dropoffAddress": "N Drake Ave, Chicago, IL 60618-2212, US", "basePay": "8.96", "surge": "0.00", "tip": "0.00", "earnings": "8.96", "duration": "883", "distance": "4.00", "rideStartTime": "July 25, 2024 at 10:09 PM", "rideEndTime": "July 25, 2024 at 10:24 PM"}}, {"type": "Feature", "geometry": {"coordinates": [[-87.715459, 41.942862], [-87.714433, 41.942252], [-87.712582, 41.942239], [-87.712908, 41.953809], [-87.709456, 41.953865], [-87.709457, 41.953972], [-87.709947, 41.953965]], "type": "LineString"}, "properties": {"timestamp": "2024-07-25T22:19:59", "type": "transition"}}, {"type": "Feature", "geometry": {"coordinates": [[-87.709947, 41.953965], [-87.717809, 41.953846], [-87.717785, 41.952768], [-87.718284, 41.953111]], "type": "LineString"}, "properties": {"timestamp": "2024-07-25T22:19:59", "type": "ride", "rideType": "UberX Share", "pickupAddress": "W Irving Park Rd, Chicago, IL 60618-3309, US", "dropoffAddress": "N Elston Ave, Chicago, IL 60647-2019, US", "basePay": "5.73", "surge": "0.00", "tip": "1.00", "earnings": "6.73", "duration": "516", "distance": "2.40", "rideStartTime": "July 25, 2024 at 10:19 PM", "rideEndTime": "July 25, 2024 at 10:28 PM"}}, {"type": "Feature", "geometry": {"coordinates": [[-87.718284, 41.953111], [-87.71933, 41.953825], [-87.809667, 41.952719], [-87.822074, 41.946631], [-87.821404, 41.937842], [-87.820185, 41.937866], [-87.820102, 41.936076], [-87.820727, 41.936062], [-87.82067, 41.934634]], "type": "LineString"}, "properties": {"timestamp": "2024-07-25T22:36:34", "type": "transition"}}, {"type": "Feature", "geometry": {"coordinates": [[-87.82067, 41.934634], [-87.820654, 41.93424], [-87.81151, 41.934421], [-87.811185, 41.924776], [-87.803157, 41.923552], [-87.789403, 41.92364], [-87.758599, 41.92408], [-87.758549, 41.922385]], "type": "LineString"}, "properties": {"timestamp": "2024-07-25T22:36:34", "type": "ride", "rideType": "UberX", "pickupAddress": "N Milwaukee Ave, Chicago, IL 60647, US", "dropoffAddress": "N Lockwood Ave, Chicago, IL 60639-3023, US", "basePay": "9.66", "surge": "0.00", "tip": "0.00", "earnings": "9.66", "duration": "830", "distance": "4.10", "rideStartTime": "July 25, 2024 at 10:36 PM", "rideEndTime": "July 25, 2024 at 10:50 PM"}}, {"type": "Feature", "geometry": {"coordinates": [[-87.758549, 41.922385], [-87.758406, 41.917388], [-87.75594, 41.916918], [-87.755785, 41.909507], [-87.763003, 41.909417], [-87.763025, 41.910055]], "type": "LineString"}, "properties": {"timestamp": "2024-07-25T22:56:28", "type": "transition"}}, {"type": "Feature", "geometry": {"coordinates": [[-87.763025, 41.910055], [-87.763066, 41.911236], [-87.755721, 41.91134], [-87.75594, 41.916918], [-87.753381, 41.916843], [-87.747376, 41.916914], [-87.747306, 41.916012], [-87.747503, 41.91601]], "type": "LineString"}, "properties": {"timestamp": "2024-07-25T22:56:28", "type": "ride", "rideType": "UberX", "pickupAddress": "N Linder Ave, Chicago, IL 60639-4220, US", "dropoffAddress": "W Homer St, Chicago, IL 60639, US", "basePay": "3.40", "surge": "0.00", "tip": "0.00", "earnings": "3.40", "duration": "209", "distance": "0.50", "rideStartTime": "July 25, 2024 at 10:56 PM", "rideEndTime": "July 25, 2024 at 10:59 PM"}}, {"type": "Feature", "geometry": {"coordinates": [[-87.747503, 41.91601], [-87.749412, 41.915981], [-87.749444, 41.916889], [-87.746096, 41.916928], [-87.747303, 41.953418], [-87.647939, 41.954587], [-87.647873, 41.951737], [-87.646833, 41.950014]], "type": "LineString"}, "properties": {"timestamp": "2024-07-26T22:03:36", "type": "transition"}}]}