{"type": "FeatureCollection", "features": [{"type": "Feature", "geometry": {"coordinates": [[-87.678285, 42.028177], [-87.68054, 42.039944], [-87.680521, 42.044073], [-87.677291, 42.051106], [-87.677153, 42.057091], [-87.674794, 42.057108], [-87.674719, 42.057376]], "type": "LineString"}, "properties": {"timestamp": "2024-05-21T12:31:42", "type": "ride", "rideType": "UberX", "pickupAddress": "Chicago Ave, Evanston, IL 60202, US", "dropoffAddress": "Tech Dr Fl 2, Evanston, IL 60208, US", "basePay": "4.35", "surge": "0.00", "tip": "0.00", "earnings": "4.35", "duration": "550", "distance": "1.70", "rideStartTime": "May 21, 2024 at 12:31 PM", "rideEndTime": "May 21, 2024 at 12:40 PM"}}, {"type": "Feature", "geometry": {"coordinates": [[-87.674719, 42.057376], [-87.674719, 42.057212], [-87.674794, 42.057108], [-87.677153, 42.057091], [-87.677157, 42.056866]], "type": "LineString"}, "properties": {"timestamp": "2024-05-21T12:39:57", "type": "transition"}}, {"type": "Feature", "geometry": {"coordinates": [[-87.677157, 42.056866], [-87.677291, 42.051106], [-87.680232, 42.045024], [-87.682376, 42.04557], [-87.685025, 42.045599], [-87.685009, 42.046334]], "type": "LineString"}, "properties": {"timestamp": "2024-05-21T12:39:57", "type": "ride", "rideType": "UberX Share", "pickupAddress": "Sheridan Rd, Evanston, IL 60201-2920, US", "dropoffAddress": "Maple Ave, Evanston, IL 60201-3602, US", "basePay": "3.43", "surge": "0.00", "tip": "0.00", "earnings": "3.43", "duration": "431", "distance": "1.40", "rideStartTime": "May 21, 2024 at 12:39 PM", "rideEndTime": "May 21, 2024 at 12:47 PM"}}, {"type": "Feature", "geometry": {"coordinates": [[-87.685009, 42.046334], [-87.685051, 42.044147], [-87.681904, 42.044102], [-87.68191, 42.043758]], "type": "LineString"}, "properties": {"timestamp": "2024-05-21T12:56:04", "type": "transition"}}, {"type": "Feature", "geometry": {"coordinates": [[-87.68191, 42.043758], [-87.681375, 42.041208], [-87.763691, 42.040938], [-87.768504, 42.03371], [-87.768822, 42.026512], [-87.765749, 42.021309], [-87.749252, 42.009007], [-87.751521, 41.987219], [-87.746835, 41.980228], [-87.747223, 41.966563], [-87.745232, 41.962358], [-87.719592, 41.947613], [-87.715306, 41.94215], [-87.670146, 41.917654], [-87.66137, 41.906646], [-87.659246, 41.897685], [-87.646315, 41.886261], [-87.644363, 41.857367], [-87.644333, 41.849097], [-87.644894, 41.846776], [-87.667166, 41.837862], [-87.680151, 41.837032], [-87.695427, 41.832287], [-87.698851, 41.831418], [-87.700566, 41.830863], [-87.70462, 41.83001], [-87.70506, 41.844708]], "type": "LineString"}, "properties": {"timestamp": "2024-05-21T12:56:04", "type": "ride", "rideType": "UberX", "pickupAddress": "Sherman Ave, Evanston, IL 60201-3715, US", "dropoffAddress": "N Western Ave, Chicago, IL 60645-5422, US", "basePay": "6.59", "surge": "0.00", "tip": "0.00", "earnings": "6.59", "duration": "769", "distance": "3.90", "rideStartTime": "May 21, 2024 at 12:56 PM", "rideEndTime": "May 21, 2024 at 01:08 PM"}}, {"type": "Feature", "geometry": {"coordinates": [[-87.70506, 41.844708], [-87.704642, 41.829034], [-87.699332, 41.830574], [-87.680385, 41.836711], [-87.66766, 41.83747], [-87.651867, 41.844887], [-87.642887, 41.846989], [-87.616851, 41.847976], [-87.613392, 41.848153], [-87.612168, 41.84938], [-87.619244, 41.8661], [-87.617003, 41.869799], [-87.617167, 41.881825], [-87.613645, 41.884762], [-87.614041, 41.892878], [-87.619441, 41.900921], [-87.623983, 41.902767], [-87.631799, 41.928213], [-87.632273, 41.934701], [-87.638833, 41.941219], [-87.644376, 41.950931], [-87.648738, 41.973046], [-87.652803, 41.984951], [-87.662456, 41.985105], [-87.663294, 41.985603], [-87.663234, 41.986764], [-87.663001, 41.986619]], "type": "LineString"}, "properties": {"timestamp": "2024-05-21T13:17:07", "type": "transition"}}, {"type": "Feature", "geometry": {"coordinates": [[-87.663001, 41.986619], [-87.661412, 41.985749], [-87.6614, 41.985419], [-87.653157, 41.984999], [-87.648822, 41.972134], [-87.644611, 41.950978], [-87.638957, 41.941067], [-87.632527, 41.93482], [-87.632048, 41.928427], [-87.62421, 41.902733], [-87.619617, 41.900898], [-87.614345, 41.893094], [-87.614127, 41.884928], [-87.617321, 41.882167], [-87.617442, 41.878363], [-87.620697, 41.878331], [-87.620625, 41.876287], [-87.688313, 41.875763], [-87.692409, 41.875862], [-87.696151, 41.875983], [-87.696261, 41.880169], [-87.695733, 41.880173]], "type": "LineString"}, "properties": {"timestamp": "2024-05-21T13:17:07", "type": "ride", "rideType": "UberX", "pickupAddress": "W Early Ave, Chicago, IL 60660-3424, US", "dropoffAddress": "W Monroe St, Chicago, IL 60606-5019, US", "basePay": "12.82", "surge": "1.50", "tip": "7.00", "earnings": "21.32", "duration": "1769", "distance": "9.70", "rideStartTime": "May 21, 2024 at 01:17 PM", "rideEndTime": "May 21, 2024 at 01:46 PM"}}, {"type": "Feature", "geometry": {"coordinates": [[-87.695733, 41.880173], [-87.696261, 41.880169], [-87.696127, 41.874902], [-87.695509, 41.874908], [-87.690201, 41.875125], [-87.659837, 41.87561], [-87.650308, 41.875329], [-87.647601, 41.875302], [-87.645452, 41.874563], [-87.644482, 41.875077], [-87.64458, 41.876036], [-87.645364, 41.877863], [-87.645275, 41.880374], [-87.645355, 41.881847], [-87.645393, 41.882198], [-87.645396, 41.883308], [-87.645365, 41.885689], [-87.639866, 41.885734], [-87.639953, 41.887994], [-87.640199, 41.88801]], "type": "LineString"}, "properties": {"timestamp": "2024-05-21T13:44:36", "type": "transition"}}, {"type": "Feature", "geometry": {"coordinates": [[-87.640199, 41.88801], [-87.639953, 41.887994], [-87.64001, 41.889064], [-87.629579, 41.889242], [-87.629616, 41.89084], [-87.62021, 41.891016], [-87.620263, 41.892588], [-87.614597, 41.892685], [-87.61463, 41.893135], [-87.618028, 41.89823]], "type": "LineString"}, "properties": {"timestamp": "2024-05-21T13:44:36", "type": "ride", "rideType": "UberX", "pickupAddress": "S Canal St, Chicago, IL 60606, US", "dropoffAddress": "N Lake Shore Dr, Chicago, IL 60611-3057, US", "basePay": "6.69", "surge": "0.00", "tip": "1.00", "earnings": "7.69", "duration": "701", "distance": "2.40", "rideStartTime": "May 21, 2024 at 01:44 PM", "rideEndTime": "May 21, 2024 at 01:56 PM"}}, {"type": "Feature", "geometry": {"coordinates": [[-87.618028, 41.89823], [-87.617065, 41.89684], [-87.624345, 41.896737], [-87.624293, 41.892538], [-87.621881, 41.892574]], "type": "LineString"}, "properties": {"timestamp": "2024-05-21T14:02:49", "type": "transition"}}, {"type": "Feature", "geometry": {"coordinates": [[-87.621881, 41.892574], [-87.620263, 41.892588], [-87.620232, 41.890695], [-87.620761, 41.887957], [-87.623281, 41.888296], [-87.625188, 41.888311], [-87.625586, 41.88815], [-87.626429, 41.887194], [-87.627036, 41.886941], [-87.635171, 41.886919], [-87.635761, 41.886721], [-87.636873, 41.88588], [-87.636965, 41.884459], [-87.637084, 41.884462], [-87.637022, 41.881916], [-87.640505, 41.881877]], "type": "LineString"}, "properties": {"timestamp": "2024-05-21T14:02:49", "type": "ride", "rideType": "UberX", "pickupAddress": "E Ohio St, Chicago, IL 60611, US", "dropoffAddress": "W Madison St, Chicago, IL 60606, US", "basePay": "5.38", "surge": "1.75", "tip": "5.00", "earnings": "12.13", "duration": "517", "distance": "2.00", "rideStartTime": "May 21, 2024 at 02:02 PM", "rideEndTime": "May 21, 2024 at 02:11 PM"}}, {"type": "Feature", "geometry": {"coordinates": [[-87.640505, 41.881877], [-87.642638, 41.881847], [-87.642764, 41.885711], [-87.649818, 41.885626], [-87.649838, 41.886778], [-87.649954, 41.886776]], "type": "LineString"}, "properties": {"timestamp": "2024-05-21T14:16:14", "type": "transition"}}, {"type": "Feature", "geometry": {"coordinates": [[-87.649954, 41.886776], [-87.651006, 41.88676], [-87.650961, 41.885607], [-87.646258, 41.885682], [-87.644363, 41.857367], [-87.645793, 41.852447], [-87.644333, 41.849097], [-87.643039, 41.847022], [-87.641933, 41.846546], [-87.638623, 41.847063], [-87.634629, 41.84669], [-87.632091, 41.847362], [-87.628234, 41.846918], [-87.623841, 41.847827], [-87.616851, 41.847976], [-87.613703, 41.847877], [-87.612314, 41.847086], [-87.608419, 41.838015], [-87.607384, 41.832923], [-87.602929, 41.827907]], "type": "LineString"}, "properties": {"timestamp": "2024-05-21T14:16:14", "type": "ride", "rideType": "UberX", "pickupAddress": "W Fulton Market, Chicago, IL 60607, US", "dropoffAddress": "S Dusable Lake Shore Dr, Chicago, IL 60605, US", "basePay": "8.66", "surge": "0.00", "tip": "3.00", "earnings": "11.66", "duration": "1066", "distance": "3.90", "rideStartTime": "May 21, 2024 at 02:16 PM", "rideEndTime": "May 21, 2024 at 02:34 PM"}}, {"type": "Feature", "geometry": {"coordinates": [[-87.602929, 41.827907], [-87.60211, 41.827252], [-87.600903, 41.82517], [-87.599849, 41.825435], [-87.607125, 41.833032], [-87.619224, 41.865968], [-87.617003, 41.869799], [-87.617167, 41.881825], [-87.613645, 41.884762], [-87.614041, 41.892878], [-87.619441, 41.900921], [-87.624048, 41.902893], [-87.631799, 41.928213], [-87.632273, 41.934701], [-87.638962, 41.941399], [-87.644572, 41.952992], [-87.644162, 41.954667], [-87.673794, 41.95429], [-87.673756, 41.952396], [-87.673469, 41.952401]], "type": "LineString"}, "properties": {"timestamp": "2024-05-21T16:16:42", "type": "transition"}}, {"type": "Feature", "geometry": {"coordinates": [[-87.673469, 41.952401], [-87.673756, 41.952396], [-87.67359, 41.946929], [-87.67855, 41.946869], [-87.677765, 41.92139], [-87.677255, 41.921395], [-87.671115, 41.918139], [-87.668499, 41.915851], [-87.664752, 41.909975], [-87.661559, 41.906635], [-87.661057, 41.901306], [-87.658834, 41.896667], [-87.6483, 41.889096], [-87.646108, 41.885119], [-87.646413, 41.883144], [-87.642677, 41.883172], [-87.642712, 41.884435], [-87.646033, 41.884406]], "type": "LineString"}, "properties": {"timestamp": "2024-05-21T16:16:42", "type": "ride", "rideType": "UberX", "pickupAddress": "N Ravenswood Ave, Chicago, IL 60613-3511, US", "dropoffAddress": "W Randolph St, Chicago, IL 60661, US", "basePay": "14.44", "surge": "3.25", "tip": "0.00", "earnings": "17.69", "duration": "1875", "distance": "5.30", "rideStartTime": "May 21, 2024 at 04:16 PM", "rideEndTime": "May 21, 2024 at 04:47 PM"}}, {"type": "Feature", "geometry": {"coordinates": [[-87.646033, 41.884406], [-87.646574, 41.884406], [-87.646646, 41.884524], [-87.648607, 41.88448], [-87.648651, 41.885876]], "type": "LineString"}, "properties": {"timestamp": "2024-05-21T16:53:30", "type": "transition"}}, {"type": "Feature", "geometry": {"coordinates": [[-87.648651, 41.885876], [-87.64876, 41.890082], [-87.647611, 41.890088], [-87.647675, 41.896405], [-87.632635, 41.896613], [-87.632751, 41.900548], [-87.628335, 41.9006], [-87.62834, 41.900747], [-87.624042, 41.900824], [-87.623664, 41.902709], [-87.62589, 41.912141], [-87.628743, 41.918036], [-87.631851, 41.928415], [-87.632273, 41.934701], [-87.638962, 41.941399], [-87.644376, 41.950931], [-87.644572, 41.952992], [-87.644162, 41.954667], [-87.656767, 41.95446], [-87.656894, 41.958194]], "type": "LineString"}, "properties": {"timestamp": "2024-05-21T16:53:30", "type": "ride", "rideType": "UberX", "pickupAddress": "200 N Green St, Chicago, IL 60607, US", "dropoffAddress": "W Irving Park Rd, Chicago, IL 60613-2914, US", "basePay": "14.37", "surge": "3.00", "tip": "0.00", "earnings": "17.37", "duration": "2399", "distance": "6.80", "rideStartTime": "May 21, 2024 at 04:53 PM", "rideEndTime": "May 21, 2024 at 05:33 PM"}}, {"type": "Feature", "geometry": {"coordinates": [[-87.656894, 41.958194], [-87.656767, 41.95446], [-87.71933, 41.953825], [-87.729684, 41.960937], [-87.741062, 41.960809]], "type": "LineString"}, "properties": {"timestamp": "2024-05-21T18:34:55", "type": "transition"}}, {"type": "Feature", "geometry": {"coordinates": [[-87.741062, 41.960809], [-87.747538, 41.960724], [-87.747723, 41.968033], [-87.75503, 41.967937], [-87.78422, 41.982409], [-87.852562, 41.984247], [-87.875224, 41.996518], [-87.898667, 42.007565], [-87.953891, 42.021307], [-87.977902, 42.038006], [-88.018823, 42.056093], [-88.021626, 42.056828], [-88.029256, 42.057979], [-88.030904, 42.04186], [-88.031014, 42.017386], [-88.023582, 41.990718], [-88.024834, 41.972392], [-88.027352, 41.957727], [-88.037535, 41.947597], [-88.038117, 41.90897], [-88.038982, 41.904811], [-88.103087, 41.902316], [-88.150515, 41.907877], [-88.151092, 41.888137], [-88.204904, 41.884636]], "type": "LineString"}, "properties": {"timestamp": "2024-05-21T18:34:55", "type": "ride", "rideType": "UberX Share", "pickupAddress": "W Montrose Ave, Chicago, IL 60618, US", "dropoffAddress": "W Addison St, Chicago, IL 06061, US", "basePay": "6.06", "surge": "2.00", "tip": "4.00", "earnings": "12.06", "duration": "862", "distance": "1.90", "rideStartTime": "May 21, 2024 at 06:34 PM", "rideEndTime": "May 21, 2024 at 06:49 PM"}}, {"type": "Feature", "geometry": {"coordinates": [[-88.204904, 41.884636], [-88.151092, 41.888137], [-88.150531, 41.907621], [-88.102946, 41.902084], [-88.037137, 41.904083], [-88.037235, 41.947209], [-88.026829, 41.958023], [-88.023332, 41.979277], [-88.023633, 41.993285], [-88.030784, 42.017964], [-88.029844, 42.045111], [-88.028387, 42.052731], [-88.024448, 42.056683], [-88.012455, 42.05373], [-87.97554, 42.03647], [-87.954188, 42.021115], [-87.898161, 42.007134], [-87.87696, 41.997457], [-87.864082, 41.988327], [-87.850425, 41.983769], [-87.784218, 41.98215], [-87.73715, 41.957103], [-87.731304, 41.953617], [-87.66911, 41.954302], [-87.66897, 41.94882], [-87.667351, 41.948845]], "type": "LineString"}, "properties": {"timestamp": "2024-05-21T18:54:05", "type": "transition"}}, {"type": "Feature", "geometry": {"coordinates": [[-87.667351, 41.948845], [-87.664054, 41.948897], [-87.663682, 41.936111], [-87.658713, 41.932557], [-87.653863, 41.932636], [-87.653827, 41.931569]], "type": "LineString"}, "properties": {"timestamp": "2024-05-21T18:54:05", "type": "ride", "rideType": "UberX", "pickupAddress": "W Waveland Ave, Chicago, IL 60613-3830, US", "dropoffAddress": "N Sheffield Ave, Chicago, IL 60657, US", "basePay": "3.92", "surge": "0.00", "tip": "0.00", "earnings": "3.92", "duration": "379", "distance": "0.90", "rideStartTime": "May 21, 2024 at 06:54 PM", "rideEndTime": "May 21, 2024 at 07:00 PM"}}, {"type": "Feature", "geometry": {"coordinates": [[-87.653827, 41.931569], [-87.653863, 41.932636], [-87.65143, 41.932682], [-87.651425, 41.932534]], "type": "LineString"}, "properties": {"timestamp": "2024-05-21T19:02:26", "type": "transition"}}, {"type": "Feature", "geometry": {"coordinates": [[-87.651425, 41.932534], [-87.65143, 41.932682], [-87.678134, 41.932278], [-87.688003, 41.939468], [-87.688345, 41.949742]], "type": "LineString"}, "properties": {"timestamp": "2024-05-21T19:02:26", "type": "ride", "rideType": "UberX", "pickupAddress": "N Mildred Ave, Chicago, IL 60657-5015, US", "dropoffAddress": "N Western Ave, Chicago, IL 60647, US", "basePay": "8.54", "surge": "0.00", "tip": "0.00", "earnings": "8.54", "duration": "1374", "distance": "2.40", "rideStartTime": "May 21, 2024 at 07:02 PM", "rideEndTime": "May 21, 2024 at 07:25 PM"}}, {"type": "Feature", "geometry": {"coordinates": [[-87.688345, 41.949742], [-87.688245, 41.946744], [-87.708842, 41.946623], [-87.718284, 41.953111]], "type": "LineString"}, "properties": {"timestamp": "2024-05-21T19:27:27", "type": "transition"}}, {"type": "Feature", "geometry": {"coordinates": [[-87.718284, 41.953111], [-87.729684, 41.960937], [-87.75449, 41.960636], [-87.761435, 41.968654]], "type": "LineString"}, "properties": {"timestamp": "2024-05-21T19:27:27", "type": "ride", "rideType": "Comfort", "pickupAddress": "N Elston Ave, Chicago, IL 60647-2003, US", "dropoffAddress": "N Jefferson, Chicago, IL 60661, US", "basePay": "9.53", "surge": "4.50", "tip": "0.00", "earnings": "14.03", "duration": "1059", "distance": "4.10", "rideStartTime": "May 21, 2024 at 07:27 PM", "rideEndTime": "May 21, 2024 at 07:45 PM"}}, {"type": "Feature", "geometry": {"coordinates": [[-87.761435, 41.968654], [-87.760755, 41.967869], [-87.747723, 41.968033], [-87.747918, 41.972896], [-87.747761, 41.972794], [-87.747223, 41.966563], [-87.745232, 41.962358], [-87.719592, 41.947613], [-87.715306, 41.94215], [-87.709927, 41.940372], [-87.670146, 41.917654], [-87.66137, 41.906646], [-87.659246, 41.897685], [-87.647794, 41.888636], [-87.646108, 41.885119], [-87.646413, 41.883144], [-87.642677, 41.883172], [-87.642815, 41.887871]], "type": "LineString"}, "properties": {"timestamp": "2024-05-21T19:48:07", "type": "transition"}}, {"type": "Feature", "geometry": {"coordinates": [[-87.642815, 41.887871], [-87.642802, 41.886807], [-87.644278, 41.886799], [-87.644337, 41.889054], [-87.654976, 41.895983], [-87.655808, 41.89501], [-87.657675, 41.89596], [-87.659011, 41.897622], [-87.660805, 41.901753], [-87.661061, 41.906443], [-87.664439, 41.910145], [-87.667973, 41.915739], [-87.66968, 41.917898], [-87.667964, 41.917936], [-87.66862, 41.92163], [-87.668531, 41.937882], [-87.669017, 41.937875]], "type": "LineString"}, "properties": {"timestamp": "2024-05-21T19:48:07", "type": "ride", "rideType": "UberX", "pickupAddress": "N Jefferson St, Chicago, IL 60661-2307, US", "dropoffAddress": "W Barry Ave, Chicago, IL 60657, US", "basePay": "10.96", "surge": "0.00", "tip": "4.00", "earnings": "14.96", "duration": "1967", "distance": "4.80", "rideStartTime": "May 21, 2024 at 07:48 PM", "rideEndTime": "May 21, 2024 at 08:20 PM"}}, {"type": "Feature", "geometry": {"coordinates": [[-87.669017, 41.937875], [-87.671019, 41.937845], [-87.6712, 41.943313], [-87.686806, 41.965973], [-87.688817, 41.965751], [-87.690113, 42.006845], [-87.699813, 42.00666], [-87.6998, 42.007558], [-87.697564, 42.007603]], "type": "LineString"}, "properties": {"timestamp": "2024-05-22T15:05:18", "type": "transition"}}]}