{"type": "FeatureCollection", "features": [{"type": "Feature", "geometry": {"coordinates": [[-87.668662, 41.986291], [-87.669442, 41.986279], [-87.6699, 41.989705], [-87.67531, 41.992132], [-87.675425, 41.994982], [-87.681855, 42.008899], [-87.683076, 42.012318], [-87.687558, 42.012258], [-87.687554, 42.012506]], "type": "LineString"}, "properties": {}}, {"type": "Feature", "geometry": {"coordinates": [[-87.687554, 42.012506], [-87.687549, 42.012869], [-87.686195, 42.012855], [-87.686201, 42.012326], [-87.686154, 42.012243], [-87.683329, 42.012227], [-87.683076, 42.012318], [-87.679075, 42.014222], [-87.679061, 42.016798]], "type": "LineString"}, "properties": {}}, {"type": "Feature", "geometry": {"coordinates": [[-87.679061, 42.016798], [-87.679035, 42.019436], [-87.666039, 42.019248], [-87.660929, 42.005557], [-87.66054, 41.998191], [-87.65567, 41.997897], [-87.655253, 41.985556], [-87.653157, 41.984999], [-87.648822, 41.972134], [-87.64469, 41.951193], [-87.639566, 41.942042], [-87.638796, 41.940268], [-87.639537, 41.940119], [-87.639435, 41.936919]], "type": "LineString"}, "properties": {}}, {"type": "Feature", "geometry": {"coordinates": [[-87.639435, 41.936919], [-87.639435, 41.936919]], "type": "LineString"}, "properties": {}}, {"type": "Feature", "geometry": {"coordinates": [[-87.639435, 41.936919], [-87.639574, 41.941203], [-87.639768, 41.941886], [-87.641827, 41.945829], [-87.644732, 41.950773], [-87.645037, 41.951739], [-87.644996, 41.953061], [-87.650165, 41.952741]], "type": "LineString"}, "properties": {}}, {"type": "Feature", "geometry": {"coordinates": [[-87.650165, 41.952741], [-87.649638, 41.952749], [-87.649662, 41.953239], [-87.656894, 41.964503]], "type": "LineString"}, "properties": {}}, {"type": "Feature", "geometry": {"coordinates": [[-87.656894, 41.964503], [-87.654742, 41.961156], [-87.654325, 41.947246], [-87.659172, 41.947159], [-87.65834, 41.921676], [-87.659737, 41.921657]], "type": "LineString"}, "properties": {}}, {"type": "Feature", "geometry": {"coordinates": [[-87.659737, 41.921657], [-87.65834, 41.921676], [-87.658824, 41.935883]], "type": "LineString"}, "properties": {}}, {"type": "Feature", "geometry": {"coordinates": [[-87.658824, 41.935883], [-87.658837, 41.936197], [-87.663682, 41.936111], [-87.668729, 41.939809], [-87.672471, 41.945127], [-87.68093, 41.945017], [-87.680928, 41.944938]], "type": "LineString"}, "properties": {}}, {"type": "Feature", "geometry": {"coordinates": [[-87.680928, 41.944938], [-87.680878, 41.943192], [-87.688089, 41.94311], [-87.688345, 41.949742]], "type": "LineString"}, "properties": {}}, {"type": "Feature", "geometry": {"coordinates": [[-87.688345, 41.949742], [-87.687986, 41.932176], [-87.696547, 41.932116], [-87.670155, 41.917456], [-87.661229, 41.905802], [-87.661667, 41.903435], [-87.658338, 41.903492], [-87.6567, 41.901311], [-87.656554, 41.896984], [-87.65541, 41.896254], [-87.651173, 41.896338], [-87.65115, 41.895044], [-87.650724, 41.89505]], "type": "LineString"}, "properties": {}}, {"type": "Feature", "geometry": {"coordinates": [[-87.650724, 41.89505], [-87.652616, 41.895022], [-87.653012, 41.894693], [-87.654976, 41.895983], [-87.655808, 41.89501], [-87.657675, 41.89596], [-87.659011, 41.897622], [-87.660805, 41.901753], [-87.661061, 41.906443], [-87.664439, 41.910145], [-87.668818, 41.916712], [-87.67158, 41.918777], [-87.690595, 41.929581], [-87.694091, 41.931942], [-87.700074, 41.932091], [-87.700121, 41.933908], [-87.700481, 41.933907]], "type": "LineString"}, "properties": {}}, {"type": "Feature", "geometry": {"coordinates": [[-87.700481, 41.933907], [-87.699706, 41.93391], [-87.6989, 41.933369], [-87.698843, 41.9321], [-87.696547, 41.932116], [-87.669405, 41.916815], [-87.664752, 41.909975], [-87.661559, 41.906635], [-87.660921, 41.900902], [-87.659049, 41.896968], [-87.657114, 41.895018], [-87.653963, 41.891931], [-87.651034, 41.892554], [-87.63704, 41.892368], [-87.637178, 41.896556], [-87.63421, 41.896586], [-87.634293, 41.898867]], "type": "LineString"}, "properties": {}}, {"type": "Feature", "geometry": {"coordinates": [[-87.634293, 41.898867], [-87.634474, 41.903857], [-87.632844, 41.90389], [-87.633095, 41.912584], [-87.632796, 41.913071], [-87.636142, 41.918564], [-87.636391, 41.919706]], "type": "LineString"}, "properties": {}}, {"type": "Feature", "geometry": {"coordinates": [[-87.636391, 41.919706], [-87.636415, 41.918803], [-87.632856, 41.913169], [-87.633227, 41.912793], [-87.633232, 41.911528], [-87.632499, 41.886947], [-87.63544, 41.886906], [-87.636973, 41.885732], [-87.639866, 41.885734], [-87.639953, 41.887994], [-87.640199, 41.88801]], "type": "LineString"}, "properties": {}}, {"type": "Feature", "geometry": {"coordinates": [[-87.640199, 41.88801], [-87.639953, 41.887994], [-87.64001, 41.889064], [-87.644337, 41.889054], [-87.644242, 41.885699], [-87.645903, 41.885686], [-87.645999, 41.881827], [-87.646134, 41.880956], [-87.646145, 41.879569], [-87.646166, 41.878121], [-87.646815, 41.876334], [-87.647774, 41.87588], [-87.649135, 41.875728], [-87.657603, 41.876197], [-87.688313, 41.875763], [-87.692409, 41.875862], [-87.696151, 41.875983], [-87.696189, 41.877434], [-87.693785, 41.877461], [-87.693796, 41.878371], [-87.696046, 41.878346]], "type": "LineString"}, "properties": {}}, {"type": "Feature", "geometry": {"coordinates": [[-87.696046, 41.878346], [-87.696214, 41.878344], [-87.696127, 41.874902], [-87.695509, 41.874908], [-87.690201, 41.875125], [-87.650308, 41.875329], [-87.647601, 41.875302], [-87.645452, 41.874563], [-87.644482, 41.875077], [-87.64458, 41.876036], [-87.645275, 41.880374], [-87.645355, 41.881847], [-87.645393, 41.882198], [-87.64591, 41.885931], [-87.647404, 41.888483], [-87.658783, 41.897251], [-87.660805, 41.901753], [-87.661061, 41.906443], [-87.664439, 41.910145], [-87.668818, 41.916712], [-87.704001, 41.937344], [-87.706845, 41.939348], [-87.706369, 41.93936], [-87.706177, 41.944803], [-87.705317, 41.944219], [-87.705281, 41.943085]], "type": "LineString"}, "properties": {}}, {"type": "Feature", "geometry": {"coordinates": [[-87.705281, 41.943085], [-87.705182, 41.939366], [-87.707702, 41.939339], [-87.707505, 41.930261], [-87.707584, 41.929485], [-87.707814, 41.929332], [-87.707541, 41.929168], [-87.707825, 41.928361], [-87.710862, 41.928329], [-87.710817, 41.926502], [-87.709358, 41.926518], [-87.709305, 41.925019]], "type": "LineString"}, "properties": {}}, {"type": "Feature", "geometry": {"coordinates": [[-87.709305, 41.925019], [-87.709292, 41.9247], [-87.687645, 41.924902], [-87.687706, 41.928661], [-87.684147, 41.931491], [-87.683979, 41.932222], [-87.675673, 41.932309], [-87.675797, 41.935962], [-87.674697, 41.935976]], "type": "LineString"}, "properties": {}}, {"type": "Feature", "geometry": {"coordinates": [[-87.674697, 41.935976], [-87.668583, 41.936056], [-87.668452, 41.9324], [-87.66355, 41.932479], [-87.663383, 41.927039], [-87.660977, 41.927077]], "type": "LineString"}, "properties": {}}, {"type": "Feature", "geometry": {"coordinates": [[-87.660977, 41.927077], [-87.663383, 41.927039], [-87.663327, 41.925216], [-87.681912, 41.924981], [-87.685177, 41.926707], [-87.709664, 41.940439], [-87.715161, 41.942387], [-87.719618, 41.947985], [-87.742619, 41.960998], [-87.746732, 41.965012], [-87.747426, 41.975724], [-87.746614, 41.980044], [-87.751348, 41.987222], [-87.75017, 41.989907], [-87.701839, 41.990432], [-87.701956, 41.993954], [-87.700743, 41.993968], [-87.700733, 41.993673]], "type": "LineString"}, "properties": {}}, {"type": "Feature", "geometry": {"coordinates": [[-87.700733, 41.993673], [-87.700623, 41.990441], [-87.689669, 41.99044], [-87.689151, 41.975899], [-87.679392, 41.976029], [-87.679355, 41.974696], [-87.676798, 41.97474]], "type": "LineString"}, "properties": {}}, {"type": "Feature", "geometry": {"coordinates": [[-87.676798, 41.97474], [-87.676368, 41.974747], [-87.676201, 41.968803], [-87.677691, 41.968778], [-87.677698, 41.969059]], "type": "LineString"}, "properties": {}}, {"type": "Feature", "geometry": {"coordinates": [[-87.677698, 41.969059], [-87.67774, 41.970597], [-87.676258, 41.970616], [-87.676016, 41.961499], [-87.675307, 41.961507], [-87.675208, 41.959935]], "type": "LineString"}, "properties": {}}, {"type": "Feature", "geometry": {"coordinates": [[-87.675208, 41.959935], [-87.675307, 41.961507], [-87.646878, 41.961908], [-87.644905, 41.955203], [-87.644611, 41.950978], [-87.638957, 41.941067], [-87.637339, 41.939301], [-87.633807, 41.936608], [-87.632637, 41.935041], [-87.632155, 41.933545], [-87.631858, 41.927741], [-87.631853, 41.926001], [-87.634084, 41.925697], [-87.640463, 41.92558], [-87.641881, 41.927956]], "type": "LineString"}, "properties": {}}, {"type": "Feature", "geometry": {"coordinates": [[-87.641881, 41.927956], [-87.642943, 41.929694], [-87.644199, 41.929324], [-87.645552, 41.929135], [-87.65652, 41.928972]], "type": "LineString"}, "properties": {}}, {"type": "Feature", "geometry": {"coordinates": [[-87.65652, 41.928972], [-87.663439, 41.928863], [-87.6632, 41.921626], [-87.677765, 41.92139], [-87.677621, 41.91776], [-87.692301, 41.917536], [-87.692287, 41.917031]], "type": "LineString"}, "properties": {}}, {"type": "Feature", "geometry": {"coordinates": [[-87.692287, 41.917031], [-87.692301, 41.917536], [-87.687413, 41.917587], [-87.687645, 41.924902], [-87.682301, 41.924978], [-87.685177, 41.926707], [-87.704001, 41.937344], [-87.707163, 41.939332], [-87.707595, 41.939599], [-87.707967, 41.95211], [-87.704297, 41.952129], [-87.70425, 41.950433]], "type": "LineString"}, "properties": {}}, {"type": "Feature", "geometry": {"coordinates": [[-87.70425, 41.950433], [-87.704247, 41.950308], [-87.703021, 41.950315], [-87.703124, 41.95391], [-87.645235, 41.954634], [-87.644611, 41.950978], [-87.639566, 41.942042], [-87.638796, 41.940268], [-87.639537, 41.940119], [-87.639435, 41.936919]], "type": "LineString"}, "properties": {}}, {"type": "Feature", "geometry": {"coordinates": [[-87.639435, 41.936919], [-87.639435, 41.936919]], "type": "LineString"}, "properties": {}}, {"type": "Feature", "geometry": {"coordinates": [[-87.639435, 41.936919], [-87.639537, 41.940119], [-87.638796, 41.940268], [-87.638606, 41.939931], [-87.634194, 41.936955], [-87.632527, 41.93482], [-87.632048, 41.928427], [-87.627538, 41.915117], [-87.627206, 41.913042], [-87.628067, 41.912346], [-87.631428, 41.913459], [-87.633196, 41.912907], [-87.632901, 41.900546], [-87.63435, 41.90053], [-87.634293, 41.898867]], "type": "LineString"}, "properties": {}}, {"type": "Feature", "geometry": {"coordinates": [[-87.634293, 41.898867], [-87.634293, 41.898867]], "type": "LineString"}, "properties": {}}, {"type": "Feature", "geometry": {"coordinates": [[-87.634293, 41.898867], [-87.63421, 41.896586], [-87.624345, 41.896737], [-87.624336, 41.894143], [-87.62188, 41.894176]], "type": "LineString"}, "properties": {}}, {"type": "Feature", "geometry": {"coordinates": [[-87.62188, 41.894176], [-87.617775, 41.894255], [-87.617802, 41.895054], [-87.6159, 41.895086], [-87.619828, 41.900878], [-87.620418, 41.900949], [-87.624141, 41.90082], [-87.624024, 41.901687], [-87.624503, 41.902429], [-87.624758, 41.903252], [-87.6269, 41.903229]], "type": "LineString"}, "properties": {}}, {"type": "Feature", "geometry": {"coordinates": [[-87.6269, 41.903229], [-87.63142, 41.903134], [-87.630743, 41.876886], [-87.633707, 41.876853], [-87.633284, 41.861304]], "type": "LineString"}, "properties": {}}, {"type": "Feature", "geometry": {"coordinates": [[-87.633284, 41.861304], [-87.633115, 41.860635], [-87.632052, 41.860175], [-87.631731, 41.859839], [-87.63188, 41.85776], [-87.636071, 41.857756], [-87.638934, 41.857668], [-87.639012, 41.860021], [-87.650822, 41.859852], [-87.650938, 41.863505], [-87.653231, 41.863458], [-87.653216, 41.863051]], "type": "LineString"}, "properties": {}}, {"type": "Feature", "geometry": {"coordinates": [[-87.653216, 41.863051], [-87.653231, 41.863458], [-87.650938, 41.863505], [-87.65105, 41.867148], [-87.66156, 41.866979], [-87.661848, 41.876439], [-87.664278, 41.876401], [-87.66442, 41.881502], [-87.663693, 41.881514], [-87.663727, 41.882868], [-87.663613, 41.88287]], "type": "LineString"}, "properties": {}}, {"type": "Feature", "geometry": {"coordinates": [[-87.663613, 41.88287], [-87.641266, 41.883178], [-87.639745, 41.883185], [-87.636818, 41.883223], [-87.636645, 41.88597], [-87.635439, 41.886768], [-87.634232, 41.886821]], "type": "LineString"}, "properties": {}}, {"type": "Feature", "geometry": {"coordinates": [[-87.634232, 41.886821], [-87.633975, 41.886821], [-87.633848, 41.881941], [-87.64573, 41.881801], [-87.645735, 41.885306], [-87.646837, 41.887752], [-87.658396, 41.896733], [-87.660726, 41.901461], [-87.661253, 41.906799], [-87.669547, 41.91737], [-87.704001, 41.937344], [-87.710036, 41.940632], [-87.714861, 41.942208], [-87.719618, 41.947985], [-87.738838, 41.958569], [-87.741371, 41.960451], [-87.741062, 41.960809]], "type": "LineString"}, "properties": {}}, {"type": "Feature", "geometry": {"coordinates": [[-87.741062, 41.960809], [-87.729684, 41.960937], [-87.719156, 41.953712], [-87.672222, 41.954208], [-87.672354, 41.95937]], "type": "LineString"}, "properties": {}}, {"type": "Feature", "geometry": {"coordinates": [[-87.672354, 41.95937], [-87.672366, 41.959729], [-87.665276, 41.959819], [-87.662225, 41.95438], [-87.645235, 41.954634], [-87.644611, 41.950978], [-87.639566, 41.942042], [-87.638796, 41.940268], [-87.639537, 41.940119], [-87.639435, 41.936919]], "type": "LineString"}, "properties": {}}, {"type": "Feature", "geometry": {"coordinates": [[-87.639435, 41.936919], [-87.63931, 41.932914], [-87.658713, 41.932557], [-87.666175, 41.937916], [-87.669017, 41.937875]], "type": "LineString"}, "properties": {}}, {"type": "Feature", "geometry": {"coordinates": [[-87.669017, 41.937875], [-87.671019, 41.937845], [-87.671095, 41.939671], [-87.658974, 41.939838], [-87.659172, 41.947159], [-87.647357, 41.947328], [-87.64345, 41.948638], [-87.644867, 41.951093], [-87.645016, 41.95271]], "type": "LineString"}, "properties": {}}, {"type": "Feature", "geometry": {"coordinates": [[-87.645016, 41.95271], [-87.645235, 41.954634], [-87.66911, 41.954302], [-87.669013, 41.950641], [-87.669671, 41.950633]], "type": "LineString"}, "properties": {}}, {"type": "Feature", "geometry": {"coordinates": [[-87.669671, 41.950633], [-87.668885, 41.950643], [-87.668983, 41.954306], [-87.645235, 41.954634], [-87.644611, 41.950978], [-87.639315, 41.941594], [-87.632453, 41.934639], [-87.632048, 41.928427], [-87.629189, 41.918735], [-87.62605, 41.911998], [-87.62421, 41.902733], [-87.62264, 41.901491], [-87.619743, 41.900996], [-87.61878, 41.899659], [-87.618191, 41.898469], [-87.622926, 41.898405]], "type": "LineString"}, "properties": {}}, {"type": "Feature", "geometry": {"coordinates": [[-87.622926, 41.898405], [-87.624206, 41.898386], [-87.624262, 41.897155], [-87.624388, 41.896443], [-87.624376, 41.895747], [-87.622799, 41.895763], [-87.62278, 41.894975], [-87.623046, 41.894971]], "type": "LineString"}, "properties": {}}, {"type": "Feature", "geometry": {"coordinates": [[-87.623046, 41.894971], [-87.624182, 41.89495], [-87.624176, 41.896741], [-87.616893, 41.896844], [-87.614264, 41.892868], [-87.614081, 41.885247], [-87.617453, 41.881821], [-87.617261, 41.869765], [-87.619589, 41.866068], [-87.614728, 41.853242], [-87.614444, 41.848506], [-87.626818, 41.84732], [-87.631727, 41.847855], [-87.631351, 41.843118], [-87.631289, 41.79178], [-87.631289, 41.778978], [-87.626564, 41.773198], [-87.626239, 41.768925], [-87.626556, 41.766175], [-87.626539, 41.765349], [-87.615283, 41.765714], [-87.615384, 41.770368]], "type": "LineString"}, "properties": {}}, {"type": "Feature", "geometry": {"coordinates": [[-87.615384, 41.770368], [-87.615283, 41.765714], [-87.624903, 41.765537], [-87.624908, 41.765772], [-87.62543, 41.769557], [-87.626008, 41.77431], [-87.630526, 41.779578], [-87.630393, 41.837743], [-87.631347, 41.844144], [-87.642036, 41.847354], [-87.644829, 41.85074], [-87.644517, 41.867845], [-87.644628, 41.873521], [-87.645646, 41.875725], [-87.649223, 41.875863], [-87.688313, 41.875763], [-87.692409, 41.875862], [-87.701067, 41.875937], [-87.702035, 41.915629], [-87.703717, 41.915612]], "type": "LineString"}, "properties": {}}, {"type": "Feature", "geometry": {"coordinates": [[-87.703717, 41.915612], [-87.702035, 41.915629], [-87.701859, 41.909737], [-87.701241, 41.907558], [-87.702311, 41.902777], [-87.702431, 41.897899], [-87.701974, 41.891131], [-87.701479, 41.889426], [-87.701237, 41.881942], [-87.696313, 41.881992], [-87.69617, 41.876701], [-87.691633, 41.876762]], "type": "LineString"}, "properties": {}}, {"type": "Feature", "geometry": {"coordinates": [[-87.691633, 41.876762], [-87.691651, 41.877486], [-87.686341, 41.877547], [-87.686532, 41.884621], [-87.676739, 41.88498], [-87.676791, 41.886776], [-87.673532, 41.886827]], "type": "LineString"}, "properties": {}}, {"type": "Feature", "geometry": {"coordinates": [[-87.673532, 41.886827], [-87.676791, 41.886776], [-87.676555, 41.875016], [-87.676128, 41.875021], [-87.6605, 41.875604], [-87.650308, 41.875329], [-87.648052, 41.875215], [-87.646014, 41.874037], [-87.644983, 41.869485], [-87.644357, 41.857055], [-87.645374, 41.852823], [-87.644998, 41.850609], [-87.642186, 41.847255], [-87.634652, 41.845323], [-87.632773, 41.844384], [-87.631597, 41.842703], [-87.631069, 41.830548], [-87.631351, 41.823664], [-87.621597, 41.823783], [-87.621608, 41.824244]], "type": "LineString"}, "properties": {}}, {"type": "Feature", "geometry": {"coordinates": [[-87.621608, 41.824244], [-87.621916, 41.838364], [-87.623234, 41.839068], [-87.624115, 41.865795], [-87.623447, 41.865801]], "type": "LineString"}, "properties": {}}, {"type": "Feature", "geometry": {"coordinates": [[-87.623447, 41.865801], [-87.622403, 41.865815], [-87.622442, 41.867418], [-87.618739, 41.867474], [-87.617003, 41.869799], [-87.617167, 41.881825], [-87.613613, 41.884932], [-87.614003, 41.89273], [-87.619441, 41.900921], [-87.622727, 41.90171], [-87.624048, 41.902893], [-87.62589, 41.912141], [-87.628743, 41.918036], [-87.631851, 41.928415], [-87.632152, 41.934381], [-87.633661, 41.936704], [-87.63676, 41.939073], [-87.638088, 41.940568], [-87.639537, 41.940119], [-87.668609, 41.939697], [-87.669927, 41.941506], [-87.669353, 41.941511]], "type": "LineString"}, "properties": {}}, {"type": "Feature", "geometry": {"coordinates": [[-87.669353, 41.941511], [-87.666287, 41.941558], [-87.666233, 41.939729], [-87.663815, 41.939759], [-87.663758, 41.938211]], "type": "LineString"}, "properties": {}}, {"type": "Feature", "geometry": {"coordinates": [[-87.663758, 41.938211], [-87.66355, 41.932479], [-87.678134, 41.932278], [-87.677893, 41.925026], [-87.687645, 41.924902], [-87.687207, 41.910324], [-87.701875, 41.910165], [-87.701241, 41.907558], [-87.70245, 41.899825], [-87.701944, 41.890936], [-87.702338, 41.890189], [-87.703929, 41.890102], [-87.703906, 41.889273]], "type": "LineString"}, "properties": {}}, {"type": "Feature", "geometry": {"coordinates": [[-87.703906, 41.889273], [-87.703929, 41.890102], [-87.702493, 41.890124], [-87.701505, 41.889682], [-87.701067, 41.875937], [-87.705721, 41.875893], [-87.705737, 41.876665]], "type": "LineString"}, "properties": {}}, {"type": "Feature", "geometry": {"coordinates": [[-87.705737, 41.876665], [-87.705721, 41.875893], [-87.70598, 41.875891], [-87.705261, 41.851772], [-87.704042, 41.85179], [-87.704057, 41.852765]], "type": "LineString"}, "properties": {}}, {"type": "Feature", "geometry": {"coordinates": [[-87.704057, 41.852765], [-87.704042, 41.85179], [-87.705261, 41.851772], [-87.704642, 41.829034], [-87.699332, 41.830574], [-87.680385, 41.836711], [-87.66766, 41.83747], [-87.651867, 41.844887], [-87.642887, 41.846989], [-87.616851, 41.847976], [-87.613392, 41.848153], [-87.612168, 41.84938], [-87.619244, 41.8661], [-87.617003, 41.869799], [-87.617167, 41.881825], [-87.613645, 41.884762], [-87.614003, 41.89273], [-87.619441, 41.900921], [-87.624048, 41.902893], [-87.631851, 41.928415], [-87.632152, 41.934381], [-87.638833, 41.941219], [-87.644376, 41.950931], [-87.647541, 41.967723], [-87.647273, 41.969474], [-87.656225, 41.96907], [-87.656365, 41.974712]], "type": "LineString"}, "properties": {}}]}