{"type": "FeatureCollection", "features": [{"type": "Feature", "geometry": {"coordinates": [[-87.705737, 41.876665], [-87.705721, 41.875893], [-87.70598, 41.875891], [-87.706225, 41.884354], [-87.711113, 41.884634], [-87.711331, 41.891856], [-87.714629, 41.89182]], "type": "LineString"}, "properties": {"timestamp": "2024-05-08T15:50:05", "type": "ride"}}, {"type": "Feature", "geometry": {"coordinates": [[-87.714629, 41.89182], [-87.708887, 41.891883], [-87.708841, 41.890287], [-87.710341, 41.890273]], "type": "LineString"}, "properties": {"timestamp": "2024-05-08T16:09:41", "type": "transition"}}, {"type": "Feature", "geometry": {"coordinates": [[-87.710341, 41.890273], [-87.711283, 41.890264], [-87.710777, 41.873622], [-87.709893, 41.873635], [-87.701688, 41.874883], [-87.697594, 41.875189], [-87.659837, 41.87561], [-87.650308, 41.875329], [-87.647601, 41.875302], [-87.645452, 41.874563], [-87.644482, 41.875077], [-87.64458, 41.876036], [-87.645364, 41.877863], [-87.645275, 41.880374], [-87.645355, 41.881847], [-87.645393, 41.882198], [-87.645735, 41.885306], [-87.646457, 41.887151], [-87.648003, 41.8891], [-87.650048, 41.890597], [-87.651108, 41.891699], [-87.650896, 41.892164], [-87.65026, 41.89242], [-87.62966, 41.892457], [-87.62986, 41.899859], [-87.630601, 41.899807]], "type": "LineString"}, "properties": {"timestamp": "2024-05-08T16:09:41", "type": "ride"}}, {"type": "Feature", "geometry": {"coordinates": [[-87.630601, 41.899807], [-87.631337, 41.899794], [-87.631127, 41.891621], [-87.639878, 41.891506], [-87.644384, 41.891225], [-87.644337, 41.889054], [-87.653397, 41.888985], [-87.653331, 41.886723], [-87.653639, 41.886718]], "type": "LineString"}, "properties": {"timestamp": "2024-05-08T16:24:41", "type": "transition"}}, {"type": "Feature", "geometry": {"coordinates": [[-87.653639, 41.886718], [-87.6545, 41.886709], [-87.654595, 41.890015], [-87.655763, 41.890005], [-87.655874, 41.893379], [-87.656525, 41.893906], [-87.655717, 41.894874], [-87.657675, 41.89596], [-87.65932, 41.898217], [-87.660805, 41.901753], [-87.661536, 41.907216], [-87.664439, 41.910145], [-87.668818, 41.916712], [-87.675191, 41.920831], [-87.677815, 41.922669], [-87.678134, 41.932278], [-87.680713, 41.932257], [-87.680658, 41.932073]], "type": "LineString"}, "properties": {"timestamp": "2024-05-08T16:24:41", "type": "ride"}}, {"type": "Feature", "geometry": {"coordinates": [[-87.680658, 41.932073], [-87.680713, 41.932257], [-87.683979, 41.932222], [-87.683998, 41.931734], [-87.684147, 41.931491], [-87.687433, 41.928846], [-87.687862, 41.928591], [-87.687645, 41.924902], [-87.690086, 41.924878], [-87.690094, 41.925214]], "type": "LineString"}, "properties": {"timestamp": "2024-05-08T17:02:28", "type": "transition"}}, {"type": "Feature", "geometry": {"coordinates": [[-87.690094, 41.925214], [-87.690149, 41.926696], [-87.687704, 41.926718], [-87.687672, 41.926885], [-87.687339, 41.927019], [-87.686023, 41.926403], [-87.683686, 41.924962], [-87.683325, 41.924765], [-87.67993, 41.923176], [-87.671496, 41.918378], [-87.668499, 41.915851], [-87.664752, 41.909975], [-87.661559, 41.906635], [-87.66114, 41.905221], [-87.661288, 41.902553], [-87.660921, 41.900902], [-87.659049, 41.896968], [-87.657114, 41.895018], [-87.655657, 41.89377], [-87.654831, 41.89226], [-87.653963, 41.891931], [-87.651034, 41.892554], [-87.632701, 41.89242], [-87.632683, 41.890793], [-87.61861, 41.891051], [-87.61855, 41.889504], [-87.618129, 41.889507]], "type": "LineString"}, "properties": {"timestamp": "2024-05-08T17:02:28", "type": "ride"}}, {"type": "Feature", "geometry": {"coordinates": [[-87.618129, 41.889507], [-87.621542, 41.889634], [-87.621696, 41.890131], [-87.62303, 41.890076], [-87.624184, 41.889788], [-87.624619, 41.887798], [-87.624981, 41.887798], [-87.625315, 41.887446], [-87.625298, 41.885765], [-87.624623, 41.885769], [-87.624571, 41.884489], [-87.624344, 41.884366], [-87.623414, 41.884372], [-87.622907, 41.884293], [-87.621085, 41.884319]], "type": "LineString"}, "properties": {"timestamp": "2024-05-08T18:08:45", "type": "transition"}}, {"type": "Feature", "geometry": {"coordinates": [[-87.621085, 41.884319], [-87.620576, 41.884316], [-87.620586, 41.884503], [-87.627902, 41.884489], [-87.627799, 41.882046], [-87.632362, 41.881953]], "type": "LineString"}, "properties": {"timestamp": "2024-05-08T18:08:45", "type": "ride"}}, {"type": "Feature", "geometry": {"coordinates": [[-87.632362, 41.881953], [-87.64573, 41.881801], [-87.645735, 41.885306], [-87.646837, 41.887752], [-87.658396, 41.896733], [-87.660726, 41.901461], [-87.661061, 41.906443], [-87.669227, 41.917096], [-87.702937, 41.93676], [-87.710036, 41.940632], [-87.715161, 41.942387], [-87.71887, 41.947406], [-87.723791, 41.950079], [-87.727575, 41.952511], [-87.727612, 41.95365], [-87.719156, 41.953712], [-87.718284, 41.953111]], "type": "LineString"}, "properties": {"timestamp": "2024-05-08T20:44:19", "type": "transition"}}, {"type": "Feature", "geometry": {"coordinates": [[-87.718284, 41.953111], [-87.698314, 41.939401], [-87.654106, 41.939918], [-87.654016, 41.937175], [-87.653552, 41.937186], [-87.65355, 41.937074]], "type": "LineString"}, "properties": {"timestamp": "2024-05-08T20:44:19", "type": "ride"}}, {"type": "Feature", "geometry": {"coordinates": [[-87.65355, 41.937074], [-87.653552, 41.937186], [-87.654016, 41.937175], [-87.654273, 41.944458], [-87.649407, 41.944527], [-87.64957, 41.950114], [-87.650789, 41.950097]], "type": "LineString"}, "properties": {"timestamp": "2024-05-08T20:56:51", "type": "transition"}}, {"type": "Feature", "geometry": {"coordinates": [[-87.650789, 41.950097], [-87.651978, 41.950079], [-87.651901, 41.947284], [-87.659172, 41.947159], [-87.658713, 41.932557], [-87.65822, 41.932567]], "type": "LineString"}, "properties": {"timestamp": "2024-05-08T20:56:51", "type": "ride"}}, {"type": "Feature", "geometry": {"coordinates": [[-87.65822, 41.932567], [-87.653863, 41.932636], [-87.653827, 41.931569]], "type": "LineString"}, "properties": {"timestamp": "2024-05-08T21:09:44", "type": "transition"}}, {"type": "Feature", "geometry": {"coordinates": [[-87.653827, 41.931569], [-87.653741, 41.929016], [-87.643784, 41.921883], [-87.643295, 41.906457], [-87.639563, 41.903768], [-87.637466, 41.903798]], "type": "LineString"}, "properties": {"timestamp": "2024-05-08T21:09:44", "type": "ride"}}, {"type": "Feature", "geometry": {"coordinates": [[-87.637466, 41.903798], [-87.648086, 41.903643], [-87.64782, 41.896403], [-87.662395, 41.896146], [-87.662352, 41.894339], [-87.663988, 41.894312], [-87.664011, 41.895209], [-87.662558, 41.895231]], "type": "LineString"}, "properties": {"timestamp": "2024-05-08T21:37:52", "type": "transition"}}, {"type": "Feature", "geometry": {"coordinates": [[-87.662558, 41.895231], [-87.662372, 41.895233], [-87.662395, 41.896146], [-87.655926, 41.896248], [-87.655629, 41.895215], [-87.655808, 41.89501], [-87.657675, 41.89596], [-87.65932, 41.898217], [-87.660805, 41.901753], [-87.660803, 41.905559], [-87.661536, 41.907216], [-87.664439, 41.910145], [-87.668818, 41.916712], [-87.670574, 41.91815], [-87.675191, 41.920831], [-87.677815, 41.922669], [-87.677716, 41.920058], [-87.684435, 41.919922]], "type": "LineString"}, "properties": {"timestamp": "2024-05-08T21:37:52", "type": "ride"}}, {"type": "Feature", "geometry": {"coordinates": [[-87.684435, 41.919922], [-87.687485, 41.91986], [-87.687645, 41.924902], [-87.682301, 41.924978], [-87.685177, 41.926707], [-87.709664, 41.940439], [-87.714861, 41.942208], [-87.719618, 41.947985], [-87.738838, 41.958569], [-87.741371, 41.960451], [-87.74187, 41.960845], [-87.794287, 41.960061], [-87.822074, 41.946631], [-87.821404, 41.937842], [-87.820185, 41.937866], [-87.820102, 41.936076], [-87.820727, 41.936062], [-87.82067, 41.934634]], "type": "LineString"}, "properties": {"timestamp": "2024-05-08T21:57:46", "type": "transition"}}, {"type": "Feature", "geometry": {"coordinates": [[-87.82067, 41.934634], [-87.820654, 41.93424], [-87.806613, 41.934519], [-87.804598, 41.873618], [-87.769061, 41.87064], [-87.739969, 41.871594], [-87.733001, 41.87362], [-87.69832, 41.875168], [-87.650308, 41.875329], [-87.648052, 41.875215], [-87.646014, 41.874037], [-87.644983, 41.869485], [-87.644998, 41.850609], [-87.642186, 41.847255], [-87.634652, 41.845323], [-87.63091, 41.84209], [-87.631289, 41.79178], [-87.631532, 41.783322], [-87.631833, 41.779372], [-87.632128, 41.779366], [-87.632538, 41.778543]], "type": "LineString"}, "properties": {"timestamp": "2024-05-08T21:57:46", "type": "ride"}}, {"type": "Feature", "geometry": {"coordinates": [[-87.632538, 41.778543], [-87.632128, 41.779366], [-87.631833, 41.779372], [-87.631812, 41.778124], [-87.635009, 41.778077], [-87.635057, 41.779907], [-87.630139, 41.779931], [-87.630149, 41.780433], [-87.630393, 41.837743], [-87.631347, 41.844144], [-87.642036, 41.847354], [-87.644778, 41.850632], [-87.64591, 41.885931], [-87.6586, 41.897003], [-87.661061, 41.906443], [-87.668091, 41.915886], [-87.715981, 41.943044], [-87.717815, 41.94651], [-87.739921, 41.946215]], "type": "LineString"}, "properties": {"timestamp": "2024-05-09T16:25:21", "type": "transition"}}]}