{"type": "FeatureCollection", "features": [{"type": "Feature", "geometry": {"coordinates": [[-87.712298, 42.019106], [-87.690179, 42.019532], [-87.690071, 42.005024], [-87.683168, 42.005153]], "type": "LineString"}, "properties": {}}, {"type": "Feature", "geometry": {"coordinates": [[-87.683168, 42.005153], [-87.680175, 42.005209], [-87.67684, 41.99796], [-87.655995, 41.99817], [-87.655621, 41.997711], [-87.655324, 41.987812]], "type": "LineString"}, "properties": {}}, {"type": "Feature", "geometry": {"coordinates": [[-87.655324, 41.987812], [-87.655253, 41.985556], [-87.653157, 41.984999], [-87.649079, 41.973006], [-87.644611, 41.950978], [-87.638957, 41.941067], [-87.632453, 41.934639], [-87.632048, 41.928427], [-87.62421, 41.902733], [-87.619617, 41.900898], [-87.614304, 41.892985], [-87.614127, 41.884928], [-87.617321, 41.882167], [-87.617442, 41.878363], [-87.620697, 41.878331], [-87.620625, 41.876287], [-87.688313, 41.875763], [-87.692409, 41.875862], [-87.696151, 41.875983], [-87.696189, 41.877434], [-87.693785, 41.877461], [-87.693796, 41.878371], [-87.696046, 41.878346]], "type": "LineString"}, "properties": {}}, {"type": "Feature", "geometry": {"coordinates": [[-87.696046, 41.878346], [-87.696214, 41.878344], [-87.696189, 41.877434], [-87.693785, 41.877461], [-87.693713, 41.876006], [-87.695752, 41.875985]], "type": "LineString"}, "properties": {}}, {"type": "Feature", "geometry": {"coordinates": [[-87.695752, 41.875985], [-87.696151, 41.875983], [-87.696127, 41.874902], [-87.695509, 41.874908], [-87.690201, 41.875125], [-87.659837, 41.87561], [-87.650308, 41.875329], [-87.647601, 41.875302], [-87.645452, 41.874563], [-87.644482, 41.875077], [-87.64458, 41.876036], [-87.64558, 41.877925], [-87.645654, 41.884644], [-87.646015, 41.886212], [-87.647638, 41.88874], [-87.650048, 41.890597], [-87.651108, 41.891699], [-87.650896, 41.892164], [-87.65026, 41.89242], [-87.63704, 41.892368], [-87.637178, 41.896556], [-87.63421, 41.896586], [-87.634589, 41.907668], [-87.635387, 41.907654]], "type": "LineString"}, "properties": {}}, {"type": "Feature", "geometry": {"coordinates": [[-87.635387, 41.907654], [-87.636556, 41.907634], [-87.636527, 41.906679], [-87.63456, 41.906706], [-87.634293, 41.898867]], "type": "LineString"}, "properties": {}}, {"type": "Feature", "geometry": {"coordinates": [[-87.634293, 41.898867], [-87.63421, 41.896586], [-87.654734, 41.896269], [-87.660056, 41.889969], [-87.663487, 41.883985], [-87.666061, 41.881475], [-87.679085, 41.881324], [-87.678236, 41.88126]], "type": "LineString"}, "properties": {}}, {"type": "Feature", "geometry": {"coordinates": [[-87.678236, 41.88126], [-87.676638, 41.881323], [-87.676526, 41.874045], [-87.673871, 41.874083], [-87.673883, 41.873602], [-87.672917, 41.873656]], "type": "LineString"}, "properties": {}}, {"type": "Feature", "geometry": {"coordinates": [[-87.672917, 41.873656], [-87.673802, 41.873605], [-87.673871, 41.874083], [-87.674027, 41.874081], [-87.674059, 41.874737], [-87.666718, 41.880897], [-87.666835, 41.884777], [-87.667641, 41.910635], [-87.674421, 41.910526], [-87.674429, 41.910871], [-87.674294, 41.910873]], "type": "LineString"}, "properties": {}}, {"type": "Feature", "geometry": {"coordinates": [[-87.674294, 41.910873], [-87.673814, 41.91088], [-87.673852, 41.912363], [-87.67018, 41.912422], [-87.67019, 41.912805], [-87.669589, 41.912817], [-87.669604, 41.913299]], "type": "LineString"}, "properties": {}}, {"type": "Feature", "geometry": {"coordinates": [[-87.669604, 41.913299], [-87.669589, 41.912817], [-87.66782, 41.912844], [-87.667053, 41.886129], [-87.667085, 41.885323], [-87.676739, 41.88498], [-87.676638, 41.881323], [-87.679085, 41.881324], [-87.678236, 41.88126]], "type": "LineString"}, "properties": {}}, {"type": "Feature", "geometry": {"coordinates": [[-87.678236, 41.88126], [-87.676638, 41.881323], [-87.676555, 41.875016], [-87.676128, 41.875021], [-87.673504, 41.875431], [-87.6605, 41.875604], [-87.650308, 41.875329], [-87.647601, 41.875302], [-87.645452, 41.874563], [-87.644482, 41.875077], [-87.64458, 41.876036], [-87.645364, 41.877863], [-87.645275, 41.880374], [-87.645355, 41.881847], [-87.645393, 41.882198], [-87.645735, 41.885306], [-87.646457, 41.887151], [-87.648003, 41.8891], [-87.650048, 41.890597], [-87.651108, 41.891699], [-87.650896, 41.892164], [-87.65026, 41.89242], [-87.62966, 41.892457], [-87.62986, 41.899859], [-87.630601, 41.899807]], "type": "LineString"}, "properties": {}}, {"type": "Feature", "geometry": {"coordinates": [[-87.630601, 41.899807], [-87.631337, 41.899794], [-87.631243, 41.896633], [-87.654734, 41.896269], [-87.655808, 41.89501], [-87.657675, 41.89596], [-87.659011, 41.897622], [-87.660805, 41.901753], [-87.661061, 41.906443], [-87.664439, 41.910145], [-87.668091, 41.915886], [-87.670574, 41.91815], [-87.678438, 41.922676], [-87.681513, 41.924733], [-87.681912, 41.924981], [-87.690086, 41.924878], [-87.690094, 41.925214]], "type": "LineString"}, "properties": {}}, {"type": "Feature", "geometry": {"coordinates": [[-87.690094, 41.925214], [-87.690204, 41.928523], [-87.693879, 41.928496], [-87.693886, 41.928751], [-87.69452, 41.928744]], "type": "LineString"}, "properties": {}}, {"type": "Feature", "geometry": {"coordinates": [[-87.69452, 41.928744], [-87.695111, 41.928738], [-87.695104, 41.928487], [-87.705222, 41.928405], [-87.706095, 41.928797], [-87.707639, 41.928738], [-87.707818, 41.928286], [-87.707315, 41.927605], [-87.707297, 41.927157], [-87.706907, 41.910104], [-87.728974, 41.90984], [-87.728962, 41.909346]], "type": "LineString"}, "properties": {}}, {"type": "Feature", "geometry": {"coordinates": [[-87.728962, 41.909346], [-87.728941, 41.908661], [-87.730153, 41.908647], [-87.730191, 41.909826], [-87.726341, 41.90987], [-87.72708, 41.92265], [-87.726455, 41.92266], [-87.727395, 41.946377], [-87.717815, 41.94651], [-87.742619, 41.960998], [-87.746732, 41.965012], [-87.746614, 41.980044], [-87.751348, 41.987222], [-87.748589, 42.006167], [-87.748003, 42.010101], [-87.746617, 42.026006], [-87.71108, 42.026386], [-87.710925, 42.033689], [-87.684048, 42.033982], [-87.684068, 42.033266]], "type": "LineString"}, "properties": {}}]}