{"type": "FeatureCollection", "features": [{"type": "Feature", "geometry": {"coordinates": [[-87.669769, 41.987519], [-87.669181, 41.985433], [-87.663294, 41.985603], [-87.662456, 41.985105], [-87.654178, 41.985586], [-87.653157, 41.984999], [-87.652706, 41.981232], [-87.648822, 41.972134], [-87.644905, 41.955203], [-87.64469, 41.951193], [-87.639566, 41.942042], [-87.638796, 41.940268], [-87.654106, 41.939918], [-87.654016, 41.937175], [-87.653552, 41.937186], [-87.65355, 41.937074]], "type": "LineString"}, "properties": {"timestamp": "2024-09-22T12:15:28", "type": "ride", "rideType": "UberX", "pickupAddress": "N Clark St, Chicago, IL 60640, US", "dropoffAddress": "N Clark St, Chicago, IL 60657, US", "basePay": "9.53", "surge": "0.00", "tip": "3.00", "earnings": "12.53", "duration": "846", "distance": "2.50", "rideStartTime": "September 22, 2024 at 12:15 PM", "rideEndTime": "September 22, 2024 at 12:29 PM"}}, {"type": "Feature", "geometry": {"coordinates": [[-87.65355, 41.937074], [-87.653552, 41.937186], [-87.654016, 41.937175], [-87.654106, 41.939918], [-87.658974, 41.939838], [-87.659073, 41.94349], [-87.665475, 41.943396]], "type": "LineString"}, "properties": {"timestamp": "2024-09-22T12:30:55", "type": "transition"}}, {"type": "Feature", "geometry": {"coordinates": [[-87.665475, 41.943396], [-87.668829, 41.943346], [-87.668616, 41.921563], [-87.677255, 41.921395], [-87.668918, 41.916326], [-87.661559, 41.906635], [-87.658834, 41.896667], [-87.646614, 41.886973], [-87.644363, 41.857367], [-87.644333, 41.849097], [-87.644894, 41.846776], [-87.66744, 41.837772], [-87.680834, 41.836863], [-87.808237, 41.796778], [-87.817366, 41.796078], [-87.851381, 41.764376], [-87.908438, 41.759873], [-87.929886, 41.750764], [-87.942855, 41.742302], [-87.988831, 41.725985], [-88.019759, 41.710259], [-88.024495, 41.70796], [-88.031333, 41.707096], [-88.033275, 41.704429], [-88.03022, 41.695749], [-88.030465, 41.676609], [-88.023752, 41.662729], [-88.020548, 41.658101], [-88.019624, 41.656749], [-88.019326, 41.656318], [-88.019201, 41.656253], [-87.991832, 41.656759]], "type": "LineString"}, "properties": {"timestamp": "2024-09-22T12:30:55", "type": "ride", "rideType": "UberX", "pickupAddress": "W Roscoe St, Chicago, IL 60657-2207, US", "dropoffAddress": "E 127th St, Lemont, IL 60439, US", "basePay": "36.94", "surge": "0.00", "tip": "11.68", "earnings": "48.62", "duration": "3660", "distance": "35.70", "rideStartTime": "September 22, 2024 at 12:30 PM", "rideEndTime": "September 22, 2024 at 01:31 PM"}}, {"type": "Feature", "geometry": {"coordinates": [[-87.991832, 41.656759], [-88.016349, 41.656367], [-88.029044, 41.67253], [-88.030072, 41.699924], [-88.023849, 41.707751], [-87.991592, 41.724536], [-87.943756, 41.741668], [-87.929683, 41.750614], [-87.909885, 41.758692], [-87.851994, 41.763899], [-87.817375, 41.795841], [-87.807905, 41.796609], [-87.680867, 41.836574], [-87.667241, 41.837594], [-87.658964, 41.841885], [-87.642563, 41.846659], [-87.644555, 41.850742], [-87.644854, 41.873493], [-87.645275, 41.880374], [-87.645355, 41.881847], [-87.645393, 41.882198], [-87.645396, 41.883308], [-87.645365, 41.885689], [-87.647482, 41.885665], [-87.648124, 41.905038], [-87.649202, 41.905042], [-87.649323, 41.905133]], "type": "LineString"}, "properties": {"timestamp": "2024-09-22T16:22:31", "type": "transition"}}, {"type": "Feature", "geometry": {"coordinates": [[-87.649323, 41.905133], [-87.654084, 41.910826], [-87.664445, 41.910674], [-87.668091, 41.915886], [-87.670574, 41.91815], [-87.709664, 41.940439], [-87.714861, 41.942208], [-87.719618, 41.947985], [-87.742619, 41.960998], [-87.752403, 41.966033], [-87.75503, 41.967937], [-87.757623, 41.967938], [-87.758399, 41.968431]], "type": "LineString"}, "properties": {"timestamp": "2024-09-22T16:22:31", "type": "ride", "rideType": "UberX", "pickupAddress": "N Kingsbury St, Chicago, IL 60642, US", "dropoffAddress": "W North Ave, Chicago, IL 60647-5416, US", "basePay": "5.71", "surge": "0.00", "tip": "0.00", "earnings": "5.71", "duration": "708", "distance": "1.50", "rideStartTime": "September 22, 2024 at 04:22 PM", "rideEndTime": "September 22, 2024 at 04:34 PM"}}, {"type": "Feature", "geometry": {"coordinates": [[-87.758399, 41.968431], [-87.757622, 41.967875], [-87.747723, 41.968033], [-87.747918, 41.972896], [-87.747761, 41.972794], [-87.747223, 41.966563], [-87.745961, 41.963113], [-87.742125, 41.960129], [-87.719592, 41.947613], [-87.715306, 41.94215], [-87.710219, 41.940524], [-87.698173, 41.933659], [-87.687291, 41.927358], [-87.684125, 41.925223], [-87.687645, 41.924902], [-87.687413, 41.917587], [-87.697194, 41.917494], [-87.697059, 41.912372], [-87.698734, 41.912356]], "type": "LineString"}, "properties": {"timestamp": "2024-09-22T16:40:09", "type": "transition"}}, {"type": "Feature", "geometry": {"coordinates": [[-87.698734, 41.912356], [-87.701932, 41.912147], [-87.701248, 41.907279], [-87.702431, 41.897899], [-87.700765, 41.86606], [-87.702213, 41.864917], [-87.702318, 41.860512], [-87.701353, 41.858659]], "type": "LineString"}, "properties": {"timestamp": "2024-09-22T16:40:09", "type": "ride", "rideType": "Comfort", "pickupAddress": "W Wabansia Ave, Chicago, IL 60647-6824, US", "dropoffAddress": "S Sacramento Dr, Chicago, IL 60623, US", "basePay": "11.02", "surge": "0.00", "tip": "0.00", "earnings": "11.02", "duration": "930", "distance": "4.00", "rideStartTime": "September 22, 2024 at 04:40 PM", "rideEndTime": "September 22, 2024 at 04:55 PM"}}, {"type": "Feature", "geometry": {"coordinates": [[-87.701353, 41.858659], [-87.701661, 41.859189], [-87.685815, 41.86491], [-87.664612, 41.882852], [-87.663241, 41.884284], [-87.66116, 41.888013], [-87.65893, 41.891061], [-87.659484, 41.891055], [-87.659547, 41.893465], [-87.658764, 41.893479]], "type": "LineString"}, "properties": {"timestamp": "2024-09-22T17:21:59", "type": "transition"}}, {"type": "Feature", "geometry": {"coordinates": [[-87.658764, 41.893479], [-87.657432, 41.893502], [-87.65741, 41.892863], [-87.655717, 41.894874], [-87.657675, 41.89596], [-87.658783, 41.897251], [-87.659213, 41.898537], [-87.659247, 41.899676], [-87.659821, 41.899956], [-87.660982, 41.899842], [-87.660843, 41.899711], [-87.658834, 41.896667], [-87.657719, 41.895493], [-87.649448, 41.889964], [-87.647794, 41.888636], [-87.646614, 41.886973], [-87.646108, 41.885119], [-87.646413, 41.883144], [-87.642677, 41.883172]], "type": "LineString"}, "properties": {"timestamp": "2024-09-22T17:21:59", "type": "ride", "rideType": "UberX", "pickupAddress": "W Erie St, Chicago, IL 60612-1318, US", "dropoffAddress": "N Des Plaines St, Chicago, IL 60661, US", "basePay": "5.06", "surge": "0.00", "tip": "0.00", "earnings": "5.06", "duration": "468", "distance": "2.30", "rideStartTime": "September 22, 2024 at 05:21 PM", "rideEndTime": "September 22, 2024 at 05:29 PM"}}, {"type": "Feature", "geometry": {"coordinates": [[-87.642677, 41.883172], [-87.642764, 41.885711], [-87.652141, 41.885588], [-87.652212, 41.888087]], "type": "LineString"}, "properties": {"timestamp": "2024-09-22T17:34:00", "type": "transition"}}, {"type": "Feature", "geometry": {"coordinates": [[-87.652212, 41.888087], [-87.652288, 41.891135], [-87.647627, 41.891194], [-87.648086, 41.903643], [-87.638347, 41.903783], [-87.638941, 41.921954], [-87.638269, 41.921963], [-87.641881, 41.927956]], "type": "LineString"}, "properties": {"timestamp": "2024-09-22T17:34:00", "type": "ride", "rideType": "UberX", "pickupAddress": "N Morgan St, Chicago, IL 60642, US", "dropoffAddress": "N Clark St, Chicago, IL 60613, US", "basePay": "11.81", "surge": "0.00", "tip": "0.00", "earnings": "11.81", "duration": "1551", "distance": "5.60", "rideStartTime": "September 22, 2024 at 05:34 PM", "rideEndTime": "September 22, 2024 at 05:59 PM"}}, {"type": "Feature", "geometry": {"coordinates": [[-87.641881, 41.927956], [-87.642875, 41.92963], [-87.643564, 41.93012], [-87.644577, 41.931849], [-87.645015, 41.932979], [-87.649228, 41.938193], [-87.654046, 41.938097], [-87.654016, 41.937175], [-87.653552, 41.937186], [-87.65355, 41.937074]], "type": "LineString"}, "properties": {"timestamp": "2024-09-22T18:06:57", "type": "transition"}}, {"type": "Feature", "geometry": {"coordinates": [[-87.65355, 41.937074], [-87.653552, 41.937186], [-87.654016, 41.937175], [-87.653863, 41.932636], [-87.65822, 41.932567]], "type": "LineString"}, "properties": {"timestamp": "2024-09-22T18:06:57", "type": "ride", "rideType": "UberX", "pickupAddress": "N Clark St, Chicago, IL 60657, US", "dropoffAddress": "W Diversey Pkwy, Chicago, IL 60614, US", "basePay": "12.76", "surge": "0.00", "tip": "0.00", "earnings": "12.76", "duration": "493", "distance": "1.10", "rideStartTime": "September 22, 2024 at 06:06 PM", "rideEndTime": "September 22, 2024 at 06:15 PM"}}, {"type": "Feature", "geometry": {"coordinates": [[-87.65822, 41.932567], [-87.65143, 41.932682], [-87.651528, 41.935411], [-87.65295, 41.935378]], "type": "LineString"}, "properties": {"timestamp": "2024-09-22T18:13:54", "type": "transition"}}, {"type": "Feature", "geometry": {"coordinates": [[-87.65295, 41.935378], [-87.653955, 41.935355], [-87.654106, 41.939918], [-87.639537, 41.940119], [-87.638088, 41.940568], [-87.644496, 41.951253], [-87.644596, 41.954749], [-87.648738, 41.973046], [-87.652251, 41.981039], [-87.652803, 41.984951], [-87.654178, 41.985586], [-87.662456, 41.985105], [-87.670217, 41.989895], [-87.67531, 41.992132], [-87.675425, 41.994982], [-87.681855, 42.008899], [-87.682247, 42.00895]], "type": "LineString"}, "properties": {"timestamp": "2024-09-22T18:13:54", "type": "ride", "rideType": "UberX", "pickupAddress": "W Oakdale Ave, Chicago, IL 60657-5211, US", "dropoffAddress": "W Lunt Ave, Chicago, IL 60645-4602, US", "basePay": "13.65", "surge": "0.00", "tip": "0.00", "earnings": "13.65", "duration": "1292", "distance": "7.20", "rideStartTime": "September 22, 2024 at 06:13 PM", "rideEndTime": "September 22, 2024 at 06:35 PM"}}, {"type": "Feature", "geometry": {"coordinates": [[-87.682247, 42.00895], [-87.690155, 42.008635], [-87.688512, 41.955627], [-87.688146, 41.939587], [-87.678134, 41.932278], [-87.677276, 41.903184], [-87.679708, 41.903145], [-87.679724, 41.903748]], "type": "LineString"}, "properties": {"timestamp": "2024-09-22T19:53:48", "type": "transition"}}, {"type": "Feature", "geometry": {"coordinates": [[-87.679724, 41.903748], [-87.679734, 41.904077], [-87.677302, 41.904122], [-87.678134, 41.932278], [-87.688003, 41.939468], [-87.688345, 41.949742]], "type": "LineString"}, "properties": {"timestamp": "2024-09-22T19:53:48", "type": "ride", "rideType": "UberX", "pickupAddress": "N Hoyne Ave, Chicago, IL 60647-4759, US", "dropoffAddress": "N Western Ave, Chicago, IL 60622-4618, US", "basePay": "7.48", "surge": "0.00", "tip": "0.00", "earnings": "7.48", "duration": "559", "distance": "1.90", "rideStartTime": "September 22, 2024 at 07:53 PM", "rideEndTime": "September 22, 2024 at 08:03 PM"}}, {"type": "Feature", "geometry": {"coordinates": [[-87.688345, 41.949742], [-87.687986, 41.932176], [-87.696547, 41.932116], [-87.669405, 41.916815], [-87.664752, 41.909975], [-87.661559, 41.906635], [-87.661131, 41.901587], [-87.659383, 41.897534], [-87.657508, 41.895016], [-87.657432, 41.893502], [-87.658764, 41.893479]], "type": "LineString"}, "properties": {"timestamp": "2024-09-22T20:05:05", "type": "transition"}}, {"type": "Feature", "geometry": {"coordinates": [[-87.658764, 41.893479], [-87.657432, 41.893502], [-87.65741, 41.892863], [-87.655717, 41.894874], [-87.657675, 41.89596], [-87.658396, 41.896733], [-87.659161, 41.897893], [-87.660194, 41.900116], [-87.66059, 41.901618], [-87.660665, 41.90345], [-87.665045, 41.903374], [-87.665099, 41.90517], [-87.663885, 41.905187], [-87.663896, 41.905557]], "type": "LineString"}, "properties": {"timestamp": "2024-09-22T20:05:05", "type": "ride", "rideType": "UberX", "pickupAddress": "W Erie St, Chicago, IL 60612-1322, US", "dropoffAddress": "N Cleaver St, Chicago, IL 60642-3335, US", "basePay": "6.90", "surge": "0.00", "tip": "0.00", "earnings": "6.90", "duration": "840", "distance": "2.40", "rideStartTime": "September 22, 2024 at 08:05 PM", "rideEndTime": "September 22, 2024 at 08:19 PM"}}, {"type": "Feature", "geometry": {"coordinates": [[-87.663896, 41.905557], [-87.663823, 41.903391], [-87.701605, 41.902888]], "type": "LineString"}, "properties": {"timestamp": "2024-09-22T20:21:36", "type": "transition"}}, {"type": "Feature", "geometry": {"coordinates": [[-87.701605, 41.902888], [-87.666488, 41.903364], [-87.660843, 41.899711], [-87.658834, 41.896667], [-87.657114, 41.895018], [-87.655657, 41.89377], [-87.654831, 41.89226], [-87.653963, 41.891931], [-87.651034, 41.892554], [-87.624121, 41.892541], [-87.624066, 41.897586], [-87.621852, 41.897618], [-87.62188, 41.899027]], "type": "LineString"}, "properties": {"timestamp": "2024-09-22T20:21:36", "type": "ride", "rideType": "UberX", "pickupAddress": "W Division St, Chicago, IL 60642-3337, US", "dropoffAddress": "W Huron St, Chicago, IL 60654, US", "basePay": "5.81", "surge": "0.00", "tip": "5.00", "earnings": "10.81", "duration": "582", "distance": "2.50", "rideStartTime": "September 22, 2024 at 08:21 PM", "rideEndTime": "September 22, 2024 at 08:31 PM"}}, {"type": "Feature", "geometry": {"coordinates": [[-87.62188, 41.899027], [-87.621885, 41.899246], [-87.618734, 41.899294], [-87.617065, 41.89684], [-87.620387, 41.896781], [-87.620313, 41.894445]], "type": "LineString"}, "properties": {"timestamp": "2024-09-22T20:36:21", "type": "transition"}}, {"type": "Feature", "geometry": {"coordinates": [[-87.620313, 41.894445], [-87.620235, 41.891803], [-87.639878, 41.891506], [-87.644384, 41.891225], [-87.644337, 41.889054], [-87.645795, 41.889039], [-87.645775, 41.888445]], "type": "LineString"}, "properties": {"timestamp": "2024-09-22T20:36:21", "type": "ride", "rideType": "UberX", "pickupAddress": "W Erie St, Chicago, IL 60654, US", "dropoffAddress": "N Union Ave, Chicago, IL 60661-1026, US", "basePay": "5.40", "surge": "0.00", "tip": "0.00", "earnings": "5.40", "duration": "560", "distance": "1.30", "rideStartTime": "September 22, 2024 at 08:36 PM", "rideEndTime": "September 22, 2024 at 08:45 PM"}}, {"type": "Feature", "geometry": {"coordinates": [[-87.645775, 41.888445], [-87.645795, 41.889039], [-87.644337, 41.889054], [-87.644242, 41.885699], [-87.643867, 41.885702]], "type": "LineString"}, "properties": {"timestamp": "2024-09-22T20:52:02", "type": "transition"}}, {"type": "Feature", "geometry": {"coordinates": [[-87.643867, 41.885702], [-87.644242, 41.885699], [-87.644337, 41.889054], [-87.647627, 41.891194], [-87.648495, 41.91731]], "type": "LineString"}, "properties": {"timestamp": "2024-09-22T20:52:02", "type": "ride", "rideType": "UberX", "pickupAddress": "W Lake St, Chicago, IL 60661, US", "dropoffAddress": "N Halsted St, Chicago, IL 60614-5501, US", "basePay": "9.35", "surge": "0.00", "tip": "0.00", "earnings": "9.35", "duration": "1073", "distance": "3.20", "rideStartTime": "September 22, 2024 at 08:52 PM", "rideEndTime": "September 22, 2024 at 09:09 PM"}}, {"type": "Feature", "geometry": {"coordinates": [[-87.648495, 41.91731], [-87.648286, 41.910927], [-87.664445, 41.910674], [-87.668091, 41.915886], [-87.670574, 41.91815], [-87.708002, 41.939496], [-87.712586, 41.942429], [-87.712582, 41.942239], [-87.714251, 41.942233]], "type": "LineString"}, "properties": {"timestamp": "2024-09-24T16:50:31", "type": "transition"}}]}