{"type": "FeatureCollection", "features": [{"type": "Feature", "geometry": {"coordinates": [[-87.671103, 41.900741], [-87.67118, 41.903289], [-87.667439, 41.903351], [-87.667641, 41.910635], [-87.633071, 41.911172], [-87.633044, 41.912903], [-87.632269, 41.913237], [-87.628505, 41.912247], [-87.626923, 41.912475], [-87.626017, 41.913347], [-87.628743, 41.918036], [-87.631735, 41.927967], [-87.632273, 41.934701], [-87.633661, 41.936704], [-87.63676, 41.939073], [-87.638088, 41.940568], [-87.639537, 41.940119], [-87.63992, 41.942251], [-87.642703, 41.947363]], "type": "LineString"}, "properties": {"timestamp": "2024-02-27T17:43:03", "type": "ride", "rideType": "UberX", "pickupAddress": "N Hermitage Ave, Chicago, IL 60640-4104, US", "dropoffAddress": "N Lake Shore Dr, Chicago, IL 60613, US", "basePay": "7.33", "surge": "0.00", "tip": "3.00", "earnings": "10.33", "duration": "816", "distance": "2.60", "rideStartTime": "February 27, 2024 at 05:43 PM", "rideEndTime": "February 27, 2024 at 05:56 PM"}}, {"type": "Feature", "geometry": {"coordinates": [[-87.642703, 41.947363], [-87.64345, 41.948638], [-87.647357, 41.947328], [-87.663999, 41.947083], [-87.663953, 41.945247], [-87.664502, 41.945239]], "type": "LineString"}, "properties": {"timestamp": "2024-02-27T17:59:51", "type": "transition"}}, {"type": "Feature", "geometry": {"coordinates": [[-87.664502, 41.945239], [-87.665169, 41.94523], [-87.66513, 41.943401], [-87.668829, 41.943346], [-87.668616, 41.921563], [-87.677255, 41.921395], [-87.671115, 41.918139], [-87.668247, 41.915543], [-87.664752, 41.909975], [-87.661559, 41.906635], [-87.661131, 41.901587], [-87.659049, 41.896968], [-87.647794, 41.888636], [-87.646315, 41.886261], [-87.646015, 41.882928], [-87.646395, 41.880505], [-87.639693, 41.880598], [-87.639706, 41.881889], [-87.640505, 41.881877]], "type": "LineString"}, "properties": {"timestamp": "2024-02-27T17:59:51", "type": "ride", "rideType": "UberX", "pickupAddress": "W Cornelia Ave, Chicago, IL 60657-2515, US", "dropoffAddress": "W Madison St, Chicago, IL 60606, US", "basePay": "12.39", "surge": "0.00", "tip": "5.98", "earnings": "18.37", "duration": "1671", "distance": "6.40", "rideStartTime": "February 27, 2024 at 05:59 PM", "rideEndTime": "February 27, 2024 at 06:27 PM"}}, {"type": "Feature", "geometry": {"coordinates": [[-87.640505, 41.881877], [-87.641227, 41.88187], [-87.641048, 41.876757], [-87.639817, 41.876769], [-87.639823, 41.875803], [-87.641365, 41.875647], [-87.651991, 41.875736], [-87.657603, 41.876197], [-87.688313, 41.875763], [-87.692409, 41.875862], [-87.696151, 41.875983], [-87.696189, 41.877434], [-87.693785, 41.877461], [-87.693796, 41.878371], [-87.696046, 41.878346]], "type": "LineString"}, "properties": {"timestamp": "2024-02-27T18:23:51", "type": "transition"}}, {"type": "Feature", "geometry": {"coordinates": [[-87.696046, 41.878346], [-87.696214, 41.878344], [-87.696127, 41.874902], [-87.695509, 41.874908], [-87.690201, 41.875125], [-87.620619, 41.875815], [-87.620697, 41.878331], [-87.617182, 41.878364], [-87.616996, 41.882205], [-87.613645, 41.884762], [-87.614041, 41.892878], [-87.619441, 41.900921], [-87.622727, 41.90171], [-87.624048, 41.902893], [-87.62589, 41.912141], [-87.628743, 41.918036], [-87.631851, 41.928415], [-87.632152, 41.934381], [-87.633661, 41.936704], [-87.63676, 41.939073], [-87.638088, 41.940568], [-87.639537, 41.940119], [-87.639435, 41.936919]], "type": "LineString"}, "properties": {"timestamp": "2024-02-27T18:23:51", "type": "ride", "rideType": "UberX", "pickupAddress": "W Adams St, Chicago, IL 60661-3604, US", "dropoffAddress": "N Sheridan Rd, Chicago, IL 60640-5606, US", "basePay": "12.28", "surge": "2.25", "tip": "5.79", "earnings": "20.32", "duration": "1613", "distance": "8.50", "rideStartTime": "February 27, 2024 at 06:23 PM", "rideEndTime": "February 27, 2024 at 06:50 PM"}}, {"type": "Feature", "geometry": {"coordinates": [[-87.639435, 41.936919], [-87.63931, 41.932914], [-87.655177, 41.932615], [-87.655116, 41.93032]], "type": "LineString"}, "properties": {"timestamp": "2024-02-27T18:54:22", "type": "transition"}}, {"type": "Feature", "geometry": {"coordinates": [[-87.655116, 41.93032], [-87.655107, 41.929995], [-87.658713, 41.932557], [-87.678134, 41.932278], [-87.688003, 41.939468], [-87.688345, 41.949742]], "type": "LineString"}, "properties": {"timestamp": "2024-02-27T18:54:22", "type": "ride", "rideType": "UberX Share", "pickupAddress": "N Kenmore Ave, Chicago, IL 60613-1314, US", "dropoffAddress": "N Western Ave, Chicago, IL 60622, US", "basePay": "19.79", "surge": "0.00", "tip": "8.00", "earnings": "27.79", "duration": "2617", "distance": "9.40", "rideStartTime": "February 27, 2024 at 06:54 PM", "rideEndTime": "February 27, 2024 at 07:37 PM"}}, {"type": "Feature", "geometry": {"coordinates": [[-87.688345, 41.949742], [-87.687207, 41.910324], [-87.701875, 41.910165], [-87.70125, 41.907241], [-87.702278, 41.902886], [-87.701828, 41.902886], [-87.701786, 41.90106], [-87.701311, 41.901064]], "type": "LineString"}, "properties": {"timestamp": "2024-02-27T19:44:53", "type": "transition"}}, {"type": "Feature", "geometry": {"coordinates": [[-87.701311, 41.901064], [-87.696841, 41.901106], [-87.696662, 41.894314], [-87.687618, 41.890711], [-87.686683, 41.890646], [-87.686432, 41.881166], [-87.678236, 41.88126]], "type": "LineString"}, "properties": {"timestamp": "2024-02-27T19:44:53", "type": "ride", "rideType": "UberX", "pickupAddress": "W Thomas St, Chicago, IL 60622-3628, US", "dropoffAddress": "W Madison St, Chicago, IL 60612, US", "basePay": "4.70", "surge": "0.00", "tip": "1.00", "earnings": "5.70", "duration": "515", "distance": "1.60", "rideStartTime": "February 27, 2024 at 07:44 PM", "rideEndTime": "February 27, 2024 at 07:53 PM"}}, {"type": "Feature", "geometry": {"coordinates": [[-87.678236, 41.88126], [-87.666061, 41.881475], [-87.663241, 41.884284], [-87.659834, 41.889971], [-87.654527, 41.896273], [-87.647675, 41.896405], [-87.648124, 41.905038], [-87.649202, 41.905042], [-87.649323, 41.905133]], "type": "LineString"}, "properties": {"timestamp": "2024-02-27T20:51:22", "type": "transition"}}, {"type": "Feature", "geometry": {"coordinates": [[-87.649323, 41.905133], [-87.649202, 41.905042], [-87.648124, 41.905038], [-87.648286, 41.910927], [-87.63858, 41.911039], [-87.638808, 41.918322], [-87.636131, 41.918472], [-87.636142, 41.918564], [-87.636391, 41.919706]], "type": "LineString"}, "properties": {"timestamp": "2024-02-27T20:51:22", "type": "ride", "rideType": "UberX", "pickupAddress": "N Kingsbury St, Chicago, IL 60642, US", "dropoffAddress": "N Lincoln Park W, Chicago, IL 60614-5308, US", "basePay": "3.66", "surge": "0.00", "tip": "0.00", "earnings": "3.66", "duration": "298", "distance": "1.20", "rideStartTime": "February 27, 2024 at 08:51 PM", "rideEndTime": "February 27, 2024 at 08:56 PM"}}, {"type": "Feature", "geometry": {"coordinates": [[-87.636391, 41.919706], [-87.636415, 41.918803], [-87.635858, 41.918067], [-87.631712, 41.911277], [-87.631638, 41.910389], [-87.632468, 41.910376]], "type": "LineString"}, "properties": {"timestamp": "2024-02-27T20:58:48", "type": "transition"}}, {"type": "Feature", "geometry": {"coordinates": [[-87.632468, 41.910376], [-87.631638, 41.910389], [-87.63166, 41.911184], [-87.634358, 41.915623], [-87.634849, 41.915479], [-87.663682, 41.936111], [-87.663907, 41.943419], [-87.665475, 41.943396]], "type": "LineString"}, "properties": {"timestamp": "2024-02-27T20:58:48", "type": "ride", "rideType": "UberX", "pickupAddress": "N Sandburg Ter, Chicago, IL 60610-1313, US", "dropoffAddress": "W Roscoe St, Chicago, IL 60657-3654, US", "basePay": "5.35", "surge": "0.00", "tip": "0.00", "earnings": "5.35", "duration": "495", "distance": "3.10", "rideStartTime": "February 27, 2024 at 08:58 PM", "rideEndTime": "February 27, 2024 at 09:07 PM"}}, {"type": "Feature", "geometry": {"coordinates": [[-87.665475, 41.943396], [-87.666342, 41.943383], [-87.666233, 41.939729], [-87.654106, 41.939918], [-87.654016, 41.937175], [-87.653552, 41.937186], [-87.65355, 41.937074]], "type": "LineString"}, "properties": {"timestamp": "2024-02-27T21:09:21", "type": "transition"}}, {"type": "Feature", "geometry": {"coordinates": [[-87.65355, 41.937074], [-87.653552, 41.937186], [-87.654016, 41.937175], [-87.654106, 41.939918], [-87.714946, 41.939254], [-87.714907, 41.938185]], "type": "LineString"}, "properties": {"timestamp": "2024-02-27T21:09:21", "type": "ride", "rideType": "UberX", "pickupAddress": "N Clark St, Chicago, IL 60657-1603, US", "dropoffAddress": "N Saint Louis Ave, Chicago, IL 60618-1120, US", "basePay": "9.08", "surge": "0.00", "tip": "0.00", "earnings": "9.08", "duration": "1210", "distance": "4.50", "rideStartTime": "February 27, 2024 at 09:09 PM", "rideEndTime": "February 27, 2024 at 09:29 PM"}}, {"type": "Feature", "geometry": {"coordinates": [[-87.714907, 41.938185], [-87.714946, 41.939254], [-87.712487, 41.939288], [-87.712908, 41.953809], [-87.673792, 41.954183], [-87.673756, 41.952396], [-87.673469, 41.952401]], "type": "LineString"}, "properties": {"timestamp": "2024-02-27T21:43:22", "type": "transition"}}, {"type": "Feature", "geometry": {"coordinates": [[-87.673469, 41.952401], [-87.673756, 41.952396], [-87.67359, 41.946929], [-87.67855, 41.946869], [-87.678349, 41.939586], [-87.688141, 41.939467], [-87.687207, 41.910324], [-87.711884, 41.910045], [-87.711856, 41.908233], [-87.714298, 41.90821], [-87.714347, 41.909624]], "type": "LineString"}, "properties": {"timestamp": "2024-02-27T21:43:22", "type": "ride", "rideType": "UberX", "pickupAddress": "N Ravenswood Ave, Chicago, IL 60613-2409, US", "dropoffAddress": "N Saint Louis Ave, Chicago, IL 60647-1252, US", "basePay": "6.97", "surge": "0.00", "tip": "0.00", "earnings": "6.97", "duration": "885", "distance": "4.50", "rideStartTime": "February 27, 2024 at 09:43 PM", "rideEndTime": "February 27, 2024 at 09:58 PM"}}, {"type": "Feature", "geometry": {"coordinates": [[-87.714347, 41.909624], [-87.71436, 41.910015], [-87.735652, 41.909821], [-87.753381, 41.916843], [-87.782959, 41.921914], [-87.788528, 41.923648], [-87.803157, 41.923552], [-87.806251, 41.924003], [-87.806613, 41.934519], [-87.820654, 41.93424], [-87.82067, 41.934634]], "type": "LineString"}, "properties": {"timestamp": "2024-02-27T22:04:31", "type": "transition"}}, {"type": "Feature", "geometry": {"coordinates": [[-87.82067, 41.934634], [-87.820654, 41.93424], [-87.806613, 41.934519], [-87.804598, 41.873618], [-87.769061, 41.87064], [-87.739969, 41.871594], [-87.733001, 41.87362], [-87.69832, 41.875168], [-87.650308, 41.875329], [-87.645452, 41.874563], [-87.64458, 41.876036], [-87.645275, 41.880374], [-87.645355, 41.881847], [-87.645393, 41.882198], [-87.645396, 41.883308], [-87.645365, 41.885689], [-87.652141, 41.885588], [-87.652212, 41.888087]], "type": "LineString"}, "properties": {"timestamp": "2024-02-27T22:04:31", "type": "ride", "rideType": "UberX", "pickupAddress": "N Milwaukee Ave, Chicago, IL 60647, US", "dropoffAddress": "N Morgan St, Chicago, IL 60642, US", "basePay": "6.83", "surge": "0.00", "tip": "0.00", "earnings": "6.83", "duration": "526", "distance": "3.00", "rideStartTime": "February 27, 2024 at 10:04 PM", "rideEndTime": "February 27, 2024 at 10:13 PM"}}, {"type": "Feature", "geometry": {"coordinates": [[-87.652212, 41.888087], [-87.652288, 41.891135], [-87.647627, 41.891194], [-87.647683, 41.896808], [-87.648086, 41.903643], [-87.639563, 41.903768], [-87.6404, 41.904375], [-87.64022, 41.904515], [-87.639718, 41.904149]], "type": "LineString"}, "properties": {"timestamp": "2024-02-27T22:13:54", "type": "transition"}}, {"type": "Feature", "geometry": {"coordinates": [[-87.639718, 41.904149], [-87.64022, 41.904515], [-87.6404, 41.904375], [-87.639563, 41.903768], [-87.648086, 41.903643], [-87.647482, 41.885665], [-87.646258, 41.885682], [-87.644363, 41.857367], [-87.645793, 41.852447], [-87.644333, 41.849097], [-87.643039, 41.847022], [-87.641933, 41.846546], [-87.638623, 41.847063], [-87.634629, 41.84669], [-87.632091, 41.847362], [-87.628234, 41.846918], [-87.622076, 41.847894], [-87.618737, 41.847534], [-87.618426, 41.847534], [-87.617702, 41.8474], [-87.617576, 41.842065], [-87.615685, 41.842094], [-87.615713, 41.842989], [-87.615971, 41.842985], [-87.615978, 41.84334], [-87.61617, 41.843338], [-87.616529, 41.843505]], "type": "LineString"}, "properties": {"timestamp": "2024-02-27T22:13:54", "type": "ride", "rideType": "UberX", "pickupAddress": "W Chicago Ave, Chicago, IL 60642-5237, US", "dropoffAddress": "2801 S King Dr, Chicago, IL 60616, US", "basePay": "11.54", "surge": "0.00", "tip": "0.00", "earnings": "11.54", "duration": "980", "distance": "7.00", "rideStartTime": "February 27, 2024 at 10:13 PM", "rideEndTime": "February 27, 2024 at 10:30 PM"}}, {"type": "Feature", "geometry": {"coordinates": [[-87.616529, 41.843505], [-87.616475, 41.842979], [-87.615713, 41.842989], [-87.615685, 41.842094], [-87.61721, 41.84207], [-87.617411, 41.84813], [-87.618375, 41.848483], [-87.630973, 41.847424], [-87.641219, 41.847736], [-87.644555, 41.850742], [-87.646327, 41.886906], [-87.6586, 41.897003], [-87.661061, 41.906443], [-87.668478, 41.916334], [-87.678438, 41.922676], [-87.681513, 41.924733], [-87.700436, 41.924799], [-87.701236, 41.92529]], "type": "LineString"}, "properties": {"timestamp": "2024-02-28T18:52:54", "type": "transition"}}]}