{"type": "FeatureCollection", "features": [{"type": "Feature", "geometry": {"coordinates": [[-87.677053, 41.903685], [-87.67729, 41.903681], [-87.677893, 41.925026], [-87.66815, 41.925151], [-87.668327, 41.932402], [-87.65822, 41.932567]], "type": "LineString"}, "properties": {"timestamp": "2024-08-28T19:02:00", "type": "ride", "rideType": "UberX", "pickupAddress": "1211 N Damen Ave, Chicago, IL 60622, US", "dropoffAddress": "W Diversey Pkwy, Chicago, IL 60647, US", "basePay": "7.88", "surge": "0.00", "tip": "5.00", "earnings": "12.88", "duration": "988", "distance": "2.20", "rideStartTime": "August 28, 2024 at 07:02 PM", "rideEndTime": "August 28, 2024 at 07:18 PM"}}, {"type": "Feature", "geometry": {"coordinates": [[-87.65822, 41.932567], [-87.683979, 41.932222], [-87.684147, 41.931491], [-87.687968, 41.928544], [-87.689255, 41.928366], [-87.690326, 41.928531], [-87.693879, 41.928496], [-87.693886, 41.928751], [-87.69452, 41.928744]], "type": "LineString"}, "properties": {"timestamp": "2024-08-28T19:13:30", "type": "transition"}}, {"type": "Feature", "geometry": {"coordinates": [[-87.69452, 41.928744], [-87.695111, 41.928738], [-87.695104, 41.928487], [-87.690326, 41.928531], [-87.689255, 41.928366], [-87.687968, 41.928544], [-87.684147, 41.931491], [-87.683979, 41.932222], [-87.653863, 41.932636], [-87.654016, 41.937175], [-87.653552, 41.937186], [-87.65355, 41.937074]], "type": "LineString"}, "properties": {"timestamp": "2024-08-28T19:13:30", "type": "ride", "rideType": "UberX", "pickupAddress": "W Logan Blvd, Chicago, IL 60647-2115, US", "dropoffAddress": "N Clark St, Chicago, IL 60657, US", "basePay": "6.82", "surge": "0.00", "tip": "3.00", "earnings": "9.82", "duration": "1049", "distance": "2.80", "rideStartTime": "August 28, 2024 at 07:13 PM", "rideEndTime": "August 28, 2024 at 07:30 PM"}}, {"type": "Feature", "geometry": {"coordinates": [[-87.65355, 41.937074], [-87.653552, 41.937186], [-87.654016, 41.937175], [-87.654106, 41.939918], [-87.658974, 41.939838], [-87.659122, 41.945319], [-87.664502, 41.945239]], "type": "LineString"}, "properties": {"timestamp": "2024-08-28T19:35:58", "type": "transition"}}, {"type": "Feature", "geometry": {"coordinates": [[-87.664502, 41.945239], [-87.663953, 41.945247], [-87.663682, 41.936111], [-87.663209, 41.935776]], "type": "LineString"}, "properties": {"timestamp": "2024-08-28T19:35:58", "type": "ride", "rideType": "UberX", "pickupAddress": "W Cornelia Ave, Chicago, IL 60657-1505, US", "dropoffAddress": "N Lincoln Ave, Chicago, IL 60657-1107, US", "basePay": "3.28", "surge": "0.00", "tip": "0.00", "earnings": "3.28", "duration": "293", "distance": "0.90", "rideStartTime": "August 28, 2024 at 07:35 PM", "rideEndTime": "August 28, 2024 at 07:40 PM"}}, {"type": "Feature", "geometry": {"coordinates": [[-87.663209, 41.935776], [-87.663682, 41.936111], [-87.663649, 41.93521], [-87.668549, 41.935144], [-87.668473, 41.932963]], "type": "LineString"}, "properties": {"timestamp": "2024-08-28T19:39:19", "type": "transition"}}, {"type": "Feature", "geometry": {"coordinates": [[-87.668473, 41.932963], [-87.668452, 41.9324], [-87.678134, 41.932278], [-87.677893, 41.925026], [-87.681912, 41.924981], [-87.685177, 41.926707], [-87.709664, 41.940439], [-87.715161, 41.942387], [-87.716453, 41.943551], [-87.71887, 41.947406], [-87.723791, 41.950079], [-87.727575, 41.952511], [-87.727814, 41.960957], [-87.729042, 41.960944], [-87.729046, 41.961132]], "type": "LineString"}, "properties": {"timestamp": "2024-08-28T19:39:19", "type": "ride", "rideType": "Share", "pickupAddress": "N Ashland Ave, Chicago, IL 60657, US", "dropoffAddress": "N Keystone Ave, Chicago, IL 60630-4308, US", "basePay": "9.45", "surge": "0.00", "tip": "0.00", "earnings": "9.45", "duration": "1452", "distance": "4.70", "rideStartTime": "August 28, 2024 at 07:39 PM", "rideEndTime": "August 28, 2024 at 08:03 PM"}}, {"type": "Feature", "geometry": {"coordinates": [[-87.729046, 41.961132], [-87.729042, 41.960944], [-87.727814, 41.960957], [-87.726455, 41.92266], [-87.72708, 41.92265], [-87.726291, 41.902679], [-87.733686, 41.902557], [-87.733699, 41.903012], [-87.733404, 41.903016]], "type": "LineString"}, "properties": {"timestamp": "2024-08-28T20:15:41", "type": "transition"}}, {"type": "Feature", "geometry": {"coordinates": [[-87.733404, 41.903016], [-87.733699, 41.903012], [-87.733884, 41.909781], [-87.71669, 41.909987], [-87.717134, 41.930091], [-87.718374, 41.930086], [-87.718419, 41.931664]], "type": "LineString"}, "properties": {"timestamp": "2024-08-28T20:15:41", "type": "ride", "rideType": "UberX", "pickupAddress": "N Kimball Ave, Chicago, IL 60625, US", "dropoffAddress": "N Monticello Ave, Chicago, IL 60625-5618, US", "basePay": "4.48", "surge": "0.00", "tip": "1.00", "earnings": "5.48", "duration": "262", "distance": "0.50", "rideStartTime": "August 28, 2024 at 08:15 PM", "rideEndTime": "August 28, 2024 at 08:20 PM"}}, {"type": "Feature", "geometry": {"coordinates": [[-87.718419, 41.931664], [-87.718427, 41.93191], [-87.687832, 41.932179], [-87.688245, 41.946744], [-87.67359, 41.946929], [-87.673716, 41.950579], [-87.669671, 41.950633]], "type": "LineString"}, "properties": {"timestamp": "2024-08-29T12:26:00", "type": "transition"}}]}