{"type": "FeatureCollection", "features": [{"type": "Feature", "geometry": {"coordinates": [[-87.643211, 41.897708], [-87.642946, 41.897316], [-87.642947, 41.896481], [-87.654734, 41.896269], [-87.655808, 41.89501], [-87.657675, 41.89596], [-87.65932, 41.898217], [-87.660805, 41.901753], [-87.661536, 41.907216], [-87.664439, 41.910145], [-87.668818, 41.916712], [-87.675191, 41.920831], [-87.677815, 41.922669], [-87.678349, 41.939586], [-87.673369, 41.939644]], "type": "LineString"}, "properties": {"timestamp": "2024-09-05T09:07:22", "type": "ride"}}, {"type": "Feature", "geometry": {"coordinates": [[-87.673369, 41.939644], [-87.639537, 41.940119], [-87.639435, 41.936919]], "type": "LineString"}, "properties": {"timestamp": "2024-09-05T09:19:57", "type": "transition"}}, {"type": "Feature", "geometry": {"coordinates": [[-87.639435, 41.936919], [-87.639537, 41.940119], [-87.638796, 41.940268], [-87.638606, 41.939931], [-87.634194, 41.936955], [-87.632453, 41.934639], [-87.632048, 41.928427], [-87.629189, 41.918735], [-87.62605, 41.911998], [-87.62421, 41.902733], [-87.62264, 41.901491], [-87.619617, 41.900898], [-87.614304, 41.892985], [-87.614127, 41.884928], [-87.61714, 41.882436], [-87.617506, 41.88092], [-87.624244, 41.880838], [-87.624206, 41.881322], [-87.624508, 41.882115], [-87.632362, 41.881953]], "type": "LineString"}, "properties": {"timestamp": "2024-09-05T09:19:57", "type": "ride"}}, {"type": "Feature", "geometry": {"coordinates": [[-87.632362, 41.881953], [-87.64573, 41.881801], [-87.646594, 41.887382], [-87.651689, 41.891702], [-87.65868, 41.896836], [-87.66137, 41.906646], [-87.670146, 41.917654], [-87.709927, 41.940372], [-87.715306, 41.94215], [-87.719592, 41.947613], [-87.741635, 41.95982], [-87.746287, 41.963594], [-87.746614, 41.980044], [-87.751348, 41.987222], [-87.748777, 42.008181], [-87.75175, 42.013083], [-87.764685, 42.020691], [-87.768078, 42.024765], [-87.768407, 42.033299], [-87.764702, 42.038593], [-87.759717, 42.040844], [-87.699142, 42.04112], [-87.699093, 42.044212], [-87.695616, 42.044279]], "type": "LineString"}, "properties": {"timestamp": "2024-09-06T14:06:57", "type": "transition"}}]}