{"type": "FeatureCollection", "features": [{"type": "Feature", "geometry": {"coordinates": [[-87.673501, 41.98069], [-87.669792, 41.980742], [-87.669477, 41.968876], [-87.659673, 41.969021], [-87.656894, 41.964503]], "type": "LineString"}, "properties": {}}, {"type": "Feature", "geometry": {"coordinates": [[-87.656894, 41.964503], [-87.657469, 41.965401], [-87.648611, 41.965499], [-87.646428, 41.965774], [-87.647437, 41.967291], [-87.649207, 41.974381], [-87.652386, 41.98144], [-87.652765, 41.984866], [-87.653488, 41.985504], [-87.655253, 41.985556], [-87.655324, 41.987812]], "type": "LineString"}, "properties": {}}, {"type": "Feature", "geometry": {"coordinates": [[-87.655324, 41.987812], [-87.655253, 41.985556], [-87.653749, 41.985549], [-87.653157, 41.984999], [-87.652706, 41.981232], [-87.649277, 41.973607], [-87.646868, 41.963721], [-87.647093, 41.962397], [-87.646878, 41.961908], [-87.665949, 41.961638], [-87.665071, 41.959336], [-87.664488, 41.959319], [-87.664187, 41.960581]], "type": "LineString"}, "properties": {}}, {"type": "Feature", "geometry": {"coordinates": [[-87.664187, 41.960581], [-87.664488, 41.959319], [-87.665071, 41.959336], [-87.664292, 41.957682], [-87.664054, 41.948897], [-87.665272, 41.948878], [-87.665267, 41.948734]], "type": "LineString"}, "properties": {}}, {"type": "Feature", "geometry": {"coordinates": [[-87.665267, 41.948734], [-87.665227, 41.947064], [-87.717815, 41.94651], [-87.719292, 41.947883], [-87.742619, 41.960998], [-87.752403, 41.966033], [-87.75503, 41.967937], [-87.757623, 41.967938], [-87.758399, 41.968431]], "type": "LineString"}, "properties": {}}, {"type": "Feature", "geometry": {"coordinates": [[-87.758399, 41.968431], [-87.757622, 41.967875], [-87.747723, 41.968033], [-87.747918, 41.972896], [-87.747761, 41.972794], [-87.747223, 41.966563], [-87.745961, 41.963113], [-87.742125, 41.960129], [-87.719592, 41.947613], [-87.715306, 41.94215], [-87.710219, 41.940524], [-87.698173, 41.933659], [-87.687291, 41.927358], [-87.684125, 41.925223], [-87.687645, 41.924902], [-87.687413, 41.917587], [-87.702438, 41.917446], [-87.702344, 41.914235]], "type": "LineString"}, "properties": {}}, {"type": "Feature", "geometry": {"coordinates": [[-87.702344, 41.914235], [-87.702283, 41.912], [-87.701932, 41.912147], [-87.702101, 41.91745], [-87.687413, 41.917587], [-87.687508, 41.920607], [-87.684471, 41.920667]], "type": "LineString"}, "properties": {}}, {"type": "Feature", "geometry": {"coordinates": [[-87.684471, 41.920667], [-87.68262, 41.920704], [-87.682641, 41.92131], [-87.677255, 41.921395], [-87.671115, 41.918139], [-87.668247, 41.915543], [-87.664752, 41.909975], [-87.661559, 41.906635], [-87.661131, 41.901587], [-87.659049, 41.896968], [-87.647531, 41.888343], [-87.646219, 41.885929], [-87.645999, 41.881827], [-87.646134, 41.880956], [-87.646145, 41.879569], [-87.646166, 41.878121], [-87.646815, 41.876334], [-87.649135, 41.875728], [-87.657603, 41.876197], [-87.688313, 41.875763], [-87.692409, 41.875862], [-87.696151, 41.875983], [-87.695753, 41.861327], [-87.705425, 41.857973], [-87.705261, 41.851772], [-87.706469, 41.851757], [-87.706362, 41.848125], [-87.705755, 41.848132], [-87.705748, 41.847871]], "type": "LineString"}, "properties": {}}, {"type": "Feature", "geometry": {"coordinates": [[-87.705748, 41.847871], [-87.705755, 41.848132], [-87.705157, 41.848139], [-87.704642, 41.829034], [-87.699332, 41.830574], [-87.680385, 41.836711], [-87.66766, 41.83747], [-87.651867, 41.844887], [-87.642887, 41.846989], [-87.616851, 41.847976], [-87.613392, 41.848153], [-87.612168, 41.84938], [-87.619244, 41.8661], [-87.617003, 41.869799], [-87.617167, 41.881825], [-87.613645, 41.884762], [-87.614041, 41.892878], [-87.619441, 41.900921], [-87.624048, 41.902893], [-87.631799, 41.928213], [-87.632273, 41.934701], [-87.638962, 41.941399], [-87.644572, 41.952992], [-87.644162, 41.954667], [-87.645235, 41.954634], [-87.644996, 41.953061], [-87.650165, 41.952741]], "type": "LineString"}, "properties": {}}, {"type": "Feature", "geometry": {"coordinates": [[-87.650165, 41.952741], [-87.654491, 41.952678], [-87.654643, 41.958427], [-87.656021, 41.958406], [-87.656157, 41.958251], [-87.656894, 41.958194]], "type": "LineString"}, "properties": {}}, {"type": "Feature", "geometry": {"coordinates": [[-87.656894, 41.958194], [-87.656767, 41.95446], [-87.71933, 41.953825], [-87.733633, 41.963642], [-87.73281, 41.96431], [-87.732937, 41.964399]], "type": "LineString"}, "properties": {}}, {"type": "Feature", "geometry": {"coordinates": [[-87.732937, 41.964399], [-87.729055, 41.961704], [-87.729042, 41.960944], [-87.727814, 41.960957], [-87.727167, 41.938375]], "type": "LineString"}, "properties": {}}, {"type": "Feature", "geometry": {"coordinates": [[-87.727167, 41.938375], [-87.727187, 41.939096], [-87.817738, 41.937915], [-87.817616, 41.934301], [-87.820654, 41.93424], [-87.82067, 41.934634]], "type": "LineString"}, "properties": {}}, {"type": "Feature", "geometry": {"coordinates": [[-87.82067, 41.934634], [-87.820654, 41.93424], [-87.81151, 41.934421], [-87.811185, 41.924776], [-87.803157, 41.923552], [-87.789403, 41.92364], [-87.712101, 41.92467], [-87.71215, 41.926487], [-87.709358, 41.926518], [-87.709305, 41.925019]], "type": "LineString"}, "properties": {}}, {"type": "Feature", "geometry": {"coordinates": [[-87.709305, 41.925019], [-87.709292, 41.9247], [-87.66815, 41.925151], [-87.668676, 41.942431], [-87.663884, 41.942498], [-87.663907, 41.943419], [-87.665475, 41.943396]], "type": "LineString"}, "properties": {}}, {"type": "Feature", "geometry": {"coordinates": [[-87.665475, 41.943396], [-87.67845, 41.943223], [-87.678527, 41.946063]], "type": "LineString"}, "properties": {}}, {"type": "Feature", "geometry": {"coordinates": [[-87.678527, 41.946063], [-87.67855, 41.946869], [-87.673726, 41.946928], [-87.668729, 41.939809], [-87.668655, 41.93788], [-87.669017, 41.937875]], "type": "LineString"}, "properties": {}}, {"type": "Feature", "geometry": {"coordinates": [[-87.669017, 41.937875], [-87.671019, 41.937845], [-87.670952, 41.936022], [-87.663682, 41.936111], [-87.653741, 41.929016], [-87.647955, 41.929095]], "type": "LineString"}, "properties": {}}, {"type": "Feature", "geometry": {"coordinates": [[-87.647955, 41.929095], [-87.648892, 41.929091], [-87.648766, 41.925453], [-87.638503, 41.918106]], "type": "LineString"}, "properties": {}}, {"type": "Feature", "geometry": {"coordinates": [[-87.638503, 41.918106], [-87.638503, 41.918106]], "type": "LineString"}, "properties": {}}, {"type": "Feature", "geometry": {"coordinates": [[-87.638503, 41.918106], [-87.638808, 41.918322], [-87.638583, 41.911164], [-87.664445, 41.910674], [-87.668091, 41.915886], [-87.670574, 41.91815], [-87.709664, 41.940439], [-87.715161, 41.942387], [-87.71887, 41.947406], [-87.723791, 41.950079], [-87.727575, 41.952511], [-87.727612, 41.95365], [-87.719156, 41.953712], [-87.718284, 41.953111]], "type": "LineString"}, "properties": {}}, {"type": "Feature", "geometry": {"coordinates": [[-87.718284, 41.953111], [-87.705317, 41.944219], [-87.705281, 41.943085]], "type": "LineString"}, "properties": {}}, {"type": "Feature", "geometry": {"coordinates": [[-87.705281, 41.943085], [-87.70527, 41.942755], [-87.703229, 41.942766], [-87.698314, 41.939401], [-87.663815, 41.939759], [-87.663884, 41.942498], [-87.663517, 41.942503]], "type": "LineString"}, "properties": {}}, {"type": "Feature", "geometry": {"coordinates": [[-87.663517, 41.942503], [-87.663884, 41.942498], [-87.663758, 41.938211]], "type": "LineString"}, "properties": {}}, {"type": "Feature", "geometry": {"coordinates": [[-87.663758, 41.938211], [-87.663649, 41.93521], [-87.668549, 41.935144], [-87.667087, 41.886928], [-87.673532, 41.886827]], "type": "LineString"}, "properties": {}}, {"type": "Feature", "geometry": {"coordinates": [[-87.673532, 41.886827], [-87.666966, 41.886929], [-87.667203, 41.89516], [-87.662558, 41.895231]], "type": "LineString"}, "properties": {}}, {"type": "Feature", "geometry": {"coordinates": [[-87.662558, 41.895231], [-87.662372, 41.895233], [-87.66251, 41.899796], [-87.674089, 41.899597], [-87.67412, 41.90052]], "type": "LineString"}, "properties": {}}, {"type": "Feature", "geometry": {"coordinates": [[-87.67412, 41.90052], [-87.674089, 41.899597], [-87.677161, 41.899544], [-87.677385, 41.907145], [-87.67857, 41.907124]], "type": "LineString"}, "properties": {}}]}